{"type":"FeatureCollection","area_id":"TR-09","name_tr":"Aydın","source_id":"endeksa","licence":null,"retrieved_at":"2026-08-23","features":[{"type":"Feature","properties":{"area_id":"TR-09-005","name_tr":"Efeler","area_level":"district","parent_id":"TR-09","endeksa_id":2076},"geometry":{"coordinates":[[[27.74116,37.865549],[27.75138,37.847956],[27.748408,37.833475],[27.769385,37.823032],[27.776756,37.806729],[27.774414,37.796938],[27.779687,37.795895],[27.781651,37.78505],[27.789896,37.784131],[27.782691,37.774946],[27.789434,37.771445],[27.787291,37.766352],[27.792039,37.761681],[27.795048,37.768953],[27.808903,37.771901],[27.840292,37.761254],[27.863561,37.73021],[27.873414,37.725381],[27.90515,37.70764],[27.93605,37.733213],[27.964261,37.735681],[27.968351,37.743032],[27.994377,37.75213],[28.000929,37.760774],[27.994686,37.769087],[28.039425,37.778992],[28.052871,37.771224],[28.061536,37.744615],[28.08029,37.743099],[28.077458,37.736841],[28.086862,37.732884],[28.101789,37.732632],[28.094174,37.741898],[28.098753,37.75008],[28.095289,37.75703],[28.104214,37.767603],[28.102957,37.777899],[28.117733,37.788831],[28.094468,37.847205],[28.088436,37.844033],[28.093187,37.841078],[28.089826,37.838221],[28.071921,37.838369],[28.071284,37.831458],[28.064601,37.833308],[28.054275,37.821563],[28.033962,37.815372],[28.004712,37.81661],[27.98949,37.824683],[27.998791,37.839137],[27.99875,37.86044],[28.029899,37.859077],[28.041627,37.872615],[28.039902,37.878874],[28.018936,37.885139],[28.027843,37.900652],[28.02251,37.909289],[28.001272,37.909136],[27.991231,37.926028],[28.010892,37.926512],[28.016346,37.93286],[28.017369,37.946226],[28.004868,37.959137],[28.007363,37.965783],[27.965857,37.999525],[27.956597,37.99484],[27.900342,37.993328],[27.880599,37.97901],[27.847565,37.971903],[27.8372,37.953067],[27.828296,37.953796],[27.825147,37.947327],[27.809161,37.949559],[27.797835,37.932907],[27.776505,37.923476],[27.769813,37.907081],[27.776856,37.891973],[27.769252,37.884317],[27.758663,37.883474],[27.74116,37.865549]]],"type":"Polygon"}},{"type":"Feature","properties":{"area_id":"TR-09-001","name_tr":"Bozdoğan","area_level":"district","parent_id":"TR-09","endeksa_id":1206},"geometry":{"coordinates":[[[28.174757,37.709582],[28.19949,37.693969],[28.196179,37.687287],[28.201917,37.670412],[28.216105,37.654208],[28.242334,37.645544],[28.250263,37.59518],[28.298458,37.567771],[28.293784,37.553757],[28.277551,37.536812],[28.284711,37.529495],[28.286826,37.512586],[28.311949,37.513236],[28.313426,37.521625],[28.331251,37.524663],[28.338512,37.534072],[28.351049,37.521255],[28.359966,37.519889],[28.39991,37.526722],[28.396299,37.516633],[28.422965,37.505479],[28.470264,37.513342],[28.461105,37.502015],[28.463553,37.49667],[28.471211,37.490895],[28.486093,37.493951],[28.50013,37.462814],[28.534944,37.455821],[28.569105,37.464458],[28.575369,37.469064],[28.582261,37.49176],[28.595648,37.493985],[28.595168,37.500944],[28.599583,37.498424],[28.600358,37.502238],[28.605077,37.49601],[28.602241,37.511693],[28.586766,37.521713],[28.558801,37.529079],[28.567455,37.53996],[28.558972,37.544566],[28.572756,37.568615],[28.53891,37.577658],[28.53013,37.588057],[28.536479,37.594111],[28.534487,37.602823],[28.554037,37.609285],[28.568933,37.640626],[28.561794,37.644539],[28.562261,37.650221],[28.580034,37.681544],[28.563585,37.696843],[28.549378,37.695972],[28.546344,37.710208],[28.521702,37.744807],[28.511561,37.751595],[28.46969,37.751039],[28.459465,37.757636],[28.45943,37.7635],[28.435573,37.746818],[28.424182,37.75197],[28.400849,37.741056],[28.364768,37.742755],[28.352068,37.737896],[28.339137,37.747518],[28.335226,37.758327],[28.340568,37.780738],[28.334223,37.78877],[28.318584,37.793076],[28.321294,37.80282],[28.314202,37.808698],[28.31856,37.824921],[28.306811,37.836604],[28.294324,37.834328],[28.289987,37.820252],[28.272182,37.812635],[28.266566,37.802401],[28.266279,37.782274],[28.276928,37.763389],[28.267408,37.755475],[28.264189,37.719352],[28.201936,37.732742],[28.174757,37.709582]]],"type":"Polygon"}},{"type":"Feature","properties":{"area_id":"TR-09-003","name_tr":"Çine","area_level":"district","parent_id":"TR-09","endeksa_id":1256},"geometry":{"coordinates":[[[27.822737,37.66639],[27.82345,37.654935],[27.862914,37.656019],[27.862967,37.64791],[27.889806,37.632657],[27.897007,37.618195],[27.914811,37.610548],[27.917639,37.602176],[27.91223,37.593191],[27.928044,37.58299],[27.929506,37.568659],[27.924235,37.562888],[27.929435,37.554671],[27.922443,37.547608],[27.915318,37.550249],[27.898728,37.542564],[27.90498,37.518205],[27.902831,37.507788],[27.89273,37.499015],[27.893269,37.491114],[27.939707,37.489362],[27.937416,37.482665],[27.944961,37.474426],[27.940726,37.466869],[27.953126,37.464422],[27.962601,37.464571],[27.97086,37.447393],[28.001619,37.473905],[28.0314,37.476749],[28.066757,37.47169],[28.073783,37.465056],[28.085697,37.468572],[28.09247,37.458156],[28.137064,37.458977],[28.148965,37.454088],[28.157648,37.468942],[28.148869,37.486733],[28.152338,37.489119],[28.159047,37.489387],[28.171199,37.477846],[28.203877,37.477007],[28.228697,37.493823],[28.222061,37.522153],[28.236698,37.524969],[28.250846,37.536468],[28.245798,37.565339],[28.255555,37.581055],[28.250263,37.59518],[28.242334,37.645544],[28.216105,37.654208],[28.201917,37.670412],[28.196179,37.687287],[28.181901,37.689164],[28.170069,37.697896],[28.128615,37.704744],[28.101789,37.732632],[28.086862,37.732884],[28.077458,37.736841],[28.08029,37.743099],[28.061536,37.744615],[28.052871,37.771224],[28.039425,37.778992],[27.994686,37.769087],[28.000929,37.760774],[27.994377,37.75213],[27.968351,37.743032],[27.964261,37.735681],[27.93605,37.733213],[27.90515,37.70764],[27.873414,37.725381],[27.836573,37.698696],[27.837227,37.676655],[27.822737,37.66639]]],"type":"Polygon"}},{"type":"Feature","properties":{"area_id":"TR-09-006","name_tr":"Germencik","area_level":"district","parent_id":"TR-09","endeksa_id":1348},"geometry":{"coordinates":[[[27.424692,37.873472],[27.437697,37.86633],[27.440985,37.840304],[27.480958,37.833217],[27.510511,37.839265],[27.510868,37.826041],[27.499273,37.818415],[27.500061,37.80815],[27.509407,37.811738],[27.50298,37.805196],[27.505095,37.799241],[27.508778,37.805128],[27.509189,37.799096],[27.528002,37.799767],[27.533063,37.795348],[27.523791,37.794677],[27.531616,37.79043],[27.537809,37.798644],[27.540475,37.790883],[27.536036,37.785021],[27.552662,37.792903],[27.562042,37.792438],[27.548917,37.797653],[27.553535,37.80469],[27.577029,37.795625],[27.579525,37.805562],[27.594791,37.806069],[27.58934,37.793849],[27.603304,37.80465],[27.618622,37.807508],[27.614947,37.791527],[27.619292,37.789447],[27.622083,37.798114],[27.621656,37.790921],[27.639875,37.785229],[27.646487,37.788176],[27.634693,37.792735],[27.642276,37.800961],[27.64334,37.818007],[27.647855,37.818298],[27.641659,37.847763],[27.647652,37.849809],[27.647056,37.85839],[27.661715,37.858722],[27.66288,37.877308],[27.669161,37.876918],[27.674224,37.89098],[27.666868,37.89219],[27.662512,37.914821],[27.685178,37.919294],[27.682248,37.924561],[27.694038,37.931403],[27.692287,37.94296],[27.701744,37.950709],[27.697705,37.959837],[27.703869,37.968576],[27.692267,37.98002],[27.64908,37.959659],[27.64206,37.967945],[27.622662,37.972346],[27.622307,38.007441],[27.584234,38.003737],[27.559498,38.010464],[27.544623,38.003706],[27.524109,38.00789],[27.508465,37.9966],[27.49875,37.976925],[27.484768,37.978162],[27.474026,37.962607],[27.492826,37.958984],[27.49483,37.937698],[27.502064,37.93751],[27.486448,37.929286],[27.473187,37.932468],[27.456055,37.926445],[27.45919,37.896293],[27.424692,37.873472]]],"type":"Polygon"}},{"type":"Feature","properties":{"area_id":"TR-09-008","name_tr":"Karacasu","area_level":"district","parent_id":"TR-09","endeksa_id":1435},"geometry":{"coordinates":[[[28.446103,37.824994],[28.443721,37.816317],[28.480438,37.798539],[28.482325,37.781556],[28.45943,37.7635],[28.459465,37.757636],[28.46969,37.751039],[28.511561,37.751595],[28.521702,37.744807],[28.546344,37.710208],[28.549378,37.695972],[28.563585,37.696843],[28.580034,37.681544],[28.562261,37.650221],[28.561794,37.644539],[28.568933,37.640626],[28.554037,37.609285],[28.534487,37.602823],[28.536479,37.594111],[28.53013,37.588057],[28.53891,37.577658],[28.572756,37.568615],[28.558972,37.544566],[28.567455,37.53996],[28.558801,37.529079],[28.586766,37.521713],[28.588709,37.534045],[28.582208,37.549727],[28.594754,37.542498],[28.654004,37.541951],[28.678502,37.532187],[28.687196,37.5639],[28.677212,37.576825],[28.687685,37.604696],[28.711086,37.612506],[28.725669,37.604422],[28.746384,37.607341],[28.736747,37.620161],[28.770414,37.635943],[28.765392,37.659378],[28.778924,37.660732],[28.776038,37.669329],[28.792389,37.69385],[28.794287,37.718041],[28.810976,37.710568],[28.833723,37.710856],[28.862501,37.721446],[28.891123,37.709889],[28.904988,37.710847],[28.903458,37.71269],[28.878776,37.73008],[28.860686,37.753399],[28.835861,37.767695],[28.787861,37.782207],[28.769452,37.799331],[28.757852,37.810232],[28.761002,37.813559],[28.749199,37.842811],[28.732077,37.836155],[28.66818,37.844364],[28.644566,37.863763],[28.647703,37.866186],[28.641127,37.87666],[28.63072,37.879368],[28.617787,37.870453],[28.611305,37.852539],[28.587222,37.857601],[28.575311,37.86609],[28.577641,37.868986],[28.552725,37.87286],[28.546332,37.868483],[28.55238,37.855625],[28.540648,37.847179],[28.48412,37.833478],[28.46345,37.822634],[28.446103,37.824994]]],"type":"Polygon"}},{"type":"Feature","properties":{"area_id":"TR-09-010","name_tr":"Koçarlı","area_level":"district","parent_id":"TR-09","endeksa_id":1479},"geometry":{"coordinates":[[[27.49786,37.760968],[27.510602,37.75243],[27.53297,37.757542],[27.540017,37.742412],[27.555009,37.7327],[27.557073,37.72103],[27.608448,37.723003],[27.60629,37.705019],[27.612233,37.703837],[27.620842,37.679102],[27.629388,37.673164],[27.626878,37.66386],[27.633453,37.65899],[27.632916,37.641714],[27.640757,37.626364],[27.663915,37.625093],[27.674821,37.617923],[27.665717,37.595186],[27.595578,37.510931],[27.650112,37.502446],[27.680159,37.489935],[27.684757,37.504452],[27.715974,37.520695],[27.721918,37.53136],[27.724731,37.543924],[27.714557,37.540766],[27.686566,37.546528],[27.706741,37.571644],[27.727828,37.580957],[27.733804,37.57852],[27.737571,37.590639],[27.762197,37.596529],[27.756617,37.615556],[27.771755,37.627566],[27.780276,37.644367],[27.773882,37.659409],[27.79016,37.664795],[27.796898,37.656655],[27.82345,37.654935],[27.822737,37.66639],[27.837227,37.676655],[27.836573,37.698696],[27.873414,37.725381],[27.863561,37.73021],[27.840292,37.761254],[27.808903,37.771901],[27.795048,37.768953],[27.792039,37.761681],[27.787291,37.766352],[27.748558,37.772184],[27.753968,37.785144],[27.742343,37.784563],[27.760614,37.793291],[27.728791,37.794188],[27.728465,37.808469],[27.716545,37.800427],[27.72188,37.809826],[27.687943,37.807273],[27.685344,37.799445],[27.678093,37.804658],[27.674522,37.798991],[27.664642,37.804268],[27.669221,37.817865],[27.659927,37.815257],[27.654173,37.799915],[27.642276,37.800961],[27.634693,37.792735],[27.646487,37.788176],[27.639875,37.785229],[27.621656,37.790921],[27.622083,37.798114],[27.619292,37.789447],[27.614947,37.791527],[27.618622,37.807508],[27.603304,37.80465],[27.58934,37.793849],[27.594791,37.806069],[27.579525,37.805562],[27.577029,37.795625],[27.553535,37.80469],[27.548917,37.797653],[27.562042,37.792438],[27.552662,37.792903],[27.543747,37.788055],[27.555801,37.782963],[27.554379,37.775796],[27.502598,37.772101],[27.49786,37.760968]]],"type":"Polygon"}},{"type":"Feature","properties":{"area_id":"TR-09-012","name_tr":"Kuşadası","area_level":"district","parent_id":"TR-09","endeksa_id":1497},"geometry":{"coordinates":[[[27.003062,37.659673],[27.004382,37.657879],[27.004466,37.657744],[27.004461,37.657345],[27.005746,37.656072],[27.006355,37.655414],[27.00639,37.654853],[27.006835,37.654935],[27.019258,37.654861],[27.013464,37.64943],[27.013793,37.649213],[27.017143,37.650443],[27.016678,37.647897],[27.016675,37.647883],[27.01677,37.647506],[27.017625,37.64771],[27.017987,37.647671],[27.018273,37.647462],[27.020268,37.647731],[27.021645,37.648002],[27.022043,37.648119],[27.02837,37.651162],[27.028321,37.649553],[27.032355,37.64977],[27.032776,37.649735],[27.041779,37.646318],[27.049898,37.643211],[27.050091,37.643201],[27.056647,37.641367],[27.056535,37.640993],[27.057188,37.641289],[27.081476,37.656012],[27.108243,37.661053],[27.138011,37.656483],[27.150594,37.661375],[27.165052,37.655351],[27.213556,37.664712],[27.217869,37.657548],[27.229938,37.659399],[27.328211,37.695663],[27.335573,37.716652],[27.316062,37.736736],[27.316865,37.747332],[27.331685,37.754797],[27.340002,37.766887],[27.351297,37.768891],[27.358042,37.791796],[27.376052,37.789825],[27.390806,37.799069],[27.399637,37.811526],[27.393258,37.816885],[27.387144,37.816826],[27.375526,37.834605],[27.391703,37.850713],[27.379366,37.877426],[27.367249,37.871914],[27.357534,37.881211],[27.316882,37.872203],[27.27418,37.922004],[27.273788,37.922069],[27.269365,37.922463],[27.266412,37.92148],[27.265603,37.919199],[27.265185,37.918475],[27.26509,37.918296],[27.264616,37.917325],[27.263287,37.916379],[27.263706,37.915164],[27.263433,37.914492],[27.261048,37.912642],[27.262718,37.912669],[27.262275,37.909835],[27.261665,37.909833],[27.262208,37.910371],[27.262208,37.910574],[27.261471,37.909797],[27.262679,37.908759],[27.263797,37.907071],[27.264362,37.905444],[27.267087,37.905117],[27.268472,37.906354],[27.269035,37.906498],[27.272642,37.898737],[27.27247,37.897653],[27.271996,37.897669],[27.271945,37.897612],[27.272126,37.897469],[27.271388,37.897074],[27.26756,37.894316],[27.267738,37.894015],[27.265732,37.891245],[27.263657,37.888925],[27.264882,37.885933],[27.265317,37.883971],[27.265913,37.880853],[27.266164,37.880551],[27.265915,37.880106],[27.265546,37.877555],[27.26549,37.877272],[27.265485,37.87725],[27.265409,37.876868],[27.265395,37.8768],[27.265365,37.876651],[27.260297,37.872745],[27.261096,37.863488],[27.259854,37.862764],[27.259299,37.862676],[27.258381,37.862381],[27.256497,37.861477],[27.255405,37.861641],[27.253987,37.86473],[27.254532,37.861426],[27.253276,37.861019],[27.246548,37.864053],[27.247647,37.859206],[27.241278,37.859786],[27.242083,37.843438],[27.240619,37.842066],[27.240066,37.842317],[27.238938,37.841962],[27.23712,37.84111],[27.236005,37.839964],[27.236893,37.839016],[27.238164,37.835878],[27.238659,37.834839],[27.239486,37.833167],[27.239046,37.832446],[27.240793,37.831025],[27.242301,37.828912],[27.242328,37.828875],[27.24275,37.828331],[27.243277,37.824983],[27.246851,37.825781],[27.248656,37.824897],[27.260499,37.823425],[27.269471,37.811267],[27.26953,37.808398],[27.269214,37.806553],[27.269202,37.80641],[27.268782,37.801518],[27.262877,37.772355],[27.262716,37.77174],[27.239451,37.729846],[27.206043,37.708381],[27.204398,37.707855],[27.203934,37.707924],[27.196541,37.70741],[27.191972,37.705293],[27.190545,37.704824],[27.159098,37.69848],[27.158396,37.69834],[27.154918,37.697625],[27.154235,37.696512],[27.153042,37.695043],[27.152842,37.694714],[27.152292,37.694299],[27.144226,37.69205],[27.126855,37.689888],[27.123517,37.689544],[27.122933,37.689081],[27.096195,37.68082],[27.095598,37.680672],[27.095313,37.680827],[27.088936,37.681504],[27.088565,37.681505],[27.088547,37.681611],[27.087898,37.681821],[27.087457,37.681981],[27.085625,37.682909],[27.084818,37.682893],[27.083694,37.68322],[27.083255,37.68334],[27.082973,37.683413],[27.082093,37.683724],[27.080139,37.683923],[27.070558,37.684706],[27.064866,37.686418],[27.061223,37.683511],[27.048296,37.681118],[27.047099,37.681035],[27.047071,37.681784],[27.04647,37.6826],[27.04579,37.683741],[27.045862,37.684077],[27.044846,37.685311],[27.043214,37.685865],[27.033684,37.68943],[27.031729,37.690043],[27.029956,37.689843],[27.02885,37.689351],[27.0165,37.684917],[27.015421,37.685],[27.015077,37.683663],[27.012465,37.678795],[27.012087,37.678033],[27.010769,37.672817],[27.007737,37.669418],[27.006492,37.666994],[27.008597,37.662188],[27.003801,37.661442],[27.003062,37.659673]]],"type":"Polygon"}},{"type":"Feature","properties":{"area_id":"TR-09-013","name_tr":"Kuyucak","area_level":"district","parent_id":"TR-09","endeksa_id":1498},"geometry":{"coordinates":[[[28.421472,37.935676],[28.421489,37.923206],[28.415164,37.91467],[28.436481,37.912586],[28.435747,37.895029],[28.442579,37.885172],[28.438897,37.883817],[28.451286,37.882551],[28.451565,37.874801],[28.458524,37.875068],[28.468557,37.858251],[28.454528,37.849273],[28.455434,37.843379],[28.432203,37.83374],[28.446103,37.824994],[28.46345,37.822634],[28.48412,37.833478],[28.540648,37.847179],[28.55238,37.855625],[28.546332,37.868483],[28.552725,37.87286],[28.577641,37.868986],[28.575311,37.86609],[28.587222,37.857601],[28.611305,37.852539],[28.617787,37.870453],[28.63072,37.879368],[28.641127,37.87666],[28.647703,37.866186],[28.644566,37.863763],[28.66818,37.844364],[28.732077,37.836155],[28.749199,37.842811],[28.74855,37.890973],[28.740203,37.900928],[28.749051,37.916574],[28.740107,37.947674],[28.719766,37.949814],[28.689231,37.933917],[28.673546,37.968425],[28.673418,37.982377],[28.66269,37.986334],[28.657761,38.000504],[28.645599,38.008587],[28.652008,38.019396],[28.664731,38.019416],[28.658928,38.023967],[28.66384,38.033713],[28.691692,38.033207],[28.694762,38.037877],[28.685979,38.040958],[28.684487,38.055094],[28.692235,38.064567],[28.655194,38.063556],[28.645704,38.068789],[28.636055,38.088763],[28.608845,38.094847],[28.591943,38.08511],[28.589212,38.097528],[28.557324,38.10713],[28.547433,38.105216],[28.528159,38.105689],[28.52025,38.060801],[28.513505,38.053043],[28.497178,38.057465],[28.490591,38.015952],[28.495216,37.992895],[28.488903,37.974742],[28.479364,37.9687],[28.477984,37.955536],[28.463217,37.958299],[28.463501,37.952429],[28.44531,37.935171],[28.432215,37.931482],[28.421472,37.935676]]],"type":"Polygon"}},{"type":"Feature","properties":{"area_id":"TR-09-014","name_tr":"Nazilli","area_level":"district","parent_id":"TR-09","endeksa_id":1542},"geometry":{"coordinates":[[[28.204014,38.039279],[28.210205,38.029898],[28.213299,38.00217],[28.235485,37.973806],[28.232121,37.96847],[28.249215,37.956909],[28.253999,37.93922],[28.233555,37.924052],[28.252771,37.898952],[28.24989,37.893024],[28.262125,37.890765],[28.257919,37.879153],[28.264928,37.87114],[28.274171,37.871299],[28.276342,37.863469],[28.304674,37.860835],[28.311803,37.851794],[28.319398,37.85151],[28.306811,37.836604],[28.31856,37.824921],[28.314202,37.808698],[28.321294,37.80282],[28.318584,37.793076],[28.334223,37.78877],[28.340568,37.780738],[28.335226,37.758327],[28.339137,37.747518],[28.352068,37.737896],[28.364768,37.742755],[28.400849,37.741056],[28.424182,37.75197],[28.435573,37.746818],[28.45943,37.7635],[28.482325,37.781556],[28.480438,37.798539],[28.443721,37.816317],[28.446103,37.824994],[28.432203,37.83374],[28.455434,37.843379],[28.454528,37.849273],[28.468557,37.858251],[28.458524,37.875068],[28.451565,37.874801],[28.451286,37.882551],[28.438897,37.883817],[28.442579,37.885172],[28.435747,37.895029],[28.436481,37.912586],[28.415164,37.91467],[28.421489,37.923206],[28.421472,37.935676],[28.432215,37.931482],[28.44531,37.935171],[28.463501,37.952429],[28.463217,37.958299],[28.477984,37.955536],[28.479364,37.9687],[28.488903,37.974742],[28.495216,37.992895],[28.490591,38.015952],[28.497178,38.057465],[28.513505,38.053043],[28.52025,38.060801],[28.528159,38.105689],[28.51232,38.118591],[28.483382,38.125588],[28.46888,38.104376],[28.442264,38.095216],[28.43605,38.087729],[28.400069,38.100167],[28.38989,38.111397],[28.375438,38.107811],[28.366881,38.129034],[28.330566,38.121757],[28.331909,38.1012],[28.309218,38.092234],[28.301158,38.07798],[28.309753,38.054792],[28.29286,38.05485],[28.279297,38.033223],[28.235011,38.035401],[28.21157,38.0445],[28.204014,38.039279]]],"type":"Polygon"}},{"type":"Feature","properties":{"area_id":"TR-09-015","name_tr":"Söke","area_level":"district","parent_id":"TR-09","endeksa_id":1637},"geometry":{"coordinates":[[[[27.140257000000013,37.61840199999989],[27.13820399999992,37.60859100000014],[27.138550000000016,37.60803000000009],[27.141650000000027,37.60445499999993],[27.143712000000168,37.6024250000001],[27.151850000000092,37.59446700000007],[27.140257000000013,37.61840199999989]]],[[[27.056535000000036,37.64099300000002],[27.057891000000076,37.64121399999998],[27.062003000000125,37.64106799999999],[27.063859000000072,37.6409709999999],[27.073706000000104,37.64189099999999],[27.073746000000067,37.64188900000005],[27.076905000000078,37.64161499999988],[27.077378000000042,37.64156699999994],[27.084366999999936,37.64086400000002],[27.08504599999986,37.640795999999945],[27.090462999999986,37.640220000000014],[27.091226999999993,37.64016200000011],[27.091345000000086,37.64010500000008],[27.09674800000007,37.638831999999844],[27.097231999999813,37.63871899999997],[27.098953999999893,37.637732000000064],[27.10369700000014,37.632848000000116],[27.111217999999916,37.63253600000016],[27.111962000000126,37.63237899999984],[27.11195599999982,37.632224000000036],[27.11275599999985,37.63224900000008],[27.1134040000001,37.63216400000001],[27.113853999999904,37.63148299999998],[27.11709999999996,37.63173799999995],[27.117530000000176,37.63194500000009],[27.118690000000008,37.63143599999998],[27.119821999999907,37.63109599999995],[27.165306999999938,37.61716200000012],[27.174384999999905,37.61145500000008],[27.177615999999873,37.61088399999996],[27.17937799999987,37.60651800000007],[27.188497000000172,37.609702000000055],[27.195221000000025,37.605519999999935],[27.19490700000001,37.6098119999999],[27.220705999999826,37.582609999999896],[27.21334099999982,37.58199600000001],[27.215007999999894,37.57443600000001],[27.193790000000014,37.573774000000135],[27.189679000000154,37.56080799999991],[27.182407999999825,37.55977199999997],[27.180058999999957,37.55053100000003],[27.174921999999984,37.554751999999965],[27.17446699999996,37.54740399999992],[27.170348999999923,37.56411199999994],[27.175989999999928,37.55999100000014],[27.159961000000113,37.58542400000007],[27.16726199999987,37.568705000000016],[27.16859800000009,37.562034],[27.169071000000002,37.559857999999856],[27.16838199999999,37.553854],[27.16744000000002,37.548657999999946],[27.167324999999803,37.54785999999994],[27.167278999999827,37.547542999999976],[27.16606499999993,37.54070199999998],[27.166894999999915,37.543327999999875],[27.17082200000013,37.549386999999925],[27.16763600000014,37.54067300000001],[27.167794999999895,37.54033900000012],[27.16800299999988,37.540112000000136],[27.168992000000124,37.5401140000001],[27.17724299999985,37.54616999999989],[27.188773999999967,37.55059299999995],[27.221732000000106,37.54139799999998],[27.229986000000167,37.54574399999997],[27.224651999999963,37.54488899999992],[27.22821300000006,37.562360000000105],[27.262475999999783,37.55843399999993],[27.262442999999944,37.564750999999966],[27.278142000000106,37.56548099999984],[27.279727000000157,37.572006000000044],[27.268758000000158,37.57651899999993],[27.289232999999843,37.58366400000001],[27.317308999999952,37.559197000000104],[27.28301100000006,37.52058599999989],[27.292124999999995,37.51427200000007],[27.340537000000115,37.50355800000005],[27.381127000000063,37.51440499999983],[27.468984000000056,37.494753999999844],[27.496078999999877,37.510761000000144],[27.51158999999986,37.53761900000009],[27.544270999999917,37.529785],[27.57384700000008,37.51248299999998],[27.583907000000053,37.520504999999964],[27.59557800000006,37.51093099999992],[27.66571700000002,37.59518599999993],[27.674821000000026,37.617923000000054],[27.663914999999974,37.62509300000008],[27.640756999999887,37.626364000000116],[27.632916000000037,37.64171400000011],[27.633452999999946,37.65898999999994],[27.626878000000076,37.66385999999998],[27.62938799999989,37.673163999999964],[27.620842000000096,37.679101999999965],[27.612232999999897,37.703836999999915],[27.606290000000076,37.70501899999993],[27.608447999999907,37.72300300000015],[27.557072999999956,37.721030000000084],[27.555009000000023,37.73269999999995],[27.540016999999953,37.742412000000066],[27.53297,37.75754200000013],[27.510601999999867,37.752430000000096],[27.49786000000005,37.76096800000004],[27.502598000000024,37.77210100000011],[27.554379000000132,37.77579600000002],[27.55580100000015,37.7829629999999],[27.54374700000021,37.78805500000011],[27.552661999999927,37.79290299999988],[27.536035999999854,37.785020999999944],[27.540475000000136,37.7908829999999],[27.53780899999992,37.798643999999875],[27.531615999999946,37.79043000000004],[27.52379099999987,37.79467699999995],[27.53306299999994,37.79534799999995],[27.528001999999933,37.79976699999989],[27.509189000000003,37.79909599999993],[27.508777999999882,37.805127999999996],[27.50509499999987,37.799240999999974],[27.502980000000115,37.80519599999987],[27.509406999999964,37.81173799999995],[27.500060999999967,37.80815000000007],[27.499272999999988,37.81841499999997],[27.510867999999952,37.826041000000025],[27.510511000000076,37.8392649999999],[27.480957999999962,37.83321699999986],[27.440985,37.84030400000012],[27.393258000000095,37.816884999999935],[27.39963700000001,37.81152600000007],[27.390805999999973,37.799069000000074],[27.376051999999977,37.78982500000013],[27.358041999999877,37.79179600000014],[27.351297000000198,37.76889100000009],[27.340002000000126,37.76688699999984],[27.331684999999986,37.75479700000015],[27.316865000000142,37.747332],[27.316061999999995,37.73673600000011],[27.335572999999947,37.716651999999925],[27.32821100000006,37.69566299999995],[27.229937999999898,37.65939900000017],[27.21786900000015,37.65754800000003],[27.213556000000082,37.664711999999916],[27.16505200000015,37.655350999999925],[27.15059400000021,37.661375000000056],[27.13801099999989,37.65648300000004],[27.10824300000014,37.661053],[27.081475999999896,37.656012000000146],[27.057187999999883,37.64128899999992],[27.056535000000036,37.64099300000002]]]],"type":"MultiPolygon"}},{"type":"Feature","properties":{"area_id":"TR-09-016","name_tr":"Sultanhisar","area_level":"district","parent_id":"TR-09","endeksa_id":1640},"geometry":{"coordinates":[[[28.081821,37.912533],[28.087626,37.905681],[28.086685,37.892592],[28.109074,37.863969],[28.10689,37.852323],[28.113919,37.84214],[28.128257,37.842608],[28.127905,37.860776],[28.148002,37.849957],[28.159961,37.853486],[28.16423,37.84957],[28.160628,37.840506],[28.181309,37.836105],[28.182007,37.848253],[28.18967,37.856808],[28.203164,37.859098],[28.2007,37.852708],[28.21209,37.851472],[28.205018,37.854781],[28.208032,37.86427],[28.216411,37.865605],[28.212699,37.858815],[28.222642,37.861669],[28.225676,37.856817],[28.276342,37.863469],[28.274171,37.871299],[28.264928,37.87114],[28.257919,37.879153],[28.262125,37.890765],[28.24989,37.893024],[28.252771,37.898952],[28.233555,37.924052],[28.253999,37.93922],[28.249215,37.956909],[28.232121,37.96847],[28.235485,37.973806],[28.213299,38.00217],[28.210205,38.029898],[28.204014,38.039279],[28.1998,38.044485],[28.199878,38.039125],[28.189421,38.037116],[28.177667,38.045686],[28.152958,38.046854],[28.151097,38.028422],[28.141419,38.022491],[28.126444,37.971754],[28.131541,37.961686],[28.128954,37.953981],[28.093796,37.931953],[28.081821,37.912533]]],"type":"Polygon"}},{"type":"Feature","properties":{"area_id":"TR-09-017","name_tr":"Yenipazar","area_level":"district","parent_id":"TR-09","endeksa_id":1724},"geometry":{"coordinates":[[[28.094468,37.847205],[28.117733,37.788831],[28.102957,37.777899],[28.104214,37.767603],[28.095289,37.75703],[28.098753,37.75008],[28.094174,37.741898],[28.101789,37.732632],[28.128615,37.704744],[28.170069,37.697896],[28.181901,37.689164],[28.196179,37.687287],[28.19949,37.693969],[28.174757,37.709582],[28.201936,37.732742],[28.264189,37.719352],[28.267408,37.755475],[28.276928,37.763389],[28.266279,37.782274],[28.266566,37.802401],[28.272182,37.812635],[28.289987,37.820252],[28.294324,37.834328],[28.306811,37.836604],[28.319398,37.85151],[28.311803,37.851794],[28.304674,37.860835],[28.276342,37.863469],[28.225676,37.856817],[28.222642,37.861669],[28.212699,37.858815],[28.216411,37.865605],[28.208032,37.86427],[28.205018,37.854781],[28.21209,37.851472],[28.2007,37.852708],[28.203164,37.859098],[28.18967,37.856808],[28.182007,37.848253],[28.181309,37.836105],[28.160628,37.840506],[28.16423,37.84957],[28.159961,37.853486],[28.148002,37.849957],[28.127905,37.860776],[28.128257,37.842608],[28.113919,37.84214],[28.10689,37.852323],[28.094468,37.847205]]],"type":"Polygon"}},{"type":"Feature","properties":{"area_id":"TR-09-002","name_tr":"Buharkent","area_level":"district","parent_id":"TR-09","endeksa_id":1781},"geometry":{"coordinates":[[[28.645599,38.008587],[28.657761,38.000504],[28.66269,37.986334],[28.673418,37.982377],[28.673546,37.968425],[28.689231,37.933917],[28.719766,37.949814],[28.740107,37.947674],[28.760973,37.948512],[28.772221,37.941472],[28.777005,37.945903],[28.814594,37.928221],[28.822265,37.936562],[28.828684,37.933842],[28.834866,37.944033],[28.829582,37.949295],[28.846383,37.959982],[28.846838,37.973344],[28.826233,37.996342],[28.803041,37.98917],[28.806326,37.986787],[28.796707,37.97901],[28.779326,37.987367],[28.761534,37.988213],[28.758726,37.999311],[28.74157,38.001328],[28.738259,38.027571],[28.744997,38.040591],[28.733557,38.039237],[28.717684,38.058624],[28.692235,38.064567],[28.684487,38.055094],[28.685979,38.040958],[28.694762,38.037877],[28.691692,38.033207],[28.66384,38.033713],[28.658928,38.023967],[28.664731,38.019416],[28.652008,38.019396],[28.645599,38.008587]]],"type":"Polygon"}},{"type":"Feature","properties":{"area_id":"TR-09-007","name_tr":"İncirliova","area_level":"district","parent_id":"TR-09","endeksa_id":1807},"geometry":{"coordinates":[[[27.662512,37.914821],[27.666868,37.89219],[27.674224,37.89098],[27.669161,37.876918],[27.66288,37.877308],[27.661715,37.858722],[27.647056,37.85839],[27.647652,37.849809],[27.641659,37.847763],[27.647855,37.818298],[27.64334,37.818007],[27.642276,37.800961],[27.654173,37.799915],[27.659927,37.815257],[27.669221,37.817865],[27.664642,37.804268],[27.674522,37.798991],[27.678093,37.804658],[27.685344,37.799445],[27.687943,37.807273],[27.72188,37.809826],[27.716545,37.800427],[27.728465,37.808469],[27.728791,37.794188],[27.760614,37.793291],[27.742343,37.784563],[27.753968,37.785144],[27.748558,37.772184],[27.787291,37.766352],[27.789434,37.771445],[27.782691,37.774946],[27.789896,37.784131],[27.781651,37.78505],[27.779687,37.795895],[27.774414,37.796938],[27.776756,37.806729],[27.769385,37.823032],[27.748408,37.833475],[27.75138,37.847956],[27.74116,37.865549],[27.758663,37.883474],[27.769252,37.884317],[27.776856,37.891973],[27.769813,37.907081],[27.776505,37.923476],[27.797835,37.932907],[27.809161,37.949559],[27.825147,37.947327],[27.828296,37.953796],[27.8372,37.953067],[27.847565,37.971903],[27.843075,37.978417],[27.813593,37.962796],[27.800303,37.963803],[27.800468,37.971274],[27.778044,37.975097],[27.755537,37.949283],[27.748203,37.967875],[27.733404,37.981213],[27.722855,37.975768],[27.718797,37.980656],[27.692267,37.98002],[27.703869,37.968576],[27.697705,37.959837],[27.701744,37.950709],[27.692287,37.94296],[27.694038,37.931403],[27.682248,37.924561],[27.685178,37.919294],[27.662512,37.914821]]],"type":"Polygon"}},{"type":"Feature","properties":{"area_id":"TR-09-009","name_tr":"Karpuzlu","area_level":"district","parent_id":"TR-09","endeksa_id":1957},"geometry":{"coordinates":[[[27.686566,37.546528],[27.714557,37.540766],[27.724731,37.543924],[27.721918,37.53136],[27.727992,37.525977],[27.748171,37.52609],[27.754145,37.522293],[27.752905,37.515195],[27.766655,37.510689],[27.767263,37.484508],[27.77477,37.478561],[27.775004,37.464107],[27.786184,37.462189],[27.814367,37.440872],[27.821708,37.429021],[27.836423,37.436664],[27.84906,37.457627],[27.860266,37.457514],[27.865502,37.467121],[27.890277,37.477711],[27.893269,37.491114],[27.89273,37.499015],[27.902831,37.507788],[27.90498,37.518205],[27.898728,37.542564],[27.915318,37.550249],[27.922443,37.547608],[27.929435,37.554671],[27.924235,37.562888],[27.929506,37.568659],[27.928044,37.58299],[27.91223,37.593191],[27.917639,37.602176],[27.914811,37.610548],[27.897007,37.618195],[27.889806,37.632657],[27.862967,37.64791],[27.862914,37.656019],[27.82345,37.654935],[27.796898,37.656655],[27.79016,37.664795],[27.773882,37.659409],[27.780276,37.644367],[27.771755,37.627566],[27.756617,37.615556],[27.762197,37.596529],[27.737571,37.590639],[27.733804,37.57852],[27.727828,37.580957],[27.706741,37.571644],[27.686566,37.546528]]],"type":"Polygon"}},{"type":"Feature","properties":{"area_id":"TR-09-011","name_tr":"Köşk","area_level":"district","parent_id":"TR-09","endeksa_id":1968},"geometry":{"coordinates":[[[28.007092,37.981191],[28.007363,37.965783],[28.004868,37.959137],[28.017369,37.946226],[28.016346,37.93286],[28.010892,37.926512],[27.991231,37.926028],[28.001272,37.909136],[28.02251,37.909289],[28.027843,37.900652],[28.018936,37.885139],[28.039902,37.878874],[28.041627,37.872615],[28.029899,37.859077],[27.99875,37.86044],[27.998791,37.839137],[27.98949,37.824683],[28.004712,37.81661],[28.033962,37.815372],[28.054275,37.821563],[28.064601,37.833308],[28.071284,37.831458],[28.071921,37.838369],[28.089826,37.838221],[28.093187,37.841078],[28.088436,37.844033],[28.094468,37.847205],[28.10689,37.852323],[28.109074,37.863969],[28.086685,37.892592],[28.087626,37.905681],[28.081821,37.912533],[28.093796,37.931953],[28.128954,37.953981],[28.131541,37.961686],[28.126444,37.971754],[28.141419,38.022491],[28.114631,38.024321],[28.102207,38.031329],[28.077274,38.023893],[28.055127,38.032137],[28.051431,38.038664],[28.036448,38.020699],[28.033083,38.00198],[28.017631,37.99504],[28.018269,37.982055],[28.007092,37.981191]]],"type":"Polygon"}},{"type":"Feature","properties":{"area_id":"TR-09-004","name_tr":"Didim","area_level":"district","parent_id":"TR-09","endeksa_id":2000},"geometry":{"coordinates":[[[[27.327157999999937,37.33069700000002],[27.32700799999998,37.32984699999988],[27.326376000000003,37.32682200000013],[27.325924999999987,37.32556899999999],[27.329644999999974,37.32266800000006],[27.330441999999813,37.32255199999991],[27.33191199999993,37.322981000000105],[27.33270199999989,37.32458100000001],[27.333640000000116,37.32921299999992],[27.33387899999996,37.329711000000124],[27.33286999999991,37.33029399999994],[27.331376000000084,37.330460999999964],[27.330939999999796,37.33052799999998],[27.330255000000026,37.33082000000004],[27.327157999999937,37.33069700000002]]],[[[27.168992000000006,37.54011400000003],[27.16894699999991,37.53890400000008],[27.16963699999984,37.537655000000065],[27.17042300000016,37.53718399999996],[27.181260999999996,37.54157400000001],[27.181506000000166,37.546789000000054],[27.193181000000045,37.548248999999984],[27.19651499999999,37.544355000000074],[27.191872000000107,37.5448860000001],[27.190124999999924,37.535658999999974],[27.18315800000016,37.53491699999993],[27.188937999999908,37.523370000000156],[27.187281999999918,37.52813999999994],[27.199002000000153,37.53471300000003],[27.19318000000011,37.529924999999935],[27.197065000000052,37.518047999999865],[27.203094999999987,37.51699800000001],[27.197923999999997,37.49967099999996],[27.20254299999985,37.489315999999896],[27.18339900000017,37.47589100000007],[27.182226000000036,37.48491800000007],[27.188157999999927,37.50113800000003],[27.184968999999914,37.4874309999999],[27.18986899999989,37.48911399999999],[27.188965999999894,37.506548000000116],[27.193163999999978,37.507836000000154],[27.18845000000009,37.509509999999985],[27.190870000000118,37.522789999999915],[27.185010000000133,37.523690000000116],[27.18109999999982,37.53107000000001],[27.174909999999883,37.53397999999999],[27.1808920000001,37.52618499999989],[27.184985999999963,37.502044000000076],[27.180782999999906,37.48109000000006],[27.18148099999988,37.475682999999954],[27.18163999999986,37.47440999999998],[27.183287999999948,37.474440999999906],[27.197130999999853,37.484299000000014],[27.202146000000024,37.48736099999988],[27.203534999999953,37.49271100000011],[27.202133000000124,37.487187999999996],[27.204325999999863,37.49259000000013],[27.211273000000148,37.48857199999993],[27.20998200000017,37.48764400000001],[27.208366000000186,37.48725400000007],[27.205546999999928,37.488488000000125],[27.20556799999996,37.48772200000013],[27.20788800000009,37.4868250000001],[27.21087600000016,37.487013000000076],[27.204206000000013,37.47909300000014],[27.226367000000167,37.48808600000003],[27.2264580000001,37.48519499999991],[27.225379000000004,37.485588],[27.220333999999824,37.47988699999989],[27.224374999999856,37.47712000000001],[27.227207000000032,37.47434899999997],[27.227775,37.472910000000134],[27.222507999999856,37.45857399999993],[27.22342399999993,37.45575599999999],[27.222282000000096,37.454995999999895],[27.22010900000016,37.44888400000005],[27.22048300000003,37.43928700000013],[27.220324000000048,37.43761000000009],[27.22022499999997,37.43650699999996],[27.219767999999963,37.43140500000008],[27.21967799999987,37.43039899999999],[27.2190490000001,37.423165000000026],[27.218514999999943,37.419817000000144],[27.219551999999965,37.419622000000054],[27.221665000000172,37.41385900000007],[27.22054700000011,37.41302200000003],[27.223103999999942,37.41138499999998],[27.223867000000048,37.41113300000012],[27.224197000000018,37.40977100000013],[27.224858000000136,37.40849699999995],[27.229547999999856,37.40336800000006],[27.222174000000027,37.40099199999994],[27.209389000000183,37.3980200000001],[27.21804000000003,37.392393],[27.21774800000011,37.39180900000007],[27.215928000000066,37.38922000000005],[27.21587499999986,37.38864400000012],[27.214539000000126,37.38849099999998],[27.213283000000104,37.3884540000001],[27.21266399999997,37.38759700000012],[27.211559000000097,37.3861629999999],[27.211638000000118,37.38608300000011],[27.20930200000004,37.38212799999991],[27.20848000000019,37.38082700000008],[27.208523000000103,37.38066099999988],[27.212018999999888,37.37677300000006],[27.204879000000147,37.373399000000006],[27.203619999999987,37.37072899999999],[27.206337000000023,37.369417999999904],[27.20725500000008,37.36913499999999],[27.20722900000008,37.3684990000001],[27.207638000000063,37.36794599999999],[27.207206999999975,37.36716900000015],[27.20295500000008,37.36111499999992],[27.202647999999883,37.360579999999935],[27.201564999999913,37.36037500000008],[27.1982930000001,37.35954499999998],[27.197275999999903,37.35862099999999],[27.196342999999857,37.35820999999992],[27.195405999999995,37.35790199999998],[27.195048000000106,37.35758199999995],[27.194358999999977,37.35718299999988],[27.192680999999958,37.356234],[27.1920320000001,37.354913999999894],[27.191833000000134,37.354269000000095],[27.193121999999878,37.3537400000001],[27.20017999999988,37.35157199999995],[27.203280999999915,37.35104200000015],[27.204311000000168,37.352498999999966],[27.2051819999999,37.35449600000005],[27.208718000000072,37.35472400000009],[27.21530800000003,37.35357200000008],[27.22121199999987,37.35450400000002],[27.214309999999927,37.349170999999984],[27.213306,37.34871799999994],[27.21290499999994,37.347559999999966],[27.213199000000103,37.34715700000011],[27.215625999999826,37.34555999999993],[27.216196999999998,37.34557099999989],[27.233361000000034,37.35022299999999],[27.2305830000002,37.34356300000009],[27.232570999999982,37.342625000000076],[27.234257000000095,37.342631999999895],[27.235356999999834,37.33998500000001],[27.236584999999785,37.33837599999993],[27.24027900000006,37.33832900000004],[27.243361000000032,37.33783599999996],[27.24381199999994,37.337768000000054],[27.24835700000008,37.33711600000003],[27.249869999999905,37.33636000000007],[27.252045000000102,37.336880999999835],[27.25268800000009,37.33688099999992],[27.252933000000162,37.33688399999999],[27.255234000000044,37.33694499999985],[27.255116999999924,37.33638099999989],[27.25678099999995,37.33704400000012],[27.25788300000008,37.33718899999989],[27.258790999999956,37.33425800000008],[27.26004200000006,37.33362700000009],[27.262794999999866,37.33373800000009],[27.26563800000005,37.33688799999988],[27.26207100000004,37.333821999999856],[27.258358000000076,37.336082999999924],[27.263038000000044,37.33597799999998],[27.262477999999962,37.339342999999914],[27.263663,37.34057799999997],[27.263885999999985,37.33680800000004],[27.263940999999978,37.34089299999994],[27.26652300000002,37.343923999999916],[27.27529799999987,37.3532369999999],[27.275309999999948,37.35336800000012],[27.275737000000024,37.35377900000011],[27.276464999999845,37.35422699999994],[27.28707900000011,37.35636999999989],[27.287298999999926,37.356343999999915],[27.28828599999994,37.355939999999876],[27.288519999999888,37.35530700000011],[27.288708000000106,37.35386799999996],[27.29053100000012,37.353197],[27.290955999999955,37.35289800000007],[27.29194500000011,37.35148399999994],[27.29217599999997,37.3521280000001],[27.29515100000014,37.350443000000105],[27.29625899999994,37.349863999999954],[27.307521000000012,37.35348699999999],[27.31217800000004,37.342181000000025],[27.31314900000016,37.34123500000007],[27.31342399999993,37.34194599999989],[27.3145440000002,37.34597500000004],[27.323294000000185,37.342003000000034],[27.324327999999994,37.34191299999998],[27.32534299999985,37.34219499999999],[27.32956599999996,37.3432169999999],[27.330129999999997,37.34281600000007],[27.33047199999984,37.343730000000015],[27.3314529999999,37.34471899999997],[27.33284100000019,37.344999000000016],[27.33220100000007,37.345772000000075],[27.33217299999989,37.34572900000006],[27.332113000000113,37.345634999999824],[27.333004000000024,37.347270000000094],[27.33302700000016,37.34729399999995],[27.333497999999945,37.34837399999995],[27.33324599999985,37.34851199999998],[27.331860000000024,37.35163300000003],[27.33178099999991,37.35173500000005],[27.32974799999995,37.353715000000136],[27.330073999999904,37.354743000000134],[27.324551999999976,37.35601200000004],[27.32421299999994,37.35608299999989],[27.32378700000008,37.35649400000006],[27.320759000000077,37.366992999999844],[27.319226999999874,37.369348],[27.323741000000116,37.371523000000025],[27.330705000000073,37.37213400000001],[27.328622999999855,37.37723199999998],[27.329068000000085,37.378080999999874],[27.330200999999978,37.378521000000035],[27.332060999999896,37.37820300000013],[27.337817999999935,37.37505599999995],[27.33886000000004,37.374452999999995],[27.338163000000122,37.373583999999944],[27.336055000000158,37.37281900000002],[27.33551699999997,37.37314499999989],[27.33441800000004,37.37311199999994],[27.334910000000004,37.3725730000001],[27.33579399999988,37.37239200000009],[27.33653999999986,37.37174200000004],[27.339462000000147,37.37086399999994],[27.34138999999996,37.37019999999998],[27.342286999999903,37.36930200000013],[27.344310000000064,37.36935100000008],[27.346108999999956,37.36916999999991],[27.34757299999994,37.36926800000017],[27.34998200000011,37.37004100000008],[27.352555000000077,37.370707999999944],[27.353903999999947,37.37065099999988],[27.355098999999928,37.37144899999993],[27.358817999999847,37.37277200000009],[27.35968300000012,37.372846000000095],[27.35956000000008,37.37325499999993],[27.36409900000007,37.38066999999999],[27.364173999999814,37.38081699999991],[27.364262999999976,37.380994999999885],[27.36435900000014,37.38120299999995],[27.36467000000001,37.38197499999999],[27.36504399999992,37.38227799999987],[27.364884999999955,37.38286300000013],[27.36526799999993,37.38347699999992],[27.364848000000006,37.38401000000002],[27.364773999999883,37.384354000000044],[27.364809000000047,37.38546199999996],[27.364207000000043,37.38613499999988],[27.363651999999984,37.38707199999992],[27.36375700000019,37.38771000000004],[27.363640999999955,37.38839600000004],[27.363321999999886,37.38880800000002],[27.363684999999943,37.38964900000006],[27.364880999999972,37.3927819999999],[27.364873000000184,37.39321700000009],[27.365481999999805,37.39386499999995],[27.36789200000007,37.397573000000115],[27.36843199999987,37.398896999999984],[27.370670999999984,37.40036399999989],[27.37578099999993,37.40473700000004],[27.375803000000005,37.404791999999915],[27.376807999999865,37.40554199999988],[27.37717499999999,37.40565099999993],[27.385747999999932,37.40913400000016],[27.38895000000006,37.41037800000008],[27.39113599999999,37.41074300000007],[27.391229000000006,37.41076900000004],[27.39170499999996,37.4109019999999],[27.403193000000087,37.414119999999905],[27.403219999999813,37.414127999999934],[27.413928999999907,37.416388000000104],[27.414340999999947,37.416376999999926],[27.41757000000015,37.41557400000001],[27.41821900000006,37.41533199999994],[27.418444000000115,37.41513500000009],[27.421110000000017,37.41337100000003],[27.422103999999965,37.412990999999934],[27.42218200000001,37.41226900000002],[27.428418000000082,37.40417399999991],[27.430139000000022,37.402456999999956],[27.431192999999887,37.40000599999997],[27.431467999999946,37.39654499999997],[27.4326300000002,37.38348300000004],[27.432573999999885,37.38281000000014],[27.43223499999987,37.38232899999992],[27.431001000000133,37.38085500000005],[27.42979900000001,37.38160400000002],[27.413710000000183,37.38319400000008],[27.41114500000006,37.375198999999995],[27.410981999999912,37.3748620000001],[27.410656999999887,37.37467600000003],[27.40774900000012,37.371725999999995],[27.406406000000143,37.36995300000008],[27.404653000000096,37.36870399999992],[27.403451999999888,37.367714000000056],[27.403221999999825,37.366958999999945],[27.401243999999963,37.366589999999995],[27.391340999999926,37.36476899999995],[27.388229000000113,37.36029299999985],[27.388193000000076,37.360252999999844],[27.38274400000011,37.35436299999989],[27.385789999999858,37.355930000000036],[27.420239000000173,37.363567999999965],[27.491569000000094,37.392403999999985],[27.497752000000002,37.409827000000064],[27.486031999999895,37.41535600000005],[27.48916500000001,37.42057599999997],[27.481570000000083,37.432136000000106],[27.463241000000107,37.45074699999995],[27.43818300000009,37.45195599999996],[27.42726399999987,37.46457400000003],[27.426563999999882,37.46957899999988],[27.46898400000013,37.49475400000008],[27.38112700000001,37.514405000000124],[27.340537000000058,37.503558000000005],[27.29212500000013,37.51427200000008],[27.283011000000034,37.520585999999895],[27.317308999999803,37.559196999999905],[27.289233000000042,37.583664000000105],[27.268758000000023,37.57651899999988],[27.27972700000008,37.57200599999986],[27.278142000000045,37.56548099999996],[27.262442999999884,37.564750999999966],[27.262476000000113,37.558433999999956],[27.22821299999994,37.56236000000006],[27.224652000000177,37.544888999999976],[27.22998600000001,37.5457440000001],[27.221731999999907,37.54139800000013],[27.18877400000007,37.55059300000003],[27.17724299999983,37.54616999999988],[27.168992000000006,37.54011400000003]]]],"type":"MultiPolygon"}}]}