{"type":"FeatureCollection","area_id":"TR-03","name_tr":"Afyonkarahisar","source_id":"endeksa","licence":null,"retrieved_at":"2026-08-23","features":[{"type":"Feature","properties":{"area_id":"TR-03-001","name_tr":"Afyonkarahisar","area_level":"district","parent_id":"TR-03","endeksa_id":1108},"geometry":{"coordinates":[[[30.188532,38.911534],[30.200046,38.904687],[30.222449,38.909008],[30.236257,38.90085],[30.256205,38.904931],[30.276151,38.901813],[30.278601,38.882136],[30.300207,38.884275],[30.294412,38.873445],[30.320226,38.86776],[30.31572,38.83942],[30.354151,38.812689],[30.34754,38.797718],[30.363292,38.805807],[30.36471,38.801037],[30.380022,38.802212],[30.380251,38.80691],[30.396087,38.804175],[30.406469,38.770874],[30.425503,38.767397],[30.442132,38.771335],[30.456811,38.748351],[30.468923,38.751149],[30.466974,38.741735],[30.435717,38.740837],[30.437822,38.712006],[30.412329,38.695881],[30.409291,38.679867],[30.416633,38.675602],[30.414449,38.660633],[30.420263,38.651563],[30.41076,38.638139],[30.416447,38.63149],[30.415603,38.626015],[30.427137,38.622398],[30.450523,38.629817],[30.525286,38.624003],[30.549878,38.602636],[30.572192,38.598489],[30.57646,38.603926],[30.589752,38.597562],[30.593138,38.604735],[30.617,38.615257],[30.63511,38.616378],[30.702927,38.575721],[30.731047,38.56297],[30.759014,38.559753],[30.805421,38.56613],[30.820456,38.559892],[30.829468,38.567523],[30.850226,38.569013],[30.844422,38.605612],[30.85254,38.612257],[30.849143,38.614912],[30.855018,38.614251],[30.851343,38.616829],[30.856994,38.629488],[30.844109,38.641965],[30.827407,38.639192],[30.826763,38.647351],[30.793912,38.659712],[30.790356,38.671155],[30.775109,38.67555],[30.769525,38.685212],[30.74468,38.690278],[30.730668,38.678176],[30.736345,38.698535],[30.741999,38.699095],[30.746424,38.708825],[30.747497,38.735444],[30.755915,38.737292],[30.763921,38.750698],[30.780527,38.762556],[30.797532,38.76314],[30.817456,38.773381],[30.817854,38.794101],[30.815537,38.801816],[30.808599,38.802119],[30.812224,38.81259],[30.750296,38.816516],[30.741083,38.826325],[30.723597,38.820322],[30.707404,38.824616],[30.674966,38.807552],[30.676395,38.814901],[30.666334,38.816653],[30.669683,38.822795],[30.6644,38.828593],[30.64602,38.836522],[30.615173,38.839799],[30.625712,38.844559],[30.619319,38.854403],[30.649836,38.864012],[30.653265,38.869321],[30.648034,38.871406],[30.658532,38.88492],[30.674646,38.892583],[30.664761,38.905839],[30.666231,38.926402],[30.659287,38.932885],[30.66811,38.939303],[30.676934,38.960746],[30.657278,38.978736],[30.652178,39.000464],[30.618191,38.991607],[30.593156,38.939504],[30.574807,38.935052],[30.571982,38.924633],[30.536018,38.924614],[30.530063,38.91766],[30.520367,38.928136],[30.506307,38.930874],[30.501021,38.913075],[30.489563,38.901508],[30.457595,38.894045],[30.433167,38.908012],[30.399735,38.890882],[30.385352,38.899502],[30.403208,38.93614],[30.402583,38.947626],[30.393395,38.959656],[30.353322,38.977411],[30.343389,38.990477],[30.333907,38.990092],[30.325575,38.98455],[30.323985,38.975414],[30.309942,38.97211],[30.3203,38.964556],[30.314527,38.96037],[30.280462,38.954128],[30.255669,38.982028],[30.228555,38.976628],[30.209105,38.946657],[30.188532,38.911534]]],"type":"Polygon"}},{"type":"Feature","properties":{"area_id":"TR-03-004","name_tr":"Bolvadin","area_level":"district","parent_id":"TR-03","endeksa_id":1200},"geometry":{"coordinates":[[[30.826763,38.647351],[30.827407,38.639192],[30.844109,38.641965],[30.860312,38.644794],[30.88087,38.658843],[30.884466,38.661679],[30.892557,38.670661],[30.905739,38.66555],[30.944553,38.66732],[30.960571,38.654111],[30.998854,38.642371],[31.025813,38.649446],[31.067207,38.641044],[31.087529,38.654726],[31.105514,38.648663],[31.107929,38.641549],[31.124179,38.632101],[31.207183,38.646762],[31.217985,38.665428],[31.239994,38.659683],[31.249011,38.674209],[31.264184,38.67792],[31.267605,38.67228],[31.307909,38.684387],[31.300737,38.700767],[31.303868,38.706917],[31.311432,38.706093],[31.327888,38.738241],[31.314818,38.741301],[31.310762,38.763301],[31.362051,38.782102],[31.376385,38.776864],[31.400835,38.803108],[31.392858,38.823909],[31.38304,38.830627],[31.322172,38.841923],[31.237121,38.825016],[31.195435,38.83334],[31.183896,38.830901],[31.181434,38.843451],[31.172217,38.851944],[31.163739,38.848136],[31.148327,38.851722],[31.166713,38.866487],[31.148363,38.88988],[31.121586,38.907196],[31.117146,38.926361],[31.106529,38.928967],[31.114219,38.940864],[31.123412,38.942303],[31.114927,38.957023],[31.102981,38.958757],[31.090642,38.933942],[31.066703,38.918684],[31.01446,38.906497],[31.005649,38.912336],[30.989116,38.899925],[30.988042,38.892322],[30.949549,38.88928],[30.946912,38.879644],[30.953391,38.862416],[30.946634,38.848518],[30.956828,38.839],[30.950952,38.818355],[30.949744,38.804496],[30.91581,38.797298],[30.911611,38.774991],[30.900618,38.763517],[30.905914,38.75308],[30.903861,38.742354],[30.881856,38.72825],[30.883344,38.714345],[30.870511,38.696824],[30.872055,38.6916],[30.882135,38.690872],[30.869516,38.676532],[30.872092,38.670355],[30.887076,38.668116],[30.884891,38.662316],[30.869866,38.653054],[30.864916,38.65755],[30.855479,38.651232],[30.826763,38.647351]]],"type":"Polygon"}},{"type":"Feature","properties":{"area_id":"TR-03-005","name_tr":"Çay","area_level":"district","parent_id":"TR-03","endeksa_id":1239},"geometry":{"coordinates":[[[30.759014,38.559753],[30.758517,38.553492],[30.767766,38.547641],[30.773853,38.51044],[30.755392,38.485978],[30.752354,38.462275],[30.733257,38.458007],[30.715066,38.44331],[30.692924,38.387844],[30.715936,38.375844],[30.727476,38.359725],[30.750749,38.356471],[30.751646,38.348644],[30.764028,38.344281],[30.785231,38.342939],[30.78871,38.337785],[30.780538,38.325571],[30.791912,38.313181],[30.801918,38.330679],[30.805982,38.358171],[30.816802,38.366631],[30.840465,38.369276],[30.848582,38.383023],[30.877307,38.400856],[30.888642,38.403448],[30.925392,38.394823],[30.966231,38.422155],[30.966911,38.436429],[30.978411,38.459692],[31.001403,38.478727],[31.00614,38.49353],[31.020339,38.501462],[31.086596,38.505168],[31.121751,38.500941],[31.124374,38.49804],[31.116443,38.491483],[31.144333,38.47927],[31.157335,38.461379],[31.163172,38.457034],[31.173077,38.460533],[31.191769,38.479775],[31.222973,38.499477],[31.200855,38.512706],[31.191616,38.535902],[31.156416,38.542599],[31.164927,38.568467],[31.164652,38.603564],[31.156244,38.606807],[31.157652,38.61313],[31.124179,38.632101],[31.107929,38.641549],[31.105514,38.648663],[31.087529,38.654726],[31.067207,38.641044],[31.025813,38.649446],[30.998854,38.642371],[30.960571,38.654111],[30.944553,38.66732],[30.905739,38.66555],[30.892557,38.670661],[30.884466,38.661679],[30.88087,38.658843],[30.860312,38.644794],[30.844109,38.641965],[30.856994,38.629488],[30.851343,38.616829],[30.855018,38.614251],[30.849143,38.614912],[30.85254,38.612257],[30.844422,38.605612],[30.850226,38.569013],[30.829468,38.567523],[30.820456,38.559892],[30.805421,38.56613],[30.759014,38.559753]]],"type":"Polygon"}},{"type":"Feature","properties":{"area_id":"TR-03-007","name_tr":"Dazkırı","area_level":"district","parent_id":"TR-03","endeksa_id":1267},"geometry":{"coordinates":[[[29.633914,37.998305],[29.645736,37.988498],[29.629088,37.96977],[29.645675,37.966098],[29.653981,37.961828],[29.651111,37.967628],[29.655388,37.96818],[29.688271,37.952409],[29.707698,37.954453],[29.701159,37.94351],[29.707202,37.943736],[29.70292,37.934853],[29.681572,37.913607],[29.669135,37.910587],[29.671303,37.897768],[29.683914,37.885856],[29.698962,37.865074],[29.752823,37.832477],[29.828584,37.882817],[29.835844,37.860436],[29.812935,37.824958],[29.822115,37.814669],[29.850951,37.833319],[29.930757,37.864174],[29.939591,37.88066],[29.93597,37.916],[29.928956,37.926735],[29.916894,37.931914],[29.929279,37.936308],[29.915209,37.951439],[29.945861,37.950117],[29.970887,37.97684],[29.952582,37.978986],[29.925739,37.999024],[29.907128,37.999023],[29.8837,37.984092],[29.840928,38.018343],[29.791506,38.028598],[29.777219,38.037506],[29.773555,38.02471],[29.754197,38.009204],[29.761914,38.003316],[29.755777,38.001042],[29.759856,37.998481],[29.731068,37.992273],[29.718424,37.998335],[29.68258,37.99941],[29.679448,38.01542],[29.660126,38.0171],[29.633914,37.998305]]],"type":"Polygon"}},{"type":"Feature","properties":{"area_id":"TR-03-008","name_tr":"Dinar","area_level":"district","parent_id":"TR-03","endeksa_id":1281},"geometry":{"coordinates":[[[29.952959,38.143171],[29.973887,38.104458],[29.979693,38.105481],[30.027326,38.055576],[29.988527,38.042434],[29.987591,38.029338],[29.974686,38.01392],[30.032803,38.033493],[30.037245,38.030628],[30.031833,38.017464],[30.045033,38.017357],[30.041977,37.990922],[30.040132,37.96982],[30.055094,37.9488],[30.085387,37.941678],[30.083875,37.935468],[30.111001,37.943113],[30.142083,37.920495],[30.155685,37.917178],[30.187935,37.965309],[30.194669,37.995774],[30.219663,37.993341],[30.232982,38.024365],[30.26301,38.041257],[30.329348,38.045361],[30.397678,38.134237],[30.456029,38.186588],[30.51429,38.218789],[30.554891,38.218934],[30.597299,38.213601],[30.609956,38.21941],[30.584568,38.268218],[30.56839,38.268706],[30.578624,38.277343],[30.572019,38.283671],[30.563523,38.32066],[30.553733,38.331518],[30.534491,38.342743],[30.513414,38.346086],[30.490512,38.373316],[30.41262,38.385493],[30.383599,38.383341],[30.380847,38.372113],[30.387561,38.350137],[30.37014,38.319082],[30.267184,38.274404],[30.249372,38.223393],[30.18347,38.223278],[30.133063,38.20942],[30.084129,38.214001],[30.08095,38.198327],[30.034046,38.184886],[30.001837,38.15271],[29.976161,38.143535],[29.952959,38.143171]]],"type":"Polygon"}},{"type":"Feature","properties":{"area_id":"TR-03-009","name_tr":"Emirdağ","area_level":"district","parent_id":"TR-03","endeksa_id":1306},"geometry":{"coordinates":[[[30.929454,39.161327],[30.932484,39.141468],[30.94644,39.133326],[30.947498,39.12499],[30.980495,39.114997],[30.970389,39.098937],[30.973325,39.092905],[30.994105,39.077311],[30.99004,39.07646],[30.991554,39.06724],[31.011475,39.062181],[30.992734,39.04989],[30.997761,39.044132],[30.952934,39.03419],[30.957746,39.016868],[30.981483,38.997737],[30.982298,38.987007],[30.999251,38.990739],[31.014937,38.967166],[31.023435,38.965944],[31.013943,38.957565],[31.014354,38.918302],[31.005649,38.912336],[31.01446,38.906497],[31.066703,38.918684],[31.090642,38.933942],[31.102981,38.958757],[31.114927,38.957023],[31.123412,38.942303],[31.114219,38.940864],[31.106529,38.928967],[31.117146,38.926361],[31.121586,38.907196],[31.148363,38.88988],[31.166713,38.866487],[31.148327,38.851722],[31.163739,38.848136],[31.172217,38.851944],[31.181434,38.843451],[31.183896,38.830901],[31.195435,38.83334],[31.237121,38.825016],[31.322172,38.841923],[31.38304,38.830627],[31.392858,38.823909],[31.400835,38.803108],[31.448777,38.799075],[31.442895,38.787418],[31.450483,38.783357],[31.46127,38.784458],[31.475593,38.774404],[31.516574,38.774943],[31.561979,38.748176],[31.568497,38.755785],[31.556844,38.761521],[31.565928,38.766795],[31.561065,38.769027],[31.581358,38.776405],[31.580813,38.79242],[31.59281,38.796259],[31.589998,38.798966],[31.598737,38.805834],[31.603499,38.820884],[31.608086,38.820751],[31.601295,38.828803],[31.607426,38.829257],[31.61335,38.83829],[31.608289,38.840793],[31.618313,38.847596],[31.603428,38.860628],[31.587012,38.854362],[31.582093,38.861155],[31.564374,38.858607],[31.598678,38.897147],[31.599468,38.904137],[31.609289,38.904936],[31.609583,38.91221],[31.615396,38.910651],[31.621056,38.920117],[31.620195,38.947714],[31.608396,38.960008],[31.60786,38.973804],[31.662759,38.969541],[31.673803,38.983738],[31.686899,38.979512],[31.677893,38.974147],[31.705896,38.958606],[31.725246,38.967364],[31.732098,38.984882],[31.716405,39.000351],[31.694406,39.001757],[31.676434,39.01985],[31.619641,39.011206],[31.596034,39.016466],[31.589682,39.030304],[31.552363,39.037599],[31.540095,39.09322],[31.526736,39.106106],[31.497298,39.085071],[31.448582,39.079922],[31.432876,39.084483],[31.428462,39.103702],[31.439444,39.11554],[31.446218,39.150725],[31.411343,39.175946],[31.389459,39.171035],[31.359845,39.187234],[31.326629,39.186502],[31.319698,39.195303],[31.328461,39.22029],[31.316383,39.226051],[31.32159,39.232616],[31.315515,39.238376],[31.303472,39.238477],[31.279527,39.224911],[31.221524,39.222927],[31.210702,39.230087],[31.214433,39.237969],[31.199149,39.248472],[31.167271,39.252321],[31.16088,39.262184],[31.14846,39.265104],[31.153107,39.277539],[31.086859,39.250224],[31.097683,39.231938],[31.115563,39.222972],[31.096052,39.194613],[31.081939,39.192448],[31.073358,39.202172],[31.076663,39.224266],[31.069775,39.227051],[31.055322,39.212578],[31.055803,39.205029],[31.040169,39.196164],[31.03705,39.181855],[31.04157,39.177256],[31.034305,39.168118],[31.045116,39.162801],[31.019767,39.162152],[31.016332,39.156166],[31.002963,39.153676],[30.994984,39.157213],[31.010498,39.176409],[31.011798,39.182679],[31.004849,39.187849],[31.00776,39.19689],[30.970719,39.190763],[30.945894,39.173648],[30.941325,39.163396],[30.936372,39.166551],[30.929454,39.161327]]],"type":"Polygon"}},{"type":"Feature","properties":{"area_id":"TR-03-012","name_tr":"İhsaniye","area_level":"district","parent_id":"TR-03","endeksa_id":1404},"geometry":{"coordinates":[[[30.236078,39.051949],[30.26151,39.011679],[30.26268,38.989831],[30.255669,38.982028],[30.280462,38.954128],[30.314527,38.96037],[30.3203,38.964556],[30.309942,38.97211],[30.323985,38.975414],[30.325575,38.98455],[30.333907,38.990092],[30.343389,38.990477],[30.353322,38.977411],[30.393395,38.959656],[30.402583,38.947626],[30.403208,38.93614],[30.385352,38.899502],[30.399735,38.890882],[30.433167,38.908012],[30.457595,38.894045],[30.489563,38.901508],[30.501021,38.913075],[30.506307,38.930874],[30.520367,38.928136],[30.530063,38.91766],[30.536018,38.924614],[30.571982,38.924633],[30.574807,38.935052],[30.593156,38.939504],[30.618191,38.991607],[30.652178,39.000464],[30.675857,39.006443],[30.670291,39.011114],[30.674643,39.013539],[30.671513,39.021364],[30.698631,39.021491],[30.718307,39.050206],[30.684054,39.075226],[30.660202,39.090569],[30.66239,39.098313],[30.5867,39.08624],[30.571181,39.089553],[30.567429,39.103609],[30.551517,39.091913],[30.542656,39.112794],[30.552391,39.128988],[30.550212,39.155837],[30.536108,39.161504],[30.502066,39.198029],[30.504374,39.20255],[30.491296,39.206822],[30.478218,39.223362],[30.463525,39.222516],[30.435257,39.208001],[30.427024,39.194781],[30.429358,39.183893],[30.409561,39.186223],[30.409583,39.172117],[30.39325,39.170466],[30.370687,39.152806],[30.36063,39.159604],[30.326851,39.15552],[30.30567,39.146415],[30.266466,39.114751],[30.236078,39.051949]]],"type":"Polygon"}},{"type":"Feature","properties":{"area_id":"TR-03-015","name_tr":"Sandıklı","area_level":"district","parent_id":"TR-03","endeksa_id":1594},"geometry":{"coordinates":[[[29.927872,38.518986],[29.926035,38.503937],[29.951689,38.482201],[29.941685,38.469562],[29.955338,38.455549],[29.936082,38.438729],[29.911925,38.431649],[29.920867,38.413174],[29.974619,38.412274],[29.993184,38.401525],[30.003542,38.386857],[29.999703,38.377611],[30.006218,38.374823],[29.993846,38.360943],[29.993316,38.349634],[30.023004,38.324635],[30.041187,38.300584],[30.073047,38.284594],[30.080938,38.269736],[30.098589,38.265851],[30.116248,38.276481],[30.151635,38.302717],[30.157837,38.31811],[30.180362,38.331443],[30.200569,38.330038],[30.187511,38.277881],[30.202769,38.284504],[30.230831,38.270102],[30.249159,38.270342],[30.26077,38.278703],[30.266965,38.279191],[30.267184,38.274404],[30.37014,38.319082],[30.387561,38.350137],[30.380847,38.372113],[30.383599,38.383341],[30.41262,38.385493],[30.407741,38.417263],[30.397358,38.429206],[30.396752,38.446882],[30.376592,38.449509],[30.376289,38.459302],[30.386926,38.466261],[30.393384,38.486956],[30.404763,38.498702],[30.403782,38.510984],[30.391318,38.519226],[30.386239,38.511922],[30.373687,38.511203],[30.359306,38.53514],[30.33023,38.555486],[30.286466,38.601206],[30.278751,38.611665],[30.280644,38.621027],[30.27291,38.62066],[30.286077,38.636545],[30.2923,38.664165],[30.305707,38.688934],[30.301397,38.713608],[30.27556,38.716219],[30.245164,38.689776],[30.231694,38.68786],[30.225112,38.672865],[30.198106,38.661312],[30.183606,38.660698],[30.147505,38.67325],[30.095463,38.675401],[30.079103,38.597588],[30.084596,38.578717],[30.065348,38.565817],[30.053735,38.549094],[29.994473,38.545984],[29.927872,38.518986]]],"type":"Polygon"}},{"type":"Feature","properties":{"area_id":"TR-03-016","name_tr":"Sinanpaşa","area_level":"district","parent_id":"TR-03","endeksa_id":1626},"geometry":{"coordinates":[[[29.98406,38.744534],[29.997214,38.73907],[30.053541,38.735723],[30.06762,38.72591],[30.076797,38.700056],[30.095463,38.675401],[30.147505,38.67325],[30.183606,38.660698],[30.198106,38.661312],[30.225112,38.672865],[30.231694,38.68786],[30.245164,38.689776],[30.27556,38.716219],[30.301397,38.713608],[30.305707,38.688934],[30.2923,38.664165],[30.286077,38.636545],[30.27291,38.62066],[30.280644,38.621027],[30.278751,38.611665],[30.286466,38.601206],[30.33023,38.555486],[30.359306,38.53514],[30.373687,38.511203],[30.386239,38.511922],[30.391318,38.519226],[30.394101,38.549215],[30.387523,38.576378],[30.395392,38.594249],[30.387915,38.598842],[30.399543,38.616046],[30.387966,38.624596],[30.416447,38.63149],[30.41076,38.638139],[30.420263,38.651563],[30.414449,38.660633],[30.416633,38.675602],[30.409291,38.679867],[30.412329,38.695881],[30.437822,38.712006],[30.435717,38.740837],[30.466974,38.741735],[30.468923,38.751149],[30.456811,38.748351],[30.442132,38.771335],[30.425503,38.767397],[30.406469,38.770874],[30.396087,38.804175],[30.380251,38.80691],[30.380022,38.802212],[30.36471,38.801037],[30.363292,38.805807],[30.34754,38.797718],[30.354151,38.812689],[30.31572,38.83942],[30.320226,38.86776],[30.294412,38.873445],[30.300207,38.884275],[30.278601,38.882136],[30.276151,38.901813],[30.256205,38.904931],[30.236257,38.90085],[30.222449,38.909008],[30.200046,38.904687],[30.188532,38.911534],[30.158523,38.89378],[30.123809,38.882853],[30.111446,38.85281],[30.084376,38.824132],[30.052016,38.815481],[30.020836,38.818664],[30.011796,38.805586],[30.016101,38.795793],[30.004939,38.757636],[30.00053,38.749591],[29.98406,38.744534]]],"type":"Polygon"}},{"type":"Feature","properties":{"area_id":"TR-03-017","name_tr":"Sultandağı","area_level":"district","parent_id":"TR-03","endeksa_id":1639},"geometry":{"coordinates":[[[31.124179,38.632101],[31.157652,38.61313],[31.156244,38.606807],[31.164652,38.603564],[31.164927,38.568467],[31.156416,38.542599],[31.191616,38.535902],[31.200855,38.512706],[31.222973,38.499477],[31.191769,38.479775],[31.173077,38.460533],[31.163172,38.457034],[31.157335,38.461379],[31.203536,38.424817],[31.215695,38.390453],[31.238464,38.383692],[31.239951,38.4235],[31.252369,38.440684],[31.277913,38.443142],[31.28771,38.453783],[31.307289,38.460336],[31.322738,38.480103],[31.346558,38.490593],[31.343281,38.495098],[31.485315,38.56907],[31.558988,38.614774],[31.576131,38.614224],[31.579118,38.619504],[31.604576,38.623709],[31.597701,38.631908],[31.601214,38.633077],[31.606366,38.642034],[31.595643,38.65911],[31.564318,38.664807],[31.551163,38.679255],[31.533561,38.686156],[31.526792,38.678264],[31.504441,38.695962],[31.481809,38.693868],[31.499593,38.699146],[31.499078,38.709946],[31.518077,38.704029],[31.509901,38.722639],[31.524011,38.71885],[31.529888,38.728213],[31.56593,38.744626],[31.561979,38.748176],[31.516574,38.774943],[31.475593,38.774404],[31.46127,38.784458],[31.450483,38.783357],[31.442895,38.787418],[31.448777,38.799075],[31.400835,38.803108],[31.376385,38.776864],[31.362051,38.782102],[31.310762,38.763301],[31.314818,38.741301],[31.327888,38.738241],[31.311432,38.706093],[31.303868,38.706917],[31.300737,38.700767],[31.307909,38.684387],[31.267605,38.67228],[31.264184,38.67792],[31.249011,38.674209],[31.239994,38.659683],[31.217985,38.665428],[31.207183,38.646762],[31.124179,38.632101]]],"type":"Polygon"}},{"type":"Feature","properties":{"area_id":"TR-03-018","name_tr":"Şuhut","area_level":"district","parent_id":"TR-03","endeksa_id":1664},"geometry":{"coordinates":[[[30.387966,38.624596],[30.399543,38.616046],[30.387915,38.598842],[30.395392,38.594249],[30.387523,38.576378],[30.394101,38.549215],[30.391318,38.519226],[30.403782,38.510984],[30.404763,38.498702],[30.393384,38.486956],[30.386926,38.466261],[30.376289,38.459302],[30.376592,38.449509],[30.396752,38.446882],[30.397358,38.429206],[30.407741,38.417263],[30.41262,38.385493],[30.490512,38.373316],[30.513414,38.346086],[30.534491,38.342743],[30.553733,38.331518],[30.563523,38.32066],[30.572019,38.283671],[30.578624,38.277343],[30.56839,38.268706],[30.584568,38.268218],[30.609956,38.21941],[30.616154,38.213321],[30.64575,38.217052],[30.650609,38.228938],[30.673689,38.232234],[30.684069,38.240734],[30.683517,38.248367],[30.710093,38.258103],[30.73863,38.288902],[30.748507,38.290414],[30.764001,38.306747],[30.786225,38.307202],[30.791912,38.313181],[30.780538,38.325571],[30.78871,38.337785],[30.785231,38.342939],[30.764028,38.344281],[30.751646,38.348644],[30.750749,38.356471],[30.727476,38.359725],[30.715936,38.375844],[30.692924,38.387844],[30.715066,38.44331],[30.733257,38.458007],[30.752354,38.462275],[30.755392,38.485978],[30.773853,38.51044],[30.767766,38.547641],[30.758517,38.553492],[30.759014,38.559753],[30.731047,38.56297],[30.702927,38.575721],[30.63511,38.616378],[30.617,38.615257],[30.593138,38.604735],[30.589752,38.597562],[30.57646,38.603926],[30.572192,38.598489],[30.549878,38.602636],[30.525286,38.624003],[30.450523,38.629817],[30.427137,38.622398],[30.415603,38.626015],[30.416447,38.63149],[30.387966,38.624596]]],"type":"Polygon"}},{"type":"Feature","properties":{"area_id":"TR-03-002","name_tr":"Başmakçı","area_level":"district","parent_id":"TR-03","endeksa_id":1771},"geometry":{"coordinates":[[[29.822115,37.814669],[29.821176,37.801967],[29.87153,37.788546],[29.8756,37.795],[29.884693,37.794995],[29.890675,37.777156],[29.909119,37.784571],[29.968403,37.796141],[30.004669,37.795058],[30.033737,37.780786],[30.059428,37.780788],[30.081065,37.790306],[30.106342,37.812743],[30.152075,37.868557],[30.156811,37.880189],[30.155685,37.917178],[30.142083,37.920495],[30.111001,37.943113],[30.083875,37.935468],[30.085387,37.941678],[30.055094,37.9488],[30.040132,37.96982],[30.041977,37.990922],[29.991333,37.995451],[29.970887,37.97684],[29.945861,37.950117],[29.915209,37.951439],[29.929279,37.936308],[29.916894,37.931914],[29.928956,37.926735],[29.93597,37.916],[29.939591,37.88066],[29.930757,37.864174],[29.850951,37.833319],[29.822115,37.814669]]],"type":"Polygon"}},{"type":"Feature","properties":{"area_id":"TR-03-003","name_tr":"Bayat","area_level":"district","parent_id":"TR-03","endeksa_id":1773},"geometry":{"coordinates":[[[30.788056,39.114924],[30.793458,39.10731],[30.784783,39.098315],[30.786911,39.081255],[30.794533,39.069971],[30.794001,39.058547],[30.80179,39.054913],[30.825061,39.045766],[30.840664,39.047358],[30.849136,39.039731],[30.849552,39.025389],[30.860976,39.020155],[30.86299,39.01054],[30.819652,38.974232],[30.827524,38.967371],[30.827744,38.958717],[30.836952,38.953252],[30.83557,38.93723],[30.846921,38.934738],[30.84758,38.925132],[30.861108,38.921358],[30.860321,38.889979],[30.866258,38.89027],[30.892445,38.860728],[30.905627,38.854481],[30.908089,38.832836],[30.928361,38.814138],[30.930743,38.823887],[30.950952,38.818355],[30.956828,38.839],[30.946634,38.848518],[30.953391,38.862416],[30.946912,38.879644],[30.949549,38.88928],[30.988042,38.892322],[30.989116,38.899925],[31.005649,38.912336],[31.014354,38.918302],[31.013943,38.957565],[31.023435,38.965944],[31.014937,38.967166],[30.999251,38.990739],[30.982298,38.987007],[30.981483,38.997737],[30.957746,39.016868],[30.952934,39.03419],[30.997761,39.044132],[30.992734,39.04989],[31.011475,39.062181],[30.991554,39.06724],[30.99004,39.07646],[30.994105,39.077311],[30.973325,39.092905],[30.970389,39.098937],[30.980495,39.114997],[30.947498,39.12499],[30.94644,39.133326],[30.932484,39.141468],[30.929454,39.161327],[30.936372,39.166551],[30.941325,39.163396],[30.945894,39.173648],[30.934921,39.171988],[30.941615,39.185713],[30.931991,39.196749],[30.924726,39.205094],[30.888027,39.189235],[30.900183,39.164424],[30.91308,39.153658],[30.925963,39.156398],[30.924339,39.113289],[30.910262,39.101262],[30.867384,39.098248],[30.861182,39.112347],[30.846543,39.121084],[30.810174,39.111896],[30.788056,39.114924]]],"type":"Polygon"}},{"type":"Feature","properties":{"area_id":"TR-03-013","name_tr":"İscehisar","area_level":"district","parent_id":"TR-03","endeksa_id":1809},"geometry":{"coordinates":[[[30.652178,39.000464],[30.657278,38.978736],[30.676934,38.960746],[30.66811,38.939303],[30.659287,38.932885],[30.666231,38.926402],[30.664761,38.905839],[30.674646,38.892583],[30.658532,38.88492],[30.648034,38.871406],[30.653265,38.869321],[30.649836,38.864012],[30.619319,38.854403],[30.625712,38.844559],[30.615173,38.839799],[30.64602,38.836522],[30.6644,38.828593],[30.669683,38.822795],[30.666334,38.816653],[30.676395,38.814901],[30.674966,38.807552],[30.707404,38.824616],[30.723597,38.820322],[30.741083,38.826325],[30.750296,38.816516],[30.812224,38.81259],[30.808599,38.802119],[30.815537,38.801816],[30.817854,38.794101],[30.865066,38.813515],[30.867702,38.829467],[30.882157,38.840521],[30.908089,38.832836],[30.905627,38.854481],[30.892445,38.860728],[30.866258,38.89027],[30.860321,38.889979],[30.861108,38.921358],[30.84758,38.925132],[30.846921,38.934738],[30.83557,38.93723],[30.836952,38.953252],[30.827744,38.958717],[30.827524,38.967371],[30.819652,38.974232],[30.86299,39.01054],[30.860976,39.020155],[30.849552,39.025389],[30.849136,39.039731],[30.840664,39.047358],[30.825061,39.045766],[30.80179,39.054913],[30.773019,39.035789],[30.771977,39.046141],[30.760055,39.053165],[30.758978,39.043644],[30.751026,39.046024],[30.740343,39.040607],[30.718307,39.050206],[30.698631,39.021491],[30.671513,39.021364],[30.674643,39.013539],[30.670291,39.011114],[30.675857,39.006443],[30.652178,39.000464]]],"type":"Polygon"}},{"type":"Feature","properties":{"area_id":"TR-03-006","name_tr":"Çobanlar","area_level":"district","parent_id":"TR-03","endeksa_id":1906},"geometry":{"coordinates":[[[30.747497,38.735444],[30.746424,38.708825],[30.741999,38.699095],[30.736345,38.698535],[30.730668,38.678176],[30.74468,38.690278],[30.769525,38.685212],[30.775109,38.67555],[30.790356,38.671155],[30.793912,38.659712],[30.826763,38.647351],[30.855479,38.651232],[30.864916,38.65755],[30.869866,38.653054],[30.884891,38.662316],[30.887076,38.668116],[30.872092,38.670355],[30.869516,38.676532],[30.882135,38.690872],[30.872055,38.6916],[30.870511,38.696824],[30.883344,38.714345],[30.881856,38.72825],[30.903861,38.742354],[30.905914,38.75308],[30.900618,38.763517],[30.911611,38.774991],[30.91581,38.797298],[30.949744,38.804496],[30.950952,38.818355],[30.930743,38.823887],[30.928361,38.814138],[30.908089,38.832836],[30.882157,38.840521],[30.867702,38.829467],[30.865066,38.813515],[30.817854,38.794101],[30.817456,38.773381],[30.797532,38.76314],[30.780527,38.762556],[30.763921,38.750698],[30.755915,38.737292],[30.747497,38.735444]]],"type":"Polygon"}},{"type":"Feature","properties":{"area_id":"TR-03-010","name_tr":"Evciler","area_level":"district","parent_id":"TR-03","endeksa_id":1923},"geometry":{"coordinates":[[[29.791506,38.028598],[29.840928,38.018343],[29.8837,37.984092],[29.907128,37.999023],[29.925739,37.999024],[29.952582,37.978986],[29.970887,37.97684],[29.991333,37.995451],[30.041977,37.990922],[30.045033,38.017357],[30.031833,38.017464],[30.037245,38.030628],[30.032803,38.033493],[29.974686,38.01392],[29.987591,38.029338],[29.988527,38.042434],[30.027326,38.055576],[29.979693,38.105481],[29.973887,38.104458],[29.952959,38.143171],[29.914525,38.138494],[29.900204,38.121895],[29.889308,38.123423],[29.871558,38.105665],[29.882847,38.092175],[29.85898,38.089232],[29.834325,38.065226],[29.815205,38.063675],[29.809912,38.047447],[29.791506,38.028598]]],"type":"Polygon"}},{"type":"Feature","properties":{"area_id":"TR-03-011","name_tr":"Hocalar","area_level":"district","parent_id":"TR-03","endeksa_id":1944},"geometry":{"coordinates":[[[29.829664,38.533927],[29.840118,38.508123],[29.825814,38.505196],[29.816211,38.475369],[29.828933,38.464758],[29.876309,38.469457],[29.90446,38.463027],[29.911547,38.454901],[29.911925,38.431649],[29.936082,38.438729],[29.955338,38.455549],[29.941685,38.469562],[29.951689,38.482201],[29.926035,38.503937],[29.927872,38.518986],[29.994473,38.545984],[30.053735,38.549094],[30.065348,38.565817],[30.084596,38.578717],[30.079103,38.597588],[30.095463,38.675401],[30.076797,38.700056],[30.06762,38.72591],[30.053541,38.735723],[29.997214,38.73907],[29.98406,38.744534],[29.959647,38.739018],[29.905079,38.699183],[29.899343,38.681887],[29.914828,38.666324],[29.918089,38.655068],[29.912404,38.643197],[29.928231,38.637492],[29.915456,38.635773],[29.912556,38.622126],[29.885357,38.61429],[29.829664,38.533927]]],"type":"Polygon"}},{"type":"Feature","properties":{"area_id":"TR-03-014","name_tr":"Kızılören","area_level":"district","parent_id":"TR-03","endeksa_id":1961},"geometry":{"coordinates":[[[30.080938,38.269736],[30.084129,38.214001],[30.133063,38.20942],[30.18347,38.223278],[30.249372,38.223393],[30.267184,38.274404],[30.266965,38.279191],[30.26077,38.278703],[30.249159,38.270342],[30.230831,38.270102],[30.202769,38.284504],[30.187511,38.277881],[30.200569,38.330038],[30.180362,38.331443],[30.157837,38.31811],[30.151635,38.302717],[30.116248,38.276481],[30.098589,38.265851],[30.080938,38.269736]]],"type":"Polygon"}}]}