{"type":"FeatureCollection","area_id":"TR-16","name_tr":"Bursa","source_id":"endeksa","licence":null,"retrieved_at":"2026-08-23","features":[{"type":"Feature","properties":{"area_id":"TR-16-002","name_tr":"Gemlik","area_level":"district","parent_id":"TR-16","endeksa_id":1343},"geometry":{"coordinates":[[[29.011888,40.552205],[29.004669,40.527329],[29.009688,40.512348],[28.988173,40.48975],[29.010693,40.470468],[29.010675,40.470188],[29.011416,40.47047],[29.012163,40.470502],[29.013021,40.470276],[29.013272,40.470594],[29.015435,40.470949],[29.016359,40.470671],[29.017585,40.47215],[29.018126,40.472805],[29.019001,40.473833],[29.019555,40.474912],[29.020576,40.476359],[29.021138,40.476876],[29.022682,40.477588],[29.023834,40.478052],[29.025473,40.479069],[29.028725,40.479342],[29.052732,40.478927],[29.054515,40.478872],[29.056329,40.47837],[29.060163,40.477145],[29.061763,40.47772],[29.06913,40.47726],[29.072325,40.476937],[29.080957,40.477803],[29.082543,40.477768],[29.083777,40.477228],[29.090794,40.474655],[29.092406,40.474211],[29.094285,40.472775],[29.096808,40.470215],[29.101623,40.466612],[29.105378,40.463602],[29.10658,40.462157],[29.108582,40.461249],[29.11475,40.457189],[29.115948,40.456413],[29.1314,40.446584],[29.137125,40.442679],[29.146136,40.438429],[29.150853,40.436661],[29.151891,40.434109],[29.153279,40.430352],[29.153531,40.422716],[29.124825,40.41945],[29.123521,40.41918],[29.12315,40.418986],[29.122853,40.419046],[29.109875,40.417292],[29.10586,40.415723],[29.104358,40.415277],[29.103092,40.415628],[29.101909,40.415957],[29.101416,40.416094],[29.100988,40.41633],[29.095215,40.419236],[29.094234,40.419128],[29.09202,40.417754],[29.090458,40.416946],[29.08655,40.41896],[29.088206,40.415589],[29.08653,40.414546],[29.08024,40.41779],[29.084059,40.412743],[29.083537,40.412248],[29.07582,40.41422],[29.081553,40.410158],[29.08018,40.408539],[29.079311,40.408033],[29.077986,40.405132],[29.071901,40.394287],[29.067086,40.389676],[29.069696,40.386924],[29.070118,40.385381],[29.068017,40.37401],[29.067818,40.373571],[29.067668,40.373374],[29.059864,40.365504],[29.058836,40.364676],[29.057031,40.363983],[29.055962,40.363716],[29.053586,40.363037],[29.052463,40.362549],[29.049351,40.36249],[29.043759,40.363322],[29.039293,40.363842],[29.034228,40.36459],[29.034123,40.364591],[29.031973,40.36435],[29.031577,40.364306],[29.030343,40.363896],[29.029975,40.363649],[29.028494,40.362656],[29.024774,40.361952],[29.008128,40.359925],[29.004712,40.359672],[29.004313,40.359742],[28.999299,40.359204],[28.99454,40.358726],[28.993246,40.358715],[28.991908,40.358138],[28.989291,40.357233],[28.985392,40.356333],[28.98888,40.357088],[28.992629,40.35835],[28.992991,40.358505],[28.993353,40.358522],[28.997823,40.348414],[29.051414,40.344122],[29.057527,40.354503],[29.077611,40.362488],[29.114667,40.347448],[29.139612,40.36132],[29.148705,40.356646],[29.152988,40.34254],[29.18744,40.350575],[29.225853,40.342139],[29.228798,40.330939],[29.26145,40.326151],[29.284212,40.333765],[29.294221,40.330416],[29.298539,40.335606],[29.290501,40.337084],[29.300343,40.339645],[29.299912,40.325903],[29.305621,40.317525],[29.329102,40.317724],[29.34551,40.30812],[29.354639,40.309589],[29.364043,40.321004],[29.360918,40.327404],[29.392937,40.346396],[29.328073,40.377124],[29.302796,40.370667],[29.266571,40.372452],[29.255278,40.376762],[29.249109,40.397543],[29.221032,40.39853],[29.218785,40.40424],[29.227129,40.406332],[29.236269,40.427199],[29.243162,40.427717],[29.233729,40.455898],[29.238828,40.480202],[29.207431,40.497318],[29.201756,40.523164],[29.205225,40.532808],[29.185433,40.537841],[29.172577,40.537531],[29.167192,40.546605],[29.153957,40.552677],[29.157973,40.564178],[29.148432,40.575551],[29.132789,40.577106],[29.125196,40.566892],[29.110728,40.570672],[29.099013,40.566758],[29.098878,40.575734],[29.084014,40.575417],[29.061231,40.560903],[29.030264,40.578958],[29.011888,40.552205]]],"type":"Polygon"}},{"type":"Feature","properties":{"area_id":"TR-16-005","name_tr":"İnegöl","area_level":"district","parent_id":"TR-16","endeksa_id":1411},"geometry":{"coordinates":[[[29.267619,40.055466],[29.265236,40.04744],[29.298345,40.032879],[29.310894,39.992509],[29.358127,39.958185],[29.35425,39.948597],[29.369678,39.943576],[29.364165,39.932435],[29.374085,39.914582],[29.384841,39.908387],[29.402545,39.913732],[29.415752,39.907586],[29.430559,39.919815],[29.454441,39.90347],[29.44683,39.873234],[29.440503,39.86742],[29.442227,39.85066],[29.42966,39.838925],[29.425225,39.844325],[29.417693,39.838137],[29.423712,39.830934],[29.421881,39.822043],[29.460894,39.868238],[29.538572,39.870203],[29.572412,39.863965],[29.604458,39.874732],[29.625736,39.874903],[29.693502,39.86217],[29.714495,39.863192],[29.72513,39.866095],[29.728885,39.877235],[29.740529,39.881805],[29.742622,39.889409],[29.757299,39.891281],[29.760799,39.92389],[29.773546,39.93015],[29.774089,39.9422],[29.764522,39.964163],[29.727036,39.981611],[29.717875,39.991325],[29.746865,39.993098],[29.744182,40.000613],[29.753515,40.01303],[29.741724,40.024644],[29.742653,40.037696],[29.735039,40.035869],[29.717204,40.048754],[29.733404,40.055541],[29.749796,40.07674],[29.713595,40.101587],[29.717978,40.11041],[29.709197,40.13971],[29.693813,40.143703],[29.692766,40.1491],[29.675761,40.141865],[29.676276,40.129626],[29.63209,40.124099],[29.623065,40.138131],[29.629457,40.147095],[29.626876,40.151322],[29.609951,40.152774],[29.601961,40.159099],[29.590141,40.155717],[29.58839,40.159752],[29.580097,40.152246],[29.55994,40.154724],[29.56286,40.164289],[29.548704,40.16818],[29.527588,40.208546],[29.500204,40.208377],[29.493406,40.216965],[29.478201,40.21216],[29.472854,40.217421],[29.481483,40.223279],[29.471588,40.226222],[29.460614,40.217738],[29.46761,40.207718],[29.459371,40.201402],[29.428192,40.187462],[29.423495,40.178002],[29.394376,40.1731],[29.39806,40.159293],[29.387191,40.156031],[29.38528,40.145703],[29.399028,40.127342],[29.388087,40.124586],[29.389234,40.114497],[29.377945,40.104373],[29.387867,40.098469],[29.377538,40.101747],[29.365129,40.097288],[29.316592,40.071656],[29.289191,40.072048],[29.267619,40.055466]]],"type":"Polygon"}},{"type":"Feature","properties":{"area_id":"TR-16-006","name_tr":"İznik","area_level":"district","parent_id":"TR-16","endeksa_id":1420},"geometry":{"coordinates":[[[29.513579,40.525822],[29.519498,40.503883],[29.514635,40.496376],[29.514234,40.387252],[29.503408,40.387863],[29.507638,40.383308],[29.501296,40.380743],[29.506484,40.374344],[29.504059,40.348813],[29.508614,40.341242],[29.522131,40.3441],[29.526885,40.352434],[29.546026,40.355445],[29.570261,40.347809],[29.581197,40.357495],[29.604717,40.364194],[29.612882,40.359289],[29.619271,40.36211],[29.622876,40.355094],[29.630432,40.354213],[29.63117,40.358777],[29.650686,40.351048],[29.666035,40.326102],[29.688543,40.342223],[29.690219,40.369634],[29.702079,40.379515],[29.727893,40.371835],[29.777737,40.380494],[29.776456,40.374035],[29.783372,40.372382],[29.786748,40.362847],[29.821083,40.376618],[29.830562,40.402318],[29.848985,40.41202],[29.847274,40.420656],[29.901476,40.424184],[29.899275,40.43516],[29.890523,40.44171],[29.876818,40.443684],[29.857063,40.43499],[29.846403,40.456248],[29.857297,40.470463],[29.854814,40.474106],[29.878395,40.489035],[29.884021,40.487413],[29.919523,40.516903],[29.915564,40.521097],[29.921839,40.527344],[29.919955,40.53461],[29.905776,40.529749],[29.904229,40.550929],[29.910366,40.551844],[29.906451,40.565238],[29.895635,40.57395],[29.886326,40.573054],[29.857312,40.584358],[29.813802,40.583608],[29.733504,40.610488],[29.704498,40.61441],[29.696426,40.606333],[29.683203,40.605258],[29.684377,40.590056],[29.660667,40.570826],[29.644006,40.565282],[29.643082,40.557045],[29.635379,40.556261],[29.625377,40.544978],[29.599233,40.540312],[29.595024,40.544538],[29.587061,40.539225],[29.580718,40.54379],[29.568007,40.534251],[29.56077,40.540924],[29.553042,40.525782],[29.544281,40.533378],[29.524031,40.524213],[29.517868,40.52731],[29.513579,40.525822]]],"type":"Polygon"}},{"type":"Feature","properties":{"area_id":"TR-16-007","name_tr":"Karacabey","area_level":"district","parent_id":"TR-16","endeksa_id":1434},"geometry":{"coordinates":[[[[28.518271000000006,40.565435000000065],[28.52047500000018,40.563092000000076],[28.5228900000002,40.56094300000002],[28.524723999999836,40.56031100000006],[28.52564800000001,40.557532999999964],[28.525858999999883,40.55680400000018],[28.52678699999986,40.555197000000135],[28.52619799999989,40.55352300000009],[28.5263529999999,40.55099300000004],[28.526955999999988,40.55027200000014],[28.526512999999824,40.547213000000006],[28.526366000000007,40.544682999999985],[28.526442999999986,40.543781999999936],[28.526079999999883,40.54244400000017],[28.524288000000087,40.53478599999996],[28.52417799999988,40.53439500000002],[28.52282399999983,40.53189899999992],[28.518435000000228,40.52479800000005],[28.516288999999766,40.52027299999992],[28.51882999999996,40.51725299999997],[28.52451500000002,40.509456000000135],[28.524576999999958,40.50937199999987],[28.52568200000016,40.51066199999998],[28.532143000000104,40.51314999999986],[28.53442000000018,40.51394300000004],[28.535806000000175,40.514701000000066],[28.540098000000174,40.51525400000006],[28.5406920000002,40.51529800000008],[28.542036000000174,40.516411000000026],[28.5420850000001,40.516681000000034],[28.544994000000052,40.52617900000002],[28.545382999999884,40.52661800000016],[28.545146999999975,40.527896000000005],[28.544744999999935,40.52816800000013],[28.539105999999848,40.54070000000005],[28.537948999999877,40.54318399999993],[28.53634800000014,40.54624600000002],[28.535856999999993,40.54820699999992],[28.535863999999954,40.54834799999988],[28.537757000000205,40.55289700000002],[28.537861000000174,40.553106999999976],[28.539127000000157,40.554317999999974],[28.541273000000064,40.554712999999985],[28.542727999999887,40.55340200000011],[28.543627999999913,40.555064000000094],[28.544819000000075,40.55529700000001],[28.54901999999982,40.5560959999999],[28.55043699999993,40.55778499999998],[28.554252999999996,40.56435299999995],[28.553958000000073,40.56550699999985],[28.55364999999991,40.565410999999976],[28.550629999999835,40.565785999999974],[28.548695999999868,40.56620899999988],[28.548592000000113,40.56622999999983],[28.539746,40.566884000000115],[28.538616000000054,40.567377000000114],[28.53573599999989,40.56681900000011],[28.53499899999985,40.56677999999996],[28.534695999999883,40.56676300000011],[28.525660999999893,40.56463700000009],[28.519852000000167,40.565624999999955],[28.518271000000006,40.565435000000065]]],[[[28.087187999999877,40.25234000000017],[28.094723000000066,40.242689999999975],[28.090389000000187,40.238762000000094],[28.119827999999828,40.22674699999993],[28.114909000000193,40.20895900000002],[28.12028099999984,40.203778000000035],[28.135025999999872,40.20490999999998],[28.141595000000073,40.19560299999993],[28.141526999999982,40.18524699999997],[28.125912000000103,40.18473799999993],[28.120132000000098,40.17694499999988],[28.13623500000003,40.15714700000007],[28.12630100000012,40.15361499999999],[28.146801000000195,40.14296800000006],[28.145418000000028,40.127364000000085],[28.13525899999992,40.12880600000012],[28.12765900000001,40.122237],[28.13522299999998,40.11671899999998],[28.132696000000163,40.11018000000004],[28.16193799999982,40.10708199999995],[28.174532999999922,40.08431200000003],[28.185492000000103,40.08390499999985],[28.191262999999942,40.07042199999995],[28.20438500000001,40.068479000000096],[28.217972999999954,40.078281000000125],[28.21744800000017,40.094551000000074],[28.20762000000002,40.10357899999988],[28.225041000000104,40.111598000000065],[28.266353000000077,40.106425000000016],[28.283555999999905,40.097679000000014],[28.278233999999813,40.07723299999994],[28.297943999999923,40.05957599999989],[28.31651800000003,40.05678100000011],[28.35948200000006,40.064359000000046],[28.368135999999907,40.06059500000018],[28.373047999999795,40.06456799999995],[28.357328999999954,40.07838599999998],[28.363350000000107,40.07993299999996],[28.368363999999872,40.09156800000011],[28.40701299999979,40.09894799999993],[28.40261700000013,40.111014000000104],[28.414439000000133,40.113190999999965],[28.403129999999965,40.125810999999906],[28.402966999999975,40.13309499999995],[28.41025900000021,40.13788700000002],[28.40277699999992,40.1441400000001],[28.407339999999863,40.153045999999925],[28.424127999999815,40.15869199999994],[28.42847599999993,40.17836100000015],[28.448777999999983,40.17261000000004],[28.472447999999968,40.185159000000034],[28.517503000000094,40.18126099999985],[28.59289900000017,40.15639600000008],[28.634680999999794,40.16922999999996],[28.649549999999802,40.165188999999955],[28.651630000000072,40.182110999999956],[28.663648999999808,40.17783099999994],[28.68727400000007,40.21974199999985],[28.685919000000094,40.23675699999994],[28.664953000000157,40.24632300000006],[28.66284500000013,40.269064999999884],[28.659728000000207,40.27899100000008],[28.649794999999944,40.27692700000012],[28.65373099999995,40.28365400000014],[28.647413999999948,40.28544099999993],[28.64821699999997,40.2917259999999],[28.62778300000012,40.301983],[28.62334700000005,40.29845599999996],[28.62751999999992,40.314287999999884],[28.615008000000156,40.31554999999993],[28.617778999999878,40.31014400000016],[28.61203800000015,40.30631999999995],[28.593746999999908,40.31505999999997],[28.583819000000194,40.305366000000035],[28.57641200000003,40.30965800000002],[28.559941999999857,40.302079000000006],[28.548318000000112,40.31699599999995],[28.57436499999986,40.34379400000006],[28.557860000000197,40.3534270000001],[28.548407999999892,40.350506],[28.539311000000097,40.35947399999999],[28.542085000000082,40.38514200000008],[28.542180000000197,40.38544800000005],[28.51288899999982,40.39564699999997],[28.473914000000047,40.39626899999991],[28.42239800000004,40.3937120000001],[28.42233199999998,40.39371200000004],[28.39577599999987,40.39506500000004],[28.388070999999933,40.39596899999989],[28.36654100000017,40.398493000000094],[28.365343999999933,40.398061999999975],[28.352623000000147,40.40014199999988],[28.341243999999943,40.401664999999866],[28.337467000000007,40.40112600000007],[28.33685599999988,40.401121000000074],[28.335169000000004,40.40139700000001],[28.333300999999942,40.4009829999999],[28.33283400000014,40.40093099999998],[28.331183000000077,40.401198999999835],[28.32970899999978,40.40048399999991],[28.323181999999903,40.398265999999914],[28.317607999999865,40.398633000000096],[28.316985999999815,40.39853999999992],[28.31633899999999,40.39843400000014],[28.316318000000166,40.39844299999995],[28.313622,40.39807100000007],[28.312327000000113,40.397665999999845],[28.311515999999955,40.397800999999966],[28.307572999999884,40.39773400000015],[28.2996790000001,40.3962879999999],[28.299377000000078,40.39624999999985],[28.28591899999992,40.40172499999998],[28.289392000000042,40.39751200000008],[28.286070000000016,40.4005380000001],[28.26831900000008,40.400526999999926],[28.26586799999989,40.400769],[28.26244699999989,40.40164900000007],[28.25817400000002,40.40134100000011],[28.25793199999984,40.40135300000002],[28.246039999999862,40.402294999999974],[28.22605500000022,40.399141000000085],[28.22769699999995,40.39930099999991],[28.230483000000067,40.36083100000008],[28.236816999999988,40.35250999999998],[28.218513999999967,40.3368330000001],[28.208358000000093,40.33315699999983],[28.20586000000009,40.337608999999894],[28.19399799999987,40.32513899999992],[28.191841000000036,40.31451600000008],[28.179653999999836,40.31430900000002],[28.167559000000175,40.30549299999994],[28.174270999999887,40.26886800000003],[28.167245000000136,40.248466999999984],[28.154532,40.24445100000005],[28.121110999999782,40.26641899999994],[28.11424899999993,40.26028999999996],[28.10848000000005,40.26655699999997],[28.087187999999877,40.25234000000017]]]],"type":"MultiPolygon"}},{"type":"Feature","properties":{"area_id":"TR-16-008","name_tr":"Keles","area_level":"district","parent_id":"TR-16","endeksa_id":1457},"geometry":{"coordinates":[[[29.078045,39.994976],[29.085788,39.974541],[29.073502,39.964954],[29.101512,39.966066],[29.114593,39.960194],[29.117628,39.94152],[29.109538,39.934607],[29.107783,39.902823],[29.094633,39.896347],[29.089024,39.881466],[29.090947,39.86412],[29.104309,39.861745],[29.104636,39.845617],[29.113351,39.845617],[29.1313,39.834077],[29.133169,39.827489],[29.141143,39.827262],[29.139606,39.821137],[29.150237,39.819742],[29.144949,39.816323],[29.147212,39.807675],[29.159409,39.803982],[29.165509,39.792865],[29.163336,39.779641],[29.169622,39.780729],[29.177608,39.769196],[29.196109,39.765017],[29.206246,39.768498],[29.20952,39.7632],[29.22864,39.759474],[29.242728,39.744275],[29.248093,39.747376],[29.249111,39.735115],[29.256735,39.739209],[29.272269,39.732567],[29.284065,39.724443],[29.28479,39.717367],[29.363072,39.781492],[29.421881,39.822043],[29.423712,39.830934],[29.417693,39.838137],[29.425225,39.844325],[29.42966,39.838925],[29.442227,39.85066],[29.440503,39.86742],[29.44683,39.873234],[29.454441,39.90347],[29.430559,39.919815],[29.415752,39.907586],[29.402545,39.913732],[29.384841,39.908387],[29.374085,39.914582],[29.364165,39.932435],[29.369678,39.943576],[29.35425,39.948597],[29.358127,39.958185],[29.310894,39.992509],[29.298345,40.032879],[29.265236,40.04744],[29.252654,40.049657],[29.246874,40.037667],[29.222224,40.024199],[29.201836,39.993748],[29.202834,39.986324],[29.185528,39.990335],[29.180978,39.989176],[29.185164,39.98545],[29.15571,39.981989],[29.143508,39.998721],[29.109433,40.014093],[29.093225,39.988503],[29.078045,39.994976]]],"type":"Polygon"}},{"type":"Feature","properties":{"area_id":"TR-16-010","name_tr":"Mudanya","area_level":"district","parent_id":"TR-16","endeksa_id":1530},"geometry":{"coordinates":[[[28.54218,40.385448],[28.542085,40.385142],[28.539311,40.359474],[28.548408,40.350506],[28.55786,40.353427],[28.574365,40.343794],[28.548318,40.316996],[28.559942,40.302079],[28.576412,40.309658],[28.583819,40.305366],[28.593747,40.31506],[28.612038,40.30632],[28.617779,40.310144],[28.615008,40.31555],[28.62752,40.314288],[28.623347,40.298456],[28.627783,40.301983],[28.648217,40.291726],[28.647414,40.285441],[28.653731,40.283654],[28.649795,40.276927],[28.659728,40.278991],[28.662845,40.269065],[28.682768,40.279126],[28.681714,40.284062],[28.691625,40.270783],[28.701739,40.281145],[28.713215,40.271392],[28.734184,40.272566],[28.742194,40.284335],[28.737807,40.293018],[28.740818,40.300053],[28.752146,40.298463],[28.750244,40.280657],[28.764225,40.278142],[28.762461,40.269552],[28.768686,40.271564],[28.779828,40.26249],[28.812117,40.264401],[28.812206,40.256891],[28.823438,40.264342],[28.827509,40.25823],[28.832592,40.264338],[28.841251,40.260845],[28.849167,40.26693],[28.845868,40.272137],[28.861187,40.272072],[28.868664,40.279558],[28.88328,40.273651],[28.887915,40.282189],[28.906653,40.273984],[28.926352,40.275128],[28.932638,40.280843],[28.937817,40.291097],[28.958888,40.299469],[28.959811,40.307801],[28.984073,40.326705],[28.975454,40.338789],[28.985677,40.34263],[28.986142,40.350512],[28.997823,40.348414],[28.993353,40.358522],[28.992991,40.358505],[28.992629,40.35835],[28.98888,40.357088],[28.985392,40.356333],[28.974963,40.355954],[28.97289,40.356063],[28.972031,40.35634],[28.969128,40.357276],[28.963432,40.358741],[28.960141,40.359059],[28.959562,40.358814],[28.952237,40.359003],[28.949291,40.357839],[28.941118,40.35639],[28.939824,40.356814],[28.939751,40.356807],[28.936445,40.355963],[28.936001,40.3565],[28.926407,40.356544],[28.92629,40.356321],[28.925578,40.356651],[28.895134,40.371458],[28.890228,40.374365],[28.89032,40.374444],[28.883457,40.37943],[28.877357,40.38244],[28.8766,40.38271],[28.867554,40.385182],[28.864912,40.385279],[28.863572,40.384928],[28.862307,40.384653],[28.859724,40.384297],[28.856588,40.382634],[28.854927,40.381905],[28.832743,40.383621],[28.828701,40.384291],[28.828262,40.385147],[28.827116,40.385946],[28.800268,40.392795],[28.775053,40.394958],[28.769067,40.394713],[28.763602,40.392836],[28.756125,40.390749],[28.755931,40.390741],[28.752177,40.390587],[28.746631,40.38821],[28.743769,40.387347],[28.740495,40.38709],[28.735773,40.384651],[28.731571,40.383142],[28.693262,40.375432],[28.686721,40.375224],[28.679853,40.375581],[28.676709,40.374741],[28.676051,40.374577],[28.675506,40.374583],[28.675474,40.374346],[28.674934,40.373881],[28.674266,40.372517],[28.677046,40.369619],[28.678143,40.367996],[28.677398,40.366137],[28.677246,40.366025],[28.672892,40.363421],[28.670003,40.36238],[28.668248,40.362084],[28.664292,40.361476],[28.661497,40.361209],[28.652482,40.361318],[28.652271,40.36141],[28.645362,40.362285],[28.6365,40.363551],[28.583005,40.373168],[28.573854,40.375504],[28.560362,40.379298],[28.546679,40.383667],[28.54218,40.385448]]],"type":"Polygon"}},{"type":"Feature","properties":{"area_id":"TR-16-011","name_tr":"Mustafakemalpaşa","area_level":"district","parent_id":"TR-16","endeksa_id":1535},"geometry":{"coordinates":[[[28.20762,40.103579],[28.217448,40.094551],[28.217973,40.078281],[28.204385,40.068479],[28.199698,40.054933],[28.186925,40.047361],[28.188771,40.036867],[28.19922,40.031577],[28.191346,40.027352],[28.192733,40.018597],[28.184721,40.012834],[28.194849,40.008751],[28.209451,39.988339],[28.228161,40.003398],[28.248306,40.000096],[28.253395,39.993746],[28.250524,39.974805],[28.256974,39.973414],[28.251804,39.965612],[28.263893,39.95934],[28.263788,39.938327],[28.249257,39.93615],[28.23777,39.922326],[28.249501,39.921262],[28.248295,39.898678],[28.262337,39.898006],[28.2541,39.891918],[28.253038,39.881957],[28.314771,39.85772],[28.32474,39.863464],[28.32811,39.86056],[28.32089,39.8558],[28.33943,39.85026],[28.35373,39.853],[28.355508,39.858481],[28.363335,39.851208],[28.405057,39.853504],[28.406472,39.860205],[28.421589,39.862302],[28.437556,39.857083],[28.460207,39.841096],[28.433967,39.805455],[28.457187,39.798532],[28.47181,39.801407],[28.495153,39.775644],[28.520754,39.761475],[28.519618,39.75543],[28.525275,39.752059],[28.538551,39.761603],[28.542151,39.753485],[28.611951,39.758237],[28.62431,39.7701],[28.666789,39.78595],[28.694859,39.768621],[28.71271,39.77174],[28.725473,39.760659],[28.730374,39.768597],[28.701177,39.7902],[28.685093,39.827207],[28.706952,39.816963],[28.751448,39.821326],[28.770037,39.812298],[28.773494,39.819939],[28.766591,39.829919],[28.774786,39.842508],[28.76401,39.846419],[28.761024,39.856011],[28.768025,39.8642],[28.759746,39.873815],[28.73503,39.870547],[28.738811,39.877774],[28.729039,39.883721],[28.730236,39.892159],[28.725787,39.891521],[28.732845,39.897921],[28.732751,39.907947],[28.725371,39.931124],[28.761291,39.94898],[28.785376,39.970656],[28.796268,40.002139],[28.776615,40.001958],[28.768547,40.01632],[28.762575,40.012994],[28.769919,40.027489],[28.768879,40.039434],[28.760691,40.044658],[28.763957,40.049189],[28.753525,40.063437],[28.738953,40.066733],[28.707215,40.079105],[28.712025,40.097529],[28.70405,40.102931],[28.704367,40.113373],[28.6736,40.112466],[28.670594,40.122636],[28.683811,40.130257],[28.682402,40.133941],[28.66866,40.129512],[28.64955,40.165189],[28.634681,40.16923],[28.592899,40.156396],[28.517503,40.181261],[28.472448,40.185159],[28.448778,40.17261],[28.428476,40.178361],[28.424128,40.158692],[28.40734,40.153046],[28.402777,40.14414],[28.410259,40.137887],[28.402967,40.133095],[28.40313,40.125811],[28.414439,40.113191],[28.402617,40.111014],[28.407013,40.098948],[28.368364,40.091568],[28.36335,40.079933],[28.357329,40.078386],[28.373048,40.064568],[28.368136,40.060595],[28.359482,40.064359],[28.316518,40.056781],[28.297944,40.059576],[28.278234,40.077233],[28.283556,40.097679],[28.266353,40.106425],[28.225041,40.111598],[28.20762,40.103579]]],"type":"Polygon"}},{"type":"Feature","properties":{"area_id":"TR-16-013","name_tr":"Orhaneli","area_level":"district","parent_id":"TR-16","endeksa_id":1553},"geometry":{"coordinates":[[[28.738953,40.066733],[28.753525,40.063437],[28.763957,40.049189],[28.760691,40.044658],[28.768879,40.039434],[28.769919,40.027489],[28.762575,40.012994],[28.768547,40.01632],[28.776615,40.001958],[28.796268,40.002139],[28.785376,39.970656],[28.761291,39.94898],[28.725371,39.931124],[28.732751,39.907947],[28.732845,39.897921],[28.725787,39.891521],[28.730236,39.892159],[28.729039,39.883721],[28.738811,39.877774],[28.73503,39.870547],[28.759746,39.873815],[28.768025,39.8642],[28.761024,39.856011],[28.76401,39.846419],[28.774786,39.842508],[28.802675,39.83965],[28.808323,39.829218],[28.826919,39.824831],[28.847952,39.854854],[28.847315,39.864035],[28.839501,39.86929],[28.847197,39.875025],[28.861776,39.875881],[28.868859,39.86764],[28.890468,39.860616],[28.911078,39.862366],[28.914133,39.855687],[28.9045,39.838366],[28.916239,39.838616],[28.915861,39.82769],[28.948008,39.826424],[28.942415,39.783589],[28.9851,39.787832],[28.982728,39.775365],[28.971138,39.768675],[28.986522,39.759192],[29.001584,39.759365],[28.998087,39.766668],[29.014467,39.762462],[29.010459,39.734438],[29.046602,39.720185],[29.07003,39.709345],[29.079062,39.71194],[29.082291,39.714997],[29.064577,39.720339],[29.081804,39.726041],[29.073828,39.742258],[29.082921,39.755039],[29.090068,39.753074],[29.104347,39.760527],[29.09531,39.775196],[29.13144,39.777021],[29.151399,39.797953],[29.147212,39.807675],[29.144949,39.816323],[29.150237,39.819742],[29.139606,39.821137],[29.141143,39.827262],[29.133169,39.827489],[29.1313,39.834077],[29.113351,39.845617],[29.104636,39.845617],[29.104309,39.861745],[29.090947,39.86412],[29.089024,39.881466],[29.094633,39.896347],[29.107783,39.902823],[29.109538,39.934607],[29.117628,39.94152],[29.114593,39.960194],[29.101512,39.966066],[29.073502,39.964954],[29.085788,39.974541],[29.078045,39.994976],[29.068152,40.004131],[29.070662,40.014673],[29.081061,40.016961],[29.076432,40.017988],[29.077629,40.030423],[29.068756,40.046858],[29.056516,40.051742],[29.039929,40.041278],[29.033424,40.048184],[29.024898,40.043899],[29.022524,40.052605],[29.014725,40.049491],[29.013752,40.053243],[28.959933,40.0419],[28.947028,40.052072],[28.926369,40.054979],[28.924925,40.083217],[28.909798,40.086302],[28.895205,40.074787],[28.877192,40.082942],[28.877205,40.07367],[28.876957,40.083036],[28.870514,40.085166],[28.826779,40.084237],[28.812238,40.076129],[28.778746,40.081921],[28.760088,40.073881],[28.759919,40.065298],[28.738953,40.066733]]],"type":"Polygon"}},{"type":"Feature","properties":{"area_id":"TR-16-014","name_tr":"Orhangazi","area_level":"district","parent_id":"TR-16","endeksa_id":1554},"geometry":{"coordinates":[[[29.205225,40.532808],[29.201756,40.523164],[29.207431,40.497318],[29.238828,40.480202],[29.233729,40.455898],[29.243162,40.427717],[29.236269,40.427199],[29.227129,40.406332],[29.218785,40.40424],[29.221032,40.39853],[29.249109,40.397543],[29.255278,40.376762],[29.266571,40.372452],[29.302796,40.370667],[29.328073,40.377124],[29.392937,40.346396],[29.412617,40.350998],[29.432646,40.345614],[29.446278,40.360268],[29.460734,40.357895],[29.461524,40.349475],[29.475245,40.34497],[29.504059,40.348813],[29.506484,40.374344],[29.501296,40.380743],[29.507638,40.383308],[29.503408,40.387863],[29.514234,40.387252],[29.514635,40.496376],[29.519498,40.503883],[29.513579,40.525822],[29.517868,40.52731],[29.506159,40.529981],[29.499077,40.523865],[29.494283,40.536888],[29.49789,40.541361],[29.492468,40.555157],[29.482077,40.559833],[29.484458,40.566274],[29.45679,40.563204],[29.456373,40.554475],[29.447127,40.552409],[29.447271,40.540661],[29.418635,40.544995],[29.386749,40.555027],[29.377519,40.562359],[29.378823,40.56801],[29.366528,40.562058],[29.34643,40.566886],[29.333212,40.558311],[29.314374,40.524374],[29.288803,40.535332],[29.267897,40.536608],[29.241685,40.532085],[29.229101,40.520592],[29.213556,40.524188],[29.205225,40.532808]]],"type":"Polygon"}},{"type":"Feature","properties":{"area_id":"TR-16-016","name_tr":"Yenişehir","area_level":"district","parent_id":"TR-16","endeksa_id":1725},"geometry":{"coordinates":[[[29.360918,40.327404],[29.364043,40.321004],[29.354639,40.309589],[29.361994,40.303587],[29.395951,40.303702],[29.40412,40.299127],[29.419458,40.276285],[29.413472,40.271336],[29.412692,40.258161],[29.399907,40.245338],[29.41181,40.246119],[29.430254,40.219946],[29.460614,40.217738],[29.471588,40.226222],[29.481483,40.223279],[29.472854,40.217421],[29.478201,40.21216],[29.493406,40.216965],[29.500204,40.208377],[29.527588,40.208546],[29.548704,40.16818],[29.56286,40.164289],[29.55994,40.154724],[29.580097,40.152246],[29.58839,40.159752],[29.590141,40.155717],[29.601961,40.159099],[29.609951,40.152774],[29.626876,40.151322],[29.629457,40.147095],[29.623065,40.138131],[29.63209,40.124099],[29.676276,40.129626],[29.675761,40.141865],[29.692766,40.1491],[29.693813,40.143703],[29.709197,40.13971],[29.715418,40.151117],[29.709612,40.160051],[29.720627,40.159891],[29.738228,40.179843],[29.739697,40.191185],[29.761164,40.163333],[29.786291,40.165103],[29.783515,40.181555],[29.790239,40.187441],[29.785162,40.194805],[29.791698,40.208453],[29.777277,40.219756],[29.772146,40.233318],[29.799264,40.233501],[29.79425,40.23939],[29.801958,40.24382],[29.811465,40.236685],[29.847095,40.242181],[29.847091,40.255167],[29.824944,40.263005],[29.83145,40.280078],[29.846412,40.28418],[29.841762,40.291126],[29.846561,40.309638],[29.834332,40.330992],[29.847111,40.34382],[29.857192,40.343734],[29.859632,40.351147],[29.848068,40.359841],[29.790379,40.35013],[29.786748,40.362847],[29.783372,40.372382],[29.776456,40.374035],[29.777737,40.380494],[29.727893,40.371835],[29.702079,40.379515],[29.690219,40.369634],[29.688543,40.342223],[29.666035,40.326102],[29.650686,40.351048],[29.63117,40.358777],[29.630432,40.354213],[29.622876,40.355094],[29.619271,40.36211],[29.612882,40.359289],[29.604717,40.364194],[29.581197,40.357495],[29.570261,40.347809],[29.546026,40.355445],[29.526885,40.352434],[29.522131,40.3441],[29.508614,40.341242],[29.504059,40.348813],[29.475245,40.34497],[29.461524,40.349475],[29.460734,40.357895],[29.446278,40.360268],[29.432646,40.345614],[29.412617,40.350998],[29.392937,40.346396],[29.360918,40.327404]]],"type":"Polygon"}},{"type":"Feature","properties":{"area_id":"TR-16-001","name_tr":"Büyükorhan","area_level":"district","parent_id":"TR-16","endeksa_id":1783},"geometry":{"coordinates":[[[28.685093,39.827207],[28.701177,39.7902],[28.730374,39.768597],[28.725473,39.760659],[28.73461,39.75895],[28.725324,39.736376],[28.731182,39.703691],[28.725557,39.691879],[28.731527,39.684972],[28.750338,39.690314],[28.771256,39.6816],[28.774525,39.686898],[28.77216,39.681879],[28.75953,39.677325],[28.76516,39.667201],[28.756753,39.661034],[28.758004,39.654727],[28.788735,39.643616],[28.779991,39.635501],[28.791218,39.638694],[28.787694,39.631325],[28.796024,39.624644],[28.838893,39.613134],[28.85723,39.618653],[28.867537,39.612557],[28.865769,39.618701],[28.89334,39.625166],[28.90543,39.620037],[28.940102,39.622941],[28.944765,39.618595],[28.964989,39.656235],[28.982424,39.662668],[28.993547,39.691302],[29.001606,39.688627],[29.028439,39.700974],[29.046602,39.720185],[29.010459,39.734438],[29.014467,39.762462],[28.998087,39.766668],[29.001584,39.759365],[28.986522,39.759192],[28.971138,39.768675],[28.982728,39.775365],[28.9851,39.787832],[28.942415,39.783589],[28.948008,39.826424],[28.915861,39.82769],[28.916239,39.838616],[28.9045,39.838366],[28.914133,39.855687],[28.911078,39.862366],[28.890468,39.860616],[28.868859,39.86764],[28.861776,39.875881],[28.847197,39.875025],[28.839501,39.86929],[28.847315,39.864035],[28.847952,39.854854],[28.826919,39.824831],[28.808323,39.829218],[28.802675,39.83965],[28.774786,39.842508],[28.766591,39.829919],[28.773494,39.819939],[28.770037,39.812298],[28.751448,39.821326],[28.706952,39.816963],[28.685093,39.827207]]],"type":"Polygon"}},{"type":"Feature","properties":{"area_id":"TR-16-004","name_tr":"Harmancık","area_level":"district","parent_id":"TR-16","endeksa_id":1799},"geometry":{"coordinates":[[[28.944765,39.618595],[28.955277,39.619263],[28.96935,39.610647],[28.976515,39.613917],[28.982814,39.607219],[28.994763,39.610659],[28.991565,39.60739],[29.094425,39.595313],[29.138957,39.583477],[29.174298,39.582271],[29.210194,39.609171],[29.227354,39.651097],[29.257222,39.700629],[29.28479,39.717367],[29.284065,39.724443],[29.272269,39.732567],[29.256735,39.739209],[29.249111,39.735115],[29.248093,39.747376],[29.242728,39.744275],[29.22864,39.759474],[29.20952,39.7632],[29.206246,39.768498],[29.196109,39.765017],[29.177608,39.769196],[29.169622,39.780729],[29.163336,39.779641],[29.165509,39.792865],[29.159409,39.803982],[29.147212,39.807675],[29.151399,39.797953],[29.13144,39.777021],[29.09531,39.775196],[29.104347,39.760527],[29.090068,39.753074],[29.082921,39.755039],[29.073828,39.742258],[29.081804,39.726041],[29.064577,39.720339],[29.082291,39.714997],[29.079062,39.71194],[29.07003,39.709345],[29.046602,39.720185],[29.028439,39.700974],[29.001606,39.688627],[28.993547,39.691302],[28.982424,39.662668],[28.964989,39.656235],[28.944765,39.618595]]],"type":"Polygon"}},{"type":"Feature","properties":{"area_id":"TR-16-012","name_tr":"Nilüfer","area_level":"district","parent_id":"TR-16","endeksa_id":1829},"geometry":{"coordinates":[[[28.662845,40.269065],[28.664953,40.246323],[28.685919,40.236757],[28.687274,40.219742],[28.663649,40.177831],[28.65163,40.182111],[28.64955,40.165189],[28.66866,40.129512],[28.682402,40.133941],[28.683811,40.130257],[28.670594,40.122636],[28.6736,40.112466],[28.704367,40.113373],[28.70405,40.102931],[28.712025,40.097529],[28.707215,40.079105],[28.738953,40.066733],[28.759919,40.065298],[28.760088,40.073881],[28.778746,40.081921],[28.812238,40.076129],[28.826779,40.084237],[28.870514,40.085166],[28.876957,40.083036],[28.877205,40.07367],[28.877192,40.082942],[28.895205,40.074787],[28.909798,40.086302],[28.924925,40.083217],[28.924251,40.10135],[28.943124,40.112201],[28.937441,40.110395],[28.937592,40.117091],[28.932632,40.113145],[28.930874,40.127491],[28.946547,40.132759],[28.950687,40.141454],[28.965379,40.136675],[28.976829,40.155565],[28.980306,40.175561],[28.998714,40.185658],[28.99868,40.204401],[29.00967,40.213194],[28.955954,40.25163],[28.947401,40.269206],[28.932638,40.280843],[28.926352,40.275128],[28.906653,40.273984],[28.887915,40.282189],[28.88328,40.273651],[28.868664,40.279558],[28.861187,40.272072],[28.845868,40.272137],[28.849167,40.26693],[28.841251,40.260845],[28.832592,40.264338],[28.827509,40.25823],[28.823438,40.264342],[28.812206,40.256891],[28.812117,40.264401],[28.779828,40.26249],[28.768686,40.271564],[28.762461,40.269552],[28.764225,40.278142],[28.750244,40.280657],[28.752146,40.298463],[28.740818,40.300053],[28.737807,40.293018],[28.742194,40.284335],[28.734184,40.272566],[28.713215,40.271392],[28.701739,40.281145],[28.691625,40.270783],[28.681714,40.284062],[28.682768,40.279126],[28.662845,40.269065]]],"type":"Polygon"}},{"type":"Feature","properties":{"area_id":"TR-16-015","name_tr":"Osmangazi","area_level":"district","parent_id":"TR-16","endeksa_id":1832},"geometry":{"coordinates":[[[28.932638,40.280843],[28.947401,40.269206],[28.955954,40.25163],[29.00967,40.213194],[28.99868,40.204401],[28.998714,40.185658],[28.980306,40.175561],[28.976829,40.155565],[28.965379,40.136675],[28.950687,40.141454],[28.946547,40.132759],[28.930874,40.127491],[28.932632,40.113145],[28.937592,40.117091],[28.937441,40.110395],[28.943124,40.112201],[28.924251,40.10135],[28.924925,40.083217],[28.926369,40.054979],[28.947028,40.052072],[28.959933,40.0419],[29.013752,40.053243],[29.014725,40.049491],[29.022524,40.052605],[29.024898,40.043899],[29.033424,40.048184],[29.039929,40.041278],[29.056516,40.051742],[29.068756,40.046858],[29.077629,40.030423],[29.076432,40.017988],[29.081061,40.016961],[29.070662,40.014673],[29.068152,40.004131],[29.078045,39.994976],[29.093225,39.988503],[29.109433,40.014093],[29.143508,39.998721],[29.15571,39.981989],[29.185164,39.98545],[29.180978,39.989176],[29.185528,39.990335],[29.202834,39.986324],[29.201836,39.993748],[29.222224,40.024199],[29.246874,40.037667],[29.252654,40.049657],[29.265236,40.04744],[29.267619,40.055466],[29.216601,40.072927],[29.218578,40.078274],[29.2032,40.0961],[29.225513,40.123884],[29.199256,40.125512],[29.18862,40.12032],[29.1836,40.13488],[29.16416,40.13065],[29.130566,40.135935],[29.132384,40.122046],[29.109548,40.118791],[29.102731,40.124501],[29.100355,40.138258],[29.07398,40.14176],[29.061198,40.171499],[29.086604,40.200138],[29.090601,40.232194],[29.118177,40.238108],[29.116404,40.242397],[29.135073,40.251719],[29.133096,40.270405],[29.157938,40.284814],[29.161589,40.280556],[29.194898,40.285832],[29.194628,40.292586],[29.205574,40.298819],[29.200328,40.308071],[29.22458,40.311346],[29.220841,40.314085],[29.231309,40.323346],[29.228798,40.330939],[29.225853,40.342139],[29.18744,40.350575],[29.152988,40.34254],[29.148705,40.356646],[29.139612,40.36132],[29.114667,40.347448],[29.077611,40.362488],[29.057527,40.354503],[29.051414,40.344122],[28.997823,40.348414],[28.986142,40.350512],[28.985677,40.34263],[28.975454,40.338789],[28.984073,40.326705],[28.959811,40.307801],[28.958888,40.299469],[28.937817,40.291097],[28.932638,40.280843]]],"type":"Polygon"}},{"type":"Feature","properties":{"area_id":"TR-16-017","name_tr":"Yıldırım","area_level":"district","parent_id":"TR-16","endeksa_id":1859},"geometry":{"coordinates":[[[29.061198,40.171499],[29.07398,40.14176],[29.100355,40.138258],[29.102731,40.124501],[29.109548,40.118791],[29.132384,40.122046],[29.130566,40.135935],[29.16416,40.13065],[29.1836,40.13488],[29.18862,40.12032],[29.199256,40.125512],[29.207861,40.162174],[29.201056,40.166634],[29.212225,40.171924],[29.20188,40.181106],[29.202615,40.186563],[29.193001,40.187614],[29.192313,40.199027],[29.178806,40.198367],[29.175592,40.209575],[29.179511,40.213208],[29.167131,40.227224],[29.153945,40.224105],[29.138797,40.230022],[29.145472,40.235477],[29.139907,40.246271],[29.143754,40.25143],[29.135073,40.251719],[29.116404,40.242397],[29.118177,40.238108],[29.090601,40.232194],[29.086604,40.200138],[29.061198,40.171499]]],"type":"Polygon"}},{"type":"Feature","properties":{"area_id":"TR-16-003","name_tr":"Gürsu","area_level":"district","parent_id":"TR-16","endeksa_id":1935},"geometry":{"coordinates":[[[29.133096,40.270405],[29.135073,40.251719],[29.143754,40.25143],[29.139907,40.246271],[29.145472,40.235477],[29.138797,40.230022],[29.153945,40.224105],[29.167131,40.227224],[29.179511,40.213208],[29.175592,40.209575],[29.178806,40.198367],[29.192313,40.199027],[29.214532,40.211552],[29.244716,40.214223],[29.238447,40.231001],[29.243311,40.235678],[29.260054,40.22864],[29.258909,40.248187],[29.270286,40.24782],[29.285092,40.256764],[29.27478,40.271576],[29.276543,40.28721],[29.291456,40.296885],[29.305621,40.317525],[29.299912,40.325903],[29.300343,40.339645],[29.290501,40.337084],[29.298539,40.335606],[29.294221,40.330416],[29.284212,40.333765],[29.26145,40.326151],[29.228798,40.330939],[29.231309,40.323346],[29.220841,40.314085],[29.22458,40.311346],[29.200328,40.308071],[29.205574,40.298819],[29.194628,40.292586],[29.194898,40.285832],[29.161589,40.280556],[29.157938,40.284814],[29.133096,40.270405]]],"type":"Polygon"}},{"type":"Feature","properties":{"area_id":"TR-16-009","name_tr":"Kestel","area_level":"district","parent_id":"TR-16","endeksa_id":1960},"geometry":{"coordinates":[[[29.192313,40.199027],[29.193001,40.187614],[29.202615,40.186563],[29.20188,40.181106],[29.212225,40.171924],[29.201056,40.166634],[29.207861,40.162174],[29.199256,40.125512],[29.225513,40.123884],[29.2032,40.0961],[29.218578,40.078274],[29.216601,40.072927],[29.267619,40.055466],[29.289191,40.072048],[29.316592,40.071656],[29.365129,40.097288],[29.377538,40.101747],[29.387867,40.098469],[29.377945,40.104373],[29.389234,40.114497],[29.388087,40.124586],[29.399028,40.127342],[29.38528,40.145703],[29.387191,40.156031],[29.39806,40.159293],[29.394376,40.1731],[29.423495,40.178002],[29.428192,40.187462],[29.459371,40.201402],[29.46761,40.207718],[29.460614,40.217738],[29.430254,40.219946],[29.41181,40.246119],[29.399907,40.245338],[29.412692,40.258161],[29.413472,40.271336],[29.419458,40.276285],[29.40412,40.299127],[29.395951,40.303702],[29.361994,40.303587],[29.354639,40.309589],[29.34551,40.30812],[29.329102,40.317724],[29.305621,40.317525],[29.291456,40.296885],[29.276543,40.28721],[29.27478,40.271576],[29.285092,40.256764],[29.270286,40.24782],[29.258909,40.248187],[29.260054,40.22864],[29.243311,40.235678],[29.238447,40.231001],[29.244716,40.214223],[29.214532,40.211552],[29.192313,40.199027]]],"type":"Polygon"}}]}