{"type":"FeatureCollection","area_id":"TR-12","name_tr":"Bingöl","source_id":"endeksa","licence":null,"retrieved_at":"2026-08-23","features":[{"type":"Feature","properties":{"area_id":"TR-12-002","name_tr":"Bingöl","area_level":"district","parent_id":"TR-12","endeksa_id":1193},"geometry":{"coordinates":[[[40.180797,38.972722],[40.186964,38.955855],[40.182498,38.937253],[40.19526,38.935872],[40.17936,38.918824],[40.200369,38.887296],[40.252196,38.881384],[40.256166,38.876908],[40.249453,38.86411],[40.25586,38.850339],[40.287915,38.850215],[40.299884,38.83917],[40.323533,38.838579],[40.32628,38.832896],[40.372308,38.821305],[40.368538,38.810782],[40.376551,38.807413],[40.371284,38.80449],[40.375177,38.798445],[40.371735,38.781353],[40.349145,38.766145],[40.333555,38.764073],[40.333104,38.75506],[40.302154,38.750441],[40.292561,38.736535],[40.313269,38.723685],[40.346694,38.72486],[40.364947,38.717238],[40.390142,38.723982],[40.403063,38.711883],[40.439989,38.715685],[40.514143,38.739844],[40.534373,38.75872],[40.556474,38.767893],[40.569743,38.762699],[40.585273,38.767049],[40.587155,38.775017],[40.602539,38.77433],[40.604288,38.788647],[40.614685,38.790064],[40.654291,38.81801],[40.694832,38.820373],[40.714765,38.83919],[40.738046,38.837855],[40.74231,38.843183],[40.821406,38.862921],[40.809794,38.891121],[40.80894,38.911581],[40.815807,38.915467],[40.830683,38.910873],[40.836837,38.945566],[40.846661,38.947078],[40.848815,38.955075],[40.839095,38.959139],[40.846401,38.988276],[40.835367,38.989643],[40.841193,38.994215],[40.837874,38.996564],[40.791981,39.008968],[40.78934,39.017742],[40.791671,39.031799],[40.804769,39.042313],[40.808471,39.053987],[40.818981,39.060062],[40.827901,39.050446],[40.849088,39.066469],[40.836956,39.074834],[40.821102,39.075331],[40.787095,39.097475],[40.749053,39.10298],[40.740632,39.112962],[40.681686,39.098475],[40.688316,39.085821],[40.671088,39.079676],[40.666946,39.061677],[40.640627,39.053158],[40.630958,39.056093],[40.626906,39.063847],[40.621699,39.060473],[40.613464,39.065972],[40.609439,39.077499],[40.615252,39.086317],[40.597417,39.085652],[40.559437,39.071975],[40.563702,39.075648],[40.560376,39.090603],[40.567455,39.099223],[40.561795,39.102647],[40.561809,39.112366],[40.547567,39.121534],[40.514573,39.100099],[40.490649,39.092136],[40.468695,39.098223],[40.46728,39.102886],[40.498977,39.112291],[40.507479,39.130171],[40.502476,39.132672],[40.475233,39.128414],[40.451539,39.115552],[40.444148,39.116639],[40.442187,39.130441],[40.43532,39.134308],[40.42141,39.136506],[40.406222,39.124201],[40.398787,39.131892],[40.386341,39.134949],[40.391178,39.142433],[40.379454,39.148363],[40.376315,39.140143],[40.370011,39.141746],[40.381125,39.115062],[40.376183,39.107091],[40.362624,39.111187],[40.344097,39.101484],[40.301535,39.117622],[40.254085,39.063624],[40.231047,39.024083],[40.233828,38.989686],[40.228053,38.973452],[40.220708,38.978185],[40.205633,38.962286],[40.201422,38.971681],[40.180797,38.972722]]],"type":"Polygon"}},{"type":"Feature","properties":{"area_id":"TR-12-003","name_tr":"Genç","area_level":"district","parent_id":"TR-12","endeksa_id":1344},"geometry":{"coordinates":[[[40.14203,38.649178],[40.139708,38.626775],[40.149059,38.626953],[40.146007,38.623591],[40.158984,38.604407],[40.148515,38.599437],[40.149534,38.584409],[40.174923,38.58653],[40.213606,38.558735],[40.224936,38.565227],[40.238106,38.561885],[40.242278,38.556864],[40.237922,38.554017],[40.240087,38.534091],[40.247068,38.534284],[40.244675,38.525949],[40.249542,38.523653],[40.251388,38.508785],[40.267708,38.505184],[40.268859,38.49748],[40.302348,38.4979],[40.307968,38.489448],[40.354336,38.489252],[40.358628,38.494534],[40.347748,38.524618],[40.352047,38.534589],[40.388182,38.557368],[40.431361,38.57031],[40.414015,38.578458],[40.441132,38.577803],[40.436785,38.586864],[40.445258,38.59039],[40.444076,38.600287],[40.436558,38.604736],[40.440221,38.608444],[40.430495,38.625506],[40.435078,38.633452],[40.445882,38.636204],[40.477325,38.62645],[40.491504,38.61247],[40.504544,38.60912],[40.499107,38.605917],[40.507902,38.600377],[40.603903,38.573918],[40.641954,38.575855],[40.633538,38.589206],[40.644233,38.597436],[40.637281,38.619482],[40.647892,38.632015],[40.666737,38.626435],[40.684435,38.605292],[40.70772,38.607315],[40.720618,38.600546],[40.751173,38.615366],[40.764894,38.590941],[40.762074,38.583568],[40.750693,38.587292],[40.74426,38.578694],[40.751542,38.56362],[40.783748,38.579837],[40.798621,38.579892],[40.861761,38.626701],[40.913277,38.630193],[40.944624,38.639996],[40.97018,38.657136],[40.986726,38.680459],[41.01408,38.695883],[41.00462,38.709098],[41.013006,38.751831],[41.031643,38.761223],[41.023996,38.762957],[40.988709,38.748147],[40.965813,38.747755],[40.94399,38.764187],[40.961128,38.774489],[40.944748,38.781852],[40.944897,38.789938],[40.924506,38.789666],[40.898019,38.808691],[40.888794,38.809572],[40.864341,38.845656],[40.841599,38.865571],[40.828258,38.867715],[40.821406,38.862921],[40.74231,38.843183],[40.738046,38.837855],[40.714765,38.83919],[40.694832,38.820373],[40.654291,38.81801],[40.614685,38.790064],[40.604288,38.788647],[40.602539,38.77433],[40.587155,38.775017],[40.585273,38.767049],[40.569743,38.762699],[40.556474,38.767893],[40.534373,38.75872],[40.514143,38.739844],[40.439989,38.715685],[40.403063,38.711883],[40.390142,38.723982],[40.364947,38.717238],[40.346694,38.72486],[40.313269,38.723685],[40.292561,38.736535],[40.264344,38.743377],[40.260059,38.718673],[40.251821,38.718161],[40.245946,38.703708],[40.235029,38.698794],[40.217544,38.706501],[40.213988,38.694348],[40.20461,38.694945],[40.203999,38.686223],[40.194931,38.687458],[40.183035,38.676967],[40.170096,38.679292],[40.153161,38.667789],[40.150166,38.652717],[40.14203,38.649178]]],"type":"Polygon"}},{"type":"Feature","properties":{"area_id":"TR-12-004","name_tr":"Karlıova","area_level":"district","parent_id":"TR-12","endeksa_id":1446},"geometry":{"coordinates":[[[40.635304,39.352945],[40.685768,39.350282],[40.696581,39.340783],[40.740345,39.331269],[40.76844,39.306987],[40.792535,39.312118],[40.782106,39.286566],[40.763795,39.271951],[40.759715,39.255295],[40.728376,39.226112],[40.743276,39.21155],[40.740736,39.160182],[40.73329,39.159452],[40.727572,39.147244],[40.695651,39.132646],[40.705775,39.119795],[40.691179,39.113909],[40.681686,39.098475],[40.740632,39.112962],[40.749053,39.10298],[40.787095,39.097475],[40.821102,39.075331],[40.836956,39.074834],[40.849088,39.066469],[40.90237,39.097923],[40.923593,39.104105],[40.93495,39.096238],[40.971538,39.089736],[41.042565,39.062506],[41.161148,39.056392],[41.168428,39.067416],[41.175928,39.065229],[41.182886,39.074315],[41.200157,39.078645],[41.209726,39.0662],[41.254579,39.057],[41.268222,39.038656],[41.296239,39.053279],[41.306593,39.069378],[41.304364,39.086368],[41.29366,39.101027],[41.253815,39.116733],[41.220785,39.150463],[41.172278,39.172011],[41.162279,39.196876],[41.177663,39.226342],[41.133578,39.242063],[41.141969,39.27295],[41.137896,39.310741],[41.147632,39.312521],[41.158243,39.323967],[41.15503,39.349975],[41.172369,39.36984],[41.193822,39.383106],[41.166912,39.405395],[41.142909,39.404815],[41.128564,39.416856],[41.128268,39.424784],[41.120726,39.433435],[41.127649,39.424498],[41.104619,39.421035],[41.099457,39.42236],[41.107733,39.43323],[41.059917,39.439046],[41.061149,39.445904],[41.042588,39.436652],[40.952716,39.450903],[40.913478,39.44149],[40.864488,39.448033],[40.846981,39.435593],[40.830121,39.432085],[40.789415,39.431698],[40.76022,39.421635],[40.726586,39.423612],[40.738274,39.41503],[40.734288,39.410244],[40.693698,39.411277],[40.691965,39.393131],[40.674609,39.368968],[40.635304,39.352945]]],"type":"Polygon"}},{"type":"Feature","properties":{"area_id":"TR-12-005","name_tr":"Kiğı","area_level":"district","parent_id":"TR-12","endeksa_id":1475},"geometry":{"coordinates":[[[40.125117,39.304511],[40.1667,39.284187],[40.176473,39.261428],[40.2165,39.239262],[40.234258,39.206484],[40.232898,39.190851],[40.222183,39.191921],[40.221116,39.186355],[40.272152,39.180897],[40.291243,39.171823],[40.307277,39.148334],[40.301535,39.117622],[40.344097,39.101484],[40.362624,39.111187],[40.376183,39.107091],[40.381125,39.115062],[40.370011,39.141746],[40.376315,39.140143],[40.379454,39.148363],[40.391178,39.142433],[40.386341,39.134949],[40.398787,39.131892],[40.409599,39.143368],[40.405337,39.153865],[40.387095,39.157385],[40.35553,39.185609],[40.356681,39.203786],[40.365277,39.217004],[40.362112,39.229293],[40.369541,39.24425],[40.37905,39.261275],[40.440151,39.290704],[40.42719,39.307286],[40.425181,39.325505],[40.428943,39.33946],[40.446736,39.363081],[40.458582,39.361957],[40.467333,39.351962],[40.496012,39.339342],[40.515716,39.313099],[40.52378,39.328041],[40.517144,39.335202],[40.527422,39.377449],[40.488608,39.399656],[40.457967,39.39708],[40.433774,39.407569],[40.328445,39.413329],[40.326461,39.419124],[40.305017,39.429266],[40.272529,39.43641],[40.271991,39.427131],[40.288522,39.401203],[40.305576,39.39543],[40.308751,39.389321],[40.274317,39.378253],[40.246852,39.378788],[40.23745,39.365695],[40.191752,39.338385],[40.191514,39.333437],[40.125117,39.304511]]],"type":"Polygon"}},{"type":"Feature","properties":{"area_id":"TR-12-006","name_tr":"Solhan","area_level":"district","parent_id":"TR-12","endeksa_id":1633},"geometry":{"coordinates":[[[40.791671,39.031799],[40.78934,39.017742],[40.791981,39.008968],[40.837874,38.996564],[40.841193,38.994215],[40.835367,38.989643],[40.846401,38.988276],[40.839095,38.959139],[40.848815,38.955075],[40.846661,38.947078],[40.836837,38.945566],[40.830683,38.910873],[40.815807,38.915467],[40.80894,38.911581],[40.809794,38.891121],[40.821406,38.862921],[40.828258,38.867715],[40.841599,38.865571],[40.864341,38.845656],[40.888794,38.809572],[40.898019,38.808691],[40.924506,38.789666],[40.944897,38.789938],[40.944748,38.781852],[40.961128,38.774489],[40.94399,38.764187],[40.965813,38.747755],[40.988709,38.748147],[41.023996,38.762957],[41.031643,38.761223],[41.013006,38.751831],[41.00462,38.709098],[41.01408,38.695883],[41.093359,38.720968],[41.097519,38.708555],[41.139054,38.715789],[41.158631,38.728631],[41.158191,38.755037],[41.173803,38.756916],[41.176416,38.763147],[41.153098,38.787169],[41.137401,38.816127],[41.116279,38.885177],[41.108824,38.920211],[41.111297,38.932126],[41.122606,38.943993],[41.150227,38.950729],[41.163065,38.974285],[41.193506,38.998945],[41.268222,39.038656],[41.254579,39.057],[41.209726,39.0662],[41.200157,39.078645],[41.182886,39.074315],[41.175928,39.065229],[41.168428,39.067416],[41.161148,39.056392],[41.042565,39.062506],[40.971538,39.089736],[40.93495,39.096238],[40.923593,39.104105],[40.90237,39.097923],[40.849088,39.066469],[40.827901,39.050446],[40.818981,39.060062],[40.808471,39.053987],[40.804769,39.042313],[40.791671,39.031799]]],"type":"Polygon"}},{"type":"Feature","properties":{"area_id":"TR-12-001","name_tr":"Adaklı","area_level":"district","parent_id":"TR-12","endeksa_id":1750},"geometry":{"coordinates":[[[40.369541,39.24425],[40.362112,39.229293],[40.365277,39.217004],[40.356681,39.203786],[40.35553,39.185609],[40.387095,39.157385],[40.405337,39.153865],[40.409599,39.143368],[40.398787,39.131892],[40.406222,39.124201],[40.42141,39.136506],[40.43532,39.134308],[40.442187,39.130441],[40.444148,39.116639],[40.451539,39.115552],[40.475233,39.128414],[40.502476,39.132672],[40.507479,39.130171],[40.498977,39.112291],[40.46728,39.102886],[40.468695,39.098223],[40.490649,39.092136],[40.514573,39.100099],[40.547567,39.121534],[40.561809,39.112366],[40.561795,39.102647],[40.567455,39.099223],[40.560376,39.090603],[40.563702,39.075648],[40.559437,39.071975],[40.597417,39.085652],[40.615252,39.086317],[40.609439,39.077499],[40.613464,39.065972],[40.621699,39.060473],[40.626906,39.063847],[40.630958,39.056093],[40.640627,39.053158],[40.666946,39.061677],[40.671088,39.079676],[40.688316,39.085821],[40.681686,39.098475],[40.691179,39.113909],[40.705775,39.119795],[40.695651,39.132646],[40.727572,39.147244],[40.73329,39.159452],[40.740736,39.160182],[40.743276,39.21155],[40.728376,39.226112],[40.759715,39.255295],[40.763795,39.271951],[40.782106,39.286566],[40.792535,39.312118],[40.76844,39.306987],[40.740345,39.331269],[40.696581,39.340783],[40.685768,39.350282],[40.635304,39.352945],[40.563364,39.35743],[40.538999,39.365439],[40.527422,39.377449],[40.517144,39.335202],[40.52378,39.328041],[40.515716,39.313099],[40.496012,39.339342],[40.467333,39.351962],[40.458582,39.361957],[40.446736,39.363081],[40.428943,39.33946],[40.425181,39.325505],[40.42719,39.307286],[40.440151,39.290704],[40.37905,39.261275],[40.369541,39.24425]]],"type":"Polygon"}},{"type":"Feature","properties":{"area_id":"TR-12-007","name_tr":"Yayladere","area_level":"district","parent_id":"TR-12","endeksa_id":1855},"geometry":{"coordinates":[[[39.96796,39.312743],[40.02609,39.282037],[40.013121,39.276354],[40.019917,39.259494],[39.991532,39.267374],[39.979311,39.25291],[39.973996,39.216661],[39.946762,39.232558],[39.942751,39.220094],[39.946366,39.212781],[39.962482,39.201871],[39.943969,39.190041],[39.931773,39.19435],[39.927366,39.169018],[39.94637,39.151438],[39.94571,39.139188],[39.964354,39.134649],[39.938811,39.101849],[39.946995,39.100121],[39.947288,39.090884],[39.958365,39.08985],[39.967977,39.094799],[39.974653,39.090606],[39.982388,39.095583],[40.009471,39.093197],[40.017247,39.100342],[40.025616,39.096597],[40.054297,39.117303],[40.057204,39.128742],[40.065954,39.122042],[40.06497,39.130078],[40.086397,39.126316],[40.099914,39.147007],[40.118922,39.159517],[40.18302,39.172449],[40.221116,39.186355],[40.222183,39.191921],[40.232898,39.190851],[40.234258,39.206484],[40.2165,39.239262],[40.176473,39.261428],[40.1667,39.284187],[40.125117,39.304511],[40.100086,39.302078],[40.056028,39.317084],[40.035312,39.316698],[40.031006,39.333653],[40.018502,39.33149],[39.96796,39.312743]]],"type":"Polygon"}},{"type":"Feature","properties":{"area_id":"TR-12-008","name_tr":"Yedisu","area_level":"district","parent_id":"TR-12","endeksa_id":1996},"geometry":{"coordinates":[[[40.188468,39.525395],[40.198092,39.516941],[40.289176,39.492972],[40.26187,39.473255],[40.254824,39.459639],[40.272277,39.448161],[40.26821,39.444353],[40.272529,39.43641],[40.305017,39.429266],[40.326461,39.419124],[40.328445,39.413329],[40.433774,39.407569],[40.457967,39.39708],[40.488608,39.399656],[40.527422,39.377449],[40.538999,39.365439],[40.563364,39.35743],[40.635304,39.352945],[40.674609,39.368968],[40.691965,39.393131],[40.693698,39.411277],[40.662242,39.417127],[40.632111,39.413103],[40.628419,39.426759],[40.580439,39.449034],[40.597459,39.459819],[40.59908,39.49317],[40.617544,39.493194],[40.644826,39.523946],[40.583969,39.523448],[40.544741,39.530083],[40.515213,39.526974],[40.515632,39.516582],[40.472367,39.518009],[40.448251,39.511875],[40.42228,39.52703],[40.416235,39.513737],[40.345264,39.515176],[40.319504,39.508908],[40.295344,39.510202],[40.281847,39.51894],[40.227774,39.51601],[40.188468,39.525395]]],"type":"Polygon"}}]}