{"type":"FeatureCollection","area_id":"TR-17","name_tr":"Çanakkale","source_id":"endeksa","licence":null,"retrieved_at":"2026-08-23","features":[{"type":"Feature","properties":{"area_id":"TR-17-001","name_tr":"Ayvacık","area_level":"district","parent_id":"TR-17","endeksa_id":1160},"geometry":{"coordinates":[[[26.065583,39.489648],[26.065634,39.488956],[26.063595,39.47998],[26.063603,39.477424],[26.067096,39.473707],[26.065299,39.477581],[26.066439,39.476426],[26.066144,39.476336],[26.067477,39.475407],[26.069811,39.473314],[26.070047,39.472719],[26.071876,39.472041],[26.079797,39.468515],[26.080993,39.467677],[26.083732,39.467421],[26.089244,39.466459],[26.09534,39.465136],[26.096528,39.464849],[26.097357,39.464674],[26.09752,39.464577],[26.099048,39.464124],[26.099522,39.463983],[26.104228,39.462542],[26.105288,39.46237],[26.10715,39.461579],[26.111109,39.459663],[26.112149,39.459157],[26.113917,39.4577],[26.11698,39.455193],[26.119025,39.455119],[26.131074,39.453885],[26.131739,39.453386],[26.133938,39.453623],[26.136085,39.453476],[26.13724,39.453318],[26.137646,39.453468],[26.14245,39.454508],[26.142703,39.454428],[26.143759,39.455163],[26.148074,39.458704],[26.154919,39.457873],[26.158129,39.457377],[26.160411,39.458485],[26.161231,39.458578],[26.161639,39.458624],[26.165834,39.459966],[26.17174,39.45976],[26.179224,39.460531],[26.180497,39.460658],[26.181783,39.460788],[26.186145,39.461371],[26.192345,39.461824],[26.204804,39.461396],[26.211171,39.46972],[26.211701,39.47008],[26.212716,39.470375],[26.2185,39.472302],[26.220582,39.473308],[26.221639,39.473688],[26.225303,39.473948],[26.22758,39.474182],[26.229815,39.474642],[26.231269,39.473908],[26.23128,39.473904],[26.231652,39.473747],[26.231768,39.473849],[26.232585,39.473345],[26.233711,39.47236],[26.233837,39.472063],[26.234922,39.470731],[26.235771,39.46987],[26.236328,39.467852],[26.235949,39.467298],[26.234523,39.466799],[26.236337,39.466056],[26.238954,39.465],[26.24124,39.464306],[26.243372,39.466077],[26.247065,39.469735],[26.248651,39.470215],[26.24887,39.473016],[26.24914,39.474081],[26.249988,39.474718],[26.264891,39.483351],[26.26524,39.483516],[26.266659,39.483638],[26.286444,39.485639],[26.288652,39.485981],[26.290204,39.485737],[26.320827,39.482205],[26.321158,39.482138],[26.323283,39.48139],[26.326388,39.48144],[26.328902,39.481871],[26.330302,39.482558],[26.330315,39.482562],[26.33166,39.483011],[26.332051,39.483326],[26.335965,39.485393],[26.337452,39.485712],[26.356665,39.487205],[26.356824,39.487108],[26.358042,39.48535],[26.361112,39.484031],[26.365922,39.482271],[26.369521,39.480986],[26.369839,39.481578],[26.368384,39.48406],[26.3689,39.486555],[26.376799,39.496404],[26.377513,39.496782],[26.378747,39.497017],[26.399285,39.500619],[26.400991,39.501076],[26.401882,39.50097],[26.401891,39.500971],[26.402194,39.501012],[26.402857,39.5011],[26.412421,39.502375],[26.412752,39.502431],[26.412981,39.502469],[26.417486,39.501369],[26.420593,39.505706],[26.421131,39.505993],[26.421449,39.506162],[26.422259,39.506593],[26.422466,39.506703],[26.422593,39.50677],[26.422621,39.506785],[26.424349,39.507704],[26.425693,39.508197],[26.427025,39.509137],[26.428162,39.50976],[26.456245,39.51973],[26.466049,39.521873],[26.472553,39.52231],[26.475628,39.524824],[26.477919,39.525601],[26.477934,39.525607],[26.4787,39.525867],[26.499541,39.527721],[26.503329,39.526623],[26.50374,39.526504],[26.505181,39.526467],[26.505195,39.526467],[26.506791,39.526558],[26.507764,39.526983],[26.508519,39.527185],[26.509506,39.52741],[26.51337,39.528957],[26.514312,39.529556],[26.514392,39.529608],[26.515659,39.530138],[26.515675,39.530145],[26.518101,39.531238],[26.519021,39.531445],[26.519029,39.531448],[26.51898,39.531528],[26.519777,39.531693],[26.520147,39.53181],[26.520862,39.532127],[26.520922,39.532036],[26.52093,39.532038],[26.520878,39.532137],[26.522013,39.532321],[26.546411,39.531414],[26.551439,39.532158],[26.552548,39.532993],[26.55494,39.534526],[26.559692,39.535544],[26.605153,39.54384],[26.601957,39.545545],[26.607266,39.544154],[26.61082,39.545566],[26.614795,39.5465],[26.616628,39.546814],[26.63411,39.555132],[26.657163,39.552314],[26.657437,39.554688],[26.64966,39.577934],[26.663152,39.601491],[26.654136,39.612368],[26.696833,39.6487],[26.703219,39.664303],[26.699843,39.681016],[26.657915,39.69759],[26.628676,39.69292],[26.631878,39.701798],[26.623667,39.707358],[26.615592,39.726881],[26.595925,39.703736],[26.562155,39.681428],[26.540151,39.677221],[26.537515,39.669238],[26.515023,39.661262],[26.508519,39.670534],[26.491731,39.674699],[26.484455,39.686911],[26.485109,39.681552],[26.457463,39.69631],[26.45434,39.693591],[26.440817,39.671463],[26.417748,39.675251],[26.406165,39.669023],[26.405426,39.659663],[26.382754,39.65188],[26.364527,39.670871],[26.370541,39.679204],[26.350814,39.684216],[26.344895,39.675935],[26.364538,39.665453],[26.361,39.659125],[26.2979,39.648821],[26.276759,39.633884],[26.263186,39.637364],[26.255328,39.649628],[26.188264,39.652793],[26.159383,39.64874],[26.15927,39.648787],[26.15712,39.642052],[26.157051,39.641861],[26.150149,39.626447],[26.149919,39.625676],[26.14768,39.621766],[26.146943,39.620798],[26.146017,39.619328],[26.145001,39.617715],[26.14296,39.614473],[26.142303,39.612962],[26.141089,39.611551],[26.138512,39.607828],[26.138307,39.607199],[26.13727,39.606448],[26.136977,39.606168],[26.136722,39.605938],[26.133426,39.603259],[26.130408,39.600978],[26.128602,39.59999],[26.121001,39.596356],[26.119715,39.595104],[26.115319,39.591637],[26.109197,39.588816],[26.104632,39.586184],[26.103954,39.584399],[26.103898,39.582576],[26.101503,39.570218],[26.098662,39.566801],[26.098577,39.566601],[26.097937,39.565083],[26.097601,39.564289],[26.097246,39.563447],[26.096597,39.561909],[26.09425,39.555924],[26.093782,39.554596],[26.093851,39.554557],[26.093708,39.554058],[26.092669,39.552236],[26.092836,39.55092],[26.091972,39.547785],[26.091378,39.546435],[26.091524,39.545974],[26.092057,39.541283],[26.090355,39.53631],[26.090251,39.535642],[26.090156,39.535058],[26.09015,39.535019],[26.09003,39.534278],[26.088919,39.529445],[26.088562,39.528049],[26.087903,39.527287],[26.0806,39.520764],[26.084052,39.511965],[26.083576,39.51095],[26.081792,39.509083],[26.079671,39.50888],[26.078757,39.508486],[26.071139,39.504113],[26.071129,39.5041],[26.070797,39.503638],[26.070195,39.503057],[26.070168,39.502095],[26.069311,39.496618],[26.069348,39.494628],[26.06838,39.493912],[26.067407,39.492949],[26.06716,39.492191],[26.066259,39.490638],[26.065583,39.489648]]],"type":"Polygon"}},{"type":"Feature","properties":{"area_id":"TR-17-002","name_tr":"Bayramiç","area_level":"district","parent_id":"TR-17","endeksa_id":1180},"geometry":{"coordinates":[[[26.437392,39.853493],[26.44896,39.814822],[26.441115,39.809019],[26.433897,39.788846],[26.438337,39.782767],[26.424947,39.765324],[26.439024,39.727115],[26.439266,39.705929],[26.45434,39.693591],[26.457463,39.69631],[26.485109,39.681552],[26.484455,39.686911],[26.491731,39.674699],[26.508519,39.670534],[26.515023,39.661262],[26.537515,39.669238],[26.540151,39.677221],[26.562155,39.681428],[26.595925,39.703736],[26.615592,39.726881],[26.623667,39.707358],[26.631878,39.701798],[26.628676,39.69292],[26.657915,39.69759],[26.699843,39.681016],[26.708338,39.682435],[26.72409,39.702423],[26.735441,39.69945],[26.751521,39.707842],[26.767361,39.705794],[26.772505,39.694445],[26.847225,39.70863],[26.852999,39.713055],[26.849943,39.720377],[26.860794,39.728002],[26.882749,39.733934],[26.889473,39.741035],[26.933317,39.741991],[26.942225,39.753034],[26.934299,39.788409],[26.93797,39.812001],[26.943063,39.812897],[26.953196,39.834512],[26.969725,39.835813],[26.946663,39.874562],[26.917846,39.863541],[26.849571,39.871029],[26.853817,39.902193],[26.831041,39.90891],[26.827404,39.919192],[26.83559,39.938566],[26.848119,39.945361],[26.848248,39.951519],[26.830716,39.951891],[26.816827,39.965805],[26.798992,39.96382],[26.790272,39.974557],[26.794405,39.997906],[26.789111,40.008721],[26.757317,40.009567],[26.73729,40.026124],[26.732249,40.024128],[26.730977,40.012832],[26.71566,40.019556],[26.709178,40.003929],[26.690839,39.992736],[26.667464,39.98643],[26.651896,39.989251],[26.635376,39.966474],[26.587959,39.968899],[26.571408,39.980189],[26.539456,39.978383],[26.532362,39.958817],[26.500754,39.934203],[26.464879,39.918357],[26.437392,39.853493]]],"type":"Polygon"}},{"type":"Feature","properties":{"area_id":"TR-17-003","name_tr":"Biga","area_level":"district","parent_id":"TR-17","endeksa_id":1190},"geometry":{"coordinates":[[[26.890159,40.18377],[26.896829,40.165418],[26.889407,40.149728],[26.902272,40.147949],[26.906892,40.130754],[26.92744,40.140058],[26.956333,40.144155],[26.979686,40.125049],[27.022648,40.173119],[27.019971,40.179586],[27.030651,40.180275],[27.026348,40.164001],[27.045882,40.159245],[27.039789,40.154193],[27.026224,40.156222],[27.035574,40.146028],[27.033002,40.128764],[27.038148,40.132014],[27.043781,40.126593],[27.050763,40.133756],[27.070551,40.135812],[27.083729,40.127534],[27.112799,40.128329],[27.102134,40.124706],[27.102991,40.107481],[27.128423,40.107759],[27.131253,40.103421],[27.149805,40.112567],[27.166473,40.112246],[27.170643,40.120818],[27.182696,40.105654],[27.179042,40.100158],[27.164868,40.09833],[27.159577,40.086307],[27.187263,40.084663],[27.191017,40.077787],[27.210075,40.087852],[27.221537,40.071651],[27.23785,40.070076],[27.2474,40.078354],[27.254766,40.09716],[27.270904,40.09808],[27.292025,40.1177],[27.297699,40.118896],[27.322557,40.10033],[27.360881,40.094931],[27.363027,40.098498],[27.361673,40.10581],[27.369778,40.114069],[27.390111,40.125394],[27.397148,40.156911],[27.393426,40.172369],[27.405407,40.17964],[27.420624,40.177096],[27.423831,40.204189],[27.436178,40.214771],[27.451324,40.216591],[27.451546,40.229735],[27.463738,40.2406],[27.481544,40.23322],[27.496149,40.236731],[27.505174,40.246958],[27.506323,40.259482],[27.514477,40.262266],[27.510604,40.280245],[27.514915,40.303506],[27.514915,40.303509],[27.512957,40.30383],[27.50859,40.304436],[27.49802,40.306382],[27.469864,40.313095],[27.459475,40.315882],[27.332541,40.367702],[27.328784,40.369829],[27.327176,40.37093],[27.307468,40.39133],[27.305006,40.397253],[27.304839,40.398293],[27.304489,40.399766],[27.304476,40.399933],[27.304712,40.401147],[27.304628,40.401342],[27.30526,40.402035],[27.305298,40.402085],[27.305081,40.402205],[27.305415,40.402234],[27.305418,40.402237],[27.305221,40.402356],[27.305798,40.402654],[27.314447,40.409174],[27.333848,40.411179],[27.325996,40.414239],[27.325976,40.414532],[27.325995,40.414993],[27.32576,40.415192],[27.32533,40.416016],[27.332564,40.423556],[27.320661,40.423306],[27.319986,40.423975],[27.31997,40.424675],[27.319074,40.427856],[27.318613,40.428659],[27.318974,40.42925],[27.319227,40.431135],[27.319532,40.433123],[27.319138,40.433962],[27.318881,40.435558],[27.318854,40.435694],[27.318329,40.437823],[27.318525,40.438494],[27.317691,40.439666],[27.316368,40.442716],[27.316345,40.442768],[27.315662,40.444266],[27.315851,40.44475],[27.314904,40.445733],[27.314044,40.446814],[27.313807,40.447516],[27.313095,40.447398],[27.312548,40.447355],[27.309974,40.448557],[27.306706,40.45019],[27.306086,40.450415],[27.305892,40.450633],[27.298124,40.455547],[27.297415,40.456026],[27.297497,40.456144],[27.293758,40.460439],[27.293162,40.461142],[27.292929,40.461428],[27.291926,40.462592],[27.290674,40.464057],[27.288718,40.466373],[27.287992,40.466886],[27.288123,40.467118],[27.28791,40.467393],[27.287725,40.467392],[27.287566,40.467865],[27.287367,40.468161],[27.287169,40.468456],[27.28625,40.470044],[27.285562,40.470648],[27.285899,40.470985],[27.286348,40.474837],[27.28397,40.474413],[27.282984,40.474346],[27.282152,40.474673],[27.281563,40.474143],[27.280389,40.473899],[27.280283,40.47407],[27.279455,40.473655],[27.278638,40.473412],[27.276338,40.472816],[27.274572,40.471735],[27.274426,40.471607],[27.272321,40.47009],[27.272291,40.470065],[27.271624,40.469485],[27.27058,40.46871],[27.270532,40.468199],[27.269987,40.467508],[27.270135,40.466966],[27.270197,40.46599],[27.26991,40.465559],[27.269872,40.465409],[27.270121,40.46483],[27.26888,40.463509],[27.268676,40.463555],[27.268478,40.463397],[27.268348,40.463158],[27.267807,40.462952],[27.261713,40.459799],[27.260555,40.458271],[27.257503,40.458474],[27.25589,40.458987],[27.25513,40.458334],[27.24471,40.455137],[27.242141,40.454677],[27.241464,40.453935],[27.236619,40.451812],[27.236093,40.451658],[27.235678,40.451183],[27.234869,40.45027],[27.234,40.450079],[27.233771,40.449952],[27.233644,40.449774],[27.233467,40.449788],[27.231055,40.448723],[27.2307,40.44859],[27.23048,40.448508],[27.229444,40.447954],[27.229042,40.448019],[27.221285,40.445945],[27.219314,40.44515],[27.217494,40.444977],[27.217433,40.444962],[27.217087,40.444873],[27.216824,40.444806],[27.211388,40.443232],[27.211052,40.443265],[27.211046,40.443077],[27.208536,40.441312],[27.208428,40.441441],[27.208278,40.440949],[27.208219,40.440847],[27.207951,40.44075],[27.208092,40.440476],[27.209272,40.439451],[27.208356,40.437183],[27.196461,40.433318],[27.19603,40.433283],[27.19216,40.433058],[27.191685,40.432786],[27.190216,40.433212],[27.186005,40.434999],[27.17253,40.442633],[27.172486,40.442651],[27.163083,40.44624],[27.166617,40.452373],[27.155276,40.457853],[27.150863,40.449141],[27.146398,40.449295],[27.140334,40.456039],[27.145712,40.449307],[27.143485,40.449343],[27.140124,40.449398],[27.136486,40.449466],[27.136012,40.449475],[27.130361,40.449526],[27.121779,40.450426],[27.120241,40.447752],[27.117633,40.446418],[27.115535,40.445337],[27.114519,40.444685],[27.112778,40.444254],[27.107763,40.4428],[27.107695,40.442755],[27.107375,40.442709],[27.106054,40.442459],[27.1057,40.442041],[27.103811,40.442315],[27.102704,40.442333],[27.101831,40.442045],[27.100778,40.442468],[27.099275,40.442646],[27.098951,40.442602],[27.098658,40.442736],[27.096266,40.443224],[27.09571,40.443058],[27.091074,40.442245],[27.089727,40.442167],[27.089421,40.441535],[27.08697,40.437662],[27.083763,40.435816],[27.083508,40.435563],[27.083307,40.435363],[27.078896,40.431051],[27.077772,40.429506],[27.077019,40.429232],[27.061392,40.428957],[27.065333,40.417959],[27.064828,40.417472],[27.06468,40.417329],[27.058552,40.411418],[27.038542,40.411507],[27.054033,40.408805],[27.04389,40.40737],[27.049143,40.4046],[27.041543,40.394748],[27.040804,40.393042],[27.037931,40.391836],[27.035578,40.390615],[27.033678,40.389982],[27.029086,40.389994],[27.020626,40.391274],[27.020197,40.392099],[27.018666,40.391315],[27.012445,40.389569],[27.0082,40.351865],[27.013427,40.333261],[27.028172,40.325159],[27.046887,40.32502],[26.997876,40.291337],[26.996757,40.280568],[26.985974,40.281525],[26.971419,40.268541],[26.952194,40.269516],[26.940393,40.230262],[26.959061,40.221677],[26.944916,40.219238],[26.937564,40.223615],[26.940998,40.221529],[26.933702,40.213359],[26.935775,40.206583],[26.926828,40.19617],[26.890159,40.18377]]],"type":"Polygon"}},{"type":"Feature","properties":{"area_id":"TR-17-004","name_tr":"Bozcaada","area_level":"district","parent_id":"TR-17","endeksa_id":1205},"geometry":{"coordinates":[[[25.962307,39.838696],[25.962996,39.836824],[25.964991,39.834083],[25.970453,39.826158],[25.970274,39.82544],[25.973604,39.823064],[25.977682,39.821525],[25.979573,39.820642],[25.980323,39.820102],[25.981393,39.81985],[25.983226,39.819302],[25.984972,39.818069],[25.991608,39.822017],[25.991618,39.822017],[26.018897,39.808644],[26.023703,39.806004],[26.023944,39.804777],[26.030972,39.802143],[26.03353,39.800869],[26.034108,39.800006],[26.03784,39.798748],[26.045745,39.794861],[26.048261,39.793624],[26.04862,39.793448],[26.04888,39.79332],[26.049284,39.793175],[26.049624,39.790967],[26.049606,39.789736],[26.051176,39.787886],[26.053262,39.787306],[26.05409,39.787706],[26.054357,39.787736],[26.054405,39.787744],[26.061809,39.789622],[26.06289,39.789911],[26.062936,39.791851],[26.065243,39.790532],[26.06689,39.790963],[26.072865,39.792641],[26.073256,39.792501],[26.073638,39.792959],[26.077861,39.796162],[26.078475,39.796725],[26.07956,39.797766],[26.081384,39.798723],[26.081742,39.80094],[26.079787,39.806071],[26.079648,39.806704],[26.079174,39.807003],[26.076713,39.810126],[26.07664,39.81033],[26.076467,39.810402],[26.073522,39.813081],[26.073807,39.814241],[26.073648,39.818994],[26.07356,39.820212],[26.073906,39.820901],[26.074409,39.821521],[26.079712,39.821363],[26.076561,39.826122],[26.076505,39.826869],[26.077496,39.827664],[26.076347,39.828418],[26.075739,39.832543],[26.075692,39.832847],[26.075634,39.832881],[26.074939,39.834145],[26.074883,39.834219],[26.073436,39.835743],[26.076754,39.835432],[26.07233,39.836762],[26.070614,39.838242],[26.070528,39.839784],[26.066366,39.840893],[26.05722,39.845787],[26.055942,39.846356],[26.055683,39.846375],[26.052075,39.846791],[26.051503,39.84704],[26.050718,39.846645],[26.044686,39.844334],[26.039263,39.842049],[26.038185,39.841582],[26.034753,39.842089],[26.028835,39.843367],[26.02363,39.844249],[26.002073,39.843981],[25.997776,39.843379],[25.995349,39.842348],[25.994767,39.84181],[25.992714,39.841498],[25.992628,39.841478],[25.991929,39.841151],[25.990183,39.84096],[25.9895,39.84096],[25.973635,39.83956],[25.966671,39.839485],[25.963794,39.83973],[25.962734,39.838968],[25.962307,39.838696]]],"type":"Polygon"}},{"type":"Feature","properties":{"area_id":"TR-17-005","name_tr":"Çan","area_level":"district","parent_id":"TR-17","endeksa_id":1229},"geometry":{"coordinates":[[[26.802712,40.126734],[26.8072,40.117025],[26.800658,40.112125],[26.804327,40.086533],[26.7916,40.072795],[26.790037,40.048506],[26.798073,40.027505],[26.810608,40.013877],[26.789111,40.008721],[26.794405,39.997906],[26.790272,39.974557],[26.798992,39.96382],[26.816827,39.965805],[26.830716,39.951891],[26.848248,39.951519],[26.848119,39.945361],[26.83559,39.938566],[26.827404,39.919192],[26.831041,39.90891],[26.853817,39.902193],[26.849571,39.871029],[26.917846,39.863541],[26.946663,39.874562],[26.969725,39.835813],[26.980988,39.838789],[26.978327,39.847186],[26.990593,39.851258],[27.017144,39.84754],[27.010307,39.854955],[27.029819,39.860022],[27.034934,39.878679],[27.099076,39.892557],[27.088237,39.915413],[27.111335,39.922542],[27.119885,39.935932],[27.11414,39.959004],[27.10456,39.964918],[27.120894,39.972251],[27.117875,39.980882],[27.150573,39.99736],[27.166731,40.020982],[27.172405,40.01726],[27.188938,40.021226],[27.206678,40.016282],[27.208524,40.010967],[27.233966,40.036773],[27.242763,40.059631],[27.23785,40.070076],[27.221537,40.071651],[27.210075,40.087852],[27.191017,40.077787],[27.187263,40.084663],[27.159577,40.086307],[27.164868,40.09833],[27.179042,40.100158],[27.182696,40.105654],[27.170643,40.120818],[27.166473,40.112246],[27.149805,40.112567],[27.131253,40.103421],[27.128423,40.107759],[27.102991,40.107481],[27.102134,40.124706],[27.112799,40.128329],[27.083729,40.127534],[27.070551,40.135812],[27.050763,40.133756],[27.043781,40.126593],[27.038148,40.132014],[27.033002,40.128764],[27.035574,40.146028],[27.026224,40.156222],[27.039789,40.154193],[27.045882,40.159245],[27.026348,40.164001],[27.030651,40.180275],[27.019971,40.179586],[27.022648,40.173119],[26.979686,40.125049],[26.956333,40.144155],[26.92744,40.140058],[26.906892,40.130754],[26.902272,40.147949],[26.889407,40.149728],[26.881899,40.146337],[26.870381,40.154061],[26.831708,40.147206],[26.818694,40.142853],[26.814794,40.131436],[26.802712,40.126734]]],"type":"Polygon"}},{"type":"Feature","properties":{"area_id":"TR-17-006","name_tr":"Çanakkale","area_level":"district","parent_id":"TR-17","endeksa_id":1230},"geometry":{"coordinates":[[[26.167386,39.963276],[26.166832,39.955942],[26.164114,39.946491],[26.163785,39.945229],[26.163314,39.943389],[26.160131,39.941581],[26.162749,39.940651],[26.162832,39.940627],[26.184212,39.935437],[26.185491,39.952226],[26.192662,39.955671],[26.212209,39.936561],[26.223079,39.934507],[26.226386,39.925208],[26.234324,39.924071],[26.246652,39.908847],[26.257884,39.910159],[26.258538,39.91583],[26.274811,39.915304],[26.285745,39.899551],[26.299979,39.911605],[26.327803,39.907952],[26.331007,39.902706],[26.36809,39.914599],[26.386592,39.913141],[26.39525,39.932475],[26.41231,39.925607],[26.458856,39.937438],[26.464879,39.918357],[26.500754,39.934203],[26.532362,39.958817],[26.539456,39.978383],[26.571408,39.980189],[26.587959,39.968899],[26.635376,39.966474],[26.651896,39.989251],[26.667464,39.98643],[26.690839,39.992736],[26.709178,40.003929],[26.71566,40.019556],[26.730977,40.012832],[26.732249,40.024128],[26.73729,40.026124],[26.757317,40.009567],[26.789111,40.008721],[26.810608,40.013877],[26.798073,40.027505],[26.790037,40.048506],[26.7916,40.072795],[26.804327,40.086533],[26.800658,40.112125],[26.8072,40.117025],[26.802712,40.126734],[26.764126,40.122491],[26.748352,40.130594],[26.728995,40.126834],[26.712386,40.117563],[26.705405,40.105117],[26.692143,40.113942],[26.679182,40.147571],[26.682573,40.151313],[26.673407,40.161467],[26.643132,40.155405],[26.633404,40.160109],[26.642938,40.167019],[26.645135,40.179789],[26.628179,40.213641],[26.57076,40.213404],[26.559247,40.221358],[26.554776,40.218755],[26.559662,40.223758],[26.548205,40.230664],[26.551793,40.234718],[26.542667,40.237153],[26.542528,40.23719],[26.542444,40.236552],[26.542382,40.236396],[26.542378,40.236384],[26.542379,40.235874],[26.541926,40.235425],[26.541906,40.235389],[26.540862,40.233333],[26.539649,40.232541],[26.530633,40.226795],[26.525311,40.219524],[26.524642,40.217643],[26.521304,40.216761],[26.505821,40.212714],[26.498382,40.20944],[26.489736,40.20458],[26.483859,40.200898],[26.482483,40.199964],[26.480324,40.200021],[26.471163,40.199791],[26.46788,40.197636],[26.46336,40.19676],[26.454298,40.198867],[26.449081,40.194069],[26.447914,40.193771],[26.44711,40.193898],[26.443668,40.193861],[26.441959,40.193668],[26.440603,40.194035],[26.431252,40.194804],[26.429685,40.194477],[26.428444,40.195043],[26.414667,40.200217],[26.411312,40.198839],[26.409522,40.198095],[26.40257,40.196197],[26.408157,40.193519],[26.408182,40.193475],[26.406755,40.17971],[26.406184,40.178228],[26.40556,40.177629],[26.405447,40.177486],[26.404844,40.176409],[26.404269,40.176327],[26.402199,40.175591],[26.402734,40.174277],[26.404278,40.166077],[26.403405,40.163177],[26.407057,40.160029],[26.408292,40.158878],[26.409358,40.156224],[26.409034,40.155594],[26.404115,40.151778],[26.402263,40.15106],[26.402143,40.151571],[26.401779,40.150834],[26.401667,40.150776],[26.401587,40.150734],[26.400411,40.15003],[26.400309,40.14996],[26.397648,40.145828],[26.397413,40.145004],[26.397839,40.144603],[26.397867,40.144488],[26.39764,40.143182],[26.398782,40.1419],[26.400177,40.139523],[26.402047,40.136358],[26.404294,40.134338],[26.404686,40.133915],[26.407531,40.128902],[26.407913,40.127097],[26.409575,40.121389],[26.40962,40.121253],[26.409885,40.11948],[26.409611,40.117883],[26.408893,40.116856],[26.398789,40.106604],[26.39546,40.103853],[26.39443,40.103852],[26.388653,40.10258],[26.386198,40.101925],[26.381834,40.102708],[26.379016,40.10375],[26.37801,40.10589],[26.378155,40.10382],[26.372926,40.103853],[26.370917,40.104553],[26.369473,40.102741],[26.362256,40.094023],[26.361893,40.091914],[26.365413,40.084741],[26.365595,40.082922],[26.363796,40.08113],[26.358596,40.076325],[26.3582,40.073308],[26.357371,40.068843],[26.356089,40.06182],[26.356263,40.057299],[26.356244,40.057099],[26.356051,40.056845],[26.34907,40.050006],[26.347293,40.045686],[26.340537,40.044099],[26.338046,40.042396],[26.337579,40.040463],[26.334233,40.02837],[26.320581,40.017018],[26.311447,40.016954],[26.308598,40.01545],[26.307049,40.015102],[26.299978,40.013927],[26.296655,40.012112],[26.294656,40.010236],[26.290309,40.006293],[26.287474,40.004805],[26.284987,40.004119],[26.272861,40.001191],[26.270887,40.000666],[26.267566,40.000335],[26.239962,39.99983],[26.237928,39.997727],[26.231728,39.9973],[26.237821,39.998605],[26.203811,40.00816],[26.200167,40.008728],[26.19821,40.008701],[26.197897,40.008195],[26.188212,40.000937],[26.186958,40.000647],[26.186399,39.999107],[26.185638,39.99825],[26.185281,39.997849],[26.185265,39.997813],[26.181031,39.992314],[26.178221,39.989975],[26.177207,39.985935],[26.176516,39.984055],[26.176141,39.982968],[26.175263,39.980427],[26.174376,39.977859],[26.173971,39.976631],[26.173379,39.97499],[26.172567,39.972656],[26.170859,39.967748],[26.167386,39.963276]]],"type":"Polygon"}},{"type":"Feature","properties":{"area_id":"TR-17-007","name_tr":"Eceabat","area_level":"district","parent_id":"TR-17","endeksa_id":1293},"geometry":{"coordinates":[[[26.215316,40.316072],[26.217051,40.31615],[26.224943,40.317014],[26.231947,40.317412],[26.232432,40.31759],[26.233157,40.317338],[26.235234,40.316971],[26.235611,40.31706],[26.235758,40.31684],[26.247451,40.304963],[26.256821,40.306627],[26.27186,40.298838],[26.264363,40.287855],[26.248298,40.288772],[26.252288,40.293266],[26.247463,40.304829],[26.247417,40.303136],[26.247418,40.301858],[26.246694,40.299785],[26.245009,40.298506],[26.241347,40.294371],[26.241091,40.293547],[26.240566,40.293521],[26.238927,40.292006],[26.23733,40.290621],[26.23339,40.290162],[26.230205,40.289546],[26.228609,40.289205],[26.231332,40.288414],[26.233425,40.287593],[26.242174,40.283176],[26.245,40.281531],[26.265771,40.267671],[26.266274,40.267274],[26.272714,40.261094],[26.276931,40.256181],[26.280411,40.251171],[26.281441,40.248795],[26.281864,40.245835],[26.282079,40.243492],[26.281412,40.241639],[26.280656,40.240799],[26.277045,40.239425],[26.277177,40.236859],[26.276836,40.234467],[26.275985,40.232407],[26.278281,40.224466],[26.278656,40.223373],[26.278911,40.218745],[26.278241,40.215376],[26.27727,40.214277],[26.265435,40.203835],[26.270158,40.20214],[26.270356,40.200597],[26.270358,40.200586],[26.270378,40.200469],[26.266733,40.201992],[26.270438,40.200113],[26.271357,40.196022],[26.270633,40.193057],[26.269094,40.192157],[26.259403,40.178573],[26.25727,40.176527],[26.254748,40.17473],[26.252387,40.173112],[26.252144,40.171574],[26.252015,40.169312],[26.250946,40.167141],[26.247434,40.163272],[26.24578,40.162154],[26.244962,40.161693],[26.244902,40.161655],[26.242826,40.160319],[26.240997,40.159203],[26.240378,40.158633],[26.237808,40.156634],[26.237453,40.156384],[26.237099,40.155907],[26.236114,40.154579],[26.236,40.154405],[26.225826,40.134791],[26.212392,40.116099],[26.212451,40.111821],[26.212424,40.111709],[26.212151,40.110588],[26.211656,40.108444],[26.211543,40.108393],[26.21152,40.108328],[26.211304,40.107134],[26.210365,40.105271],[26.208177,40.102087],[26.201844,40.095686],[26.201434,40.095234],[26.196432,40.089542],[26.186738,40.080658],[26.183683,40.073885],[26.176531,40.062565],[26.166452,40.053628],[26.166312,40.053401],[26.166433,40.052695],[26.173588,40.044187],[26.175253,40.042972],[26.177031,40.043215],[26.186944,40.041526],[26.188243,40.040968],[26.19009,40.041841],[26.190352,40.041967],[26.190482,40.042035],[26.19249,40.043546],[26.193926,40.044002],[26.194767,40.045717],[26.196421,40.047868],[26.19965,40.051084],[26.20168,40.051956],[26.203065,40.052563],[26.20814,40.053398],[26.217382,40.048736],[26.218546,40.048822],[26.220798,40.049261],[26.227489,40.05244],[26.229306,40.055855],[26.229398,40.055979],[26.229772,40.05644],[26.231452,40.059865],[26.238719,40.061038],[26.241038,40.061852],[26.24464,40.063253],[26.245115,40.063383],[26.246686,40.06438],[26.247969,40.065189],[26.248732,40.066544],[26.2498,40.068398],[26.251461,40.068833],[26.284124,40.081933],[26.286604,40.082708],[26.289607,40.082766],[26.289856,40.082748],[26.290264,40.082955],[26.291162,40.083259],[26.291663,40.083244],[26.291889,40.083533],[26.294729,40.084699],[26.295532,40.084806],[26.298,40.08624],[26.304542,40.090487],[26.309945,40.093955],[26.310738,40.096095],[26.312232,40.099867],[26.313918,40.100442],[26.322339,40.103711],[26.329054,40.106735],[26.333176,40.110443],[26.335482,40.112365],[26.336387,40.113067],[26.338319,40.115221],[26.338544,40.115459],[26.339275,40.115986],[26.339636,40.116653],[26.341626,40.119379],[26.345721,40.124875],[26.345738,40.124987],[26.347098,40.126556],[26.347589,40.126743],[26.353645,40.130469],[26.355297,40.13175],[26.357562,40.132572],[26.380041,40.143167],[26.381155,40.144002],[26.380834,40.145456],[26.380824,40.146487],[26.380809,40.146594],[26.380367,40.148401],[26.380574,40.148605],[26.380205,40.148869],[26.378163,40.15343],[26.37802,40.153738],[26.376988,40.155467],[26.377089,40.155738],[26.374778,40.160782],[26.372344,40.165483],[26.371042,40.169121],[26.369653,40.16976],[26.367538,40.171807],[26.36691,40.172424],[26.366301,40.173403],[26.364539,40.175917],[26.361211,40.179744],[26.36042,40.182635],[26.360282,40.184171],[26.360209,40.184354],[26.359774,40.184545],[26.35987,40.185229],[26.359784,40.185457],[26.359084,40.187051],[26.359229,40.187105],[26.358989,40.188042],[26.357988,40.191193],[26.358298,40.191714],[26.358643,40.203485],[26.358811,40.203654],[26.359068,40.20373],[26.359156,40.203774],[26.359302,40.20419],[26.360897,40.204532],[26.362872,40.205164],[26.365285,40.20436],[26.368673,40.202544],[26.375094,40.203741],[26.376776,40.205116],[26.383487,40.209056],[26.390237,40.213402],[26.390395,40.213481],[26.398234,40.216316],[26.400723,40.217114],[26.418049,40.219692],[26.419636,40.219601],[26.420422,40.22045],[26.420543,40.220492],[26.423583,40.221109],[26.425433,40.223002],[26.427971,40.229721],[26.441508,40.232432],[26.459527,40.241481],[26.473005,40.251021],[26.473264,40.252018],[26.458415,40.257198],[26.453576,40.269751],[26.44929,40.296825],[26.457561,40.303223],[26.444382,40.332916],[26.413739,40.328501],[26.393743,40.340059],[26.380104,40.338018],[26.362996,40.357532],[26.359858,40.383865],[26.346712,40.378368],[26.345317,40.378009],[26.343695,40.376682],[26.343279,40.376419],[26.3426,40.376107],[26.342502,40.375895],[26.339757,40.37379],[26.337708,40.37302],[26.337597,40.371976],[26.335427,40.369575],[26.334575,40.36846],[26.334541,40.367481],[26.334582,40.365839],[26.332849,40.364633],[26.329167,40.363447],[26.328046,40.36313],[26.32501,40.362305],[26.322518,40.362929],[26.322471,40.363471],[26.32193,40.364034],[26.321237,40.364632],[26.321579,40.365095],[26.321553,40.365341],[26.321049,40.366571],[26.321508,40.366914],[26.32135,40.36824],[26.317414,40.367937],[26.309271,40.365314],[26.30802,40.364892],[26.308187,40.364571],[26.307555,40.364123],[26.306546,40.363391],[26.30413,40.361572],[26.304043,40.361504],[26.303094,40.360678],[26.301144,40.359866],[26.300951,40.358244],[26.300782,40.358034],[26.298168,40.354842],[26.297982,40.354622],[26.296399,40.352959],[26.295322,40.351745],[26.293612,40.351147],[26.287593,40.349206],[26.283233,40.348208],[26.281791,40.348322],[26.277718,40.347701],[26.276896,40.347576],[26.273546,40.347084],[26.271304,40.346579],[26.269859,40.346687],[26.267191,40.347223],[26.264246,40.346151],[26.261792,40.344378],[26.261252,40.344092],[26.259201,40.343307],[26.257198,40.341841],[26.25421,40.340174],[26.253288,40.33966],[26.251391,40.338326],[26.249159,40.337365],[26.249098,40.337331],[26.237643,40.330684],[26.237544,40.330602],[26.235926,40.329024],[26.235191,40.328303],[26.23379,40.326662],[26.231722,40.325672],[26.227193,40.323042],[26.224744,40.321754],[26.223874,40.321485],[26.219606,40.319514],[26.219195,40.318935],[26.216985,40.316544],[26.215316,40.316072]]],"type":"Polygon"}},{"type":"Feature","properties":{"area_id":"TR-17-008","name_tr":"Ezine","area_level":"district","parent_id":"TR-17","endeksa_id":1326},"geometry":{"coordinates":[[[[26.150172000000193,39.915273000000084],[26.150576999999863,39.91479500000013],[26.15027400000008,39.9113240000001],[26.150104000000166,39.911164000000014],[26.15033200000009,39.909545],[26.151864000000057,39.9061670000001],[26.153984000000108,39.903589000000025],[26.159575999999984,39.89809699999993],[26.159893000000093,39.8977579999999],[26.160975000000214,39.89447200000008],[26.16007600000004,39.89247500000002],[26.158964999999927,39.886779000000026],[26.158939000000103,39.88461199999992],[26.157637999999988,39.88221400000013],[26.151495999999913,39.87807299999993],[26.155220999999983,39.87794099999989],[26.15537699999989,39.87631199999992],[26.153015999999923,39.87431499999988],[26.152521999999987,39.87352299999989],[26.152774999999895,39.87235600000014],[26.151054000000105,39.871345999999846],[26.150962999999905,39.87122600000004],[26.149504000000068,39.86930500000007],[26.143533999999956,39.862206000000114],[26.146872999999875,39.859540000000145],[26.14675500000009,39.85649900000012],[26.146198999999985,39.85571900000004],[26.144199000000004,39.84748000000007],[26.144230000000167,39.84742899999999],[26.143061000000134,39.84449800000001],[26.142610000000087,39.84396799999987],[26.138499999999922,39.84190099999997],[26.135052999999854,39.84119999999991],[26.136966999999935,39.84064199999988],[26.137695000000097,39.840081000000005],[26.156343999999958,39.8289240000001],[26.16212400000007,39.823855999999914],[26.162993999999994,39.8213519999999],[26.16330499999989,39.812712],[26.163294999999806,39.81159399999998],[26.162968999999887,39.81038600000012],[26.162148999999932,39.80872199999999],[26.15759799999994,39.80566699999996],[26.15631500000007,39.80473100000001],[26.156615000000155,39.80386599999998],[26.15517400000011,39.79840499999985],[26.15516699999997,39.79836899999996],[26.154686999999843,39.795796999999986],[26.154085000000077,39.79438000000009],[26.15483800000015,39.793270000000064],[26.156552999999903,39.79008700000001],[26.156457999999844,39.78884699999993],[26.157013000000166,39.78458300000002],[26.157176999999866,39.783226999999975],[26.15767000000003,39.778592999999866],[26.15767099999985,39.77854199999999],[26.157551999999797,39.77656499999996],[26.15751100000007,39.776066000000064],[26.157012000000005,39.774718999999976],[26.15695600000002,39.773202000000126],[26.152327999999816,39.767732999999915],[26.15220900000017,39.767561000000065],[26.15151499999993,39.76620400000009],[26.150040999999867,39.76453699999993],[26.147172999999885,39.76321800000006],[26.145766999999925,39.76249800000008],[26.14507400000016,39.76213000000003],[26.145019000000158,39.762171],[26.14475400000013,39.762066999999924],[26.14393899999983,39.76127699999989],[26.14289599999985,39.76140899999995],[26.14218799999985,39.762109000000066],[26.14240999999992,39.761216000000104],[26.143638000000013,39.745744000000066],[26.143715999999873,39.745550000000094],[26.144087999999922,39.74492800000008],[26.152508999999867,39.72999700000008],[26.152910999999897,39.729414000000105],[26.154459999999908,39.72724700000012],[26.158941999999925,39.719641999999865],[26.159155000000137,39.717925],[26.1581949999999,39.716615999999945],[26.1580329999999,39.71624099999988],[26.157695000000103,39.715352999999965],[26.157158999999925,39.71414699999993],[26.15736700000019,39.713117999999994],[26.159313999999927,39.70039999999993],[26.15940300000011,39.69990599999988],[26.15986499999985,39.69771299999996],[26.15985899999992,39.69752600000005],[26.159957999999857,39.69735600000009],[26.161917000000003,39.69102799999991],[26.164340000000106,39.68297299999998],[26.164622999999978,39.681259000000125],[26.164440999999957,39.68106199999991],[26.163457000000115,39.663113999999936],[26.163416999999825,39.65951299999999],[26.16247600000001,39.65804099999986],[26.159270000000102,39.64878699999986],[26.159382999999828,39.64873999999991],[26.188264000000007,39.652793000000116],[26.255327999999835,39.64962800000005],[26.26318600000012,39.63736399999995],[26.276759000000055,39.63388400000002],[26.297899999999906,39.648821000000126],[26.361000000000168,39.65912500000008],[26.36453800000008,39.665452999999886],[26.3448950000001,39.6759349999999],[26.350814000000057,39.68421599999998],[26.37054099999994,39.679204000000084],[26.364527000000034,39.67087099999985],[26.38275399999987,39.65188000000012],[26.405425999999988,39.65966299999988],[26.406165000000115,39.66902299999985],[26.417747999999886,39.67525100000013],[26.44081700000007,39.671462999999875],[26.45433999999988,39.69359099999997],[26.439265999999957,39.705928999999955],[26.439024000000007,39.72711499999997],[26.42494700000015,39.765323999999914],[26.438336999999812,39.78276699999995],[26.433897000000083,39.78884599999995],[26.441115000000107,39.809018999999914],[26.448959999999843,39.81482199999993],[26.437391999999885,39.853492999999936],[26.46487900000016,39.91835700000007],[26.45885599999993,39.93743799999994],[26.41231000000019,39.925607000000014],[26.3952499999999,39.932474999999926],[26.386591999999997,39.91314100000014],[26.368089999999885,39.91459900000004],[26.331007000000128,39.90270600000008],[26.327803000000088,39.90795199999997],[26.29997900000004,39.911604999999916],[26.285744999999988,39.89955100000012],[26.274811000000113,39.9153039999999],[26.25853800000008,39.91582999999983],[26.257883999999848,39.91015899999991],[26.246652000000083,39.90884699999992],[26.234324000000115,39.92407099999987],[26.226385999999973,39.925207999999955],[26.22307900000002,39.93450700000007],[26.21220899999988,39.93656099999994],[26.19266199999982,39.955670999999995],[26.18549099999989,39.95222599999995],[26.184212000000095,39.93543699999993],[26.162832000000133,39.94062699999991],[26.162815000000208,39.937283000000065],[26.162051999999914,39.93561599999993],[26.161015999999925,39.93247299999991],[26.159104999999823,39.92617399999996],[26.159094999999876,39.925893000000066],[26.158955999999964,39.92577200000001],[26.157196999999982,39.92233000000001],[26.15520500000002,39.91879000000011],[26.152724000000003,39.91635600000015],[26.15096999999999,39.91552800000001],[26.150172000000193,39.915273000000084]]],[[[26.05767200000017,39.93851699999994],[26.05750599999992,39.937911999999955],[26.057683000000058,39.936968000000036],[26.058349000000014,39.934401000000044],[26.058793999999835,39.93378299999996],[26.058846000000106,39.933743000000064],[26.059037999999916,39.93369500000011],[26.066937999999833,39.93189200000006],[26.069153999999887,39.93150900000003],[26.072055000000052,39.932513999999976],[26.07934999999993,39.93798500000008],[26.072991999999946,39.936785999999906],[26.06955600000005,39.938057999999955],[26.067057,39.93906800000005],[26.06196600000005,39.94039999999995],[26.0601049999999,39.94031499999993],[26.059730999999935,39.939769000000034],[26.05878799999984,39.939195999999974],[26.05767200000017,39.93851699999994]]]],"type":"MultiPolygon"}},{"type":"Feature","properties":{"area_id":"TR-17-009","name_tr":"Gelibolu","area_level":"district","parent_id":"TR-17","endeksa_id":1340},"geometry":{"coordinates":[[[26.359858,40.383865],[26.362996,40.357532],[26.380104,40.338018],[26.393743,40.340059],[26.413739,40.328501],[26.444382,40.332916],[26.457561,40.303223],[26.44929,40.296825],[26.453576,40.269751],[26.458415,40.257198],[26.473264,40.252018],[26.476169,40.253185],[26.478333,40.254417],[26.480643,40.256825],[26.484531,40.260192],[26.48689,40.261457],[26.488241,40.262164],[26.491854,40.267255],[26.492227,40.267752],[26.493935,40.269978],[26.49391,40.272092],[26.493414,40.273199],[26.492509,40.275224],[26.493329,40.277734],[26.495316,40.27883],[26.509329,40.288032],[26.509377,40.288062],[26.512076,40.289662],[26.512818,40.290258],[26.517656,40.292453],[26.518829,40.2927],[26.539036,40.297599],[26.54217,40.298434],[26.548205,40.299442],[26.548245,40.299452],[26.558492,40.30476],[26.563371,40.307167],[26.568456,40.309168],[26.568503,40.310612],[26.569952,40.312693],[26.572985,40.318215],[26.572963,40.318667],[26.573481,40.318838],[26.573564,40.318931],[26.573411,40.319372],[26.574972,40.320289],[26.575965,40.320035],[26.576418,40.320083],[26.578645,40.320368],[26.580959,40.319908],[26.585134,40.318335],[26.588533,40.320315],[26.59159,40.321846],[26.593709,40.323828],[26.59346,40.324846],[26.59314,40.327779],[26.596593,40.330458],[26.600757,40.333341],[26.604157,40.33661],[26.612576,40.343515],[26.620494,40.349556],[26.631217,40.362504],[26.632316,40.363996],[26.631826,40.36538],[26.628588,40.375241],[26.627654,40.377959],[26.626273,40.381724],[26.62624,40.38383],[26.628431,40.386159],[26.638697,40.390236],[26.639988,40.401361],[26.640011,40.401555],[26.640723,40.402221],[26.675506,40.403501],[26.682906,40.409483],[26.679569,40.414358],[26.679548,40.414649],[26.680026,40.415765],[26.680415,40.416201],[26.700113,40.420406],[26.693522,40.446642],[26.705396,40.456041],[26.706302,40.456352],[26.707456,40.456334],[26.712644,40.456058],[26.713812,40.456619],[26.714703,40.456809],[26.714765,40.456937],[26.72428,40.463139],[26.72588,40.464285],[26.731282,40.471793],[26.731982,40.472396],[26.733619,40.473459],[26.739154,40.476698],[26.740888,40.477677],[26.742711,40.478136],[26.743051,40.478265],[26.74416,40.47869],[26.74437,40.478745],[26.768107,40.484516],[26.776529,40.485655],[26.772387,40.484819],[26.775658,40.485204],[26.790143,40.491663],[26.804246,40.496004],[26.828466,40.50344],[26.841226,40.507577],[26.85597,40.511744],[26.866769,40.517723],[26.869879,40.519383],[26.876512,40.522769],[26.899032,40.536028],[26.900973,40.536631],[26.906997,40.538251],[26.907007,40.538467],[26.911034,40.575104],[26.903112,40.5898],[26.918697,40.616837],[26.91218,40.626789],[26.919387,40.632442],[26.914516,40.645213],[26.924,40.645857],[26.923991,40.638854],[26.934875,40.641286],[26.951561,40.661721],[26.960233,40.661286],[26.968042,40.670853],[26.978741,40.672827],[26.981727,40.680779],[26.990432,40.676339],[27.009321,40.687297],[27.017751,40.686552],[27.02471,40.69209],[27.02244,40.70081],[27.03079,40.70033],[27.03286,40.71896],[27.039275,40.72312],[27.034034,40.730843],[27.05042,40.74464],[27.020953,40.752709],[26.980628,40.750765],[26.958258,40.75726],[26.928805,40.748584],[26.906406,40.753436],[26.850125,40.726489],[26.824156,40.723036],[26.80491,40.72674],[26.809535,40.73944],[26.787242,40.738841],[26.763447,40.72873],[26.769332,40.71278],[26.748343,40.689268],[26.738773,40.661265],[26.726053,40.643411],[26.738557,40.644332],[26.744014,40.64493],[26.74736,40.647894],[26.747666,40.648313],[26.748503,40.648707],[26.76917,40.655378],[26.778121,40.656956],[26.785347,40.657542],[26.789465,40.657465],[26.791162,40.657268],[26.793199,40.656653],[26.794779,40.656204],[26.806486,40.653959],[26.816673,40.648055],[26.822598,40.635314],[26.829312,40.62391],[26.82999,40.622452],[26.831613,40.618563],[26.83177,40.618142],[26.832052,40.617382],[26.832126,40.617185],[26.836137,40.604168],[26.836394,40.603223],[26.832774,40.603967],[26.83884,40.591783],[26.839079,40.590158],[26.838693,40.586776],[26.836781,40.582668],[26.833131,40.579997],[26.82768,40.577123],[26.827585,40.57707],[26.802398,40.559167],[26.790262,40.553059],[26.785654,40.551843],[26.785198,40.551694],[26.76758,40.544845],[26.759563,40.545514],[26.757402,40.545505],[26.753469,40.544993],[26.747598,40.547355],[26.745837,40.548735],[26.744632,40.5513],[26.747034,40.553784],[26.747148,40.553907],[26.747281,40.554156],[26.747997,40.557192],[26.747902,40.558116],[26.747515,40.558315],[26.746756,40.5576],[26.72005,40.538455],[26.718908,40.53739],[26.715671,40.531794],[26.714793,40.528937],[26.713598,40.525519],[26.712114,40.521265],[26.710531,40.515746],[26.707992,40.512249],[26.705587,40.511331],[26.705276,40.511168],[26.703669,40.510193],[26.702531,40.510149],[26.696861,40.50865],[26.693465,40.507032],[26.692042,40.508176],[26.692235,40.50819],[26.693238,40.508018],[26.692732,40.508227],[26.687706,40.508207],[26.681294,40.507389],[26.678495,40.507181],[26.659719,40.50648],[26.658082,40.506254],[26.657003,40.506563],[26.648175,40.5069],[26.643577,40.506669],[26.640496,40.507656],[26.633353,40.509675],[26.621295,40.505439],[26.590377,40.496947],[26.588003,40.496042],[26.586977,40.495012],[26.581723,40.491362],[26.567073,40.483345],[26.563092,40.480729],[26.560326,40.48081],[26.553026,40.480725],[26.55085,40.479838],[26.532944,40.468983],[26.531755,40.46819],[26.530797,40.467543],[26.530068,40.46709],[26.528974,40.466411],[26.527194,40.463758],[26.521581,40.462258],[26.516906,40.459776],[26.511354,40.456754],[26.509723,40.455878],[26.500649,40.451233],[26.499701,40.450509],[26.49874,40.450265],[26.493659,40.447817],[26.49096,40.44664],[26.488378,40.445913],[26.474376,40.4437],[26.46935,40.443234],[26.46843,40.443403],[26.467359,40.442901],[26.457278,40.440997],[26.456046,40.440941],[26.455804,40.440637],[26.437588,40.431826],[26.435941,40.430722],[26.435639,40.430203],[26.430054,40.424941],[26.429231,40.424469],[26.429182,40.424075],[26.42659,40.421335],[26.426538,40.42128],[26.424307,40.418569],[26.422105,40.41746],[26.421581,40.417119],[26.421527,40.41702],[26.421075,40.416791],[26.420266,40.416279],[26.419535,40.415815],[26.412879,40.411741],[26.412541,40.410727],[26.410231,40.410585],[26.397312,40.409365],[26.392029,40.402423],[26.390744,40.401431],[26.37638,40.395311],[26.366768,40.392084],[26.36656,40.391957],[26.36523,40.390966],[26.364746,40.390541],[26.363816,40.389634],[26.363813,40.388413],[26.363552,40.385166],[26.359858,40.383865]]],"type":"Polygon"}},{"type":"Feature","properties":{"area_id":"TR-17-010","name_tr":"Gökçeada","area_level":"district","parent_id":"TR-17","endeksa_id":1408},"geometry":{"coordinates":[[[25.667837,40.147507],[25.669644,40.143103],[25.670001,40.141613],[25.669766,40.140867],[25.665558,40.124967],[25.668101,40.123704],[25.669226,40.123957],[25.671316,40.125399],[25.67259,40.123688],[25.673241,40.123631],[25.673684,40.123882],[25.683423,40.121818],[25.687592,40.120923],[25.693778,40.119583],[25.698139,40.11848],[25.698563,40.118381],[25.699645,40.118323],[25.700178,40.117996],[25.702015,40.117523],[25.703051,40.11746],[25.704608,40.116949],[25.706862,40.115829],[25.725022,40.106816],[25.72523,40.106718],[25.725592,40.106295],[25.725902,40.105745],[25.730487,40.09395],[25.738768,40.091383],[25.760955,40.099669],[25.779624,40.099053],[25.78218,40.099592],[25.78435,40.097443],[25.785258,40.09688],[25.786641,40.096785],[25.791296,40.096691],[25.793051,40.096693],[25.794268,40.09849],[25.79486,40.099833],[25.795301,40.101501],[25.795043,40.101885],[25.795956,40.10291],[25.815913,40.10329],[25.817313,40.103239],[25.81893,40.102395],[25.819518,40.101145],[25.82403,40.101511],[25.82887,40.101134],[25.830503,40.100885],[25.831126,40.101166],[25.835259,40.101276],[25.838032,40.099994],[25.84044,40.10147],[25.840911,40.101509],[25.843389,40.101546],[25.848655,40.103942],[25.849821,40.104445],[25.934688,40.127387],[25.935701,40.127586],[25.939356,40.128124],[25.939421,40.128159],[25.940621,40.12815],[25.947807,40.12692],[25.957196,40.124351],[25.957679,40.123378],[25.964838,40.124935],[25.97159,40.125848],[25.973396,40.125697],[25.974643,40.128375],[25.975144,40.129182],[25.975209,40.129222],[25.993345,40.132263],[25.99691,40.137444],[26.006859,40.143032],[26.007968,40.143232],[26.009999,40.144859],[26.011959,40.146205],[26.01391,40.147016],[26.013888,40.149126],[26.014271,40.154285],[26.014659,40.155322],[26.01421,40.156081],[26.012614,40.162482],[26.012727,40.162726],[26.012009,40.162903],[26.011634,40.162887],[26.011017,40.16286],[26.01076,40.162804],[26.006776,40.154523],[25.99589,40.153589],[25.99184,40.15126],[25.989926,40.145883],[25.989427,40.144703],[25.986904,40.143714],[25.98449,40.143459],[25.979387,40.143908],[25.975573,40.144767],[25.969977,40.146742],[25.968069,40.147715],[25.966646,40.149025],[25.96552,40.150997],[25.965671,40.152026],[25.969422,40.154424],[25.965241,40.157738],[25.965193,40.158508],[25.964961,40.162399],[25.964385,40.164323],[25.966337,40.167274],[25.972597,40.171064],[25.972686,40.171158],[25.96806,40.181034],[25.975647,40.197096],[25.975644,40.197113],[25.975634,40.197156],[25.975541,40.197562],[25.9755,40.197614],[25.97354,40.19971],[25.973442,40.204864],[25.973647,40.205744],[25.973706,40.207066],[25.973205,40.210031],[25.974477,40.212424],[25.976276,40.216135],[25.975012,40.21629],[25.970479,40.222013],[25.970366,40.222153],[25.970316,40.222099],[25.959841,40.222669],[25.956581,40.222932],[25.956445,40.222866],[25.956337,40.22296],[25.955346,40.223113],[25.953081,40.222791],[25.951761,40.223956],[25.950623,40.225511],[25.949886,40.226228],[25.948257,40.226166],[25.949125,40.227048],[25.948993,40.227197],[25.948128,40.22771],[25.948359,40.227943],[25.948255,40.22807],[25.947871,40.228542],[25.946827,40.229938],[25.945754,40.230299],[25.945568,40.232845],[25.945556,40.232918],[25.94532,40.233337],[25.945502,40.233554],[25.955399,40.228762],[25.946865,40.239014],[25.945819,40.239951],[25.945742,40.240309],[25.94477,40.240484],[25.94467,40.240453],[25.938742,40.235659],[25.927946,40.240094],[25.927625,40.240077],[25.927171,40.240052],[25.926836,40.240034],[25.924382,40.239877],[25.923781,40.239857],[25.923498,40.239802],[25.869588,40.225121],[25.868055,40.223867],[25.867889,40.223664],[25.86708,40.223102],[25.867044,40.223087],[25.866658,40.222799],[25.866389,40.2223],[25.865942,40.222301],[25.86452,40.221454],[25.864463,40.221423],[25.852448,40.218781],[25.846062,40.212753],[25.84571,40.212012],[25.843953,40.211832],[25.843847,40.211791],[25.843632,40.211145],[25.841646,40.21126],[25.839951,40.211276],[25.839517,40.211264],[25.839229,40.211334],[25.836129,40.211755],[25.827444,40.212952],[25.82143,40.213971],[25.818925,40.213151],[25.818454,40.213043],[25.817819,40.212897],[25.816497,40.212522],[25.814133,40.21207],[25.81265,40.212182],[25.812501,40.212168],[25.811444,40.212009],[25.811352,40.212061],[25.804664,40.211504],[25.803902,40.211456],[25.803035,40.211419],[25.802583,40.211136],[25.802399,40.211406],[25.801177,40.211403],[25.80094,40.211225],[25.800148,40.21142],[25.799653,40.211437],[25.794771,40.211502],[25.792879,40.211476],[25.757204,40.196723],[25.756912,40.19656],[25.756902,40.196526],[25.755716,40.195519],[25.75506,40.195107],[25.755029,40.194792],[25.754564,40.193662],[25.753274,40.193223],[25.750029,40.191324],[25.750021,40.191316],[25.749331,40.191023],[25.749293,40.191017],[25.746133,40.189861],[25.7459,40.189783],[25.740558,40.188074],[25.737568,40.186799],[25.735331,40.186751],[25.734879,40.186741],[25.734777,40.186639],[25.734491,40.186577],[25.733491,40.186531],[25.733469,40.186341],[25.705746,40.172859],[25.70484,40.172645],[25.704181,40.17198],[25.701683,40.170462],[25.70056,40.17001],[25.699827,40.168641],[25.699611,40.167664],[25.697465,40.165728],[25.695251,40.163617],[25.694467,40.162836],[25.693044,40.161998],[25.691073,40.16071],[25.689704,40.159885],[25.689279,40.159768],[25.687964,40.159154],[25.68764,40.159006],[25.6848,40.157841],[25.684604,40.157743],[25.683651,40.157451],[25.677668,40.157561],[25.677838,40.155738],[25.67227,40.153574],[25.671111,40.153126],[25.670998,40.152861],[25.66816,40.148064],[25.667837,40.147507]]],"type":"Polygon"}},{"type":"Feature","properties":{"area_id":"TR-17-011","name_tr":"Lâpseki","area_level":"district","parent_id":"TR-17","endeksa_id":1503},"geometry":{"coordinates":[[[26.54207,40.240303],[26.542528,40.23719],[26.542667,40.237153],[26.551793,40.234718],[26.548205,40.230664],[26.559662,40.223758],[26.554776,40.218755],[26.559247,40.221358],[26.57076,40.213404],[26.628179,40.213641],[26.645135,40.179789],[26.642938,40.167019],[26.633404,40.160109],[26.643132,40.155405],[26.673407,40.161467],[26.682573,40.151313],[26.679182,40.147571],[26.692143,40.113942],[26.705405,40.105117],[26.712386,40.117563],[26.728995,40.126834],[26.748352,40.130594],[26.764126,40.122491],[26.802712,40.126734],[26.814794,40.131436],[26.818694,40.142853],[26.831708,40.147206],[26.870381,40.154061],[26.881899,40.146337],[26.889407,40.149728],[26.896829,40.165418],[26.890159,40.18377],[26.926828,40.19617],[26.935775,40.206583],[26.933702,40.213359],[26.940998,40.221529],[26.937564,40.223615],[26.944916,40.219238],[26.959061,40.221677],[26.940393,40.230262],[26.952194,40.269516],[26.971419,40.268541],[26.985974,40.281525],[26.996757,40.280568],[26.997876,40.291337],[27.046887,40.32502],[27.028172,40.325159],[27.013427,40.333261],[27.0082,40.351865],[27.012445,40.389569],[26.99863,40.386993],[26.996091,40.386412],[26.994688,40.386117],[26.992251,40.385616],[26.990727,40.384079],[26.988119,40.384965],[26.987135,40.384885],[26.98446,40.384589],[26.983982,40.384712],[26.978539,40.385776],[26.970162,40.384031],[26.967825,40.383912],[26.961362,40.383598],[26.959374,40.382636],[26.957467,40.383597],[26.956699,40.383647],[26.955656,40.383449],[26.955151,40.383802],[26.954993,40.383821],[26.953614,40.383608],[26.951301,40.384317],[26.939548,40.387747],[26.93788,40.387919],[26.934521,40.389726],[26.93328,40.390282],[26.932888,40.390389],[26.932282,40.390744],[26.91527,40.403377],[26.914776,40.40379],[26.913419,40.405274],[26.912096,40.405426],[26.90609,40.404989],[26.905335,40.405076],[26.904745,40.404685],[26.894081,40.398535],[26.890278,40.397741],[26.888483,40.39735],[26.885751,40.396351],[26.880317,40.396781],[26.86929,40.39647],[26.867662,40.396323],[26.866431,40.396755],[26.857555,40.398707],[26.852505,40.398916],[26.851101,40.399128],[26.8501,40.399363],[26.849522,40.399363],[26.84747,40.399667],[26.846833,40.399761],[26.840348,40.400574],[26.839904,40.400654],[26.83971,40.400569],[26.837053,40.399893],[26.835233,40.399185],[26.834753,40.398705],[26.83356,40.398661],[26.822929,40.39606],[26.822703,40.39594],[26.822307,40.395932],[26.819054,40.395552],[26.818777,40.395493],[26.818213,40.395594],[26.8068,40.398693],[26.803463,40.399307],[26.801765,40.400165],[26.799674,40.400796],[26.795736,40.401986],[26.792983,40.40283],[26.790696,40.403534],[26.786823,40.40473],[26.785811,40.404875],[26.781343,40.405605],[26.780098,40.405775],[26.779981,40.405672],[26.779922,40.405673],[26.779673,40.405765],[26.77922,40.405674],[26.777946,40.40562],[26.776123,40.405569],[26.775623,40.405247],[26.767172,40.402134],[26.766087,40.40204],[26.76255,40.402272],[26.757787,40.403793],[26.757573,40.403822],[26.738252,40.395515],[26.732675,40.392696],[26.732207,40.392495],[26.731996,40.39244],[26.729852,40.39175],[26.727735,40.391067],[26.72699,40.390992],[26.725072,40.390553],[26.718875,40.389161],[26.712638,40.387646],[26.705553,40.384156],[26.713214,40.382154],[26.715659,40.381333],[26.714241,40.379482],[26.71272,40.377171],[26.712697,40.377069],[26.712589,40.377036],[26.712544,40.376992],[26.71219,40.376477],[26.710566,40.375244],[26.702999,40.369952],[26.701138,40.368915],[26.699894,40.368736],[26.698258,40.368427],[26.689685,40.36497],[26.68902,40.364331],[26.689151,40.363883],[26.689149,40.362844],[26.689041,40.362493],[26.689332,40.361458],[26.689807,40.360975],[26.69239,40.357114],[26.693079,40.353963],[26.692318,40.353497],[26.692262,40.353233],[26.692161,40.352605],[26.691839,40.351785],[26.690878,40.350658],[26.689972,40.350264],[26.69012,40.35467],[26.672366,40.340299],[26.668374,40.337859],[26.664071,40.336451],[26.662265,40.334061],[26.654684,40.329278],[26.652086,40.328209],[26.650799,40.326383],[26.64998,40.32571],[26.649556,40.325352],[26.648891,40.32479],[26.647344,40.322944],[26.641352,40.318386],[26.641198,40.318355],[26.640872,40.317977],[26.639914,40.31715],[26.638528,40.316402],[26.637521,40.314489],[26.637141,40.313745],[26.636718,40.31323],[26.636404,40.310889],[26.636279,40.309959],[26.636182,40.309848],[26.635633,40.308591],[26.635367,40.307733],[26.633848,40.306129],[26.633845,40.306125],[26.633555,40.305772],[26.633537,40.305764],[26.625055,40.296901],[26.625031,40.296877],[26.624981,40.296827],[26.62488,40.296725],[26.607041,40.281311],[26.60694,40.281263],[26.606876,40.281231],[26.60681,40.2812],[26.590271,40.283748],[26.586301,40.283724],[26.583685,40.282565],[26.576648,40.28072],[26.574551,40.280191],[26.572427,40.279467],[26.568678,40.276821],[26.565115,40.2724],[26.562467,40.267422],[26.562279,40.266642],[26.561971,40.265358],[26.561124,40.264793],[26.559482,40.264598],[26.558905,40.264435],[26.557989,40.264066],[26.557776,40.263938],[26.556866,40.263191],[26.556584,40.262527],[26.556593,40.262351],[26.557823,40.260392],[26.557993,40.259946],[26.558059,40.259773],[26.558656,40.25848],[26.55861,40.25674],[26.557995,40.256194],[26.555574,40.25471],[26.55451,40.254303],[26.551329,40.254001],[26.546873,40.246966],[26.546861,40.246946],[26.545697,40.245117],[26.543552,40.241497],[26.54207,40.240303]]],"type":"Polygon"}},{"type":"Feature","properties":{"area_id":"TR-17-012","name_tr":"Yenice","area_level":"district","parent_id":"TR-17","endeksa_id":1722},"geometry":{"coordinates":[[[26.93797,39.812001],[26.934299,39.788409],[26.942225,39.753034],[26.947854,39.766816],[26.968975,39.769838],[26.969621,39.763584],[26.980631,39.759584],[26.977809,39.748994],[26.969312,39.746415],[26.980615,39.74155],[26.977851,39.73076],[27.004669,39.721489],[27.023436,39.726393],[27.050811,39.737219],[27.042016,39.750561],[27.108688,39.749332],[27.17767,39.728186],[27.191424,39.733731],[27.210803,39.720025],[27.193619,39.701027],[27.206307,39.697666],[27.225551,39.706594],[27.23449,39.667974],[27.251064,39.671626],[27.274513,39.659846],[27.277261,39.64556],[27.295473,39.651594],[27.30654,39.66654],[27.333686,39.660886],[27.342761,39.672188],[27.337993,39.686126],[27.339381,39.691542],[27.331455,39.691506],[27.337869,39.721412],[27.376419,39.746224],[27.394634,39.747295],[27.396141,39.753418],[27.408409,39.758202],[27.405524,39.761212],[27.432043,39.777911],[27.435081,39.767911],[27.454937,39.75592],[27.460432,39.757931],[27.463064,39.771668],[27.458079,39.774989],[27.462122,39.78014],[27.455885,39.78363],[27.464091,39.799622],[27.457161,39.804916],[27.473968,39.806619],[27.46496,39.837181],[27.451795,39.848692],[27.452702,39.860652],[27.466992,39.870122],[27.477556,39.868961],[27.494511,39.882621],[27.509569,39.881597],[27.512383,39.895402],[27.526133,39.906235],[27.518917,39.914359],[27.531978,39.917274],[27.538275,39.929539],[27.516133,39.942079],[27.507304,39.959498],[27.479309,39.976173],[27.445185,39.986521],[27.431242,40.002003],[27.453316,40.037679],[27.455666,40.054664],[27.4472,40.065396],[27.46012,40.07847],[27.457534,40.088523],[27.4255,40.100452],[27.363027,40.098498],[27.360881,40.094931],[27.322557,40.10033],[27.297699,40.118896],[27.292025,40.1177],[27.270904,40.09808],[27.254766,40.09716],[27.2474,40.078354],[27.23785,40.070076],[27.242763,40.059631],[27.233966,40.036773],[27.208524,40.010967],[27.206678,40.016282],[27.188938,40.021226],[27.172405,40.01726],[27.166731,40.020982],[27.150573,39.99736],[27.117875,39.980882],[27.120894,39.972251],[27.10456,39.964918],[27.11414,39.959004],[27.119885,39.935932],[27.111335,39.922542],[27.088237,39.915413],[27.099076,39.892557],[27.034934,39.878679],[27.029819,39.860022],[27.010307,39.854955],[27.017144,39.84754],[26.990593,39.851258],[26.978327,39.847186],[26.980988,39.838789],[26.969725,39.835813],[26.953196,39.834512],[26.943063,39.812897],[26.93797,39.812001]]],"type":"Polygon"}}]}