{"type":"FeatureCollection","area_id":"TR-14","name_tr":"Bolu","source_id":"endeksa","licence":null,"retrieved_at":"2026-08-23","features":[{"type":"Feature","properties":{"area_id":"TR-14-001","name_tr":"Bolu","area_level":"district","parent_id":"TR-14","endeksa_id":1199},"geometry":{"coordinates":[[[31.296858,40.640248],[31.307379,40.624722],[31.313261,40.624685],[31.313435,40.614482],[31.337561,40.602488],[31.345677,40.630428],[31.370118,40.630755],[31.374922,40.619432],[31.36071,40.603121],[31.371992,40.597707],[31.37458,40.583529],[31.38794,40.587544],[31.406051,40.564749],[31.424789,40.557259],[31.462712,40.558556],[31.477993,40.548196],[31.495224,40.550947],[31.488167,40.534776],[31.505666,40.52682],[31.521253,40.532787],[31.527917,40.546446],[31.512499,40.559633],[31.514596,40.565835],[31.535282,40.557581],[31.530374,40.548896],[31.543839,40.556271],[31.569707,40.55644],[31.5714,40.551226],[31.582942,40.550487],[31.593687,40.555043],[31.609121,40.574834],[31.604255,40.580756],[31.607107,40.602772],[31.618676,40.603609],[31.625658,40.583833],[31.616455,40.573759],[31.623576,40.565399],[31.613425,40.538514],[31.787142,40.615862],[31.801174,40.602727],[31.801141,40.587566],[31.814849,40.5812],[31.936576,40.633382],[31.97183,40.65834],[31.989537,40.681657],[31.982682,40.678505],[31.971785,40.683213],[31.98306,40.69951],[31.997218,40.703402],[31.990925,40.714878],[31.985531,40.712735],[31.99062,40.715445],[31.976771,40.740325],[31.957713,40.755179],[31.940945,40.783767],[31.922494,40.798223],[31.907253,40.826974],[31.897584,40.814602],[31.87029,40.81661],[31.870478,40.835444],[31.862162,40.844008],[31.865852,40.862843],[31.841321,40.862632],[31.836893,40.855941],[31.819387,40.887099],[31.785916,40.897389],[31.789985,40.903842],[31.761447,40.929865],[31.767629,40.931716],[31.7633,40.95737],[31.75114,40.98949],[31.6758,40.96093],[31.6831,40.94456],[31.679116,40.930802],[31.685858,40.913307],[31.675432,40.907024],[31.65372,40.907548],[31.637704,40.915875],[31.609562,40.895745],[31.546781,40.88421],[31.510798,40.869523],[31.529415,40.802558],[31.500522,40.798646],[31.467776,40.781264],[31.437758,40.773054],[31.419885,40.765082],[31.403458,40.761685],[31.39921,40.737254],[31.378539,40.718266],[31.39283,40.708831],[31.37373,40.679963],[31.372363,40.663188],[31.353711,40.658406],[31.345771,40.650428],[31.320803,40.65039],[31.296858,40.640248]]],"type":"Polygon"}},{"type":"Feature","properties":{"area_id":"TR-14-003","name_tr":"Gerede","area_level":"district","parent_id":"TR-14","endeksa_id":1346},"geometry":{"coordinates":[[[32.092617,40.783927],[32.097639,40.774156],[32.089822,40.770183],[32.097824,40.756554],[32.110305,40.753304],[32.107666,40.74766],[32.143315,40.737562],[32.138841,40.688227],[32.166358,40.66471],[32.157132,40.646724],[32.145386,40.645911],[32.156617,40.642213],[32.148659,40.615231],[32.143975,40.61167],[32.102475,40.617587],[32.095798,40.610064],[32.114749,40.588245],[32.135476,40.58663],[32.128561,40.551379],[32.141146,40.54375],[32.210083,40.550305],[32.217509,40.553655],[32.231768,40.544491],[32.25318,40.545441],[32.255574,40.563115],[32.270277,40.569672],[32.295583,40.567669],[32.307046,40.587091],[32.323541,40.591444],[32.335615,40.584931],[32.347268,40.595504],[32.361826,40.594965],[32.374754,40.586286],[32.370239,40.574062],[32.359242,40.56968],[32.364567,40.563245],[32.361889,40.540709],[32.386825,40.551822],[32.397364,40.546466],[32.450498,40.561053],[32.464491,40.58351],[32.454982,40.57946],[32.431832,40.591277],[32.437427,40.598645],[32.431125,40.606263],[32.440267,40.612936],[32.433313,40.617934],[32.441248,40.624976],[32.420978,40.6328],[32.417498,40.642384],[32.418554,40.660039],[32.428897,40.661037],[32.434266,40.669576],[32.429279,40.685542],[32.462756,40.684721],[32.476682,40.675918],[32.499538,40.674031],[32.505931,40.696509],[32.492668,40.707713],[32.500109,40.708843],[32.513572,40.72962],[32.568232,40.741823],[32.570304,40.767822],[32.582081,40.779396],[32.570231,40.797461],[32.566381,40.810809],[32.574194,40.822465],[32.528675,40.838461],[32.528296,40.852718],[32.517654,40.85999],[32.521042,40.865778],[32.50913,40.88275],[32.48657,40.877159],[32.471982,40.88243],[32.414175,40.862133],[32.391303,40.861606],[32.348091,40.862265],[32.317508,40.87085],[32.249304,40.855157],[32.219688,40.855895],[32.189726,40.845536],[32.173618,40.845833],[32.15726,40.859048],[32.143121,40.862531],[32.125604,40.830949],[32.131167,40.811007],[32.121403,40.800831],[32.105098,40.798277],[32.092617,40.783927]]],"type":"Polygon"}},{"type":"Feature","properties":{"area_id":"TR-14-004","name_tr":"Göynük","area_level":"district","parent_id":"TR-14","endeksa_id":1364},"geometry":{"coordinates":[[[30.57521,40.447054],[30.584282,40.44083],[30.575275,40.435525],[30.57334,40.41665],[30.58378,40.381058],[30.579907,40.371438],[30.562463,40.35996],[30.577253,40.346264],[30.604621,40.34238],[30.609705,40.329058],[30.572139,40.328564],[30.57144,40.314312],[30.564529,40.310983],[30.575162,40.304585],[30.582724,40.301064],[30.5872,40.288928],[30.602439,40.269794],[30.604812,40.251403],[30.613764,40.242751],[30.609013,40.228983],[30.613775,40.213479],[30.623784,40.209115],[30.639417,40.212693],[30.650079,40.200511],[30.628055,40.173872],[30.63745,40.16633],[30.658892,40.167036],[30.663695,40.172232],[30.671733,40.183585],[30.686138,40.186583],[30.690929,40.174822],[30.716653,40.156363],[30.741898,40.153219],[30.757433,40.158349],[30.81095,40.147086],[30.826918,40.134356],[30.834376,40.144183],[30.844789,40.160498],[30.874736,40.178776],[30.891302,40.1777],[30.895907,40.184185],[30.925426,40.177547],[30.943291,40.180663],[30.95011,40.192774],[30.9494,40.20887],[30.954718,40.212128],[31.044316,40.217337],[31.070315,40.225919],[31.073391,40.228929],[31.065564,40.240976],[31.076517,40.250182],[31.074316,40.261338],[31.06582,40.261776],[31.066954,40.268484],[31.055855,40.269317],[31.06099,40.276043],[31.054623,40.280396],[31.06621,40.311698],[31.058616,40.31845],[31.067547,40.326812],[31.062573,40.334188],[31.070352,40.349699],[31.055999,40.345482],[31.054167,40.352301],[31.048342,40.344495],[31.036616,40.363658],[31.019027,40.432269],[31.009479,40.433845],[31.008677,40.442619],[30.999472,40.449761],[30.988735,40.452068],[30.99437,40.475245],[30.982656,40.50354],[30.965949,40.509734],[30.950473,40.502433],[30.863613,40.514074],[30.851993,40.5192],[30.792446,40.502944],[30.781212,40.507232],[30.755744,40.499088],[30.746512,40.487568],[30.740112,40.500801],[30.716573,40.499086],[30.700612,40.504188],[30.643397,40.496573],[30.641554,40.485593],[30.632816,40.486365],[30.630135,40.493053],[30.620657,40.491992],[30.607936,40.477254],[30.592542,40.475372],[30.587727,40.454532],[30.57521,40.447054]]],"type":"Polygon"}},{"type":"Feature","properties":{"area_id":"TR-14-005","name_tr":"Kıbrıscık","area_level":"district","parent_id":"TR-14","endeksa_id":1466},"geometry":{"coordinates":[[[31.709721,40.455148],[31.730772,40.457262],[31.726811,40.442052],[31.73109,40.434794],[31.722482,40.416842],[31.728064,40.404986],[31.745796,40.395058],[31.75058,40.374069],[31.74262,40.372888],[31.753344,40.364256],[31.734833,40.354467],[31.732476,40.341601],[31.719328,40.32343],[31.694746,40.311474],[31.696483,40.310454],[31.762978,40.333158],[31.802356,40.321861],[31.805638,40.314835],[31.854166,40.304945],[31.892299,40.327495],[31.891529,40.336653],[31.90887,40.341425],[31.916003,40.333671],[31.922751,40.339117],[31.91652,40.345785],[31.93159,40.348375],[31.938269,40.343721],[31.964718,40.353205],[31.970856,40.365559],[31.98076,40.364836],[32.010801,40.378654],[32.012647,40.391104],[32.029005,40.408027],[32.06222,40.42278],[32.064341,40.524189],[32.038973,40.512218],[32.025191,40.518147],[32.002293,40.507323],[31.965029,40.501429],[31.9515,40.505816],[31.942632,40.50034],[31.926716,40.507066],[31.928284,40.528859],[31.902874,40.524398],[31.887137,40.529695],[31.898005,40.544101],[31.908706,40.543367],[31.906128,40.549842],[31.883965,40.550115],[31.866529,40.538085],[31.848378,40.538016],[31.85123,40.53108],[31.834859,40.529117],[31.778545,40.510106],[31.753133,40.508591],[31.730035,40.468733],[31.709721,40.455148]]],"type":"Polygon"}},{"type":"Feature","properties":{"area_id":"TR-14-006","name_tr":"Mengen","area_level":"district","parent_id":"TR-14","endeksa_id":1522},"geometry":{"coordinates":[[[31.75114,40.98949],[31.7633,40.95737],[31.767629,40.931716],[31.761447,40.929865],[31.789985,40.903842],[31.785916,40.897389],[31.819387,40.887099],[31.836893,40.855941],[31.841321,40.862632],[31.865852,40.862843],[31.862162,40.844008],[31.870478,40.835444],[31.87029,40.81661],[31.897584,40.814602],[31.907253,40.826974],[31.945866,40.827406],[32.040127,40.855456],[32.103552,40.850255],[32.127268,40.86272],[32.143121,40.862531],[32.15726,40.859048],[32.173618,40.845833],[32.189726,40.845536],[32.219688,40.855895],[32.249304,40.855157],[32.317508,40.87085],[32.348091,40.862265],[32.391303,40.861606],[32.387674,40.869952],[32.381613,40.865459],[32.373978,40.874094],[32.363369,40.875506],[32.365072,40.880655],[32.338343,40.866908],[32.332208,40.880514],[32.319841,40.87888],[32.312958,40.883813],[32.314467,40.893123],[32.332455,40.911938],[32.352239,40.910609],[32.36241,40.91524],[32.35225,40.923947],[32.378909,40.928922],[32.385218,40.946761],[32.382208,40.967438],[32.34522,40.958211],[32.34077,40.961695],[32.316106,40.952015],[32.333983,40.986045],[32.336557,41.019847],[32.31722,41.030242],[32.298501,41.031384],[32.300002,41.009934],[32.24998,41.0081],[32.23706,41.01081],[32.232439,41.032862],[32.1701,41.05036],[32.157042,41.031477],[32.140352,41.035683],[32.139135,41.030764],[32.118707,41.030088],[32.113272,41.012472],[32.090189,41.008297],[32.060849,41.013606],[32.045067,41.022498],[32.027726,41.021322],[31.982344,41.046047],[31.952634,41.039922],[31.936629,41.023514],[31.933834,41.012869],[31.90706,41.005953],[31.862394,41.009499],[31.849998,41.003985],[31.784777,40.9662],[31.781507,40.991457],[31.772517,40.999613],[31.75114,40.98949]]],"type":"Polygon"}},{"type":"Feature","properties":{"area_id":"TR-14-007","name_tr":"Mudurnu","area_level":"district","parent_id":"TR-14","endeksa_id":1531},"geometry":{"coordinates":[[[30.876884,40.609406],[30.877908,40.591922],[30.871701,40.578787],[30.87148,40.574737],[30.887456,40.57567],[30.873099,40.568085],[30.87076,40.548062],[30.882832,40.536033],[30.863613,40.514074],[30.950473,40.502433],[30.965949,40.509734],[30.982656,40.50354],[30.99437,40.475245],[30.988735,40.452068],[30.999472,40.449761],[31.008677,40.442619],[31.009479,40.433845],[31.019027,40.432269],[31.036616,40.363658],[31.048342,40.344495],[31.054167,40.352301],[31.055999,40.345482],[31.070352,40.349699],[31.112463,40.356417],[31.167353,40.350159],[31.200105,40.35361],[31.205141,40.34019],[31.226632,40.335474],[31.278216,40.342624],[31.281224,40.336738],[31.312128,40.330255],[31.313981,40.343171],[31.324245,40.353786],[31.337483,40.35338],[31.345542,40.341435],[31.372859,40.35007],[31.382675,40.362709],[31.379334,40.370529],[31.408718,40.370579],[31.447929,40.361379],[31.443949,40.406048],[31.466016,40.444775],[31.482491,40.455404],[31.476848,40.465604],[31.456215,40.476107],[31.471836,40.502122],[31.49238,40.509063],[31.505666,40.52682],[31.488167,40.534776],[31.495224,40.550947],[31.477993,40.548196],[31.462712,40.558556],[31.424789,40.557259],[31.406051,40.564749],[31.38794,40.587544],[31.37458,40.583529],[31.371992,40.597707],[31.36071,40.603121],[31.374922,40.619432],[31.370118,40.630755],[31.345677,40.630428],[31.337561,40.602488],[31.313435,40.614482],[31.313261,40.624685],[31.307379,40.624722],[31.296858,40.640248],[31.258316,40.644044],[31.245547,40.645174],[31.225595,40.62166],[31.211425,40.634323],[31.192317,40.636072],[31.162255,40.662664],[31.108201,40.674611],[31.100453,40.695661],[31.065182,40.692675],[31.015484,40.6777],[30.98917,40.677448],[30.973045,40.667395],[30.938035,40.663035],[30.921619,40.653772],[30.919235,40.659796],[30.89806,40.654506],[30.893181,40.642943],[30.895802,40.628772],[30.876884,40.609406]]],"type":"Polygon"}},{"type":"Feature","properties":{"area_id":"TR-14-008","name_tr":"Seben","area_level":"district","parent_id":"TR-14","endeksa_id":1610},"geometry":{"coordinates":[[[31.456215,40.476107],[31.476848,40.465604],[31.482491,40.455404],[31.466016,40.444775],[31.443949,40.406048],[31.447929,40.361379],[31.44103,40.344673],[31.448604,40.32797],[31.43637,40.323555],[31.438091,40.330423],[31.401319,40.311094],[31.419427,40.288639],[31.509545,40.307779],[31.590295,40.269162],[31.639713,40.288893],[31.654428,40.300196],[31.694746,40.311474],[31.719328,40.32343],[31.732476,40.341601],[31.734833,40.354467],[31.753344,40.364256],[31.74262,40.372888],[31.75058,40.374069],[31.745796,40.395058],[31.728064,40.404986],[31.722482,40.416842],[31.73109,40.434794],[31.726811,40.442052],[31.730772,40.457262],[31.709721,40.455148],[31.730035,40.468733],[31.753133,40.508591],[31.778545,40.510106],[31.834859,40.529117],[31.834391,40.548211],[31.817189,40.561221],[31.814849,40.5812],[31.801141,40.587566],[31.801174,40.602727],[31.787142,40.615862],[31.613425,40.538514],[31.623576,40.565399],[31.616455,40.573759],[31.625658,40.583833],[31.618676,40.603609],[31.607107,40.602772],[31.604255,40.580756],[31.609121,40.574834],[31.593687,40.555043],[31.582942,40.550487],[31.5714,40.551226],[31.569707,40.55644],[31.543839,40.556271],[31.530374,40.548896],[31.535282,40.557581],[31.514596,40.565835],[31.512499,40.559633],[31.527917,40.546446],[31.521253,40.532787],[31.505666,40.52682],[31.49238,40.509063],[31.471836,40.502122],[31.456215,40.476107]]],"type":"Polygon"}},{"type":"Feature","properties":{"area_id":"TR-14-002","name_tr":"Dörtdivan","area_level":"district","parent_id":"TR-14","endeksa_id":1916},"geometry":{"coordinates":[[[31.814849,40.5812],[31.817189,40.561221],[31.834391,40.548211],[31.834859,40.529117],[31.85123,40.53108],[31.848378,40.538016],[31.866529,40.538085],[31.883965,40.550115],[31.906128,40.549842],[31.908706,40.543367],[31.898005,40.544101],[31.887137,40.529695],[31.902874,40.524398],[31.928284,40.528859],[31.926716,40.507066],[31.942632,40.50034],[31.9515,40.505816],[31.965029,40.501429],[32.002293,40.507323],[32.025191,40.518147],[32.038973,40.512218],[32.064341,40.524189],[32.088429,40.536953],[32.116041,40.533662],[32.141146,40.54375],[32.128561,40.551379],[32.135476,40.58663],[32.114749,40.588245],[32.095798,40.610064],[32.102475,40.617587],[32.143975,40.61167],[32.148659,40.615231],[32.156617,40.642213],[32.145386,40.645911],[32.157132,40.646724],[32.166358,40.66471],[32.138841,40.688227],[32.143315,40.737562],[32.107666,40.74766],[32.110305,40.753304],[32.097824,40.756554],[32.089822,40.770183],[32.066215,40.763378],[32.05645,40.754395],[32.027378,40.747709],[32.005247,40.749894],[31.976771,40.740325],[31.99062,40.715445],[31.985531,40.712735],[31.990925,40.714878],[31.997218,40.703402],[31.98306,40.69951],[31.971785,40.683213],[31.982682,40.678505],[31.989537,40.681657],[31.97183,40.65834],[31.936576,40.633382],[31.814849,40.5812]]],"type":"Polygon"}},{"type":"Feature","properties":{"area_id":"TR-14-009","name_tr":"Yeniçağa","area_level":"district","parent_id":"TR-14","endeksa_id":1997},"geometry":{"coordinates":[[[31.907253,40.826974],[31.922494,40.798223],[31.940945,40.783767],[31.957713,40.755179],[31.976771,40.740325],[32.005247,40.749894],[32.027378,40.747709],[32.05645,40.754395],[32.066215,40.763378],[32.089822,40.770183],[32.097639,40.774156],[32.092617,40.783927],[32.105098,40.798277],[32.121403,40.800831],[32.131167,40.811007],[32.125604,40.830949],[32.143121,40.862531],[32.127268,40.86272],[32.103552,40.850255],[32.040127,40.855456],[31.945866,40.827406],[31.907253,40.826974]]],"type":"Polygon"}}]}