{"type":"FeatureCollection","area_id":"TR-24","name_tr":"Erzincan","source_id":"endeksa","licence":null,"retrieved_at":"2026-08-23","features":[{"type":"Feature","properties":{"area_id":"TR-24-001","name_tr":"Çayırlı","area_level":"district","parent_id":"TR-24","endeksa_id":1243},"geometry":{"coordinates":[[[39.60857,39.862031],[39.615285,39.856991],[39.626989,39.845751],[39.61809,39.80473],[39.66771,39.802558],[39.681423,39.79067],[39.694923,39.785341],[39.723934,39.787083],[39.852486,39.769889],[39.875167,39.762092],[39.910767,39.727481],[39.911218,39.693252],[39.960892,39.707016],[39.970748,39.694634],[39.989918,39.688563],[40.04407,39.681997],[40.069093,39.681567],[40.071502,39.694125],[40.078358,39.696225],[40.077557,39.703066],[40.072548,39.703596],[40.078288,39.72849],[40.138772,39.735826],[40.146173,39.745644],[40.204696,39.762638],[40.230275,39.756729],[40.241577,39.76105],[40.235716,39.771492],[40.220564,39.777657],[40.219505,39.786591],[40.169994,39.809992],[40.184042,39.811518],[40.172799,39.824305],[40.165233,39.823551],[40.150136,39.834664],[40.142767,39.85105],[40.122213,39.860168],[40.133438,39.862913],[40.138631,39.875797],[40.151417,39.888713],[40.164685,39.890856],[40.183457,39.914139],[40.20492,39.912424],[40.213772,39.920418],[40.23235,39.919656],[40.257248,39.932323],[40.26288,39.94184],[40.254232,39.947076],[40.253424,39.965573],[40.238403,39.990296],[40.258427,39.99513],[40.28359,39.985919],[40.334389,40.023879],[40.352454,40.024927],[40.348885,40.028027],[40.353367,40.04021],[40.343223,40.04702],[40.285274,40.030106],[40.280692,40.038858],[40.250546,40.048806],[40.235537,40.039013],[40.245341,40.017472],[40.126624,39.965692],[40.121944,39.95625],[40.099889,39.953533],[40.074167,39.917279],[40.021248,39.929592],[40.022586,39.935157],[40.015124,39.941666],[40.002534,39.937668],[39.993575,39.954379],[39.985581,39.950588],[39.960596,39.95424],[39.919548,39.944455],[39.896426,39.952767],[39.895338,39.95966],[39.884388,39.958174],[39.85142,39.975367],[39.832141,39.952175],[39.822302,39.954862],[39.796714,39.938876],[39.796328,39.946892],[39.783258,39.941913],[39.778245,39.927334],[39.792257,39.922719],[39.768176,39.923543],[39.751568,39.895893],[39.73248,39.89281],[39.720934,39.901891],[39.696003,39.899417],[39.677507,39.881106],[39.67015,39.884723],[39.653879,39.874523],[39.644427,39.88137],[39.640119,39.870497],[39.628357,39.862648],[39.60857,39.862031]]],"type":"Polygon"}},{"type":"Feature","properties":{"area_id":"TR-24-002","name_tr":"Erzincan","area_level":"district","parent_id":"TR-24","endeksa_id":1318},"geometry":{"coordinates":[[[39.115739,39.901669],[39.129195,39.873475],[39.113066,39.869456],[39.107507,39.856323],[39.117483,39.82162],[39.124785,39.813796],[39.173431,39.832986],[39.18394,39.82292],[39.164286,39.817528],[39.167042,39.812002],[39.153072,39.784885],[39.159558,39.772697],[39.200107,39.758127],[39.231213,39.754982],[39.21095,39.746691],[39.238707,39.735743],[39.24801,39.741566],[39.259381,39.73409],[39.257736,39.717836],[39.233731,39.689357],[39.249312,39.663447],[39.273965,39.667079],[39.273232,39.660561],[39.281783,39.659379],[39.286322,39.661541],[39.283977,39.668086],[39.29572,39.66929],[39.304082,39.661675],[39.311571,39.662492],[39.327578,39.68253],[39.330159,39.671352],[39.342785,39.665264],[39.402098,39.667479],[39.409108,39.665551],[39.408321,39.657853],[39.438608,39.645167],[39.40191,39.624896],[39.404719,39.609973],[39.399395,39.597468],[39.414571,39.584207],[39.440273,39.573253],[39.479059,39.536048],[39.486674,39.51557],[39.491807,39.527165],[39.529169,39.505857],[39.586199,39.518708],[39.587897,39.504561],[39.602403,39.49245],[39.598459,39.470812],[39.623582,39.477246],[39.646494,39.483198],[39.657439,39.494008],[39.68578,39.494949],[39.70813,39.519074],[39.735115,39.521849],[39.772948,39.535836],[39.781625,39.554815],[39.793338,39.563239],[39.792418,39.569278],[39.778868,39.575963],[39.790997,39.586083],[39.791608,39.603638],[39.80557,39.61068],[39.819267,39.608362],[39.797437,39.621941],[39.778199,39.622095],[39.766109,39.63979],[39.738665,39.653001],[39.705343,39.646713],[39.699269,39.636745],[39.711725,39.635199],[39.707421,39.624986],[39.680085,39.621861],[39.650132,39.645147],[39.655293,39.650466],[39.649411,39.653346],[39.66333,39.653181],[39.646476,39.663363],[39.628471,39.662766],[39.627057,39.677425],[39.645046,39.694806],[39.641683,39.69734],[39.646417,39.70481],[39.629229,39.70489],[39.612817,39.716148],[39.665892,39.736019],[39.681423,39.79067],[39.66771,39.802558],[39.61809,39.80473],[39.626989,39.845751],[39.615285,39.856991],[39.598708,39.860295],[39.570629,39.885479],[39.560588,39.876814],[39.538053,39.874567],[39.518556,39.885086],[39.495129,39.866954],[39.46226,39.864425],[39.387557,39.887094],[39.340836,39.894412],[39.34587,39.907405],[39.334254,39.917191],[39.28238,39.913614],[39.275225,39.926369],[39.265134,39.930613],[39.185961,39.941403],[39.157799,39.95219],[39.152141,39.937377],[39.135823,39.932454],[39.115739,39.901669]]],"type":"Polygon"}},{"type":"Feature","properties":{"area_id":"TR-24-003","name_tr":"İliç","area_level":"district","parent_id":"TR-24","endeksa_id":1406},"geometry":{"coordinates":[[[38.297887,39.640682],[38.296809,39.635148],[38.323245,39.612046],[38.33445,39.571229],[38.328116,39.571251],[38.308135,39.548865],[38.281511,39.532558],[38.284104,39.520345],[38.31746,39.508519],[38.3226,39.46043],[38.337482,39.447193],[38.331305,39.438667],[38.335382,39.425461],[38.340333,39.429884],[38.361623,39.41957],[38.403262,39.443218],[38.414967,39.43867],[38.400358,39.429532],[38.413143,39.427685],[38.416832,39.407389],[38.413071,39.391579],[38.41885,39.388503],[38.405355,39.379989],[38.446013,39.378556],[38.444347,39.38261],[38.466289,39.386682],[38.471085,39.373245],[38.481006,39.36972],[38.498499,39.367829],[38.517064,39.374288],[38.535586,39.365901],[38.550999,39.371705],[38.595306,39.368711],[38.597144,39.377958],[38.613257,39.378365],[38.620522,39.376145],[38.61947,39.363298],[38.651651,39.357975],[38.650414,39.332089],[38.658907,39.324639],[38.660868,39.310737],[38.710941,39.30904],[38.737596,39.317216],[38.744942,39.308266],[38.769786,39.318165],[38.796564,39.302586],[38.809304,39.305653],[38.824614,39.311128],[38.796545,39.335956],[38.795184,39.351949],[38.818535,39.355287],[38.834683,39.341313],[38.863536,39.337723],[38.897236,39.341778],[38.903587,39.370598],[38.896007,39.371125],[38.883166,39.396888],[38.891363,39.408877],[38.825631,39.417055],[38.826413,39.408065],[38.804733,39.408802],[38.793864,39.415676],[38.791014,39.42867],[38.766149,39.437882],[38.756366,39.436151],[38.746037,39.445197],[38.747905,39.455838],[38.741102,39.463211],[38.740553,39.477643],[38.728545,39.496145],[38.721936,39.487308],[38.71435,39.491995],[38.660768,39.487998],[38.648048,39.500709],[38.621172,39.502442],[38.619225,39.50657],[38.627014,39.51304],[38.62072,39.526097],[38.633373,39.542935],[38.657925,39.552414],[38.659629,39.562681],[38.670895,39.563355],[38.677916,39.573137],[38.686033,39.572796],[38.715284,39.591674],[38.708581,39.606137],[38.709992,39.621596],[38.70322,39.623597],[38.708514,39.633718],[38.648053,39.641209],[38.652719,39.659943],[38.659482,39.665504],[38.649463,39.674045],[38.672178,39.683053],[38.690881,39.715196],[38.675354,39.723646],[38.638971,39.728575],[38.638299,39.750043],[38.645204,39.754175],[38.637367,39.772467],[38.626705,39.771034],[38.614549,39.754887],[38.546633,39.740121],[38.535738,39.727309],[38.522185,39.728626],[38.493392,39.715058],[38.491891,39.721654],[38.499948,39.73203],[38.492619,39.742246],[38.497947,39.743507],[38.487688,39.756095],[38.470392,39.759219],[38.442217,39.788028],[38.452548,39.79439],[38.44132,39.815204],[38.433695,39.810239],[38.430982,39.795293],[38.413285,39.794055],[38.410488,39.787536],[38.392792,39.780542],[38.395387,39.767],[38.377255,39.758619],[38.382677,39.74503],[38.377696,39.743092],[38.377669,39.732539],[38.386854,39.720677],[38.353527,39.718605],[38.344345,39.687298],[38.324222,39.674671],[38.325123,39.658012],[38.312694,39.644009],[38.297887,39.640682]]],"type":"Polygon"}},{"type":"Feature","properties":{"area_id":"TR-24-004","name_tr":"Kemah","area_level":"district","parent_id":"TR-24","endeksa_id":1459},"geometry":{"coordinates":[[[38.649463,39.674045],[38.659482,39.665504],[38.652719,39.659943],[38.648053,39.641209],[38.708514,39.633718],[38.70322,39.623597],[38.709992,39.621596],[38.708581,39.606137],[38.715284,39.591674],[38.686033,39.572796],[38.677916,39.573137],[38.670895,39.563355],[38.659629,39.562681],[38.657925,39.552414],[38.633373,39.542935],[38.62072,39.526097],[38.627014,39.51304],[38.619225,39.50657],[38.621172,39.502442],[38.648048,39.500709],[38.660768,39.487998],[38.71435,39.491995],[38.721936,39.487308],[38.728545,39.496145],[38.740553,39.477643],[38.741102,39.463211],[38.747905,39.455838],[38.746037,39.445197],[38.756366,39.436151],[38.766149,39.437882],[38.791014,39.42867],[38.793864,39.415676],[38.804733,39.408802],[38.826413,39.408065],[38.825631,39.417055],[38.891363,39.408877],[38.91252,39.408119],[38.921794,39.395643],[38.931907,39.397797],[38.929278,39.40469],[38.952,39.422528],[38.964312,39.423134],[38.975419,39.416072],[38.974652,39.401358],[39.038512,39.409027],[39.063219,39.44002],[39.055426,39.458966],[39.123979,39.453624],[39.127815,39.475409],[39.166449,39.492971],[39.235102,39.489053],[39.256756,39.501551],[39.278648,39.496674],[39.296435,39.48412],[39.295122,39.477401],[39.389467,39.479578],[39.406078,39.487057],[39.423138,39.511899],[39.447151,39.505229],[39.451326,39.492586],[39.481005,39.501362],[39.486674,39.51557],[39.479059,39.536048],[39.440273,39.573253],[39.414571,39.584207],[39.399395,39.597468],[39.404719,39.609973],[39.40191,39.624896],[39.438608,39.645167],[39.408321,39.657853],[39.409108,39.665551],[39.402098,39.667479],[39.342785,39.665264],[39.330159,39.671352],[39.327578,39.68253],[39.311571,39.662492],[39.304082,39.661675],[39.29572,39.66929],[39.283977,39.668086],[39.286322,39.661541],[39.281783,39.659379],[39.273232,39.660561],[39.273965,39.667079],[39.249312,39.663447],[39.233731,39.689357],[39.257736,39.717836],[39.259381,39.73409],[39.24801,39.741566],[39.238707,39.735743],[39.21095,39.746691],[39.231213,39.754982],[39.200107,39.758127],[39.159558,39.772697],[39.153072,39.784885],[39.167042,39.812002],[39.164286,39.817528],[39.18394,39.82292],[39.173431,39.832986],[39.124785,39.813796],[39.117483,39.82162],[39.107507,39.856323],[39.113066,39.869456],[39.067987,39.869305],[39.066198,39.880536],[39.032982,39.88246],[39.041364,39.873812],[39.029194,39.867928],[39.023395,39.857934],[39.004731,39.867178],[38.974782,39.845819],[38.991076,39.821192],[38.986944,39.809066],[38.998486,39.79782],[38.987898,39.786892],[38.987122,39.774747],[38.981207,39.775113],[38.986991,39.764355],[38.969291,39.75879],[38.966886,39.747164],[38.95566,39.743287],[38.957702,39.740129],[38.923033,39.757376],[38.906811,39.759144],[38.857028,39.745194],[38.853978,39.730858],[38.845878,39.727573],[38.80946,39.719641],[38.803077,39.712618],[38.778702,39.712956],[38.772685,39.703032],[38.756385,39.702884],[38.754135,39.708199],[38.712215,39.707664],[38.690881,39.715196],[38.672178,39.683053],[38.649463,39.674045]]],"type":"Polygon"}},{"type":"Feature","properties":{"area_id":"TR-24-005","name_tr":"Kemaliye","area_level":"district","parent_id":"TR-24","endeksa_id":1460},"geometry":{"coordinates":[[[38.323843,39.356747],[38.336064,39.327552],[38.351663,39.312299],[38.355393,39.249206],[38.342951,39.221485],[38.331419,39.212901],[38.323204,39.169376],[38.312917,39.158386],[38.31894,39.150373],[38.294862,39.142712],[38.297373,39.136072],[38.325926,39.133442],[38.368186,39.110795],[38.398605,39.110936],[38.428194,39.118873],[38.444283,39.105628],[38.442888,39.097862],[38.457182,39.089586],[38.457389,39.107754],[38.475418,39.134798],[38.504308,39.109869],[38.529648,39.111299],[38.559031,39.097528],[38.571086,39.087793],[38.567086,39.077698],[38.580284,39.080441],[38.606586,39.106332],[38.633984,39.086223],[38.642545,39.069049],[38.678399,39.041718],[38.708737,39.013039],[38.731757,39.009103],[38.750756,39.014691],[38.765649,39.013005],[38.743082,39.037058],[38.746651,39.067247],[38.741072,39.078199],[38.746247,39.106336],[38.733398,39.115735],[38.731333,39.139286],[38.762061,39.149967],[38.734825,39.137033],[38.762833,39.136778],[38.78723,39.146803],[38.775912,39.14868],[38.767098,39.161477],[38.779338,39.177779],[38.76938,39.185745],[38.773873,39.192376],[38.767031,39.199696],[38.851729,39.212747],[38.885534,39.204059],[38.916303,39.208286],[38.940471,39.225591],[38.988091,39.226358],[38.990345,39.244652],[38.981421,39.265799],[38.936186,39.269532],[38.897071,39.262306],[38.901515,39.271131],[38.894884,39.271183],[38.827308,39.265973],[38.80667,39.279864],[38.803786,39.294362],[38.809304,39.305653],[38.796564,39.302586],[38.769786,39.318165],[38.744942,39.308266],[38.737596,39.317216],[38.710941,39.30904],[38.660868,39.310737],[38.658907,39.324639],[38.650414,39.332089],[38.651651,39.357975],[38.61947,39.363298],[38.620522,39.376145],[38.613257,39.378365],[38.597144,39.377958],[38.595306,39.368711],[38.550999,39.371705],[38.535586,39.365901],[38.517064,39.374288],[38.498499,39.367829],[38.481006,39.36972],[38.471085,39.373245],[38.466289,39.386682],[38.444347,39.38261],[38.446013,39.378556],[38.405355,39.379989],[38.416309,39.366051],[38.402667,39.348988],[38.379689,39.356778],[38.376839,39.372932],[38.371714,39.367569],[38.361176,39.375313],[38.336461,39.370694],[38.336348,39.363471],[38.323843,39.356747]]],"type":"Polygon"}},{"type":"Feature","properties":{"area_id":"TR-24-007","name_tr":"Refahiye","area_level":"district","parent_id":"TR-24","endeksa_id":1583},"geometry":{"coordinates":[[[38.354949,39.922227],[38.402232,39.863226],[38.460883,39.859375],[38.47609,39.851201],[38.472448,39.83604],[38.45528,39.832502],[38.44132,39.815204],[38.452548,39.79439],[38.442217,39.788028],[38.470392,39.759219],[38.487688,39.756095],[38.497947,39.743507],[38.492619,39.742246],[38.499948,39.73203],[38.491891,39.721654],[38.493392,39.715058],[38.522185,39.728626],[38.535738,39.727309],[38.546633,39.740121],[38.614549,39.754887],[38.626705,39.771034],[38.637367,39.772467],[38.645204,39.754175],[38.638299,39.750043],[38.638971,39.728575],[38.675354,39.723646],[38.690881,39.715196],[38.712215,39.707664],[38.754135,39.708199],[38.756385,39.702884],[38.772685,39.703032],[38.778702,39.712956],[38.803077,39.712618],[38.80946,39.719641],[38.845878,39.727573],[38.853978,39.730858],[38.857028,39.745194],[38.906811,39.759144],[38.923033,39.757376],[38.957702,39.740129],[38.95566,39.743287],[38.966886,39.747164],[38.969291,39.75879],[38.986991,39.764355],[38.981207,39.775113],[38.987122,39.774747],[38.987898,39.786892],[38.998486,39.79782],[38.986944,39.809066],[38.991076,39.821192],[38.974782,39.845819],[39.004731,39.867178],[39.023395,39.857934],[39.029194,39.867928],[39.041364,39.873812],[39.032982,39.88246],[39.066198,39.880536],[39.067987,39.869305],[39.113066,39.869456],[39.129195,39.873475],[39.115739,39.901669],[39.135823,39.932454],[39.152141,39.937377],[39.157799,39.95219],[39.120132,39.962436],[39.126992,39.977879],[39.114165,39.989353],[39.118558,39.99423],[39.096757,39.999671],[39.086582,40.011628],[39.072657,40.026047],[39.051659,40.024008],[39.050551,40.04123],[39.043391,40.047124],[38.998766,40.047249],[38.993874,40.055847],[38.957236,40.056301],[38.938946,40.058298],[38.931915,40.048503],[38.92001,40.044382],[38.870591,40.060059],[38.817,40.058708],[38.794227,40.069943],[38.768398,40.06348],[38.765648,40.027623],[38.748287,40.026049],[38.751172,40.011423],[38.727935,40.020371],[38.720584,40.00945],[38.712468,40.008201],[38.676553,40.015131],[38.671127,40.012545],[38.674079,40.007162],[38.663358,40.002553],[38.641472,40.012822],[38.633535,39.992655],[38.62255,39.996326],[38.617575,40.005001],[38.616097,39.996068],[38.591988,39.972391],[38.594514,39.964068],[38.588277,39.950101],[38.557363,39.950874],[38.554898,39.94229],[38.541858,39.945258],[38.530774,39.939327],[38.474023,39.958128],[38.453676,39.95665],[38.437516,39.969316],[38.416505,39.955601],[38.383335,39.947482],[38.354949,39.922227]]],"type":"Polygon"}},{"type":"Feature","properties":{"area_id":"TR-24-008","name_tr":"Tercan","area_level":"district","parent_id":"TR-24","endeksa_id":1675},"geometry":{"coordinates":[[[40.122213,39.860168],[40.142767,39.85105],[40.150136,39.834664],[40.165233,39.823551],[40.172799,39.824305],[40.184042,39.811518],[40.169994,39.809992],[40.219505,39.786591],[40.220564,39.777657],[40.235716,39.771492],[40.241577,39.76105],[40.230275,39.756729],[40.204696,39.762638],[40.146173,39.745644],[40.138772,39.735826],[40.078288,39.72849],[40.072548,39.703596],[40.077557,39.703066],[40.078358,39.696225],[40.071502,39.694125],[40.069093,39.681567],[40.04407,39.681997],[40.050361,39.657716],[40.063539,39.653751],[40.063425,39.640332],[40.036218,39.629507],[40.014021,39.597848],[40.039115,39.591694],[40.077408,39.599273],[40.081378,39.591899],[40.097289,39.584713],[40.092224,39.595823],[40.125358,39.598768],[40.149484,39.592917],[40.168256,39.603778],[40.183532,39.602491],[40.170616,39.578617],[40.191825,39.572333],[40.242228,39.585837],[40.267411,39.570358],[40.318789,39.593226],[40.4049,39.601937],[40.407326,39.592917],[40.422208,39.59388],[40.434921,39.58054],[40.42228,39.52703],[40.448251,39.511875],[40.472367,39.518009],[40.515632,39.516582],[40.515213,39.526974],[40.544741,39.530083],[40.583969,39.523448],[40.644826,39.523946],[40.752066,39.523821],[40.773533,39.517695],[40.757231,39.534168],[40.764973,39.538168],[40.765193,39.544088],[40.75465,39.550829],[40.758088,39.556946],[40.709385,39.551531],[40.682515,39.577587],[40.648929,39.592113],[40.654921,39.603471],[40.644007,39.614155],[40.652652,39.623686],[40.686235,39.629904],[40.69116,39.648174],[40.682646,39.652712],[40.711626,39.67151],[40.706413,39.68459],[40.71504,39.696477],[40.689901,39.690304],[40.670684,39.713092],[40.666096,39.688685],[40.652822,39.686712],[40.63554,39.704178],[40.590194,39.697072],[40.582268,39.705761],[40.586489,39.715161],[40.577521,39.729793],[40.55385,39.740926],[40.558705,39.758671],[40.55006,39.760043],[40.537467,39.783353],[40.546335,39.787966],[40.542208,39.79752],[40.568995,39.799129],[40.570806,39.82452],[40.579623,39.828659],[40.578356,39.840513],[40.556261,39.835102],[40.545762,39.844871],[40.519582,39.848481],[40.505601,39.858074],[40.511022,39.865785],[40.506568,39.880581],[40.489208,39.882496],[40.489425,39.88901],[40.456253,39.910568],[40.416773,39.911241],[40.387165,39.897661],[40.373787,39.908077],[40.376721,39.918657],[40.37147,39.933489],[40.356445,39.92987],[40.309153,39.934419],[40.290293,39.925397],[40.279262,39.932157],[40.257248,39.932323],[40.23235,39.919656],[40.213772,39.920418],[40.20492,39.912424],[40.183457,39.914139],[40.164685,39.890856],[40.151417,39.888713],[40.138631,39.875797],[40.133438,39.862913],[40.122213,39.860168]]],"type":"Polygon"}},{"type":"Feature","properties":{"area_id":"TR-24-009","name_tr":"Üzümlü","area_level":"district","parent_id":"TR-24","endeksa_id":1853},"geometry":{"coordinates":[[[39.612817,39.716148],[39.629229,39.70489],[39.646417,39.70481],[39.641683,39.69734],[39.645046,39.694806],[39.627057,39.677425],[39.628471,39.662766],[39.646476,39.663363],[39.66333,39.653181],[39.649411,39.653346],[39.655293,39.650466],[39.650132,39.645147],[39.680085,39.621861],[39.707421,39.624986],[39.711725,39.635199],[39.699269,39.636745],[39.705343,39.646713],[39.738665,39.653001],[39.766109,39.63979],[39.778199,39.622095],[39.797437,39.621941],[39.819267,39.608362],[39.828739,39.603293],[39.837686,39.608873],[39.873898,39.589055],[39.897128,39.584424],[39.897193,39.588875],[39.9881,39.564756],[40.014112,39.568196],[40.04985,39.551942],[40.101495,39.556272],[40.138508,39.566168],[40.153793,39.577533],[40.170616,39.578617],[40.183532,39.602491],[40.168256,39.603778],[40.149484,39.592917],[40.125358,39.598768],[40.092224,39.595823],[40.097289,39.584713],[40.081378,39.591899],[40.077408,39.599273],[40.039115,39.591694],[40.014021,39.597848],[40.036218,39.629507],[40.063425,39.640332],[40.063539,39.653751],[40.050361,39.657716],[40.04407,39.681997],[39.989918,39.688563],[39.970748,39.694634],[39.960892,39.707016],[39.911218,39.693252],[39.910767,39.727481],[39.875167,39.762092],[39.852486,39.769889],[39.723934,39.787083],[39.694923,39.785341],[39.681423,39.79067],[39.665892,39.736019],[39.612817,39.716148]]],"type":"Polygon"}},{"type":"Feature","properties":{"area_id":"TR-24-006","name_tr":"Otlukbeli","area_level":"district","parent_id":"TR-24","endeksa_id":1977},"geometry":{"coordinates":[[[39.85142,39.975367],[39.884388,39.958174],[39.895338,39.95966],[39.896426,39.952767],[39.919548,39.944455],[39.960596,39.95424],[39.985581,39.950588],[39.993575,39.954379],[40.002534,39.937668],[40.015124,39.941666],[40.022586,39.935157],[40.021248,39.929592],[40.074167,39.917279],[40.099889,39.953533],[40.121944,39.95625],[40.126624,39.965692],[40.245341,40.017472],[40.235537,40.039013],[40.21112,40.034719],[40.205913,40.043822],[40.190907,40.035581],[40.166422,40.041794],[40.146505,40.02717],[40.128055,40.033396],[40.11643,40.051453],[40.102474,40.055963],[40.081642,40.050664],[40.05919,40.058786],[40.035398,40.044982],[40.001538,40.053516],[39.965521,40.052217],[39.938424,40.033705],[39.943012,40.008382],[39.930768,39.995363],[39.92131,39.997779],[39.883385,39.989258],[39.87887,39.994774],[39.85142,39.975367]]],"type":"Polygon"}}]}