{"type":"FeatureCollection","area_id":"TR-27","name_tr":"Gaziantep","source_id":"endeksa","licence":null,"retrieved_at":"2026-08-23","features":[{"type":"Feature","properties":{"area_id":"TR-27-001","name_tr":"Araban","area_level":"district","parent_id":"TR-27","endeksa_id":1139},"geometry":{"coordinates":[[[37.507115,37.410264],[37.50348,37.400544],[37.518921,37.370286],[37.54861,37.374126],[37.562157,37.394957],[37.576935,37.396647],[37.588212,37.395281],[37.589101,37.387988],[37.601148,37.381131],[37.617355,37.391015],[37.625619,37.385788],[37.639394,37.38794],[37.657288,37.375066],[37.671149,37.372661],[37.77998,37.377222],[37.781044,37.364533],[37.788551,37.363018],[37.812053,37.37241],[37.828046,37.367871],[37.828594,37.35257],[37.872616,37.339302],[37.932811,37.385193],[37.939844,37.40045],[37.965114,37.417019],[37.976318,37.436806],[37.988477,37.440501],[38.011005,37.435614],[38.033057,37.443481],[38.050932,37.436107],[38.063453,37.429297],[38.08512,37.449944],[38.051786,37.472413],[38.019527,37.472814],[37.990623,37.466563],[37.981991,37.45974],[37.956686,37.46651],[37.944695,37.462036],[37.925524,37.467669],[37.894939,37.463602],[37.858099,37.475559],[37.833114,37.476091],[37.813268,37.487194],[37.786614,37.490035],[37.760833,37.506032],[37.760602,37.523381],[37.723825,37.537303],[37.684235,37.536743],[37.681684,37.530494],[37.672794,37.531811],[37.6452,37.519974],[37.634293,37.504768],[37.637201,37.485173],[37.628976,37.477937],[37.575132,37.476173],[37.55027,37.473565],[37.551041,37.464279],[37.572955,37.434016],[37.56972,37.420934],[37.542695,37.413987],[37.52453,37.420035],[37.507115,37.410264]]],"type":"Polygon"}},{"type":"Feature","properties":{"area_id":"TR-27-002","name_tr":"İslahiye","area_level":"district","parent_id":"TR-27","endeksa_id":1415},"geometry":{"coordinates":[[[36.451438,36.984657],[36.460086,36.978737],[36.463158,36.96935],[36.45467,36.964391],[36.468183,36.959156],[36.468964,36.945408],[36.451681,36.945082],[36.449051,36.926361],[36.463242,36.934163],[36.48147,36.931019],[36.480135,36.92546],[36.488424,36.922705],[36.4693,36.912932],[36.465575,36.907819],[36.471314,36.901609],[36.490598,36.892575],[36.503699,36.895157],[36.548326,36.868008],[36.570145,36.864755],[36.575533,36.870213],[36.592873,36.869937],[36.591578,36.876052],[36.605277,36.88047],[36.617278,36.879089],[36.627367,36.870372],[36.626033,36.854522],[36.636526,36.839827],[36.653446,36.836622],[36.660369,36.828496],[36.664086,36.832699],[36.703707,36.828557],[36.716051,36.844315],[36.708884,36.863313],[36.716948,36.8687],[36.735938,36.866371],[36.779055,36.898826],[36.775828,36.906824],[36.786429,36.907966],[36.78667,36.91762],[36.815222,36.924703],[36.837544,36.917555],[36.832251,36.911288],[36.854417,36.902959],[36.85777,36.894717],[36.881784,36.893692],[36.881816,36.906929],[36.88897,36.914564],[36.880092,36.927024],[36.917625,36.949853],[36.935536,36.986862],[36.931578,36.990318],[36.986566,37.021373],[36.996994,37.017008],[36.986065,37.006488],[36.996918,37.000788],[37.009752,37.006295],[36.99976,37.021804],[37.006683,37.034395],[37.002237,37.037404],[36.988264,37.038228],[36.964504,37.023807],[36.958574,37.033522],[36.930012,37.040114],[36.922189,37.046061],[36.924424,37.054337],[36.916415,37.055427],[36.907598,37.039619],[36.898346,37.042741],[36.884065,37.033758],[36.874472,37.038789],[36.865387,37.028569],[36.853206,37.025288],[36.823217,37.032878],[36.826321,37.036992],[36.807202,37.036648],[36.778511,37.050924],[36.772023,37.04411],[36.742581,37.042181],[36.748162,37.075467],[36.759824,37.075979],[36.756338,37.08326],[36.774386,37.106588],[36.730806,37.115748],[36.719795,37.104715],[36.67962,37.119849],[36.694924,37.132163],[36.679423,37.129508],[36.66528,37.151703],[36.632622,37.147514],[36.652485,37.127881],[36.639404,37.117704],[36.62068,37.122853],[36.590709,37.084521],[36.586164,37.069809],[36.569936,37.070967],[36.57124,37.054499],[36.547335,37.047115],[36.53917,37.028678],[36.527984,37.019205],[36.517438,37.003672],[36.494185,36.988138],[36.485958,36.992705],[36.460863,36.981815],[36.451438,36.984657]]],"type":"Polygon"}},{"type":"Feature","properties":{"area_id":"TR-27-004","name_tr":"Nizip","area_level":"district","parent_id":"TR-27","endeksa_id":1546},"geometry":{"coordinates":[[[37.614018,37.210528],[37.62357,37.196316],[37.609903,37.189341],[37.608696,37.176414],[37.603229,37.17487],[37.606185,37.166462],[37.594441,37.165284],[37.594727,37.161231],[37.638956,37.142047],[37.624695,37.135451],[37.627248,37.131064],[37.646178,37.133914],[37.685628,37.115542],[37.678,37.112729],[37.671584,37.095949],[37.675088,37.082221],[37.669064,37.069368],[37.674505,37.063757],[37.659008,37.052786],[37.660925,37.048259],[37.651057,37.050363],[37.633012,37.042614],[37.65544,37.007642],[37.647134,36.994884],[37.638955,36.998417],[37.633066,36.987858],[37.612321,36.981469],[37.613244,36.974308],[37.640253,36.95251],[37.646361,36.95531],[37.650316,36.939914],[37.661131,36.938634],[37.656938,36.90882],[37.671292,36.894232],[37.676457,36.867134],[37.696012,36.864709],[37.705527,36.853362],[37.719093,36.854939],[37.724372,36.850123],[37.71586,36.824747],[37.71785,36.811217],[37.739609,36.81123],[37.739208,36.819314],[37.748422,36.818305],[37.756147,36.823861],[37.754732,36.849168],[37.777456,36.845719],[37.788863,36.853428],[37.808228,36.852106],[37.81477,36.864146],[37.80804,36.865804],[37.808524,36.87178],[37.849073,36.886233],[37.854624,36.896824],[37.877657,36.894202],[37.870078,36.919811],[37.903932,36.944018],[37.916962,36.941809],[37.919565,36.931458],[37.943825,36.938656],[37.968703,36.937883],[37.964447,36.956455],[37.97726,36.960359],[37.985199,36.958343],[37.987805,36.948426],[38.007302,36.939024],[38.006865,36.960939],[37.980343,36.971845],[37.966605,36.987848],[37.961888,37.000143],[37.967186,37.020497],[37.960176,37.020253],[37.951242,37.033429],[37.956346,37.037876],[37.975837,37.032977],[37.981068,37.04383],[37.975543,37.055634],[37.959846,37.056764],[37.936867,37.041695],[37.921787,37.040533],[37.855289,37.068085],[37.865096,37.082457],[37.877564,37.125878],[37.870227,37.145883],[37.849016,37.172306],[37.835665,37.212833],[37.843294,37.224872],[37.874762,37.212356],[37.882033,37.221534],[37.864649,37.244489],[37.848896,37.25038],[37.840791,37.263015],[37.841863,37.27124],[37.835797,37.273999],[37.836396,37.268275],[37.8248,37.264886],[37.805947,37.270788],[37.772296,37.268999],[37.767332,37.274393],[37.7525,37.271599],[37.724615,37.261541],[37.705908,37.242889],[37.657556,37.244126],[37.6382,37.228117],[37.633979,37.225287],[37.636825,37.214699],[37.622904,37.207343],[37.614018,37.210528]]],"type":"Polygon"}},{"type":"Feature","properties":{"area_id":"TR-27-006","name_tr":"Oğuzeli","area_level":"district","parent_id":"TR-27","endeksa_id":1549},"geometry":{"coordinates":[[[37.348099,36.95142],[37.349513,36.933404],[37.367603,36.934597],[37.36972,36.942552],[37.38985,36.942275],[37.406131,36.934251],[37.419532,36.936679],[37.422617,36.921322],[37.432434,36.923762],[37.439305,36.9217],[37.435108,36.916426],[37.443438,36.917998],[37.443851,36.896967],[37.427358,36.887942],[37.437353,36.8842],[37.432106,36.87608],[37.434612,36.869358],[37.431269,36.873084],[37.421659,36.867575],[37.412421,36.874633],[37.397623,36.875616],[37.40126,36.863467],[37.396057,36.846673],[37.410179,36.840389],[37.409192,36.824817],[37.43159,36.828312],[37.439195,36.815422],[37.44958,36.815148],[37.447075,36.795969],[37.453546,36.7899],[37.488807,36.776932],[37.499685,36.763984],[37.495512,36.753682],[37.507405,36.752219],[37.511551,36.740403],[37.534046,36.745607],[37.553938,36.729751],[37.562734,36.7292],[37.568597,36.70399],[37.622846,36.725196],[37.658955,36.749199],[37.682787,36.743852],[37.702374,36.757631],[37.783321,36.749432],[37.767628,36.780563],[37.761025,36.779297],[37.750435,36.794044],[37.757159,36.804004],[37.748422,36.818305],[37.739208,36.819314],[37.739609,36.81123],[37.71785,36.811217],[37.71586,36.824747],[37.724372,36.850123],[37.719093,36.854939],[37.705527,36.853362],[37.696012,36.864709],[37.676457,36.867134],[37.671292,36.894232],[37.656938,36.90882],[37.661131,36.938634],[37.650316,36.939914],[37.646361,36.95531],[37.640253,36.95251],[37.613244,36.974308],[37.612321,36.981469],[37.633066,36.987858],[37.638955,36.998417],[37.608151,37.006041],[37.591625,36.995538],[37.568121,36.996174],[37.550902,37.009522],[37.551602,37.027664],[37.546192,37.030357],[37.543057,37.045649],[37.521446,37.053946],[37.513871,37.053204],[37.515251,37.038115],[37.502297,37.029588],[37.504019,37.020055],[37.494665,37.017082],[37.499334,37.008532],[37.474507,37.00326],[37.462861,36.994925],[37.443392,36.999507],[37.432099,36.995906],[37.443021,36.990245],[37.443278,36.980118],[37.45065,36.975871],[37.444954,36.969078],[37.401496,36.990386],[37.397364,36.975125],[37.383904,36.96701],[37.384658,36.955535],[37.364546,36.958428],[37.348099,36.95142]]],"type":"Polygon"}},{"type":"Feature","properties":{"area_id":"TR-27-009","name_tr":"Yavuzeli","area_level":"district","parent_id":"TR-27","endeksa_id":1720},"geometry":{"coordinates":[[[37.434234,37.40092],[37.439774,37.387911],[37.46104,37.383907],[37.450578,37.378077],[37.45257,37.359117],[37.433457,37.345136],[37.474192,37.325108],[37.468092,37.32295],[37.469092,37.309731],[37.455214,37.298302],[37.482812,37.289919],[37.486141,37.28238],[37.502037,37.28242],[37.529028,37.271168],[37.527602,37.265221],[37.515373,37.260872],[37.501525,37.264126],[37.485171,37.245518],[37.490842,37.243952],[37.495223,37.232108],[37.511431,37.227801],[37.50308,37.220041],[37.515757,37.208113],[37.537187,37.210943],[37.542355,37.229057],[37.549297,37.225394],[37.580364,37.238728],[37.598605,37.236922],[37.604569,37.245165],[37.619624,37.249839],[37.626849,37.24796],[37.623507,37.228344],[37.6382,37.228117],[37.657556,37.244126],[37.705908,37.242889],[37.724615,37.261541],[37.7525,37.271599],[37.767332,37.274393],[37.772296,37.268999],[37.805947,37.270788],[37.8248,37.264886],[37.836396,37.268275],[37.835797,37.273999],[37.841863,37.27124],[37.851995,37.284113],[37.862008,37.316893],[37.88847,37.326786],[37.872616,37.339302],[37.828594,37.35257],[37.828046,37.367871],[37.812053,37.37241],[37.788551,37.363018],[37.781044,37.364533],[37.77998,37.377222],[37.671149,37.372661],[37.657288,37.375066],[37.639394,37.38794],[37.625619,37.385788],[37.617355,37.391015],[37.601148,37.381131],[37.589101,37.387988],[37.588212,37.395281],[37.576935,37.396647],[37.562157,37.394957],[37.54861,37.374126],[37.518921,37.370286],[37.50348,37.400544],[37.507115,37.410264],[37.508696,37.419184],[37.489941,37.414266],[37.46235,37.417277],[37.455423,37.407311],[37.434234,37.40092]]],"type":"Polygon"}},{"type":"Feature","properties":{"area_id":"TR-27-007","name_tr":"Şahinbey","area_level":"district","parent_id":"TR-27","endeksa_id":1841},"geometry":{"coordinates":[[[36.997703,37.071542],[37.00112,37.057303],[37.005121,37.057593],[37.002237,37.037404],[37.006683,37.034395],[36.99976,37.021804],[37.009752,37.006295],[37.018335,37.002044],[37.022518,36.983491],[37.027346,36.982623],[37.027193,36.990022],[37.040883,36.989638],[37.053544,36.997359],[37.065555,36.993924],[37.066281,36.987979],[37.048963,36.972318],[37.075138,36.956327],[37.061229,36.946765],[37.062664,36.936549],[37.070587,36.93213],[37.061294,36.923418],[37.081225,36.916098],[37.081641,36.909788],[37.091695,36.904816],[37.101528,36.898652],[37.11685,36.906409],[37.138183,36.904437],[37.154658,36.888444],[37.175255,36.900304],[37.218518,36.874791],[37.225462,36.888272],[37.248182,36.889911],[37.249047,36.880893],[37.261277,36.872869],[37.273209,36.869982],[37.286379,36.842737],[37.307014,36.844998],[37.314946,36.836698],[37.312038,36.825692],[37.304041,36.822425],[37.296786,36.808036],[37.286276,36.805996],[37.280173,36.794098],[37.282146,36.787086],[37.306869,36.778359],[37.299713,36.772726],[37.299757,36.75886],[37.352834,36.749907],[37.360695,36.731116],[37.365259,36.733063],[37.369448,36.725359],[37.391797,36.730054],[37.384831,36.749496],[37.405043,36.769239],[37.382621,36.775617],[37.386584,36.783925],[37.380665,36.804052],[37.404715,36.806925],[37.409192,36.824817],[37.410179,36.840389],[37.396057,36.846673],[37.40126,36.863467],[37.397623,36.875616],[37.412421,36.874633],[37.421659,36.867575],[37.431269,36.873084],[37.434612,36.869358],[37.432106,36.87608],[37.437353,36.8842],[37.427358,36.887942],[37.443851,36.896967],[37.443438,36.917998],[37.435108,36.916426],[37.439305,36.9217],[37.432434,36.923762],[37.422617,36.921322],[37.419532,36.936679],[37.406131,36.934251],[37.38985,36.942275],[37.36972,36.942552],[37.367603,36.934597],[37.349513,36.933404],[37.348099,36.95142],[37.364546,36.958428],[37.384658,36.955535],[37.383904,36.96701],[37.397364,36.975125],[37.401496,36.990386],[37.444954,36.969078],[37.45065,36.975871],[37.443278,36.980118],[37.443021,36.990245],[37.432099,36.995906],[37.443392,36.999507],[37.462861,36.994925],[37.474507,37.00326],[37.499334,37.008532],[37.494665,37.017082],[37.504019,37.020055],[37.502297,37.029588],[37.515251,37.038115],[37.513871,37.053204],[37.521446,37.053946],[37.520029,37.063025],[37.507036,37.063105],[37.499486,37.060805],[37.500647,37.054715],[37.490976,37.055242],[37.475832,37.044922],[37.45059,37.048778],[37.426617,37.043263],[37.41823,37.058234],[37.39151,37.068286],[37.354986,37.061422],[37.346571,37.062284],[37.349335,37.070274],[37.339463,37.071109],[37.310342,37.026861],[37.303555,37.062363],[37.304361,37.102058],[37.29035,37.110131],[37.266123,37.105011],[37.258894,37.114759],[37.252544,37.114596],[37.256583,37.118778],[37.224176,37.12242],[37.217889,37.130714],[37.202555,37.117101],[37.199739,37.103655],[37.176712,37.099447],[37.162864,37.10323],[37.164591,37.110681],[37.159943,37.113595],[37.142801,37.116461],[37.131288,37.096907],[37.085333,37.108546],[37.091366,37.117651],[37.079034,37.133168],[37.050981,37.126271],[37.039664,37.132342],[37.031786,37.129813],[37.042593,37.120088],[37.036362,37.095651],[37.023474,37.076093],[37.006616,37.078808],[37.007031,37.074488],[36.997703,37.071542]]],"type":"Polygon"}},{"type":"Feature","properties":{"area_id":"TR-27-008","name_tr":"Şehitkamil","area_level":"district","parent_id":"TR-27","endeksa_id":1844},"geometry":{"coordinates":[[[36.969405,37.188456],[36.976279,37.178698],[36.972496,37.173882],[36.981645,37.171841],[36.988487,37.150901],[36.997948,37.147135],[36.999495,37.15214],[37.001179,37.147663],[37.016599,37.150411],[37.031786,37.129813],[37.039664,37.132342],[37.050981,37.126271],[37.079034,37.133168],[37.091366,37.117651],[37.085333,37.108546],[37.131288,37.096907],[37.142801,37.116461],[37.159943,37.113595],[37.164591,37.110681],[37.162864,37.10323],[37.176712,37.099447],[37.199739,37.103655],[37.202555,37.117101],[37.217889,37.130714],[37.224176,37.12242],[37.256583,37.118778],[37.252544,37.114596],[37.258894,37.114759],[37.266123,37.105011],[37.29035,37.110131],[37.304361,37.102058],[37.303555,37.062363],[37.310342,37.026861],[37.339463,37.071109],[37.349335,37.070274],[37.346571,37.062284],[37.354986,37.061422],[37.39151,37.068286],[37.41823,37.058234],[37.426617,37.043263],[37.45059,37.048778],[37.475832,37.044922],[37.490976,37.055242],[37.500647,37.054715],[37.499486,37.060805],[37.507036,37.063105],[37.520029,37.063025],[37.521446,37.053946],[37.543057,37.045649],[37.546192,37.030357],[37.551602,37.027664],[37.550902,37.009522],[37.568121,36.996174],[37.591625,36.995538],[37.608151,37.006041],[37.638955,36.998417],[37.647134,36.994884],[37.65544,37.007642],[37.633012,37.042614],[37.651057,37.050363],[37.660925,37.048259],[37.659008,37.052786],[37.674505,37.063757],[37.669064,37.069368],[37.675088,37.082221],[37.671584,37.095949],[37.678,37.112729],[37.685628,37.115542],[37.646178,37.133914],[37.627248,37.131064],[37.624695,37.135451],[37.638956,37.142047],[37.594727,37.161231],[37.594441,37.165284],[37.606185,37.166462],[37.603229,37.17487],[37.608696,37.176414],[37.609903,37.189341],[37.62357,37.196316],[37.614018,37.210528],[37.622904,37.207343],[37.636825,37.214699],[37.633979,37.225287],[37.6382,37.228117],[37.623507,37.228344],[37.626849,37.24796],[37.619624,37.249839],[37.604569,37.245165],[37.598605,37.236922],[37.580364,37.238728],[37.549297,37.225394],[37.542355,37.229057],[37.537187,37.210943],[37.515757,37.208113],[37.50308,37.220041],[37.511431,37.227801],[37.495223,37.232108],[37.490842,37.243952],[37.485171,37.245518],[37.501525,37.264126],[37.515373,37.260872],[37.527602,37.265221],[37.529028,37.271168],[37.502037,37.28242],[37.486141,37.28238],[37.482812,37.289919],[37.455214,37.298302],[37.469092,37.309731],[37.468092,37.32295],[37.474192,37.325108],[37.433457,37.345136],[37.427667,37.33881],[37.40999,37.341813],[37.388124,37.322281],[37.323175,37.324809],[37.30872,37.305728],[37.300804,37.316904],[37.286422,37.320024],[37.291739,37.334174],[37.274203,37.342278],[37.256273,37.33692],[37.250519,37.338689],[37.251441,37.344957],[37.237675,37.341014],[37.237008,37.346473],[37.230777,37.345589],[37.220327,37.31631],[37.205289,37.304679],[37.208881,37.295423],[37.195052,37.284877],[37.197472,37.27454],[37.17899,37.278028],[37.159028,37.259855],[37.135632,37.267343],[37.115117,37.258872],[37.111028,37.249026],[37.121073,37.245584],[37.110011,37.235108],[37.108231,37.222453],[37.086397,37.20952],[37.081311,37.198987],[37.076431,37.204583],[37.050771,37.20407],[37.038755,37.215311],[37.022416,37.219311],[37.004589,37.214318],[36.998473,37.204291],[36.975668,37.194487],[36.973138,37.186074],[36.969405,37.188456]]],"type":"Polygon"}},{"type":"Feature","properties":{"area_id":"TR-27-003","name_tr":"Karkamış","area_level":"district","parent_id":"TR-27","endeksa_id":1956},"geometry":{"coordinates":[[[37.754732,36.849168],[37.756147,36.823861],[37.748422,36.818305],[37.757159,36.804004],[37.750435,36.794044],[37.761025,36.779297],[37.767628,36.780563],[37.783321,36.749432],[37.80061,36.763486],[37.903353,36.791578],[37.941476,36.81862],[37.993508,36.831937],[38.01669,36.825178],[38.02258,36.828555],[38.014735,36.835585],[38.013989,36.856113],[38.025103,36.85967],[38.042952,36.881583],[38.017623,36.904946],[38.008027,36.921633],[38.007302,36.939024],[37.987805,36.948426],[37.985199,36.958343],[37.97726,36.960359],[37.964447,36.956455],[37.968703,36.937883],[37.943825,36.938656],[37.919565,36.931458],[37.916962,36.941809],[37.903932,36.944018],[37.870078,36.919811],[37.877657,36.894202],[37.854624,36.896824],[37.849073,36.886233],[37.808524,36.87178],[37.80804,36.865804],[37.81477,36.864146],[37.808228,36.852106],[37.788863,36.853428],[37.777456,36.845719],[37.754732,36.849168]]],"type":"Polygon"}},{"type":"Feature","properties":{"area_id":"TR-27-005","name_tr":"Nurdağı","area_level":"district","parent_id":"TR-27","endeksa_id":1974},"geometry":{"coordinates":[[[36.66528,37.151703],[36.679423,37.129508],[36.694924,37.132163],[36.67962,37.119849],[36.719795,37.104715],[36.730806,37.115748],[36.774386,37.106588],[36.756338,37.08326],[36.759824,37.075979],[36.748162,37.075467],[36.742581,37.042181],[36.772023,37.04411],[36.778511,37.050924],[36.807202,37.036648],[36.826321,37.036992],[36.823217,37.032878],[36.853206,37.025288],[36.865387,37.028569],[36.874472,37.038789],[36.884065,37.033758],[36.898346,37.042741],[36.907598,37.039619],[36.916415,37.055427],[36.924424,37.054337],[36.922189,37.046061],[36.930012,37.040114],[36.958574,37.033522],[36.964504,37.023807],[36.988264,37.038228],[37.002237,37.037404],[37.005121,37.057593],[37.00112,37.057303],[36.997703,37.071542],[37.007031,37.074488],[37.006616,37.078808],[37.023474,37.076093],[37.036362,37.095651],[37.042593,37.120088],[37.031786,37.129813],[37.016599,37.150411],[37.001179,37.147663],[36.999495,37.15214],[36.997948,37.147135],[36.988487,37.150901],[36.981645,37.171841],[36.972496,37.173882],[36.976279,37.178698],[36.969405,37.188456],[36.973138,37.186074],[36.975668,37.194487],[36.998473,37.204291],[37.004589,37.214318],[37.006575,37.220947],[37.021606,37.226924],[37.020583,37.240482],[37.010873,37.254621],[36.998599,37.25641],[36.996806,37.264047],[37.006266,37.271458],[36.988507,37.275639],[36.979994,37.269988],[36.977528,37.277644],[36.968863,37.279587],[36.972521,37.29413],[36.934013,37.321368],[36.894265,37.332527],[36.897045,37.328748],[36.88207,37.325824],[36.880378,37.306386],[36.874248,37.299712],[36.880014,37.29157],[36.870196,37.285494],[36.864584,37.268685],[36.855517,37.271995],[36.83589,37.254032],[36.838305,37.24316],[36.821539,37.243851],[36.822774,37.23835],[36.80965,37.228242],[36.788879,37.23615],[36.777532,37.235999],[36.772094,37.228341],[36.749262,37.23588],[36.717737,37.218373],[36.723987,37.211479],[36.695152,37.192439],[36.68165,37.167496],[36.683226,37.159837],[36.66528,37.151703]]],"type":"Polygon"}}]}