{"type":"FeatureCollection","area_id":"TR-49","name_tr":"Muş","source_id":"endeksa","licence":null,"retrieved_at":"2026-08-23","features":[{"type":"Feature","properties":{"area_id":"TR-49-001","name_tr":"Bulanık","area_level":"district","parent_id":"TR-49","endeksa_id":1213},"geometry":{"coordinates":[[[41.787704,39.159724],[41.787707,39.148168],[41.822793,39.137805],[41.830517,39.115747],[41.850969,39.115941],[41.855624,39.112438],[41.85054,39.107893],[41.853727,39.104713],[41.883994,39.095294],[41.879002,39.067981],[41.896513,39.06059],[41.885201,39.058763],[41.872222,39.043241],[41.849995,39.052213],[41.833493,39.051899],[41.848588,39.042598],[41.845978,39.029521],[41.894518,39.022033],[41.89386,39.006958],[41.868611,38.989522],[41.905803,38.983928],[41.895014,38.982449],[41.893681,38.966107],[41.855652,38.936003],[41.857296,38.923123],[41.851477,38.913651],[41.874405,38.901411],[41.895011,38.903131],[41.935751,38.891438],[41.953393,38.876441],[42.000838,38.868342],[42.046599,38.884983],[42.052611,38.869863],[42.062787,38.864735],[42.093003,38.861229],[42.113677,38.844159],[42.156339,38.833241],[42.180991,38.871684],[42.197813,38.882262],[42.246869,38.888048],[42.310716,38.917802],[42.414329,38.927447],[42.501369,38.928373],[42.481653,38.934943],[42.472428,38.947112],[42.50442,38.994228],[42.494469,39.013221],[42.500915,39.023429],[42.487866,39.034439],[42.495087,39.037166],[42.507549,39.073342],[42.501824,39.079084],[42.486875,39.06793],[42.464808,39.068065],[42.436362,39.053769],[42.415758,39.060581],[42.411411,39.075673],[42.398269,39.07942],[42.399293,39.099027],[42.36934,39.098205],[42.354195,39.139131],[42.360089,39.149928],[42.35709,39.154892],[42.367698,39.155277],[42.355987,39.165711],[42.368255,39.166636],[42.384507,39.180446],[42.388068,39.195756],[42.363612,39.192994],[42.357172,39.187462],[42.328761,39.194923],[42.323599,39.222016],[42.310804,39.223268],[42.319081,39.234642],[42.308968,39.242375],[42.308074,39.250858],[42.295091,39.255603],[42.305853,39.276805],[42.306483,39.293307],[42.298904,39.299895],[42.289956,39.301401],[42.286973,39.272608],[42.275512,39.261067],[42.252228,39.254108],[42.228673,39.237914],[42.21063,39.247262],[42.20888,39.256973],[42.214977,39.263415],[42.225559,39.260888],[42.22,39.266984],[42.229077,39.271141],[42.223269,39.277502],[42.238695,39.280146],[42.240766,39.28817],[42.252039,39.282013],[42.251156,39.291025],[42.26745,39.291279],[42.279766,39.299738],[42.27302,39.312464],[42.266144,39.305009],[42.255727,39.3096],[42.244853,39.321329],[42.24273,39.337305],[42.230184,39.340273],[42.222262,39.340046],[42.214106,39.318262],[42.200926,39.307347],[42.184116,39.31486],[42.179481,39.310739],[42.182993,39.297995],[42.167296,39.296039],[42.162644,39.279717],[42.154678,39.273894],[42.103226,39.267773],[42.091147,39.28111],[42.065368,39.290168],[42.049222,39.277031],[42.06972,39.253573],[42.061744,39.239383],[42.036795,39.242292],[42.00536,39.229331],[41.976199,39.202365],[41.964393,39.198098],[41.931297,39.190251],[41.907751,39.196595],[41.906775,39.191448],[41.901443,39.192526],[41.884256,39.211825],[41.86227,39.209417],[41.865703,39.190498],[41.826507,39.197543],[41.808334,39.169593],[41.808855,39.162403],[41.799585,39.155966],[41.787704,39.159724]]],"type":"Polygon"}},{"type":"Feature","properties":{"area_id":"TR-49-004","name_tr":"Malazgirt","area_level":"district","parent_id":"TR-49","endeksa_id":1510},"geometry":{"coordinates":[[[42.182586,39.395479],[42.192314,39.382917],[42.198392,39.358407],[42.214012,39.359105],[42.220132,39.350259],[42.233335,39.352772],[42.235713,39.343422],[42.230184,39.340273],[42.24273,39.337305],[42.244853,39.321329],[42.255727,39.3096],[42.266144,39.305009],[42.27302,39.312464],[42.279766,39.299738],[42.26745,39.291279],[42.251156,39.291025],[42.252039,39.282013],[42.240766,39.28817],[42.238695,39.280146],[42.223269,39.277502],[42.229077,39.271141],[42.22,39.266984],[42.225559,39.260888],[42.214977,39.263415],[42.20888,39.256973],[42.21063,39.247262],[42.228673,39.237914],[42.252228,39.254108],[42.275512,39.261067],[42.286973,39.272608],[42.289956,39.301401],[42.298904,39.299895],[42.306483,39.293307],[42.305853,39.276805],[42.295091,39.255603],[42.308074,39.250858],[42.308968,39.242375],[42.319081,39.234642],[42.310804,39.223268],[42.323599,39.222016],[42.328761,39.194923],[42.357172,39.187462],[42.363612,39.192994],[42.388068,39.195756],[42.384507,39.180446],[42.368255,39.166636],[42.355987,39.165711],[42.367698,39.155277],[42.35709,39.154892],[42.360089,39.149928],[42.354195,39.139131],[42.36934,39.098205],[42.399293,39.099027],[42.398269,39.07942],[42.411411,39.075673],[42.415758,39.060581],[42.436362,39.053769],[42.464808,39.068065],[42.486875,39.06793],[42.501824,39.079084],[42.507549,39.073342],[42.495087,39.037166],[42.487866,39.034439],[42.500915,39.023429],[42.494469,39.013221],[42.50442,38.994228],[42.472428,38.947112],[42.481653,38.934943],[42.501369,38.928373],[42.57029,38.919414],[42.61373,38.92943],[42.654977,38.931006],[42.701335,38.946129],[42.712006,38.953131],[42.704442,38.966047],[42.711722,38.983404],[42.698912,38.991546],[42.700784,39.005561],[42.68523,39.011784],[42.696034,39.021736],[42.700358,39.054255],[42.710806,39.074793],[42.692886,39.082155],[42.701898,39.100179],[42.694085,39.12241],[42.712932,39.147014],[42.705319,39.156513],[42.695481,39.150771],[42.674244,39.155993],[42.64048,39.144245],[42.636385,39.150654],[42.64354,39.15728],[42.680758,39.166973],[42.678811,39.178298],[42.687305,39.191415],[42.633026,39.267902],[42.643701,39.277918],[42.634309,39.294578],[42.616981,39.299704],[42.59786,39.325367],[42.578087,39.332691],[42.579595,39.336863],[42.568759,39.344101],[42.583508,39.362014],[42.553944,39.372689],[42.545494,39.364556],[42.547234,39.35598],[42.525186,39.360776],[42.519022,39.369496],[42.517179,39.401188],[42.494946,39.403249],[42.488603,39.416513],[42.513837,39.434663],[42.51214,39.451466],[42.517146,39.454655],[42.514331,39.463257],[42.520473,39.477481],[42.512591,39.488304],[42.470283,39.478739],[42.432436,39.515353],[42.424507,39.535484],[42.386406,39.539084],[42.37484,39.506313],[42.350147,39.494156],[42.341826,39.497455],[42.328834,39.475773],[42.278733,39.455589],[42.254343,39.453964],[42.243229,39.450494],[42.237299,39.435693],[42.215602,39.427866],[42.206757,39.408011],[42.182586,39.395479]]],"type":"Polygon"}},{"type":"Feature","properties":{"area_id":"TR-49-005","name_tr":"Muş","area_level":"district","parent_id":"TR-49","endeksa_id":1534},"geometry":{"coordinates":[[[41.111297,38.932126],[41.108824,38.920211],[41.116279,38.885177],[41.137401,38.816127],[41.153098,38.787169],[41.176416,38.763147],[41.173803,38.756916],[41.158191,38.755037],[41.158631,38.728631],[41.139054,38.715789],[41.13312,38.705394],[41.117864,38.701292],[41.105946,38.686446],[41.11359,38.665798],[41.125717,38.659632],[41.209634,38.658427],[41.26264,38.649633],[41.259424,38.63962],[41.27589,38.630517],[41.275018,38.596939],[41.289046,38.579071],[41.283258,38.569039],[41.288116,38.555081],[41.293643,38.547125],[41.314004,38.538091],[41.30359,38.514138],[41.329595,38.508895],[41.338116,38.497752],[41.371554,38.492549],[41.367139,38.500268],[41.38718,38.49415],[41.442565,38.501179],[41.479155,38.523733],[41.475448,38.532224],[41.4881,38.544686],[41.505229,38.531698],[41.549687,38.53766],[41.56382,38.581312],[41.577574,38.596203],[41.604936,38.610279],[41.603481,38.625329],[41.610331,38.629413],[41.607421,38.637573],[41.623919,38.648174],[41.628981,38.66848],[41.647617,38.680849],[41.66618,38.733837],[41.684298,38.726809],[41.685408,38.721355],[41.69414,38.727432],[41.695501,38.72088],[41.700207,38.7249],[41.707542,38.721665],[41.717858,38.731983],[41.711769,38.741729],[41.744853,38.776494],[41.702322,38.789393],[41.6969,38.814632],[41.747322,38.85716],[41.788727,38.845663],[41.782055,38.858397],[41.816041,38.856854],[41.821099,38.861865],[41.835498,38.85758],[41.836021,38.872925],[41.854812,38.873182],[41.852063,38.879629],[41.862551,38.887593],[41.866255,38.899016],[41.874405,38.901411],[41.851477,38.913651],[41.857296,38.923123],[41.855652,38.936003],[41.893681,38.966107],[41.895014,38.982449],[41.905803,38.983928],[41.868611,38.989522],[41.89386,39.006958],[41.894518,39.022033],[41.845978,39.029521],[41.848588,39.042598],[41.833493,39.051899],[41.805743,39.049252],[41.79795,39.043254],[41.793681,39.04942],[41.778275,39.047158],[41.775223,39.052583],[41.76518,39.035173],[41.726732,39.026413],[41.690279,39.037506],[41.651759,39.033207],[41.621693,39.048463],[41.623749,39.059744],[41.598521,39.051007],[41.556225,39.069815],[41.523319,39.058691],[41.510661,39.0606],[41.492845,39.048032],[41.452361,39.054576],[41.445623,39.060918],[41.42367,39.054939],[41.409292,39.059051],[41.381944,39.04671],[41.407481,39.035171],[41.403046,39.032376],[41.336642,39.042789],[41.330302,39.039312],[41.306593,39.069378],[41.296239,39.053279],[41.268222,39.038656],[41.193506,38.998945],[41.163065,38.974285],[41.150227,38.950729],[41.122606,38.943993],[41.111297,38.932126]]],"type":"Polygon"}},{"type":"Feature","properties":{"area_id":"TR-49-006","name_tr":"Varto","area_level":"district","parent_id":"TR-49","endeksa_id":1711},"geometry":{"coordinates":[[[41.15503,39.349975],[41.158243,39.323967],[41.147632,39.312521],[41.137896,39.310741],[41.141969,39.27295],[41.133578,39.242063],[41.177663,39.226342],[41.162279,39.196876],[41.172278,39.172011],[41.220785,39.150463],[41.253815,39.116733],[41.29366,39.101027],[41.304364,39.086368],[41.306593,39.069378],[41.330302,39.039312],[41.336642,39.042789],[41.403046,39.032376],[41.407481,39.035171],[41.381944,39.04671],[41.409292,39.059051],[41.42367,39.054939],[41.445623,39.060918],[41.452361,39.054576],[41.492845,39.048032],[41.510661,39.0606],[41.523319,39.058691],[41.556225,39.069815],[41.598521,39.051007],[41.623749,39.059744],[41.621693,39.048463],[41.651759,39.033207],[41.690279,39.037506],[41.726732,39.026413],[41.76518,39.035173],[41.775223,39.052583],[41.778275,39.047158],[41.793681,39.04942],[41.79795,39.043254],[41.805743,39.049252],[41.833493,39.051899],[41.849995,39.052213],[41.872222,39.043241],[41.885201,39.058763],[41.896513,39.06059],[41.879002,39.067981],[41.883994,39.095294],[41.853727,39.104713],[41.85054,39.107893],[41.855624,39.112438],[41.850969,39.115941],[41.830517,39.115747],[41.822793,39.137805],[41.787707,39.148168],[41.787704,39.159724],[41.75697,39.144943],[41.741523,39.152575],[41.74236,39.161064],[41.615471,39.155756],[41.612645,39.18485],[41.608095,39.183402],[41.595016,39.19778],[41.608879,39.208956],[41.606405,39.221238],[41.618887,39.242834],[41.615161,39.254704],[41.546799,39.273099],[41.526416,39.283214],[41.510774,39.299089],[41.498529,39.30134],[41.494034,39.308748],[41.467136,39.316326],[41.445836,39.334466],[41.409446,39.351603],[41.394053,39.351436],[41.378069,39.36027],[41.345887,39.357872],[41.25344,39.36564],[41.231919,39.360339],[41.179742,39.361723],[41.172369,39.36984],[41.15503,39.349975]]],"type":"Polygon"}},{"type":"Feature","properties":{"area_id":"TR-49-002","name_tr":"Hasköy","area_level":"district","parent_id":"TR-49","endeksa_id":1801},"geometry":{"coordinates":[[[41.607421,38.637573],[41.610331,38.629413],[41.603481,38.625329],[41.604936,38.610279],[41.629594,38.622092],[41.670321,38.626297],[41.67572,38.64186],[41.70182,38.64466],[41.701259,38.624188],[41.741811,38.616268],[41.747482,38.61255],[41.74577,38.604059],[41.763922,38.590235],[41.803838,38.605874],[41.846702,38.596122],[41.855208,38.577665],[41.864561,38.595714],[41.929163,38.575105],[41.94388,38.578947],[41.958568,38.588707],[41.93892,38.618566],[41.933635,38.652709],[41.92594,38.656667],[41.91064,38.653293],[41.892419,38.659764],[41.868345,38.645618],[41.870951,38.653306],[41.852728,38.660208],[41.854902,38.673796],[41.835694,38.679215],[41.831183,38.672973],[41.831632,38.680288],[41.820008,38.67323],[41.796512,38.692945],[41.744967,38.683179],[41.742437,38.686256],[41.752352,38.692931],[41.75712,38.706557],[41.742467,38.709366],[41.717858,38.731983],[41.707542,38.721665],[41.700207,38.7249],[41.695501,38.72088],[41.69414,38.727432],[41.685408,38.721355],[41.684298,38.726809],[41.66618,38.733837],[41.647617,38.680849],[41.628981,38.66848],[41.623919,38.648174],[41.607421,38.637573]]],"type":"Polygon"}},{"type":"Feature","properties":{"area_id":"TR-49-003","name_tr":"Korkut","area_level":"district","parent_id":"TR-49","endeksa_id":1964},"geometry":{"coordinates":[[[41.6969,38.814632],[41.702322,38.789393],[41.744853,38.776494],[41.711769,38.741729],[41.717858,38.731983],[41.742467,38.709366],[41.75712,38.706557],[41.752352,38.692931],[41.742437,38.686256],[41.744967,38.683179],[41.796512,38.692945],[41.820008,38.67323],[41.831632,38.680288],[41.831183,38.672973],[41.835694,38.679215],[41.854902,38.673796],[41.852728,38.660208],[41.870951,38.653306],[41.868345,38.645618],[41.892419,38.659764],[41.91064,38.653293],[41.92594,38.656667],[41.933635,38.652709],[41.93892,38.618566],[41.974536,38.640397],[41.995423,38.644229],[42.000314,38.654775],[42.053077,38.673017],[42.057018,38.685837],[42.049407,38.694307],[42.060986,38.698822],[42.078836,38.72005],[42.11319,38.733496],[42.117793,38.741555],[42.114875,38.755972],[42.084949,38.778598],[42.089854,38.788193],[42.125441,38.797796],[42.156339,38.833241],[42.113677,38.844159],[42.093003,38.861229],[42.062787,38.864735],[42.052611,38.869863],[42.046599,38.884983],[42.000838,38.868342],[41.953393,38.876441],[41.935751,38.891438],[41.895011,38.903131],[41.874405,38.901411],[41.866255,38.899016],[41.862551,38.887593],[41.852063,38.879629],[41.854812,38.873182],[41.836021,38.872925],[41.835498,38.85758],[41.821099,38.861865],[41.816041,38.856854],[41.782055,38.858397],[41.788727,38.845663],[41.747322,38.85716],[41.6969,38.814632]]],"type":"Polygon"}}]}