{"type":"FeatureCollection","area_id":"TR-46","name_tr":"Kahramanmaraş","source_id":"endeksa","licence":null,"retrieved_at":"2026-08-23","features":[{"type":"Feature","properties":{"area_id":"TR-46-001","name_tr":"Afşin","area_level":"district","parent_id":"TR-46","endeksa_id":1107},"geometry":{"coordinates":[[[36.565495,38.343792],[36.565463,38.324567],[36.583211,38.315233],[36.579044,38.306472],[36.606868,38.312959],[36.606996,38.299423],[36.624842,38.304504],[36.628724,38.278991],[36.652208,38.276956],[36.661446,38.264441],[36.703007,38.255498],[36.710545,38.237916],[36.7236,38.235123],[36.734942,38.223414],[36.749504,38.222066],[36.738967,38.21488],[36.740106,38.20945],[36.74597,38.193343],[36.760609,38.191663],[36.764371,38.181227],[36.7577,38.173121],[36.731303,38.166874],[36.710708,38.154877],[36.737787,38.143591],[36.732509,38.122226],[36.74549,38.116321],[36.854175,38.136101],[36.868427,38.129918],[36.888893,38.143988],[36.901577,38.139675],[36.912788,38.123016],[36.922312,38.118698],[36.941213,38.1356],[36.994088,38.139366],[36.998284,38.135336],[37.010459,38.135709],[37.011968,38.145011],[37.035203,38.140727],[37.03403,38.146601],[37.04524,38.149815],[37.037037,38.160949],[37.039242,38.165213],[37.054423,38.16727],[37.039089,38.177939],[37.042983,38.183123],[37.035181,38.185508],[37.046065,38.190742],[37.048085,38.186755],[37.049715,38.193297],[37.067098,38.186903],[37.071598,38.190957],[37.062244,38.19745],[37.054824,38.195691],[37.048128,38.208073],[37.034697,38.20106],[37.009265,38.202403],[37.000035,38.221286],[37.011734,38.232526],[37.03171,38.231358],[37.041165,38.25291],[37.032774,38.275737],[37.072804,38.303032],[37.055463,38.306272],[37.076601,38.317065],[37.060056,38.336485],[37.073819,38.360818],[37.070459,38.386686],[37.080787,38.393832],[37.093111,38.417034],[37.057608,38.421763],[37.059086,38.435186],[37.031346,38.454645],[37.031916,38.45957],[37.019807,38.463014],[37.040317,38.480254],[37.031756,38.48483],[37.019768,38.510339],[37.059002,38.511571],[37.074313,38.520852],[37.070202,38.533274],[37.076927,38.53466],[37.07191,38.544042],[37.072957,38.564259],[37.047981,38.574057],[37.043564,38.585664],[37.027856,38.593328],[37.009934,38.591313],[37.005082,38.582042],[36.932413,38.589162],[36.915217,38.580863],[36.91022,38.572554],[36.90478,38.581024],[36.894292,38.581277],[36.866188,38.57014],[36.860417,38.561752],[36.823199,38.560819],[36.820569,38.549359],[36.797166,38.549001],[36.780426,38.537085],[36.754847,38.53343],[36.748815,38.531014],[36.751395,38.524581],[36.741156,38.521906],[36.715492,38.521918],[36.678194,38.498749],[36.668114,38.499522],[36.687735,38.488444],[36.697355,38.468571],[36.724496,38.460897],[36.728397,38.435158],[36.740516,38.436857],[36.741969,38.422644],[36.674275,38.392765],[36.617625,38.383111],[36.61551,38.396406],[36.600391,38.389805],[36.607317,38.385667],[36.565495,38.343792]]],"type":"Polygon"}},{"type":"Feature","properties":{"area_id":"TR-46-002","name_tr":"Andırın","area_level":"district","parent_id":"TR-46","endeksa_id":1136},"geometry":{"coordinates":[[[36.210401,37.758474],[36.207557,37.748358],[36.226621,37.727028],[36.238059,37.722696],[36.23203,37.717863],[36.241896,37.68508],[36.271776,37.653344],[36.255232,37.632899],[36.262045,37.615571],[36.255224,37.596371],[36.259983,37.576631],[36.249814,37.562063],[36.238395,37.519475],[36.246453,37.497269],[36.245242,37.476265],[36.258796,37.461013],[36.251988,37.436322],[36.26043,37.431722],[36.251885,37.425156],[36.257879,37.424585],[36.252653,37.415918],[36.262187,37.418713],[36.26639,37.408048],[36.258402,37.398358],[36.265775,37.397101],[36.267509,37.386589],[36.26128,37.364133],[36.27046,37.362167],[36.277817,37.350896],[36.26533,37.318192],[36.276264,37.331023],[36.28548,37.333907],[36.28302,37.340967],[36.314659,37.361449],[36.332328,37.36724],[36.344,37.3585],[36.354082,37.366999],[36.370004,37.351596],[36.365992,37.341913],[36.362333,37.350865],[36.353864,37.327948],[36.356975,37.324926],[36.368076,37.343646],[36.387994,37.35253],[36.403793,37.352166],[36.414998,37.366144],[36.425709,37.362755],[36.430814,37.368905],[36.469991,37.375601],[36.475743,37.387217],[36.467708,37.411605],[36.471618,37.419618],[36.45984,37.421789],[36.467104,37.43969],[36.482148,37.442465],[36.48809,37.460735],[36.502525,37.459076],[36.523334,37.46961],[36.48603,37.50691],[36.48022,37.519247],[36.48907,37.53934],[36.479843,37.558874],[36.490067,37.570065],[36.502566,37.571747],[36.498347,37.582751],[36.516467,37.592068],[36.522463,37.605397],[36.524468,37.610547],[36.510302,37.62157],[36.507268,37.655808],[36.531144,37.670045],[36.542479,37.698765],[36.528041,37.705588],[36.544271,37.723556],[36.538393,37.752482],[36.51852,37.754356],[36.494092,37.781658],[36.49536,37.82405],[36.48716,37.823945],[36.474333,37.849243],[36.46092,37.83958],[36.41839,37.83206],[36.40963,37.83664],[36.378,37.83339],[36.33754,37.81924],[36.32802,37.81951],[36.325983,37.829275],[36.285266,37.832717],[36.271707,37.815716],[36.24425,37.80105],[36.246411,37.781585],[36.239937,37.771501],[36.210401,37.758474]]],"type":"Polygon"}},{"type":"Feature","properties":{"area_id":"TR-46-006","name_tr":"Elbistan","area_level":"district","parent_id":"TR-46","endeksa_id":1299},"geometry":{"coordinates":[[[37.043564,38.585664],[37.047981,38.574057],[37.072957,38.564259],[37.07191,38.544042],[37.076927,38.53466],[37.070202,38.533274],[37.074313,38.520852],[37.059002,38.511571],[37.019768,38.510339],[37.031756,38.48483],[37.040317,38.480254],[37.019807,38.463014],[37.031916,38.45957],[37.031346,38.454645],[37.059086,38.435186],[37.057608,38.421763],[37.093111,38.417034],[37.080787,38.393832],[37.070459,38.386686],[37.073819,38.360818],[37.060056,38.336485],[37.076601,38.317065],[37.055463,38.306272],[37.072804,38.303032],[37.032774,38.275737],[37.041165,38.25291],[37.03171,38.231358],[37.011734,38.232526],[37.000035,38.221286],[37.009265,38.202403],[37.034697,38.20106],[37.048128,38.208073],[37.054824,38.195691],[37.062244,38.19745],[37.071598,38.190957],[37.067098,38.186903],[37.049715,38.193297],[37.048085,38.186755],[37.046065,38.190742],[37.035181,38.185508],[37.042983,38.183123],[37.039089,38.177939],[37.054423,38.16727],[37.039242,38.165213],[37.037037,38.160949],[37.04524,38.149815],[37.03403,38.146601],[37.035203,38.140727],[37.011968,38.145011],[37.010459,38.135709],[36.998284,38.135336],[36.995624,38.132777],[37.006449,38.125925],[37.007196,38.110942],[36.999571,38.111615],[37.004931,38.104793],[37.004489,38.099724],[36.998163,38.099191],[36.999471,38.082895],[37.005403,38.073622],[37.014842,38.082005],[37.029803,38.078341],[37.026063,38.081963],[37.03194,38.091046],[37.04941,38.097095],[37.033041,38.09878],[37.078349,38.116046],[37.066439,38.127339],[37.06965,38.134569],[37.076777,38.128253],[37.082463,38.133269],[37.07989,38.125488],[37.087489,38.125985],[37.092259,38.119859],[37.105348,38.122878],[37.106513,38.114753],[37.110603,38.119245],[37.115209,38.114426],[37.118446,38.121398],[37.120365,38.117259],[37.132799,38.123997],[37.135932,38.139767],[37.205015,38.103839],[37.231655,38.122325],[37.239788,38.115976],[37.242154,38.103337],[37.225547,38.069953],[37.249131,38.066679],[37.268538,38.067664],[37.302064,38.083437],[37.307283,38.095067],[37.323176,38.107622],[37.338637,38.107489],[37.346767,38.11689],[37.352641,38.107617],[37.362763,38.107852],[37.431843,38.074957],[37.443011,38.08191],[37.46882,38.080509],[37.473995,38.093831],[37.491867,38.088418],[37.475054,38.067067],[37.473862,38.046689],[37.477885,38.043347],[37.4724,38.039571],[37.484902,38.027638],[37.578688,38.053871],[37.631165,38.066996],[37.6773,38.085758],[37.697832,38.101911],[37.726792,38.132573],[37.727799,38.146993],[37.717035,38.157351],[37.75003,38.165224],[37.749947,38.219086],[37.745818,38.242202],[37.736648,38.255188],[37.702823,38.251941],[37.668862,38.258519],[37.675694,38.306662],[37.643763,38.322331],[37.597365,38.324935],[37.584703,38.342303],[37.572268,38.332758],[37.557716,38.352229],[37.547933,38.348714],[37.527179,38.362159],[37.506356,38.363472],[37.499566,38.373499],[37.485632,38.378611],[37.45763,38.375284],[37.456978,38.38911],[37.366594,38.426485],[37.347709,38.440537],[37.330702,38.444536],[37.310853,38.440264],[37.301088,38.451666],[37.28514,38.45585],[37.282839,38.488415],[37.264357,38.489433],[37.26756,38.503847],[37.276403,38.518456],[37.297846,38.527935],[37.317096,38.545511],[37.306118,38.567586],[37.320832,38.569074],[37.316873,38.578045],[37.328613,38.590614],[37.314311,38.583345],[37.295058,38.582316],[37.279732,38.590847],[37.222098,38.591983],[37.199748,38.579609],[37.120428,38.609846],[37.074633,38.586671],[37.043564,38.585664]]],"type":"Polygon"}},{"type":"Feature","properties":{"area_id":"TR-46-007","name_tr":"Göksun","area_level":"district","parent_id":"TR-46","endeksa_id":1353},"geometry":{"coordinates":[[[36.234959,38.022211],[36.226965,37.99412],[36.205947,37.957303],[36.201794,37.934862],[36.248318,37.954701],[36.266286,37.947541],[36.27912,37.928758],[36.272088,37.906384],[36.276522,37.896758],[36.284474,37.897467],[36.282904,37.881199],[36.274494,37.868468],[36.282047,37.852652],[36.275465,37.84381],[36.284048,37.840404],[36.280095,37.834636],[36.285266,37.832717],[36.325983,37.829275],[36.32802,37.81951],[36.33754,37.81924],[36.378,37.83339],[36.40963,37.83664],[36.41839,37.83206],[36.46092,37.83958],[36.474333,37.849243],[36.477331,37.879212],[36.493067,37.891563],[36.516646,37.886115],[36.552587,37.891375],[36.539937,37.926545],[36.544153,37.954018],[36.566183,37.985635],[36.589317,37.997402],[36.618793,37.985475],[36.622799,37.993802],[36.641728,37.983325],[36.645275,37.973862],[36.660942,37.97677],[36.662818,37.971009],[36.676002,37.969408],[36.681294,37.981671],[36.7062,37.96633],[36.71832,37.96777],[36.746116,37.985848],[36.768599,37.971295],[36.786124,37.986061],[36.821025,37.987001],[36.879094,38.009874],[36.883922,38.002851],[36.950158,38.007694],[36.950544,38.026166],[36.974426,38.054321],[36.986535,38.055623],[36.988995,38.073497],[36.999471,38.082895],[36.998163,38.099191],[37.004489,38.099724],[37.004931,38.104793],[36.999571,38.111615],[37.007196,38.110942],[37.006449,38.125925],[36.995624,38.132777],[36.998284,38.135336],[36.994088,38.139366],[36.941213,38.1356],[36.922312,38.118698],[36.912788,38.123016],[36.901577,38.139675],[36.888893,38.143988],[36.868427,38.129918],[36.854175,38.136101],[36.74549,38.116321],[36.732509,38.122226],[36.737787,38.143591],[36.710708,38.154877],[36.731303,38.166874],[36.7577,38.173121],[36.764371,38.181227],[36.760609,38.191663],[36.74597,38.193343],[36.740106,38.20945],[36.738967,38.21488],[36.749504,38.222066],[36.734942,38.223414],[36.7236,38.235123],[36.710545,38.237916],[36.703007,38.255498],[36.661446,38.264441],[36.652208,38.276956],[36.628724,38.278991],[36.624842,38.304504],[36.606996,38.299423],[36.606868,38.312959],[36.579044,38.306472],[36.554026,38.287604],[36.549669,38.273185],[36.526025,38.265063],[36.518915,38.247823],[36.497152,38.24338],[36.483412,38.241957],[36.443734,38.255628],[36.44008,38.261628],[36.412648,38.265068],[36.409128,38.281031],[36.382702,38.260567],[36.375761,38.224239],[36.374646,38.165637],[36.401586,38.163521],[36.381573,38.143099],[36.385219,38.127407],[36.361147,38.121964],[36.350235,38.125148],[36.348726,38.119124],[36.359171,38.103141],[36.332132,38.066077],[36.289784,38.053319],[36.259409,38.052481],[36.253877,38.025879],[36.234959,38.022211]]],"type":"Polygon"}},{"type":"Feature","properties":{"area_id":"TR-46-009","name_tr":"Oniki Şubat","area_level":"district","parent_id":"TR-46","endeksa_id":2085},"geometry":{"coordinates":[[[36.477331,37.879212],[36.474333,37.849243],[36.48716,37.823945],[36.49536,37.82405],[36.494092,37.781658],[36.51852,37.754356],[36.538393,37.752482],[36.544271,37.723556],[36.528041,37.705588],[36.542479,37.698765],[36.531144,37.670045],[36.507268,37.655808],[36.510302,37.62157],[36.524468,37.610547],[36.522463,37.605397],[36.516467,37.592068],[36.498347,37.582751],[36.502566,37.571747],[36.490067,37.570065],[36.479843,37.558874],[36.48907,37.53934],[36.48022,37.519247],[36.48603,37.50691],[36.523334,37.46961],[36.502525,37.459076],[36.48809,37.460735],[36.482148,37.442465],[36.467104,37.43969],[36.45984,37.421789],[36.471618,37.419618],[36.467708,37.411605],[36.496853,37.422016],[36.507139,37.43394],[36.570969,37.407831],[36.562559,37.369396],[36.638963,37.364996],[36.663536,37.400779],[36.694125,37.400896],[36.703945,37.41012],[36.716096,37.404097],[36.718382,37.413463],[36.726204,37.417578],[36.716306,37.430772],[36.757737,37.458841],[36.800143,37.467906],[36.828552,37.483729],[36.849752,37.469025],[36.866344,37.474277],[36.896159,37.471503],[36.895144,37.490065],[36.917048,37.528923],[36.92747,37.581359],[36.916852,37.614189],[36.916762,37.622502],[36.925413,37.625764],[36.919277,37.633383],[36.951856,37.65111],[36.939275,37.661195],[36.944599,37.672219],[36.926275,37.700576],[36.926025,37.706626],[36.939469,37.709658],[36.943347,37.717869],[36.937973,37.717586],[36.93801,37.710321],[36.924094,37.707999],[36.910006,37.719401],[36.933075,37.720767],[36.936954,37.72546],[36.933416,37.72732],[36.944617,37.729373],[36.927379,37.732139],[36.939351,37.738196],[36.927952,37.734871],[36.928558,37.744992],[36.93271,37.75091],[36.937792,37.747467],[36.947713,37.765199],[36.938657,37.768508],[36.947751,37.78317],[36.940783,37.778932],[36.940116,37.795295],[36.972265,37.827736],[36.972534,37.858546],[37.038612,37.862363],[37.068502,37.870254],[37.063344,37.891577],[37.068536,37.901443],[37.017403,37.892269],[36.99153,37.904924],[36.979824,37.921034],[36.986145,37.923669],[36.981574,37.928669],[36.983593,37.937868],[36.972887,37.940175],[36.979933,37.959209],[36.988427,37.961932],[36.979053,37.970716],[36.975662,37.990505],[36.950158,38.007694],[36.883922,38.002851],[36.879094,38.009874],[36.821025,37.987001],[36.786124,37.986061],[36.768599,37.971295],[36.746116,37.985848],[36.71832,37.96777],[36.7062,37.96633],[36.681294,37.981671],[36.676002,37.969408],[36.662818,37.971009],[36.660942,37.97677],[36.645275,37.973862],[36.641728,37.983325],[36.622799,37.993802],[36.618793,37.985475],[36.589317,37.997402],[36.566183,37.985635],[36.544153,37.954018],[36.539937,37.926545],[36.552587,37.891375],[36.516646,37.886115],[36.493067,37.891563],[36.477331,37.879212]]],"type":"Polygon"}},{"type":"Feature","properties":{"area_id":"TR-46-010","name_tr":"Pazarcık","area_level":"district","parent_id":"TR-46","endeksa_id":1570},"geometry":{"coordinates":[[[36.972521,37.29413],[36.968863,37.279587],[36.977528,37.277644],[36.979994,37.269988],[36.988507,37.275639],[37.006266,37.271458],[36.996806,37.264047],[36.998599,37.25641],[37.010873,37.254621],[37.020583,37.240482],[37.021606,37.226924],[37.006575,37.220947],[37.004589,37.214318],[37.022416,37.219311],[37.038755,37.215311],[37.050771,37.20407],[37.076431,37.204583],[37.081311,37.198987],[37.086397,37.20952],[37.108231,37.222453],[37.110011,37.235108],[37.121073,37.245584],[37.111028,37.249026],[37.115117,37.258872],[37.135632,37.267343],[37.159028,37.259855],[37.17899,37.278028],[37.197472,37.27454],[37.195052,37.284877],[37.208881,37.295423],[37.205289,37.304679],[37.220327,37.31631],[37.230777,37.345589],[37.237008,37.346473],[37.237675,37.341014],[37.251441,37.344957],[37.250519,37.338689],[37.256273,37.33692],[37.274203,37.342278],[37.291739,37.334174],[37.286422,37.320024],[37.300804,37.316904],[37.30872,37.305728],[37.323175,37.324809],[37.388124,37.322281],[37.40999,37.341813],[37.427667,37.33881],[37.433457,37.345136],[37.45257,37.359117],[37.450578,37.378077],[37.46104,37.383907],[37.439774,37.387911],[37.434234,37.40092],[37.455423,37.407311],[37.46235,37.417277],[37.489941,37.414266],[37.508696,37.419184],[37.507115,37.410264],[37.52453,37.420035],[37.542695,37.413987],[37.56972,37.420934],[37.572955,37.434016],[37.551041,37.464279],[37.55027,37.473565],[37.575132,37.476173],[37.572068,37.481066],[37.585553,37.504092],[37.576239,37.508734],[37.575575,37.528262],[37.569783,37.532517],[37.562928,37.562182],[37.592356,37.573323],[37.58757,37.574149],[37.588881,37.581992],[37.564608,37.593963],[37.554277,37.606223],[37.540808,37.609547],[37.523957,37.593115],[37.509426,37.590532],[37.49455,37.563399],[37.471309,37.564308],[37.45745,37.577865],[37.452142,37.576005],[37.446694,37.616666],[37.462462,37.609368],[37.466273,37.624558],[37.459672,37.620294],[37.459654,37.633219],[37.439746,37.645747],[37.450898,37.65403],[37.45594,37.673245],[37.43303,37.682335],[37.406111,37.660927],[37.352391,37.666162],[37.346878,37.653499],[37.273129,37.644142],[37.278987,37.641288],[37.252788,37.634044],[37.257014,37.628767],[37.25183,37.614991],[37.235145,37.596135],[37.232528,37.570625],[37.238322,37.561638],[37.209102,37.556684],[37.195772,37.528086],[37.183008,37.532082],[37.182419,37.51709],[37.189994,37.517238],[37.19368,37.507601],[37.209847,37.510731],[37.22773,37.505116],[37.216684,37.498885],[37.220314,37.489162],[37.196925,37.465771],[37.18343,37.461219],[37.185825,37.452137],[37.171096,37.434859],[37.115374,37.388023],[37.125678,37.376357],[37.109953,37.362973],[37.049959,37.340016],[37.03252,37.32699],[37.048338,37.303328],[37.023589,37.297712],[37.023172,37.287304],[36.999706,37.286014],[36.987681,37.296446],[36.972521,37.29413]]],"type":"Polygon"}},{"type":"Feature","properties":{"area_id":"TR-46-011","name_tr":"Türkoğlu","area_level":"district","parent_id":"TR-46","endeksa_id":1694},"geometry":{"coordinates":[[[36.638963,37.364996],[36.640725,37.353232],[36.647858,37.348025],[36.666445,37.347036],[36.669768,37.331981],[36.631465,37.317836],[36.631286,37.310102],[36.618966,37.298199],[36.638909,37.297575],[36.638455,37.289736],[36.657463,37.288723],[36.656425,37.274157],[36.663508,37.273587],[36.675862,37.253829],[36.673709,37.247151],[36.691302,37.243418],[36.70309,37.22694],[36.696792,37.220876],[36.717737,37.218373],[36.749262,37.23588],[36.772094,37.228341],[36.777532,37.235999],[36.788879,37.23615],[36.80965,37.228242],[36.822774,37.23835],[36.821539,37.243851],[36.838305,37.24316],[36.83589,37.254032],[36.855517,37.271995],[36.864584,37.268685],[36.870196,37.285494],[36.880014,37.29157],[36.874248,37.299712],[36.880378,37.306386],[36.88207,37.325824],[36.897045,37.328748],[36.894265,37.332527],[36.934013,37.321368],[36.972521,37.29413],[36.987681,37.296446],[36.999706,37.286014],[37.023172,37.287304],[37.023589,37.297712],[37.048338,37.303328],[37.03252,37.32699],[37.049959,37.340016],[37.034362,37.344813],[37.023146,37.361516],[37.012186,37.362142],[37.00771,37.371905],[37.027024,37.378183],[37.018673,37.393972],[37.002795,37.386582],[36.977302,37.400876],[36.960161,37.402202],[36.96162,37.418663],[36.930015,37.427339],[36.928437,37.444154],[36.922167,37.435144],[36.902497,37.430216],[36.898097,37.422246],[36.893492,37.434463],[36.899293,37.443103],[36.892234,37.451625],[36.896159,37.471503],[36.866344,37.474277],[36.849752,37.469025],[36.828552,37.483729],[36.800143,37.467906],[36.757737,37.458841],[36.716306,37.430772],[36.726204,37.417578],[36.718382,37.413463],[36.716096,37.404097],[36.703945,37.41012],[36.694125,37.400896],[36.663536,37.400779],[36.638963,37.364996]]],"type":"Polygon"}},{"type":"Feature","properties":{"area_id":"TR-46-003","name_tr":"Çağlayancerit","area_level":"district","parent_id":"TR-46","endeksa_id":1785},"geometry":{"coordinates":[[[37.122042,37.883284],[37.132232,37.871917],[37.147811,37.866895],[37.158526,37.851386],[37.163179,37.79082],[37.151664,37.773827],[37.150052,37.757967],[37.159199,37.747688],[37.162134,37.753661],[37.191802,37.748347],[37.226332,37.725767],[37.21499,37.720378],[37.216074,37.706681],[37.202669,37.672554],[37.18435,37.66848],[37.187357,37.662066],[37.210731,37.670364],[37.222817,37.665113],[37.238804,37.675365],[37.258683,37.670509],[37.261821,37.677811],[37.273029,37.679627],[37.274988,37.671871],[37.259636,37.656482],[37.273129,37.644142],[37.346878,37.653499],[37.352391,37.666162],[37.406111,37.660927],[37.43303,37.682335],[37.45594,37.673245],[37.455699,37.686252],[37.468324,37.718951],[37.481571,37.736019],[37.469185,37.752778],[37.485256,37.749096],[37.522348,37.784407],[37.518111,37.794215],[37.523502,37.801758],[37.507455,37.797667],[37.503459,37.817066],[37.508374,37.835625],[37.504845,37.855602],[37.51095,37.862926],[37.505287,37.88135],[37.490238,37.887832],[37.511613,37.913656],[37.525915,37.918207],[37.51504,37.919784],[37.469783,37.89882],[37.448376,37.908548],[37.450726,37.900315],[37.438346,37.896759],[37.441099,37.88682],[37.427568,37.89233],[37.420027,37.887031],[37.413663,37.893126],[37.414236,37.887152],[37.39299,37.886807],[37.393465,37.881961],[37.380324,37.886936],[37.365839,37.87907],[37.347646,37.879165],[37.35074,37.857917],[37.319326,37.836518],[37.294526,37.847981],[37.28506,37.895788],[37.22405,37.908675],[37.211625,37.906953],[37.183364,37.921428],[37.139732,37.91052],[37.171786,37.881994],[37.148678,37.877244],[37.122042,37.883284]]],"type":"Polygon"}},{"type":"Feature","properties":{"area_id":"TR-46-005","name_tr":"Ekinözü","area_level":"district","parent_id":"TR-46","endeksa_id":1919},"geometry":{"coordinates":[[[36.950544,38.026166],[36.950158,38.007694],[36.975662,37.990505],[36.979053,37.970716],[36.988427,37.961932],[36.979933,37.959209],[36.972887,37.940175],[36.983593,37.937868],[36.981574,37.928669],[36.986145,37.923669],[36.979824,37.921034],[36.99153,37.904924],[37.017403,37.892269],[37.068536,37.901443],[37.063344,37.891577],[37.068502,37.870254],[37.0887,37.874838],[37.101932,37.871714],[37.109403,37.88608],[37.122042,37.883284],[37.148678,37.877244],[37.171786,37.881994],[37.139732,37.91052],[37.183364,37.921428],[37.211625,37.906953],[37.22405,37.908675],[37.232607,37.915324],[37.224961,37.928213],[37.237686,37.950745],[37.265174,37.924892],[37.285134,37.939805],[37.289209,37.95316],[37.289168,37.971957],[37.260824,37.98213],[37.243385,38.010898],[37.250233,38.036164],[37.245513,38.048147],[37.249131,38.066679],[37.225547,38.069953],[37.242154,38.103337],[37.239788,38.115976],[37.231655,38.122325],[37.205015,38.103839],[37.135932,38.139767],[37.132799,38.123997],[37.120365,38.117259],[37.118446,38.121398],[37.115209,38.114426],[37.110603,38.119245],[37.106513,38.114753],[37.105348,38.122878],[37.092259,38.119859],[37.087489,38.125985],[37.07989,38.125488],[37.082463,38.133269],[37.076777,38.128253],[37.06965,38.134569],[37.066439,38.127339],[37.078349,38.116046],[37.033041,38.09878],[37.04941,38.097095],[37.03194,38.091046],[37.026063,38.081963],[37.029803,38.078341],[37.014842,38.082005],[37.005403,38.073622],[36.999471,38.082895],[36.988995,38.073497],[36.986535,38.055623],[36.974426,38.054321],[36.950544,38.026166]]],"type":"Polygon"}},{"type":"Feature","properties":{"area_id":"TR-46-008","name_tr":"Nurhak","area_level":"district","parent_id":"TR-46","endeksa_id":1975},"geometry":{"coordinates":[[[37.249131,38.066679],[37.245513,38.048147],[37.250233,38.036164],[37.243385,38.010898],[37.260824,37.98213],[37.289168,37.971957],[37.289209,37.95316],[37.285134,37.939805],[37.265174,37.924892],[37.237686,37.950745],[37.224961,37.928213],[37.232607,37.915324],[37.22405,37.908675],[37.28506,37.895788],[37.294526,37.847981],[37.319326,37.836518],[37.35074,37.857917],[37.347646,37.879165],[37.365839,37.87907],[37.380324,37.886936],[37.393465,37.881961],[37.39299,37.886807],[37.414236,37.887152],[37.413663,37.893126],[37.420027,37.887031],[37.427568,37.89233],[37.441099,37.88682],[37.438346,37.896759],[37.450726,37.900315],[37.448376,37.908548],[37.469783,37.89882],[37.51504,37.919784],[37.525915,37.918207],[37.540319,37.922597],[37.54281,37.915324],[37.572322,37.901627],[37.601788,37.921432],[37.600248,37.939148],[37.615935,37.944162],[37.600497,37.944791],[37.603214,37.957793],[37.598453,37.973537],[37.583828,37.98298],[37.580786,38.005712],[37.598487,38.004305],[37.601359,38.013073],[37.58756,38.014675],[37.576921,38.02598],[37.582454,38.035026],[37.578688,38.053871],[37.484902,38.027638],[37.4724,38.039571],[37.477885,38.043347],[37.473862,38.046689],[37.475054,38.067067],[37.491867,38.088418],[37.473995,38.093831],[37.46882,38.080509],[37.443011,38.08191],[37.431843,38.074957],[37.362763,38.107852],[37.352641,38.107617],[37.346767,38.11689],[37.338637,38.107489],[37.323176,38.107622],[37.307283,38.095067],[37.302064,38.083437],[37.268538,38.067664],[37.249131,38.066679]]],"type":"Polygon"}},{"type":"Feature","properties":{"area_id":"TR-46-004","name_tr":"Dulkadiroğlu","area_level":"district","parent_id":"TR-46","endeksa_id":2084},"geometry":{"coordinates":[[[36.940116,37.795295],[36.940783,37.778932],[36.947751,37.78317],[36.938657,37.768508],[36.947713,37.765199],[36.937792,37.747467],[36.93271,37.75091],[36.928558,37.744992],[36.927952,37.734871],[36.939351,37.738196],[36.927379,37.732139],[36.944617,37.729373],[36.933416,37.72732],[36.936954,37.72546],[36.933075,37.720767],[36.910006,37.719401],[36.924094,37.707999],[36.93801,37.710321],[36.937973,37.717586],[36.943347,37.717869],[36.939469,37.709658],[36.926025,37.706626],[36.926275,37.700576],[36.944599,37.672219],[36.939275,37.661195],[36.951856,37.65111],[36.919277,37.633383],[36.925413,37.625764],[36.916762,37.622502],[36.916852,37.614189],[36.92747,37.581359],[36.917048,37.528923],[36.895144,37.490065],[36.896159,37.471503],[36.892234,37.451625],[36.899293,37.443103],[36.893492,37.434463],[36.898097,37.422246],[36.902497,37.430216],[36.922167,37.435144],[36.928437,37.444154],[36.930015,37.427339],[36.96162,37.418663],[36.960161,37.402202],[36.977302,37.400876],[37.002795,37.386582],[37.018673,37.393972],[37.027024,37.378183],[37.00771,37.371905],[37.012186,37.362142],[37.023146,37.361516],[37.034362,37.344813],[37.049959,37.340016],[37.109953,37.362973],[37.125678,37.376357],[37.115374,37.388023],[37.171096,37.434859],[37.185825,37.452137],[37.18343,37.461219],[37.196925,37.465771],[37.220314,37.489162],[37.216684,37.498885],[37.22773,37.505116],[37.209847,37.510731],[37.19368,37.507601],[37.189994,37.517238],[37.182419,37.51709],[37.183008,37.532082],[37.195772,37.528086],[37.209102,37.556684],[37.238322,37.561638],[37.232528,37.570625],[37.235145,37.596135],[37.25183,37.614991],[37.257014,37.628767],[37.252788,37.634044],[37.278987,37.641288],[37.273129,37.644142],[37.259636,37.656482],[37.274988,37.671871],[37.273029,37.679627],[37.261821,37.677811],[37.258683,37.670509],[37.238804,37.675365],[37.222817,37.665113],[37.210731,37.670364],[37.187357,37.662066],[37.18435,37.66848],[37.202669,37.672554],[37.216074,37.706681],[37.21499,37.720378],[37.226332,37.725767],[37.191802,37.748347],[37.162134,37.753661],[37.159199,37.747688],[37.150052,37.757967],[37.151664,37.773827],[37.163179,37.79082],[37.158526,37.851386],[37.147811,37.866895],[37.132232,37.871917],[37.122042,37.883284],[37.109403,37.88608],[37.101932,37.871714],[37.0887,37.874838],[37.068502,37.870254],[37.038612,37.862363],[36.972534,37.858546],[36.972265,37.827736],[36.940116,37.795295]]],"type":"Polygon"}}]}