{"type":"FeatureCollection","area_id":"TR-47","name_tr":"Mardin","source_id":"endeksa","licence":null,"retrieved_at":"2026-08-23","features":[{"type":"Feature","properties":{"area_id":"TR-47-003","name_tr":"Derik","area_level":"district","parent_id":"TR-47","endeksa_id":1273},"geometry":{"coordinates":[[[39.877491,37.534976],[39.877025,37.490882],[39.894601,37.477792],[39.894081,37.447839],[39.938488,37.43803],[39.952767,37.412783],[39.948865,37.39292],[39.952347,37.380678],[39.981228,37.378758],[39.992665,37.365762],[39.994483,37.344472],[39.974508,37.336078],[39.984225,37.316678],[39.983575,37.300684],[39.993147,37.295382],[40.001239,37.278782],[39.990917,37.273489],[39.993406,37.25157],[39.996183,37.247219],[40.009442,37.248868],[40.004226,37.252327],[40.011145,37.256488],[40.035048,37.255119],[40.041308,37.240444],[40.01125,37.223939],[40.02382,37.213998],[40.019634,37.201835],[40.032253,37.192027],[40.031596,37.186635],[40.045967,37.193301],[40.050738,37.187757],[40.047065,37.18104],[40.059155,37.178592],[40.059165,37.170417],[40.071579,37.163162],[40.080995,37.163779],[40.082153,37.155645],[40.090932,37.159545],[40.092367,37.168262],[40.101368,37.167122],[40.099924,37.143823],[40.10848,37.13724],[40.10558,37.13094],[40.11827,37.11658],[40.13608,37.112],[40.126732,37.092451],[40.150749,37.081101],[40.149996,37.074664],[40.182507,37.080466],[40.184504,37.093194],[40.214546,37.085316],[40.219976,37.090919],[40.21475,37.099232],[40.252772,37.09498],[40.264638,37.111071],[40.265378,37.134249],[40.283243,37.158202],[40.30743,37.154719],[40.299278,37.165722],[40.298065,37.180464],[40.31273,37.181653],[40.324852,37.195962],[40.355609,37.195308],[40.363157,37.185812],[40.381919,37.192127],[40.382827,37.205695],[40.375701,37.207641],[40.376372,37.218068],[40.387132,37.228766],[40.401903,37.22855],[40.403516,37.245218],[40.408262,37.246126],[40.403745,37.264703],[40.408513,37.280048],[40.429622,37.293817],[40.431173,37.304606],[40.439129,37.309571],[40.419423,37.329065],[40.388483,37.313633],[40.371507,37.315192],[40.36858,37.33427],[40.375585,37.343247],[40.363379,37.356057],[40.356334,37.345858],[40.36008,37.33596],[40.354301,37.331748],[40.337159,37.330561],[40.317908,37.338947],[40.32244,37.361623],[40.312045,37.360786],[40.314175,37.37424],[40.300721,37.389283],[40.301142,37.400132],[40.336037,37.443064],[40.361473,37.45295],[40.368304,37.46484],[40.345672,37.464799],[40.309882,37.495076],[40.295222,37.485857],[40.283926,37.494544],[40.278326,37.488024],[40.272997,37.492217],[40.255054,37.484471],[40.21864,37.486223],[40.202614,37.458111],[40.239946,37.468294],[40.247854,37.460115],[40.246751,37.438799],[40.207026,37.427934],[40.175523,37.440483],[40.186739,37.471095],[40.179684,37.483381],[40.182352,37.489918],[40.209856,37.496768],[40.203728,37.515042],[40.20694,37.528039],[40.186258,37.525311],[40.189628,37.545471],[40.178852,37.547851],[40.173246,37.540442],[40.169567,37.547491],[40.156359,37.551584],[40.139977,37.576582],[40.137989,37.594283],[40.115696,37.579446],[40.114392,37.559216],[40.121285,37.546411],[40.117693,37.540797],[40.094263,37.535539],[40.073622,37.541153],[40.032926,37.536974],[40.024043,37.532402],[40.030862,37.519566],[40.014463,37.509757],[39.980034,37.505058],[39.966123,37.527701],[39.943167,37.540166],[39.877491,37.534976]]],"type":"Polygon"}},{"type":"Feature","properties":{"area_id":"TR-47-004","name_tr":"Kızıltepe","area_level":"district","parent_id":"TR-47","endeksa_id":1474},"geometry":{"coordinates":[[[40.149996,37.074664],[40.16042,37.07002],[40.1548,37.06153],[40.16425,37.055173],[40.159831,37.046795],[40.166468,37.038861],[40.158872,37.029237],[40.160508,37.016772],[40.186929,36.994137],[40.17706,36.989402],[40.177278,36.978354],[40.237077,36.957154],[40.234886,36.945112],[40.219541,36.94089],[40.21369,36.932729],[40.217532,36.923143],[40.233637,36.917233],[40.233707,36.91178],[40.356571,36.963003],[40.408733,37.014267],[40.530852,37.028531],[40.589383,37.062121],[40.618812,37.064677],[40.695735,37.103636],[40.717688,37.106304],[40.715336,37.109663],[40.722167,37.112886],[40.720054,37.128692],[40.733302,37.13846],[40.732741,37.153475],[40.709483,37.159026],[40.712149,37.169974],[40.703585,37.172956],[40.703455,37.180726],[40.671879,37.184086],[40.694069,37.226583],[40.689568,37.232126],[40.698929,37.272353],[40.682339,37.269853],[40.68489,37.276442],[40.675597,37.283329],[40.658531,37.279269],[40.656697,37.286222],[40.664129,37.28656],[40.665066,37.294989],[40.654588,37.308118],[40.660199,37.317765],[40.647158,37.325737],[40.640147,37.324205],[40.635536,37.332101],[40.614194,37.326725],[40.589433,37.335082],[40.582917,37.33331],[40.580792,37.323274],[40.589996,37.313999],[40.552094,37.310503],[40.512546,37.306841],[40.419423,37.329065],[40.439129,37.309571],[40.431173,37.304606],[40.429622,37.293817],[40.408513,37.280048],[40.403745,37.264703],[40.408262,37.246126],[40.403516,37.245218],[40.401903,37.22855],[40.387132,37.228766],[40.376372,37.218068],[40.375701,37.207641],[40.382827,37.205695],[40.381919,37.192127],[40.363157,37.185812],[40.355609,37.195308],[40.324852,37.195962],[40.31273,37.181653],[40.298065,37.180464],[40.299278,37.165722],[40.30743,37.154719],[40.283243,37.158202],[40.265378,37.134249],[40.264638,37.111071],[40.252772,37.09498],[40.21475,37.099232],[40.219976,37.090919],[40.214546,37.085316],[40.184504,37.093194],[40.182507,37.080466],[40.149996,37.074664]]],"type":"Polygon"}},{"type":"Feature","properties":{"area_id":"TR-47-001","name_tr":"Artuklu","area_level":"district","parent_id":"TR-47","endeksa_id":2088},"geometry":{"coordinates":[[[40.5132,37.376209],[40.514256,37.361395],[40.520404,37.360702],[40.517455,37.357473],[40.5459,37.332055],[40.552094,37.310503],[40.589996,37.313999],[40.580792,37.323274],[40.582917,37.33331],[40.589433,37.335082],[40.614194,37.326725],[40.635536,37.332101],[40.640147,37.324205],[40.647158,37.325737],[40.660199,37.317765],[40.654588,37.308118],[40.665066,37.294989],[40.664129,37.28656],[40.656697,37.286222],[40.658531,37.279269],[40.675597,37.283329],[40.68489,37.276442],[40.682339,37.269853],[40.698929,37.272353],[40.689568,37.232126],[40.694069,37.226583],[40.671879,37.184086],[40.703455,37.180726],[40.703585,37.172956],[40.712149,37.169974],[40.709483,37.159026],[40.732741,37.153475],[40.733302,37.13846],[40.720054,37.128692],[40.722167,37.112886],[40.715336,37.109663],[40.717688,37.106304],[40.75297,37.110042],[40.766455,37.128067],[40.797197,37.119562],[40.812994,37.125761],[40.822637,37.111012],[40.834978,37.107021],[40.84868,37.122577],[40.908711,37.132156],[40.981699,37.116292],[41.056944,37.107701],[41.063991,37.116791],[41.076593,37.115899],[41.081145,37.124998],[41.076791,37.154809],[41.025889,37.145571],[41.030196,37.15634],[41.014062,37.147608],[40.995085,37.152487],[40.974886,37.144325],[40.977244,37.181822],[40.987581,37.193589],[40.97968,37.205483],[41.006563,37.221977],[41.003428,37.24696],[41.024189,37.251838],[41.023313,37.26289],[41.0029,37.266133],[40.989557,37.262392],[40.960594,37.270007],[40.955026,37.27055],[40.956267,37.260668],[40.948586,37.251851],[40.925693,37.246627],[40.920828,37.233609],[40.909546,37.225853],[40.849784,37.223324],[40.83767,37.207833],[40.841877,37.19994],[40.836591,37.190975],[40.799267,37.212237],[40.815373,37.232262],[40.807848,37.230482],[40.805586,37.24034],[40.791922,37.237937],[40.793815,37.243275],[40.812338,37.25931],[40.821152,37.256155],[40.829914,37.290204],[40.821154,37.294455],[40.824942,37.301895],[40.821373,37.311747],[40.809672,37.312699],[40.815033,37.325401],[40.813356,37.330234],[40.805123,37.324106],[40.809542,37.335302],[40.805011,37.343172],[40.812469,37.346871],[40.81107,37.351726],[40.826899,37.353911],[40.827126,37.368592],[40.832462,37.370148],[40.840747,37.390043],[40.833314,37.413921],[40.830523,37.406833],[40.826669,37.410351],[40.817856,37.40611],[40.814973,37.411452],[40.802509,37.406252],[40.788568,37.412339],[40.815743,37.421052],[40.819657,37.437162],[40.764115,37.457428],[40.766555,37.461836],[40.755184,37.471227],[40.753868,37.481082],[40.744601,37.486139],[40.770604,37.516573],[40.753071,37.524244],[40.729997,37.508837],[40.721942,37.515575],[40.714085,37.513516],[40.707915,37.518715],[40.718808,37.523243],[40.717591,37.527033],[40.700633,37.53894],[40.70845,37.54808],[40.705707,37.553245],[40.685484,37.562527],[40.676875,37.562546],[40.675661,37.557587],[40.664818,37.560907],[40.656445,37.558489],[40.647211,37.565341],[40.638519,37.555845],[40.632457,37.545309],[40.63998,37.541315],[40.639105,37.525475],[40.648518,37.523272],[40.650476,37.513156],[40.664938,37.506702],[40.664406,37.496301],[40.650095,37.493478],[40.643838,37.478535],[40.617841,37.489095],[40.612622,37.476805],[40.616603,37.456733],[40.605257,37.426724],[40.586531,37.412602],[40.574261,37.416867],[40.569392,37.424737],[40.544631,37.4186],[40.539123,37.40223],[40.5132,37.376209]]],"type":"Polygon"}},{"type":"Feature","properties":{"area_id":"TR-47-005","name_tr":"Mazıdağı","area_level":"district","parent_id":"TR-47","endeksa_id":1519},"geometry":{"coordinates":[[[40.182352,37.489918],[40.179684,37.483381],[40.186739,37.471095],[40.175523,37.440483],[40.207026,37.427934],[40.246751,37.438799],[40.247854,37.460115],[40.239946,37.468294],[40.202614,37.458111],[40.21864,37.486223],[40.255054,37.484471],[40.272997,37.492217],[40.278326,37.488024],[40.283926,37.494544],[40.295222,37.485857],[40.309882,37.495076],[40.345672,37.464799],[40.368304,37.46484],[40.361473,37.45295],[40.336037,37.443064],[40.301142,37.400132],[40.300721,37.389283],[40.314175,37.37424],[40.312045,37.360786],[40.32244,37.361623],[40.317908,37.338947],[40.337159,37.330561],[40.354301,37.331748],[40.36008,37.33596],[40.356334,37.345858],[40.363379,37.356057],[40.375585,37.343247],[40.36858,37.33427],[40.371507,37.315192],[40.388483,37.313633],[40.419423,37.329065],[40.512546,37.306841],[40.552094,37.310503],[40.5459,37.332055],[40.517455,37.357473],[40.520404,37.360702],[40.514256,37.361395],[40.5132,37.376209],[40.539123,37.40223],[40.544631,37.4186],[40.569392,37.424737],[40.574261,37.416867],[40.586531,37.412602],[40.605257,37.426724],[40.616603,37.456733],[40.612622,37.476805],[40.617841,37.489095],[40.643838,37.478535],[40.650095,37.493478],[40.664406,37.496301],[40.664938,37.506702],[40.650476,37.513156],[40.648518,37.523272],[40.639105,37.525475],[40.63998,37.541315],[40.632457,37.545309],[40.638519,37.555845],[40.618288,37.573815],[40.617931,37.586071],[40.60545,37.589724],[40.598601,37.600387],[40.583935,37.596082],[40.582498,37.605714],[40.567476,37.594285],[40.563875,37.601951],[40.553893,37.604162],[40.53126,37.587318],[40.511957,37.58902],[40.50096,37.598724],[40.496742,37.588838],[40.487078,37.600085],[40.493029,37.604312],[40.456874,37.59891],[40.453019,37.619524],[40.435598,37.623047],[40.417084,37.607482],[40.41197,37.613654],[40.409175,37.610036],[40.418116,37.601227],[40.413147,37.594691],[40.417169,37.596307],[40.425194,37.581892],[40.408472,37.571283],[40.389242,37.561706],[40.377978,37.563832],[40.371092,37.559251],[40.372716,37.553874],[40.311611,37.528586],[40.28706,37.53376],[40.28018,37.51936],[40.264335,37.509285],[40.262901,37.494506],[40.250521,37.486769],[40.240085,37.489295],[40.241482,37.500163],[40.224682,37.492542],[40.209856,37.496768],[40.182352,37.489918]]],"type":"Polygon"}},{"type":"Feature","properties":{"area_id":"TR-47-006","name_tr":"Midyat","area_level":"district","parent_id":"TR-47","endeksa_id":1526},"geometry":{"coordinates":[[[41.071739,37.46624],[41.075758,37.453733],[41.067394,37.447213],[41.070942,37.441169],[41.066861,37.44432],[41.063752,37.438364],[41.072025,37.421187],[41.067028,37.416226],[41.081171,37.411897],[41.087055,37.394072],[41.083581,37.390169],[41.096429,37.38631],[41.106374,37.390548],[41.123913,37.383842],[41.123626,37.388088],[41.131781,37.389354],[41.124152,37.401802],[41.129669,37.415049],[41.143192,37.398426],[41.168566,37.388278],[41.165204,37.371587],[41.17067,37.363792],[41.162039,37.351902],[41.166596,37.344257],[41.180412,37.340312],[41.163188,37.330142],[41.164483,37.325176],[41.135534,37.311281],[41.146557,37.293441],[41.140947,37.289383],[41.150609,37.286004],[41.148799,37.273236],[41.156009,37.267351],[41.149429,37.259477],[41.178896,37.272734],[41.180218,37.278398],[41.204029,37.276275],[41.211289,37.230193],[41.229224,37.22922],[41.234737,37.223808],[41.225489,37.220313],[41.233691,37.211797],[41.235041,37.184251],[41.264583,37.196238],[41.269154,37.19407],[41.262361,37.183168],[41.279785,37.177479],[41.29525,37.185266],[41.315342,37.175938],[41.320901,37.178282],[41.331492,37.195175],[41.382241,37.228791],[41.384025,37.252862],[41.435112,37.286009],[41.441718,37.28031],[41.459708,37.294639],[41.473709,37.295967],[41.475141,37.309056],[41.48049,37.311305],[41.487507,37.312395],[41.493693,37.303017],[41.488966,37.288264],[41.499828,37.289726],[41.503126,37.278042],[41.509068,37.279572],[41.528019,37.268032],[41.529416,37.254585],[41.55785,37.275242],[41.54003,37.289269],[41.538263,37.306031],[41.564593,37.310624],[41.576035,37.318568],[41.562465,37.337436],[41.571224,37.344959],[41.563719,37.363581],[41.571882,37.367068],[41.574433,37.386016],[41.598546,37.381206],[41.587195,37.398748],[41.591447,37.4044],[41.603575,37.401657],[41.610945,37.406685],[41.600875,37.411748],[41.607086,37.426012],[41.589245,37.430079],[41.589482,37.439783],[41.605993,37.444609],[41.599531,37.456335],[41.610471,37.458083],[41.621334,37.449106],[41.618001,37.437559],[41.634183,37.422867],[41.627981,37.42024],[41.647229,37.404225],[41.661202,37.407047],[41.665676,37.415042],[41.689458,37.410694],[41.689437,37.415797],[41.699936,37.419007],[41.69523,37.426853],[41.703951,37.426941],[41.701723,37.43347],[41.701316,37.453723],[41.68226,37.448566],[41.677454,37.457668],[41.682325,37.464531],[41.687381,37.460683],[41.693921,37.464514],[41.702613,37.456793],[41.710471,37.461565],[41.702866,37.479903],[41.693454,37.482709],[41.691664,37.513316],[41.687458,37.508226],[41.65892,37.505433],[41.646835,37.514083],[41.637989,37.507846],[41.626359,37.512505],[41.62297,37.505234],[41.608643,37.504529],[41.612509,37.502434],[41.609593,37.495346],[41.586911,37.484095],[41.568346,37.488608],[41.550273,37.503563],[41.561469,37.514856],[41.557835,37.526534],[41.568631,37.526458],[41.567708,37.533518],[41.556659,37.537739],[41.549885,37.524851],[41.519882,37.523344],[41.506214,37.528411],[41.502764,37.541027],[41.491154,37.534897],[41.481499,37.518578],[41.470314,37.517034],[41.469476,37.500397],[41.455641,37.495165],[41.414007,37.497879],[41.414684,37.504732],[41.397584,37.51939],[41.399011,37.524052],[41.381043,37.533967],[41.356452,37.510021],[41.359493,37.499744],[41.347223,37.495688],[41.318474,37.498535],[41.319831,37.511078],[41.310024,37.517133],[41.306742,37.530732],[41.278019,37.531384],[41.263842,37.549074],[41.252522,37.555832],[41.245768,37.553851],[41.23712,37.56402],[41.235249,37.558742],[41.214299,37.554206],[41.21682,37.54371],[41.210737,37.541276],[41.20935,37.52843],[41.21572,37.52495],[41.21375,37.51955],[41.19904,37.51759],[41.206228,37.51188],[41.19523,37.496882],[41.169723,37.50236],[41.169965,37.517588],[41.159062,37.528919],[41.154468,37.52608],[41.145486,37.535647],[41.129112,37.535717],[41.124082,37.525874],[41.116463,37.530703],[41.120788,37.52546],[41.118751,37.51051],[41.122873,37.509391],[41.116691,37.507616],[41.122263,37.499627],[41.114854,37.488094],[41.104698,37.486561],[41.107038,37.472678],[41.071739,37.46624]]],"type":"Polygon"}},{"type":"Feature","properties":{"area_id":"TR-47-007","name_tr":"Nusaybin","area_level":"district","parent_id":"TR-47","endeksa_id":1547},"geometry":{"coordinates":[[[41.011259,37.336074],[41.011471,37.331027],[41.019216,37.330152],[41.019992,37.316405],[41.036157,37.31047],[41.036249,37.300911],[41.01941,37.298488],[41.016668,37.291778],[41.008497,37.293872],[41.001087,37.274187],[41.01142,37.271916],[41.000941,37.271897],[41.001849,37.267618],[41.007526,37.269898],[41.0029,37.266133],[41.023313,37.26289],[41.024189,37.251838],[41.003428,37.24696],[41.006563,37.221977],[40.97968,37.205483],[40.987581,37.193589],[40.977244,37.181822],[40.974886,37.144325],[40.995085,37.152487],[41.014062,37.147608],[41.030196,37.15634],[41.025889,37.145571],[41.076791,37.154809],[41.081145,37.124998],[41.076593,37.115899],[41.063991,37.116791],[41.056944,37.107701],[41.118817,37.094388],[41.165249,37.09442],[41.198937,37.080299],[41.198446,37.06437],[41.218267,37.062505],[41.22132,37.069773],[41.236042,37.075552],[41.282625,37.080606],[41.37044,37.076101],[41.45423,37.082727],[41.514944,37.078653],[41.556425,37.08745],[41.604061,37.107753],[41.661511,37.118567],[41.680143,37.116189],[41.675088,37.132874],[41.682074,37.148683],[41.663613,37.149715],[41.662095,37.162599],[41.67439,37.18075],[41.672034,37.204979],[41.655012,37.23478],[41.625675,37.260392],[41.574646,37.26226],[41.55785,37.275242],[41.529416,37.254585],[41.528019,37.268032],[41.509068,37.279572],[41.503126,37.278042],[41.499828,37.289726],[41.488966,37.288264],[41.493693,37.303017],[41.487507,37.312395],[41.48049,37.311305],[41.475141,37.309056],[41.473709,37.295967],[41.459708,37.294639],[41.441718,37.28031],[41.435112,37.286009],[41.384025,37.252862],[41.382241,37.228791],[41.331492,37.195175],[41.320901,37.178282],[41.315342,37.175938],[41.29525,37.185266],[41.279785,37.177479],[41.262361,37.183168],[41.269154,37.19407],[41.264583,37.196238],[41.235041,37.184251],[41.233691,37.211797],[41.225489,37.220313],[41.234737,37.223808],[41.229224,37.22922],[41.211289,37.230193],[41.204029,37.276275],[41.180218,37.278398],[41.178896,37.272734],[41.149429,37.259477],[41.156009,37.267351],[41.148799,37.273236],[41.150609,37.286004],[41.140947,37.289383],[41.146557,37.293441],[41.135534,37.311281],[41.130556,37.312622],[41.134987,37.321828],[41.126477,37.324723],[41.126473,37.332221],[41.111499,37.329323],[41.09856,37.340809],[41.080901,37.336177],[41.088509,37.325193],[41.083275,37.322029],[41.090353,37.322919],[41.089517,37.314718],[41.094204,37.314892],[41.08196,37.301817],[41.067652,37.308208],[41.065503,37.322523],[41.047382,37.32203],[41.03542,37.334605],[41.011259,37.336074]]],"type":"Polygon"}},{"type":"Feature","properties":{"area_id":"TR-47-008","name_tr":"Ömerli","area_level":"district","parent_id":"TR-47","endeksa_id":1564},"geometry":{"coordinates":[[[40.845725,37.449752],[40.853394,37.445757],[40.86175,37.441516],[40.865721,37.447007],[40.886721,37.427824],[40.875401,37.417858],[40.874738,37.409296],[40.846522,37.408651],[40.841185,37.404012],[40.845511,37.391102],[40.842256,37.380514],[40.848043,37.367741],[40.85665,37.371782],[40.864817,37.365453],[40.854864,37.342679],[40.89293,37.341625],[40.903141,37.326388],[40.902286,37.307013],[40.912335,37.298482],[40.905496,37.292512],[40.910292,37.288476],[40.908643,37.278282],[40.902371,37.27914],[40.898714,37.270347],[40.938174,37.275318],[40.961562,37.27407],[40.960594,37.270007],[40.989557,37.262392],[41.0029,37.266133],[41.007526,37.269898],[41.001849,37.267618],[41.000941,37.271897],[41.01142,37.271916],[41.001087,37.274187],[41.008497,37.293872],[41.016668,37.291778],[41.01941,37.298488],[41.036249,37.300911],[41.036157,37.31047],[41.019992,37.316405],[41.019216,37.330152],[41.011471,37.331027],[41.011259,37.336074],[41.03542,37.334605],[41.047382,37.32203],[41.065503,37.322523],[41.067652,37.308208],[41.08196,37.301817],[41.094204,37.314892],[41.089517,37.314718],[41.090353,37.322919],[41.083275,37.322029],[41.088509,37.325193],[41.080901,37.336177],[41.09856,37.340809],[41.111499,37.329323],[41.126473,37.332221],[41.126477,37.324723],[41.134987,37.321828],[41.130556,37.312622],[41.135534,37.311281],[41.164483,37.325176],[41.163188,37.330142],[41.180412,37.340312],[41.166596,37.344257],[41.162039,37.351902],[41.17067,37.363792],[41.165204,37.371587],[41.168566,37.388278],[41.143192,37.398426],[41.129669,37.415049],[41.124152,37.401802],[41.131781,37.389354],[41.123626,37.388088],[41.123913,37.383842],[41.106374,37.390548],[41.096429,37.38631],[41.083581,37.390169],[41.087055,37.394072],[41.081171,37.411897],[41.067028,37.416226],[41.072025,37.421187],[41.063752,37.438364],[41.066861,37.44432],[41.070942,37.441169],[41.067394,37.447213],[41.075758,37.453733],[41.071739,37.46624],[41.079623,37.473986],[41.076171,37.485887],[41.069873,37.478073],[41.067292,37.482849],[41.062328,37.480633],[41.063496,37.486175],[41.035489,37.471648],[41.017373,37.477693],[41.018676,37.484085],[41.010797,37.468585],[41.003729,37.464643],[41.002478,37.469838],[40.990048,37.461857],[40.993617,37.456001],[40.983353,37.457509],[40.977912,37.439799],[40.962904,37.437066],[40.958898,37.442866],[40.948193,37.439757],[40.941312,37.456235],[40.94493,37.461196],[40.934682,37.467158],[40.92592,37.46301],[40.917359,37.473124],[40.882581,37.475826],[40.87065,37.459665],[40.851915,37.4586],[40.845725,37.449752]]],"type":"Polygon"}},{"type":"Feature","properties":{"area_id":"TR-47-009","name_tr":"Savur","area_level":"district","parent_id":"TR-47","endeksa_id":1609},"geometry":{"coordinates":[[[40.615139,37.696049],[40.629562,37.67948],[40.629956,37.669739],[40.637349,37.669929],[40.630355,37.667178],[40.636997,37.654708],[40.637323,37.626934],[40.660044,37.624992],[40.669771,37.606717],[40.671814,37.579438],[40.664818,37.560907],[40.675661,37.557587],[40.676875,37.562546],[40.685484,37.562527],[40.705707,37.553245],[40.70845,37.54808],[40.700633,37.53894],[40.717591,37.527033],[40.718808,37.523243],[40.707915,37.518715],[40.714085,37.513516],[40.721942,37.515575],[40.729997,37.508837],[40.753071,37.524244],[40.770604,37.516573],[40.744601,37.486139],[40.753868,37.481082],[40.755184,37.471227],[40.766555,37.461836],[40.764115,37.457428],[40.819657,37.437162],[40.831007,37.445509],[40.853394,37.445757],[40.845725,37.449752],[40.851915,37.4586],[40.87065,37.459665],[40.882581,37.475826],[40.917359,37.473124],[40.92592,37.46301],[40.934682,37.467158],[40.94493,37.461196],[40.941312,37.456235],[40.948193,37.439757],[40.958898,37.442866],[40.962904,37.437066],[40.977912,37.439799],[40.983353,37.457509],[40.993617,37.456001],[40.990048,37.461857],[41.002478,37.469838],[41.003729,37.464643],[41.010797,37.468585],[41.018676,37.484085],[41.017373,37.477693],[41.035489,37.471648],[41.063496,37.486175],[41.062328,37.480633],[41.067292,37.482849],[41.069873,37.478073],[41.076171,37.485887],[41.079623,37.473986],[41.071739,37.46624],[41.107038,37.472678],[41.104698,37.486561],[41.114854,37.488094],[41.122263,37.499627],[41.116691,37.507616],[41.122873,37.509391],[41.118751,37.51051],[41.120788,37.52546],[41.116463,37.530703],[41.124082,37.525874],[41.129112,37.535717],[41.125119,37.544369],[41.130181,37.544907],[41.125847,37.548963],[41.128297,37.55732],[41.12279,37.561947],[41.115459,37.559247],[41.119595,37.561249],[41.10994,37.565815],[41.111861,37.573355],[41.10561,37.572155],[41.113359,37.596024],[41.102515,37.600896],[41.09508,37.625067],[41.084438,37.638627],[41.067697,37.642751],[41.064692,37.653886],[41.058249,37.651334],[41.064591,37.657983],[41.08085,37.659483],[41.074437,37.661817],[41.078456,37.670486],[41.073851,37.690016],[41.042626,37.700783],[41.024132,37.719729],[40.990607,37.710729],[40.994901,37.697086],[40.977001,37.693217],[40.953251,37.675164],[40.909498,37.658161],[40.911231,37.667497],[40.909172,37.662283],[40.890382,37.658384],[40.885778,37.654727],[40.893977,37.646933],[40.891659,37.638423],[40.876572,37.610796],[40.8647,37.606093],[40.865475,37.619044],[40.861105,37.619616],[40.856877,37.608311],[40.824274,37.597019],[40.797193,37.599814],[40.78373,37.595435],[40.770922,37.60744],[40.774348,37.612709],[40.757182,37.619165],[40.760423,37.638017],[40.762919,37.630693],[40.778046,37.626481],[40.798226,37.628552],[40.834946,37.641946],[40.833922,37.649467],[40.855148,37.650867],[40.861539,37.656341],[40.851399,37.672089],[40.835817,37.679508],[40.84095,37.700109],[40.833465,37.711744],[40.825547,37.713991],[40.819924,37.688106],[40.802768,37.693751],[40.781715,37.682594],[40.766806,37.681935],[40.761883,37.695758],[40.749275,37.686875],[40.748521,37.693138],[40.725885,37.711236],[40.711884,37.709894],[40.703912,37.696182],[40.693514,37.70445],[40.692014,37.717238],[40.672411,37.725054],[40.674332,37.738345],[40.661715,37.736159],[40.650832,37.729918],[40.648361,37.725179],[40.653088,37.723641],[40.643872,37.710216],[40.630041,37.715808],[40.615139,37.696049]]],"type":"Polygon"}},{"type":"Feature","properties":{"area_id":"TR-47-002","name_tr":"Dargeçit","area_level":"district","parent_id":"TR-47","endeksa_id":1787},"geometry":{"coordinates":[[[41.557835,37.526534],[41.561469,37.514856],[41.550273,37.503563],[41.568346,37.488608],[41.586911,37.484095],[41.609593,37.495346],[41.612509,37.502434],[41.608643,37.504529],[41.62297,37.505234],[41.626359,37.512505],[41.637989,37.507846],[41.646835,37.514083],[41.65892,37.505433],[41.687458,37.508226],[41.691664,37.513316],[41.693454,37.482709],[41.702866,37.479903],[41.710471,37.461565],[41.702613,37.456793],[41.693921,37.464514],[41.687381,37.460683],[41.682325,37.464531],[41.677454,37.457668],[41.68226,37.448566],[41.701316,37.453723],[41.701723,37.43347],[41.722804,37.430188],[41.73634,37.420165],[41.751492,37.417752],[41.757797,37.409612],[41.774019,37.421473],[41.799158,37.414545],[41.82433,37.415728],[41.831792,37.407619],[41.841625,37.411756],[41.84088,37.400337],[41.853235,37.403659],[41.860867,37.399122],[41.861936,37.407046],[41.868276,37.399278],[41.873713,37.402038],[41.873968,37.412081],[41.866608,37.409804],[41.856617,37.416228],[41.851352,37.424824],[41.858435,37.429869],[41.845833,37.443091],[41.860157,37.457466],[41.848524,37.466541],[41.855792,37.477796],[41.854515,37.494175],[41.837944,37.518962],[41.854205,37.529281],[41.852521,37.552735],[41.866558,37.547527],[41.88949,37.555771],[41.896234,37.579133],[41.876875,37.592469],[41.875844,37.603301],[41.869087,37.608903],[41.830631,37.624802],[41.836586,37.637642],[41.824014,37.645851],[41.825226,37.659926],[41.813978,37.693304],[41.797094,37.68105],[41.782474,37.683733],[41.778849,37.675522],[41.765361,37.668392],[41.745808,37.66821],[41.728219,37.681348],[41.710599,37.694106],[41.70297,37.66809],[41.716774,37.645454],[41.69454,37.636208],[41.688356,37.605762],[41.680925,37.60891],[41.682528,37.626556],[41.677283,37.627525],[41.684501,37.636859],[41.664697,37.639126],[41.65103,37.620495],[41.648009,37.601237],[41.630325,37.599834],[41.621044,37.58319],[41.614179,37.583762],[41.617807,37.575697],[41.595089,37.565797],[41.602951,37.56116],[41.586089,37.553803],[41.567708,37.533518],[41.568631,37.526458],[41.557835,37.526534]]],"type":"Polygon"}},{"type":"Feature","properties":{"area_id":"TR-47-010","name_tr":"Yeşilli","area_level":"district","parent_id":"TR-47","endeksa_id":2002},"geometry":{"coordinates":[[[40.788568,37.412339],[40.802509,37.406252],[40.814973,37.411452],[40.817856,37.40611],[40.826669,37.410351],[40.830523,37.406833],[40.833314,37.413921],[40.840747,37.390043],[40.832462,37.370148],[40.827126,37.368592],[40.826899,37.353911],[40.81107,37.351726],[40.812469,37.346871],[40.805011,37.343172],[40.809542,37.335302],[40.805123,37.324106],[40.813356,37.330234],[40.815033,37.325401],[40.809672,37.312699],[40.821373,37.311747],[40.824942,37.301895],[40.821154,37.294455],[40.829914,37.290204],[40.821152,37.256155],[40.812338,37.25931],[40.793815,37.243275],[40.791922,37.237937],[40.805586,37.24034],[40.807848,37.230482],[40.815373,37.232262],[40.799267,37.212237],[40.836591,37.190975],[40.841877,37.19994],[40.83767,37.207833],[40.849784,37.223324],[40.909546,37.225853],[40.920828,37.233609],[40.925693,37.246627],[40.948586,37.251851],[40.956267,37.260668],[40.955026,37.27055],[40.960594,37.270007],[40.961562,37.27407],[40.938174,37.275318],[40.898714,37.270347],[40.902371,37.27914],[40.908643,37.278282],[40.910292,37.288476],[40.905496,37.292512],[40.912335,37.298482],[40.902286,37.307013],[40.903141,37.326388],[40.89293,37.341625],[40.854864,37.342679],[40.864817,37.365453],[40.85665,37.371782],[40.848043,37.367741],[40.842256,37.380514],[40.845511,37.391102],[40.841185,37.404012],[40.846522,37.408651],[40.874738,37.409296],[40.875401,37.417858],[40.886721,37.427824],[40.865721,37.447007],[40.86175,37.441516],[40.853394,37.445757],[40.831007,37.445509],[40.819657,37.437162],[40.815743,37.421052],[40.788568,37.412339]]],"type":"Polygon"}}]}