{"type":"FeatureCollection","area_id":"TR-52","name_tr":"Ordu","source_id":"endeksa","licence":null,"retrieved_at":"2026-08-23","features":[{"type":"Feature","properties":{"area_id":"TR-52-001","name_tr":"Akkuş","area_level":"district","parent_id":"TR-52","endeksa_id":1119},"geometry":{"coordinates":[[[36.684027,40.887571],[36.682844,40.882263],[36.689427,40.885506],[36.695024,40.880243],[36.689299,40.87239],[36.703606,40.858984],[36.69257,40.853236],[36.695543,40.848925],[36.742428,40.833891],[36.785262,40.832593],[36.78394,40.81632],[36.789686,40.809208],[36.784268,40.799899],[36.798398,40.792658],[36.801001,40.781745],[36.811875,40.784537],[36.813243,40.790481],[36.842706,40.781153],[36.849416,40.78684],[36.859022,40.77725],[36.864781,40.778882],[36.866368,40.772451],[36.872793,40.77321],[36.847993,40.760358],[36.840053,40.740372],[36.820971,40.728967],[36.827674,40.719683],[36.859889,40.721264],[36.879063,40.714619],[36.890146,40.720278],[36.898201,40.744058],[36.91933,40.738789],[36.928664,40.726029],[36.932032,40.731281],[36.951917,40.732785],[36.945873,40.702924],[36.951372,40.68874],[36.970909,40.669755],[36.985137,40.672436],[36.995762,40.691028],[37.036009,40.693331],[37.041566,40.703127],[37.044503,40.698289],[37.059415,40.701599],[37.058547,40.705445],[37.073927,40.701424],[37.083911,40.71025],[37.091808,40.707527],[37.09166,40.721946],[37.102376,40.728486],[37.105909,40.745145],[37.121922,40.738755],[37.11502,40.747502],[37.123193,40.76875],[37.137266,40.790719],[37.14849,40.79377],[37.1456,40.798856],[37.152297,40.805692],[37.147609,40.824498],[37.156626,40.829003],[37.163194,40.828733],[37.170665,40.833993],[37.165968,40.831533],[37.163339,40.836938],[37.167404,40.844824],[37.165445,40.855978],[37.158792,40.860013],[37.160198,40.877453],[37.103562,40.881511],[37.09889,40.89243],[37.088099,40.887917],[37.078037,40.895302],[37.080724,40.901597],[37.071487,40.906298],[37.062547,40.905531],[37.058826,40.893905],[37.04159,40.896138],[37.030389,40.881568],[37.021538,40.887531],[37.028341,40.907084],[37.017186,40.922224],[37.014563,40.907541],[36.997204,40.894369],[36.985892,40.89706],[36.971442,40.887132],[36.953373,40.886758],[36.949977,40.891753],[36.946937,40.887502],[36.92951,40.887844],[36.916843,40.893967],[36.917916,40.918507],[36.927813,40.929126],[36.912464,40.934034],[36.905091,40.938973],[36.907547,40.9483],[36.897032,40.959345],[36.885241,40.947049],[36.85198,40.944526],[36.852657,40.919559],[36.799884,40.921021],[36.781264,40.929313],[36.75928,40.913439],[36.736651,40.913814],[36.70834,40.905061],[36.684027,40.887571]]],"type":"Polygon"}},{"type":"Feature","properties":{"area_id":"TR-52-003","name_tr":"Aybastı","area_level":"district","parent_id":"TR-52","endeksa_id":1158},"geometry":{"coordinates":[[[37.268723,40.627616],[37.273719,40.620554],[37.269431,40.602502],[37.282572,40.593894],[37.288852,40.597696],[37.292238,40.587816],[37.304948,40.593299],[37.31346,40.586191],[37.327903,40.588951],[37.348864,40.581782],[37.357459,40.572993],[37.367343,40.584398],[37.372841,40.568007],[37.367025,40.559655],[37.386702,40.557128],[37.385837,40.549565],[37.393052,40.544153],[37.41861,40.544916],[37.443555,40.566419],[37.451756,40.55673],[37.47111,40.550399],[37.478689,40.56502],[37.466335,40.589669],[37.452171,40.5999],[37.467584,40.620849],[37.456978,40.641691],[37.474102,40.644493],[37.474846,40.662424],[37.479269,40.66529],[37.474364,40.682761],[37.4808,40.687882],[37.470351,40.689965],[37.463882,40.706783],[37.448106,40.704883],[37.447735,40.719051],[37.43956,40.729763],[37.423265,40.713518],[37.406471,40.734878],[37.382713,40.745025],[37.371304,40.732542],[37.349436,40.731598],[37.345884,40.721601],[37.327343,40.708249],[37.319579,40.704531],[37.325476,40.700345],[37.327813,40.684975],[37.307147,40.67006],[37.299295,40.653897],[37.289723,40.649973],[37.2914,40.64032],[37.276685,40.637524],[37.268723,40.627616]]],"type":"Polygon"}},{"type":"Feature","properties":{"area_id":"TR-52-007","name_tr":"Fatsa","area_level":"district","parent_id":"TR-52","endeksa_id":1328},"geometry":{"coordinates":[[[37.292321,40.969476],[37.298386,40.958772],[37.291524,40.951168],[37.299066,40.941294],[37.297742,40.934468],[37.323525,40.946713],[37.350245,40.946567],[37.348794,40.935369],[37.33404,40.925159],[37.369482,40.89687],[37.335219,40.88659],[37.329761,40.878989],[37.345567,40.862459],[37.361254,40.862502],[37.366278,40.867261],[37.378258,40.85833],[37.390928,40.860627],[37.395998,40.861966],[37.397642,40.874207],[37.411664,40.878958],[37.41152,40.887169],[37.424855,40.903087],[37.415478,40.918846],[37.440846,40.916275],[37.447715,40.924072],[37.441061,40.92887],[37.44798,40.932608],[37.467868,40.932433],[37.477708,40.923485],[37.489169,40.927832],[37.483968,40.933685],[37.497502,40.942515],[37.50585,40.954464],[37.503869,40.959669],[37.513885,40.959451],[37.537155,40.949478],[37.548106,40.934625],[37.577427,40.922959],[37.574797,40.909241],[37.586401,40.889268],[37.596752,40.890244],[37.598325,40.898486],[37.600475,40.892249],[37.618153,40.89351],[37.631773,40.916673],[37.643922,40.901268],[37.652935,40.899165],[37.652288,40.887106],[37.659824,40.886529],[37.664894,40.896406],[37.672862,40.896317],[37.668548,40.915654],[37.649815,40.915991],[37.657408,40.946576],[37.649449,40.943825],[37.638945,40.949739],[37.640827,40.968827],[37.648684,40.976724],[37.645273,40.980681],[37.653068,40.986137],[37.649625,40.994873],[37.677978,41.005296],[37.657665,41.013171],[37.631242,41.005255],[37.644782,41.021661],[37.637742,41.026455],[37.636132,41.041176],[37.6262,41.046912],[37.647789,41.055103],[37.638199,41.063437],[37.615761,41.066351],[37.61575,41.066326],[37.615839,41.065961],[37.615025,41.064279],[37.614307,41.063894],[37.61467,41.062552],[37.615162,41.060263],[37.614282,41.058673],[37.61307,41.053587],[37.61308,41.052336],[37.612684,41.052542],[37.608426,41.051357],[37.6125,41.052147],[37.612727,41.051664],[37.612303,41.051777],[37.612293,41.05176],[37.612682,41.051599],[37.611718,41.050842],[37.610084,41.04867],[37.610019,41.048493],[37.609712,41.048233],[37.599724,41.041604],[37.597771,41.040436],[37.596209,41.0395],[37.594937,41.038738],[37.594498,41.038475],[37.594243,41.036901],[37.591869,41.03691],[37.587136,41.037021],[37.591483,41.036685],[37.591139,41.035972],[37.589447,41.035575],[37.578872,41.031138],[37.576298,41.030104],[37.567714,41.027687],[37.557524,41.025458],[37.557239,41.025384],[37.55719,41.025371],[37.54435,41.022525],[37.539492,41.021387],[37.536125,41.021214],[37.536091,41.021396],[37.502465,41.031741],[37.49134,41.04513],[37.489156,41.042184],[37.487398,41.042501],[37.486701,41.04509],[37.49322,41.04651],[37.482832,41.04971],[37.481195,41.050714],[37.48135,41.051581],[37.479055,41.063245],[37.465658,41.06981],[37.446801,41.074941],[37.442496,41.076818],[37.441853,41.076262],[37.44004,41.065861],[37.414889,41.054053],[37.40356,41.03304],[37.414455,41.030701],[37.416177,41.021343],[37.398339,41.0206],[37.38558,41.007703],[37.392996,40.996133],[37.387877,40.991932],[37.399475,40.979988],[37.389017,40.96686],[37.364133,40.95944],[37.338875,40.967075],[37.299515,40.969195],[37.299331,40.97291],[37.292321,40.969476]]],"type":"Polygon"}},{"type":"Feature","properties":{"area_id":"TR-52-008","name_tr":"Gölköy","area_level":"district","parent_id":"TR-52","endeksa_id":1358},"geometry":{"coordinates":[[[37.494957,40.769072],[37.498916,40.761022],[37.511171,40.755776],[37.512154,40.739091],[37.517169,40.738168],[37.496148,40.722177],[37.486173,40.721013],[37.484223,40.709734],[37.471669,40.711964],[37.463882,40.706783],[37.470351,40.689965],[37.4808,40.687882],[37.474364,40.682761],[37.479269,40.66529],[37.474846,40.662424],[37.474102,40.644493],[37.456978,40.641691],[37.467584,40.620849],[37.452171,40.5999],[37.466335,40.589669],[37.478689,40.56502],[37.47111,40.550399],[37.482466,40.540176],[37.489229,40.546627],[37.518865,40.53221],[37.528776,40.53935],[37.536854,40.533033],[37.541164,40.539062],[37.55295,40.53494],[37.581187,40.566575],[37.605797,40.57554],[37.609202,40.603671],[37.647301,40.606182],[37.65451,40.611108],[37.656441,40.623614],[37.668735,40.623948],[37.666752,40.627408],[37.69182,40.63656],[37.696344,40.644514],[37.69337,40.654755],[37.735446,40.653695],[37.741765,40.661044],[37.735271,40.671061],[37.738001,40.686897],[37.754393,40.688131],[37.762623,40.699578],[37.750557,40.71655],[37.72035,40.737053],[37.714013,40.75627],[37.696315,40.765026],[37.674242,40.766322],[37.682797,40.7843],[37.664182,40.769182],[37.650701,40.765276],[37.646434,40.773383],[37.634675,40.769401],[37.624296,40.753563],[37.623108,40.758082],[37.610499,40.755426],[37.583734,40.74373],[37.572075,40.751184],[37.555234,40.740343],[37.515758,40.743814],[37.528364,40.759932],[37.534262,40.757659],[37.54122,40.765842],[37.534263,40.774329],[37.516657,40.776429],[37.494957,40.769072]]],"type":"Polygon"}},{"type":"Feature","properties":{"area_id":"TR-52-014","name_tr":"Korgan","area_level":"district","parent_id":"TR-52","endeksa_id":1482},"geometry":{"coordinates":[[[37.197369,40.771303],[37.199359,40.763973],[37.20749,40.764066],[37.194784,40.745159],[37.193132,40.725767],[37.178724,40.716153],[37.189677,40.706759],[37.187866,40.685641],[37.223611,40.673741],[37.225532,40.667581],[37.240679,40.668481],[37.22996,40.657257],[37.246716,40.645719],[37.241308,40.633672],[37.24789,40.622663],[37.24084,40.613344],[37.257338,40.608213],[37.2685,40.61949],[37.268723,40.627616],[37.276685,40.637524],[37.2914,40.64032],[37.289723,40.649973],[37.299295,40.653897],[37.307147,40.67006],[37.299109,40.67374],[37.300882,40.69694],[37.31022,40.697066],[37.31504,40.702238],[37.329362,40.709716],[37.329103,40.724456],[37.342801,40.734497],[37.351437,40.734293],[37.359139,40.760581],[37.395033,40.768339],[37.39972,40.781596],[37.407359,40.781927],[37.414827,40.795197],[37.431076,40.826624],[37.418029,40.839067],[37.417601,40.850054],[37.399576,40.852874],[37.390928,40.860627],[37.378258,40.85833],[37.366278,40.867261],[37.361254,40.862502],[37.331165,40.836114],[37.306066,40.833915],[37.304403,40.820279],[37.286333,40.819611],[37.2793,40.804261],[37.255989,40.78486],[37.22879,40.78345],[37.224822,40.789279],[37.212981,40.784131],[37.197369,40.771303]]],"type":"Polygon"}},{"type":"Feature","properties":{"area_id":"TR-52-015","name_tr":"Kumru","area_level":"district","parent_id":"TR-52","endeksa_id":1493},"geometry":{"coordinates":[[[37.160198,40.877453],[37.158792,40.860013],[37.165445,40.855978],[37.167404,40.844824],[37.163339,40.836938],[37.165968,40.831533],[37.170665,40.833993],[37.163194,40.828733],[37.156626,40.829003],[37.147609,40.824498],[37.152297,40.805692],[37.1456,40.798856],[37.14849,40.79377],[37.137266,40.790719],[37.123193,40.76875],[37.11502,40.747502],[37.121922,40.738755],[37.134917,40.736859],[37.150837,40.708454],[37.164385,40.70707],[37.178724,40.716153],[37.193132,40.725767],[37.194784,40.745159],[37.20749,40.764066],[37.199359,40.763973],[37.197369,40.771303],[37.212981,40.784131],[37.224822,40.789279],[37.22879,40.78345],[37.255989,40.78486],[37.2793,40.804261],[37.286333,40.819611],[37.304403,40.820279],[37.306066,40.833915],[37.331165,40.836114],[37.361254,40.862502],[37.345567,40.862459],[37.329761,40.878989],[37.335219,40.88659],[37.369482,40.89687],[37.33404,40.925159],[37.348794,40.935369],[37.350245,40.946567],[37.323525,40.946713],[37.297742,40.934468],[37.299066,40.941294],[37.291524,40.951168],[37.298386,40.958772],[37.292321,40.969476],[37.299331,40.97291],[37.291357,40.986998],[37.289633,40.982284],[37.267856,40.977728],[37.249855,40.983322],[37.241641,40.95866],[37.249474,40.951383],[37.227119,40.925076],[37.221889,40.901562],[37.226485,40.896306],[37.209271,40.896698],[37.203409,40.885348],[37.187832,40.879503],[37.160198,40.877453]]],"type":"Polygon"}},{"type":"Feature","properties":{"area_id":"TR-52-016","name_tr":"Mesudiye","area_level":"district","parent_id":"TR-52","endeksa_id":1525},"geometry":{"coordinates":[[[37.55295,40.53494],[37.595003,40.52751],[37.601963,40.521489],[37.613053,40.528558],[37.622015,40.525835],[37.619866,40.511491],[37.597461,40.49559],[37.59672,40.488701],[37.604221,40.481388],[37.565396,40.420474],[37.578542,40.390476],[37.593621,40.378972],[37.651454,40.362368],[37.662458,40.353254],[37.664098,40.342147],[37.695348,40.335141],[37.70126,40.338015],[37.72219,40.331031],[37.737498,40.349763],[37.770248,40.355304],[37.773573,40.359261],[37.764447,40.365054],[37.762518,40.384774],[37.756371,40.385603],[37.77645,40.39037],[37.795193,40.385597],[37.812198,40.370192],[37.816437,40.357599],[37.839121,40.343316],[37.874799,40.340921],[37.880534,40.343968],[37.892649,40.376415],[37.9247,40.388365],[37.916081,40.407428],[37.945466,40.418779],[37.937019,40.425705],[37.929839,40.455187],[37.944506,40.474364],[37.941932,40.487701],[37.952709,40.494893],[37.968478,40.483387],[37.997395,40.482749],[38.005155,40.496144],[38.022712,40.502779],[38.023668,40.510424],[38.012955,40.522521],[37.973818,40.520309],[37.981063,40.529389],[37.994258,40.529267],[37.967227,40.544297],[37.974663,40.555939],[37.97118,40.568063],[37.954063,40.559455],[37.94948,40.551022],[37.94288,40.574822],[37.949107,40.578945],[37.92598,40.578305],[37.911443,40.585831],[37.903499,40.598406],[37.892062,40.59678],[37.895864,40.605467],[37.886324,40.613418],[37.890735,40.626879],[37.878359,40.644841],[37.830247,40.665312],[37.822995,40.687587],[37.834726,40.683486],[37.832098,40.693672],[37.86089,40.71413],[37.860551,40.732966],[37.85412,40.727158],[37.82887,40.73202],[37.818317,40.725605],[37.793215,40.722931],[37.776305,40.715503],[37.762623,40.699578],[37.754393,40.688131],[37.738001,40.686897],[37.735271,40.671061],[37.741765,40.661044],[37.735446,40.653695],[37.69337,40.654755],[37.696344,40.644514],[37.69182,40.63656],[37.666752,40.627408],[37.668735,40.623948],[37.656441,40.623614],[37.65451,40.611108],[37.647301,40.606182],[37.609202,40.603671],[37.605797,40.57554],[37.581187,40.566575],[37.55295,40.53494]]],"type":"Polygon"}},{"type":"Feature","properties":{"area_id":"TR-52-002","name_tr":"Altınordu","area_level":"district","parent_id":"TR-52","endeksa_id":2103},"geometry":{"coordinates":[[[37.676204,40.950258],[37.689939,40.931143],[37.673673,40.914322],[37.692524,40.902401],[37.710027,40.898236],[37.72269,40.911309],[37.733613,40.913989],[37.754018,40.90818],[37.774451,40.918118],[37.80332,40.915582],[37.803345,40.907044],[37.812877,40.905003],[37.814372,40.898867],[37.826624,40.899064],[37.82738,40.881731],[37.836199,40.874206],[37.831998,40.865248],[37.836712,40.863053],[37.804979,40.855227],[37.825626,40.837054],[37.829673,40.813139],[37.865582,40.801923],[37.867678,40.796502],[37.877077,40.7976],[37.871522,40.801429],[37.87864,40.813335],[37.856147,40.827325],[37.854854,40.841025],[37.875592,40.871778],[37.893112,40.879284],[37.904185,40.891482],[37.934847,40.86063],[37.935084,40.845599],[37.919819,40.832387],[37.928705,40.833186],[37.937362,40.848493],[37.947988,40.836111],[37.934244,40.829307],[37.933599,40.818464],[37.925448,40.816101],[37.926208,40.798932],[37.936406,40.799428],[37.943013,40.779035],[37.949707,40.776143],[37.953941,40.777703],[37.950629,40.788079],[37.974857,40.785936],[37.980013,40.774329],[37.990447,40.768544],[37.989343,40.763374],[38.045353,40.784008],[38.01784,40.792838],[38.019435,40.798887],[38.007423,40.817788],[38.014705,40.831505],[38.012439,40.846156],[38.020112,40.846751],[38.021584,40.859808],[38.031012,40.867856],[38.02124,40.87834],[38.028798,40.89974],[38.034669,40.90961],[38.029808,40.933746],[38.014627,40.936102],[38.012289,40.948783],[38.007561,40.952617],[38.007417,40.947142],[38.00064,40.955691],[37.98432,40.953666],[37.970299,40.980937],[37.971083,40.981573],[37.931944,40.986815],[37.901928,40.984206],[37.901188,40.984217],[37.87737,40.987979],[37.876211,40.988709],[37.875989,40.990272],[37.87938,40.99732],[37.872871,40.999128],[37.8724,40.999979],[37.872463,41.000609],[37.871666,41.003731],[37.870606,41.005967],[37.871148,41.006564],[37.871144,41.006595],[37.870639,41.007483],[37.870975,41.008863],[37.871021,41.00959],[37.870871,41.009642],[37.869326,41.012141],[37.869537,41.012208],[37.869144,41.012293],[37.866094,41.014437],[37.86536,41.015356],[37.865168,41.014936],[37.857525,41.016573],[37.857304,41.016586],[37.856509,41.016632],[37.856474,41.016634],[37.856213,41.016649],[37.831679,41.020704],[37.830928,41.020132],[37.825709,41.005655],[37.803578,40.986156],[37.79647,40.989668],[37.796045,40.984742],[37.783388,40.985201],[37.77926,40.989433],[37.773623,40.980987],[37.762174,40.98492],[37.755478,40.977162],[37.72722,40.97482],[37.71156,40.984488],[37.705271,40.974261],[37.696108,40.97795],[37.68853,40.97291],[37.676204,40.950258]]],"type":"Polygon"}},{"type":"Feature","properties":{"area_id":"TR-52-017","name_tr":"Perşembe","area_level":"district","parent_id":"TR-52","endeksa_id":1573},"geometry":{"coordinates":[[[37.615411,41.066218],[37.615618,41.06601],[37.615839,41.065961],[37.61575,41.066326],[37.615761,41.066351],[37.638199,41.063437],[37.647789,41.055103],[37.6262,41.046912],[37.636132,41.041176],[37.637742,41.026455],[37.644782,41.021661],[37.631242,41.005255],[37.657665,41.013171],[37.677978,41.005296],[37.649625,40.994873],[37.653068,40.986137],[37.645273,40.980681],[37.648684,40.976724],[37.640827,40.968827],[37.638945,40.949739],[37.649449,40.943825],[37.657408,40.946576],[37.649815,40.915991],[37.668548,40.915654],[37.672862,40.896317],[37.673207,40.895829],[37.680294,40.90519],[37.692524,40.902401],[37.673673,40.914322],[37.689939,40.931143],[37.676204,40.950258],[37.68853,40.97291],[37.696108,40.97795],[37.705271,40.974261],[37.71156,40.984488],[37.72722,40.97482],[37.755478,40.977162],[37.762174,40.98492],[37.773623,40.980987],[37.77926,40.989433],[37.783388,40.985201],[37.796045,40.984742],[37.79647,40.989668],[37.803578,40.986156],[37.825709,41.005655],[37.830928,41.020132],[37.831679,41.020704],[37.803563,41.029076],[37.802223,41.031031],[37.802895,41.034018],[37.802921,41.035603],[37.802179,41.035896],[37.801985,41.036188],[37.80152,41.036957],[37.800503,41.037935],[37.798982,41.039499],[37.798064,41.041782],[37.790396,41.047086],[37.790288,41.047166],[37.788794,41.048273],[37.787496,41.049183],[37.786813,41.049815],[37.774974,41.064089],[37.774308,41.06496],[37.774484,41.065189],[37.773086,41.07003],[37.772445,41.071875],[37.772864,41.073204],[37.773235,41.075946],[37.773109,41.076576],[37.773762,41.077468],[37.774122,41.078293],[37.774523,41.07915],[37.77591,41.081686],[37.776049,41.082929],[37.777563,41.083468],[37.777681,41.081599],[37.777968,41.083885],[37.786648,41.105629],[37.786861,41.106297],[37.787406,41.115421],[37.786789,41.116322],[37.784598,41.115787],[37.77783,41.114195],[37.768459,41.114013],[37.764055,41.116938],[37.763293,41.11715],[37.761661,41.117132],[37.761045,41.11794],[37.759964,41.118642],[37.758977,41.11865],[37.758882,41.118679],[37.75796,41.119259],[37.756497,41.119082],[37.754123,41.119126],[37.75105,41.119278],[37.7507,41.118865],[37.749949,41.118706],[37.744645,41.117298],[37.741852,41.117374],[37.739365,41.116967],[37.72892,41.115233],[37.708668,41.113614],[37.707945,41.113611],[37.706812,41.113785],[37.704365,41.114126],[37.701451,41.115091],[37.701256,41.115503],[37.69844,41.117841],[37.697021,41.118405],[37.695985,41.12116],[37.695226,41.123313],[37.695151,41.12462],[37.693467,41.125027],[37.692732,41.125585],[37.692587,41.126298],[37.691978,41.126137],[37.682319,41.13264],[37.682702,41.136011],[37.678867,41.131098],[37.677043,41.129144],[37.674924,41.127734],[37.668739,41.123747],[37.668675,41.123692],[37.667297,41.123164],[37.665751,41.123122],[37.665102,41.123188],[37.664817,41.12294],[37.661748,41.121747],[37.66136,41.121675],[37.661379,41.121559],[37.657296,41.118379],[37.654552,41.116352],[37.653862,41.114402],[37.650986,41.106596],[37.648513,41.103663],[37.648443,41.103576],[37.647175,41.101994],[37.647111,41.101915],[37.646999,41.101774],[37.64666,41.101352],[37.646432,41.101067],[37.643734,41.099439],[37.642786,41.096508],[37.642212,41.095789],[37.6361,41.088702],[37.636009,41.088608],[37.635321,41.087896],[37.633178,41.085678],[37.628887,41.081313],[37.628767,41.080628],[37.627748,41.080303],[37.627167,41.079829],[37.626892,41.079609],[37.625041,41.07817],[37.624464,41.07772],[37.622715,41.076583],[37.622724,41.076282],[37.621486,41.074986],[37.621452,41.074947],[37.61929,41.072029],[37.617799,41.070617],[37.617748,41.06973],[37.616202,41.067249],[37.615411,41.066218]]],"type":"Polygon"}},{"type":"Feature","properties":{"area_id":"TR-52-018","name_tr":"Ulubey","area_level":"district","parent_id":"TR-52","endeksa_id":1696},"geometry":{"coordinates":[[[37.629392,40.854423],[37.633186,40.845516],[37.640933,40.844556],[37.634641,40.840013],[37.642614,40.817327],[37.655953,40.812377],[37.646631,40.805517],[37.651225,40.795514],[37.655105,40.792752],[37.674418,40.802274],[37.682797,40.7843],[37.674242,40.766322],[37.696315,40.765026],[37.714013,40.75627],[37.72035,40.737053],[37.750557,40.71655],[37.762623,40.699578],[37.776305,40.715503],[37.793215,40.722931],[37.818317,40.725605],[37.82887,40.73202],[37.85412,40.727158],[37.860551,40.732966],[37.865205,40.745364],[37.876323,40.753836],[37.872453,40.76598],[37.865571,40.76747],[37.875746,40.778019],[37.871536,40.77855],[37.873376,40.790468],[37.867678,40.796502],[37.865582,40.801923],[37.829673,40.813139],[37.825626,40.837054],[37.804979,40.855227],[37.836712,40.863053],[37.831998,40.865248],[37.836199,40.874206],[37.82738,40.881731],[37.826624,40.899064],[37.814372,40.898867],[37.812877,40.905003],[37.803345,40.907044],[37.80332,40.915582],[37.774451,40.918118],[37.754018,40.90818],[37.733613,40.913989],[37.72269,40.911309],[37.710027,40.898236],[37.692524,40.902401],[37.680294,40.90519],[37.673207,40.895829],[37.684727,40.87686],[37.677119,40.857976],[37.658512,40.854803],[37.652646,40.860442],[37.634141,40.861983],[37.629392,40.854423]]],"type":"Polygon"}},{"type":"Feature","properties":{"area_id":"TR-52-019","name_tr":"Ünye","area_level":"district","parent_id":"TR-52","endeksa_id":1706},"geometry":{"coordinates":[[[37.017186,40.922224],[37.028341,40.907084],[37.021538,40.887531],[37.030389,40.881568],[37.04159,40.896138],[37.058826,40.893905],[37.062547,40.905531],[37.071487,40.906298],[37.080724,40.901597],[37.078037,40.895302],[37.088099,40.887917],[37.09889,40.89243],[37.103562,40.881511],[37.160198,40.877453],[37.187832,40.879503],[37.203409,40.885348],[37.209271,40.896698],[37.226485,40.896306],[37.221889,40.901562],[37.227119,40.925076],[37.249474,40.951383],[37.241641,40.95866],[37.249855,40.983322],[37.267856,40.977728],[37.289633,40.982284],[37.291357,40.986998],[37.299331,40.97291],[37.299515,40.969195],[37.338875,40.967075],[37.364133,40.95944],[37.389017,40.96686],[37.399475,40.979988],[37.387877,40.991932],[37.392996,40.996133],[37.38558,41.007703],[37.398339,41.0206],[37.416177,41.021343],[37.414455,41.030701],[37.40356,41.03304],[37.414889,41.054053],[37.44004,41.065861],[37.441853,41.076262],[37.442496,41.076818],[37.421564,41.079609],[37.420243,41.080359],[37.419375,41.081509],[37.419392,41.081592],[37.412163,41.088775],[37.409752,41.09119],[37.409937,41.091497],[37.407972,41.094856],[37.401625,41.099634],[37.398005,41.102291],[37.397002,41.103063],[37.395876,41.103473],[37.389664,41.105687],[37.386077,41.107151],[37.383923,41.107443],[37.375691,41.106794],[37.374743,41.106834],[37.367459,41.107212],[37.366583,41.107213],[37.36526,41.107348],[37.358429,41.108047],[37.357767,41.108115],[37.357478,41.10823],[37.350281,41.10976],[37.347485,41.110098],[37.345698,41.110852],[37.34887,41.116532],[37.332137,41.115079],[37.325474,41.114996],[37.320053,41.115591],[37.311697,41.117115],[37.304941,41.118989],[37.294811,41.123278],[37.293133,41.124114],[37.292176,41.125181],[37.292107,41.125568],[37.28778,41.133872],[37.287902,41.134298],[37.288206,41.134345],[37.291235,41.136424],[37.29452,41.140462],[37.295129,41.141294],[37.294791,41.141709],[37.293153,41.144079],[37.292614,41.145275],[37.290758,41.144708],[37.28794,41.144942],[37.287837,41.144949],[37.285063,41.145103],[37.284687,41.145124],[37.284022,41.145161],[37.280621,41.145956],[37.278147,41.145445],[37.260898,41.146035],[37.260661,41.146042],[37.257723,41.146067],[37.252693,41.146391],[37.250483,41.145795],[37.244953,41.145509],[37.243477,41.145432],[37.233652,41.144866],[37.229395,41.14482],[37.169245,41.147658],[37.168879,41.14595],[37.15748,41.13568],[37.163806,41.125544],[37.161285,41.120183],[37.149019,41.118143],[37.146976,41.109629],[37.13105,41.103909],[37.123781,41.09264],[37.108405,41.087038],[37.091996,41.062714],[37.104994,41.07491],[37.116797,41.074683],[37.111854,41.069241],[37.115827,41.063036],[37.107794,41.062278],[37.126141,41.056855],[37.116098,41.027039],[37.126598,41.021528],[37.121168,41.017009],[37.125476,41.011535],[37.118275,40.988231],[37.098651,40.969307],[37.034143,40.945167],[37.017186,40.922224]]],"type":"Polygon"}},{"type":"Feature","properties":{"area_id":"TR-52-009","name_tr":"Gülyalı","area_level":"district","parent_id":"TR-52","endeksa_id":1795},"geometry":{"coordinates":[[[37.970299,40.980937],[37.98432,40.953666],[38.00064,40.955691],[38.007417,40.947142],[38.007561,40.952617],[38.012289,40.948783],[38.014627,40.936102],[38.029808,40.933746],[38.034669,40.90961],[38.028798,40.89974],[38.031981,40.902844],[38.052085,40.893061],[38.078681,40.899351],[38.080601,40.914932],[38.099265,40.927764],[38.101413,40.93946],[38.115966,40.957894],[38.116328,40.958201],[38.09797,40.963364],[38.1146,40.96226],[38.108194,40.966366],[38.05785,40.97138],[38.074103,40.966881],[38.06999,40.965841],[38.06201,40.967842],[38.060544,40.970034],[38.058582,40.968434],[38.052742,40.967749],[38.046451,40.969478],[38.025586,40.974079],[38.022872,40.974724],[38.013609,40.976926],[38.005022,40.978695],[37.999254,40.980611],[37.971083,40.981573],[37.970299,40.980937]]],"type":"Polygon"}},{"type":"Feature","properties":{"area_id":"TR-52-010","name_tr":"Gürgentepe","area_level":"district","parent_id":"TR-52","endeksa_id":1797},"geometry":{"coordinates":[[[37.457993,40.840798],[37.459374,40.813168],[37.477601,40.793386],[37.476791,40.786435],[37.494957,40.769072],[37.516657,40.776429],[37.534263,40.774329],[37.54122,40.765842],[37.534262,40.757659],[37.528364,40.759932],[37.515758,40.743814],[37.555234,40.740343],[37.572075,40.751184],[37.583734,40.74373],[37.610499,40.755426],[37.623108,40.758082],[37.624296,40.753563],[37.634675,40.769401],[37.646434,40.773383],[37.650701,40.765276],[37.664182,40.769182],[37.682797,40.7843],[37.674418,40.802274],[37.655105,40.792752],[37.651225,40.795514],[37.646631,40.805517],[37.655953,40.812377],[37.642614,40.817327],[37.634641,40.840013],[37.640933,40.844556],[37.633186,40.845516],[37.629392,40.854423],[37.634141,40.861983],[37.652646,40.860442],[37.658512,40.854803],[37.677119,40.857976],[37.684727,40.87686],[37.673207,40.895829],[37.672862,40.896317],[37.664894,40.896406],[37.659824,40.886529],[37.652288,40.887106],[37.652935,40.899165],[37.643922,40.901268],[37.631773,40.916673],[37.618153,40.89351],[37.600475,40.892249],[37.598325,40.898486],[37.596752,40.890244],[37.586401,40.889268],[37.58042,40.883938],[37.583447,40.880052],[37.573394,40.878153],[37.57402,40.865377],[37.584136,40.863112],[37.581073,40.847876],[37.572977,40.844767],[37.565855,40.852427],[37.561258,40.849168],[37.563292,40.841486],[37.552776,40.835511],[37.542141,40.831708],[37.53389,40.839011],[37.517917,40.82805],[37.514079,40.83718],[37.502374,40.842916],[37.488267,40.8366],[37.457993,40.840798]]],"type":"Polygon"}},{"type":"Feature","properties":{"area_id":"TR-52-004","name_tr":"Çamaş","area_level":"district","parent_id":"TR-52","endeksa_id":1891},"geometry":{"coordinates":[[[37.477708,40.923485],[37.469569,40.905871],[37.490193,40.898484],[37.493023,40.881758],[37.500629,40.877335],[37.485279,40.873688],[37.489996,40.863866],[37.507073,40.852634],[37.491939,40.852492],[37.502374,40.842916],[37.514079,40.83718],[37.517917,40.82805],[37.53389,40.839011],[37.542141,40.831708],[37.552776,40.835511],[37.563292,40.841486],[37.561258,40.849168],[37.565855,40.852427],[37.572977,40.844767],[37.581073,40.847876],[37.584136,40.863112],[37.57402,40.865377],[37.573394,40.878153],[37.583447,40.880052],[37.58042,40.883938],[37.586401,40.889268],[37.574797,40.909241],[37.577427,40.922959],[37.548106,40.934625],[37.537155,40.949478],[37.513885,40.959451],[37.503869,40.959669],[37.50585,40.954464],[37.497502,40.942515],[37.483968,40.933685],[37.489169,40.927832],[37.477708,40.923485]]],"type":"Polygon"}},{"type":"Feature","properties":{"area_id":"TR-52-005","name_tr":"Çatalpınar","area_level":"district","parent_id":"TR-52","endeksa_id":1897},"geometry":{"coordinates":[[[37.415478,40.918846],[37.424855,40.903087],[37.41152,40.887169],[37.411664,40.878958],[37.397642,40.874207],[37.395998,40.861966],[37.390928,40.860627],[37.399576,40.852874],[37.417601,40.850054],[37.418029,40.839067],[37.431076,40.826624],[37.414827,40.795197],[37.429225,40.792193],[37.422538,40.791253],[37.424242,40.786472],[37.438329,40.791602],[37.446857,40.780204],[37.443124,40.776531],[37.454229,40.768608],[37.463019,40.781796],[37.476791,40.786435],[37.477601,40.793386],[37.459374,40.813168],[37.457993,40.840798],[37.488267,40.8366],[37.502374,40.842916],[37.491939,40.852492],[37.507073,40.852634],[37.489996,40.863866],[37.485279,40.873688],[37.500629,40.877335],[37.493023,40.881758],[37.490193,40.898484],[37.469569,40.905871],[37.477708,40.923485],[37.467868,40.932433],[37.44798,40.932608],[37.441061,40.92887],[37.447715,40.924072],[37.440846,40.916275],[37.415478,40.918846]]],"type":"Polygon"}},{"type":"Feature","properties":{"area_id":"TR-52-006","name_tr":"Çaybaşı","area_level":"district","parent_id":"TR-52","endeksa_id":1900},"geometry":{"coordinates":[[[36.949977,40.891753],[36.953373,40.886758],[36.971442,40.887132],[36.985892,40.89706],[36.997204,40.894369],[37.014563,40.907541],[37.017186,40.922224],[37.034143,40.945167],[37.098651,40.969307],[37.118275,40.988231],[37.125476,41.011535],[37.121168,41.017009],[37.126598,41.021528],[37.116098,41.027039],[37.126141,41.056855],[37.107794,41.062278],[37.090335,41.059034],[37.090851,41.051834],[37.082824,41.046174],[37.084785,41.03697],[37.061492,41.032254],[37.061401,41.027248],[37.052859,41.029109],[37.041488,41.015463],[37.04249,41.007738],[37.006246,40.986729],[36.990195,40.945971],[36.970521,40.931884],[36.961117,40.902984],[36.949977,40.891753]]],"type":"Polygon"}},{"type":"Feature","properties":{"area_id":"TR-52-011","name_tr":"İkizce","area_level":"district","parent_id":"TR-52","endeksa_id":1947},"geometry":{"coordinates":[[[36.95544,41.06193],[36.96054,41.03692],[36.97007,41.03646],[36.9814,41.02613],[36.980179,41.017639],[36.964762,40.99842],[36.918832,40.967062],[36.915519,40.960196],[36.921929,40.955387],[36.922279,40.945112],[36.912464,40.934034],[36.927813,40.929126],[36.917916,40.918507],[36.916843,40.893967],[36.92951,40.887844],[36.946937,40.887502],[36.949977,40.891753],[36.961117,40.902984],[36.970521,40.931884],[36.990195,40.945971],[37.006246,40.986729],[37.04249,41.007738],[37.041488,41.015463],[37.052859,41.029109],[37.061401,41.027248],[37.061492,41.032254],[37.084785,41.03697],[37.082824,41.046174],[37.090851,41.051834],[37.090335,41.059034],[37.107794,41.062278],[37.115827,41.063036],[37.111854,41.069241],[37.116797,41.074683],[37.104994,41.07491],[37.091996,41.062714],[37.108405,41.087038],[37.123781,41.09264],[37.13105,41.103909],[37.12004,41.09711],[37.10173,41.09931],[37.05385,41.11958],[37.047851,41.104479],[37.034225,41.105291],[37.029901,41.113514],[37.002079,41.092994],[36.987188,41.099978],[36.992095,41.079719],[36.997424,41.077329],[36.990888,41.074984],[36.991614,41.065106],[36.97959,41.06793],[36.95544,41.06193]]],"type":"Polygon"}},{"type":"Feature","properties":{"area_id":"TR-52-012","name_tr":"Kabadüz","area_level":"district","parent_id":"TR-52","endeksa_id":1950},"geometry":{"coordinates":[[[37.854854,40.841025],[37.856147,40.827325],[37.87864,40.813335],[37.871522,40.801429],[37.877077,40.7976],[37.867678,40.796502],[37.873376,40.790468],[37.871536,40.77855],[37.875746,40.778019],[37.865571,40.76747],[37.872453,40.76598],[37.876323,40.753836],[37.865205,40.745364],[37.860551,40.732966],[37.86089,40.71413],[37.832098,40.693672],[37.834726,40.683486],[37.822995,40.687587],[37.830247,40.665312],[37.878359,40.644841],[37.890735,40.626879],[37.886324,40.613418],[37.895864,40.605467],[37.892062,40.59678],[37.903499,40.598406],[37.911443,40.585831],[37.92598,40.578305],[37.949107,40.578945],[37.94288,40.574822],[37.94948,40.551022],[37.954063,40.559455],[37.97118,40.568063],[37.974663,40.555939],[37.967227,40.544297],[37.994258,40.529267],[37.981063,40.529389],[37.973818,40.520309],[38.012955,40.522521],[38.03513,40.526087],[38.071277,40.510536],[38.087699,40.509458],[38.100354,40.520517],[38.063588,40.541689],[38.066517,40.555452],[38.07934,40.567992],[38.039352,40.592132],[38.034047,40.609309],[38.023222,40.610052],[38.025026,40.626156],[38.006605,40.640759],[37.991064,40.66804],[37.978392,40.676737],[37.969213,40.676333],[37.963537,40.687454],[37.97129,40.694397],[37.974194,40.723203],[37.967242,40.726823],[37.971245,40.736616],[37.959666,40.747129],[37.967339,40.746645],[37.966249,40.750934],[37.970842,40.745726],[37.980531,40.747286],[37.977852,40.753899],[37.988722,40.754003],[37.989343,40.763374],[37.990447,40.768544],[37.980013,40.774329],[37.974857,40.785936],[37.950629,40.788079],[37.953941,40.777703],[37.949707,40.776143],[37.943013,40.779035],[37.936406,40.799428],[37.926208,40.798932],[37.925448,40.816101],[37.933599,40.818464],[37.934244,40.829307],[37.947988,40.836111],[37.937362,40.848493],[37.928705,40.833186],[37.919819,40.832387],[37.935084,40.845599],[37.934847,40.86063],[37.904185,40.891482],[37.893112,40.879284],[37.875592,40.871778],[37.854854,40.841025]]],"type":"Polygon"}},{"type":"Feature","properties":{"area_id":"TR-52-013","name_tr":"Kabataş","area_level":"district","parent_id":"TR-52","endeksa_id":1951},"geometry":{"coordinates":[[[37.300882,40.69694],[37.299109,40.67374],[37.307147,40.67006],[37.327813,40.684975],[37.325476,40.700345],[37.319579,40.704531],[37.327343,40.708249],[37.345884,40.721601],[37.349436,40.731598],[37.371304,40.732542],[37.382713,40.745025],[37.406471,40.734878],[37.423265,40.713518],[37.43956,40.729763],[37.447735,40.719051],[37.448106,40.704883],[37.463882,40.706783],[37.471669,40.711964],[37.484223,40.709734],[37.486173,40.721013],[37.496148,40.722177],[37.517169,40.738168],[37.512154,40.739091],[37.511171,40.755776],[37.498916,40.761022],[37.494957,40.769072],[37.476791,40.786435],[37.463019,40.781796],[37.454229,40.768608],[37.443124,40.776531],[37.446857,40.780204],[37.438329,40.791602],[37.424242,40.786472],[37.422538,40.791253],[37.429225,40.792193],[37.414827,40.795197],[37.407359,40.781927],[37.39972,40.781596],[37.395033,40.768339],[37.359139,40.760581],[37.351437,40.734293],[37.342801,40.734497],[37.329103,40.724456],[37.329362,40.709716],[37.31504,40.702238],[37.31022,40.697066],[37.300882,40.69694]]],"type":"Polygon"}}]}