{"type":"FeatureCollection","area_id":"TR-56","name_tr":"Siirt","source_id":"endeksa","licence":null,"retrieved_at":"2026-08-23","features":[{"type":"Feature","properties":{"area_id":"TR-56-001","name_tr":"Baykan","area_level":"district","parent_id":"TR-56","endeksa_id":1179},"geometry":{"coordinates":[[[41.64714,38.260857],[41.647919,38.248457],[41.631548,38.227355],[41.6392,38.219439],[41.63289,38.205316],[41.620573,38.205539],[41.617099,38.199016],[41.623445,38.192511],[41.639791,38.191862],[41.653452,38.20101],[41.661054,38.180419],[41.648039,38.164825],[41.641681,38.144672],[41.613239,38.120061],[41.623522,38.10191],[41.615636,38.081386],[41.599967,38.079582],[41.624662,38.061572],[41.621804,38.03723],[41.632823,38.032974],[41.642492,38.03738],[41.648619,38.033861],[41.650917,38.038726],[41.653565,38.034478],[41.661887,38.043646],[41.672799,38.041282],[41.671773,38.049153],[41.682341,38.044701],[41.687375,38.048225],[41.681984,38.053088],[41.684731,38.056939],[41.702479,38.05526],[41.699362,38.057481],[41.715024,38.062893],[41.735007,38.052002],[41.77519,38.065219],[41.781937,38.051289],[41.805784,38.055269],[41.814782,38.064441],[41.834937,38.069086],[41.834549,38.046448],[41.828818,38.042681],[41.856046,38.04052],[41.87006,38.026617],[41.887272,38.026631],[41.896344,38.034326],[41.910835,38.032085],[41.915984,38.042274],[41.885228,38.062166],[41.894725,38.063931],[41.9004,38.074822],[41.92442,38.070122],[41.936553,38.077918],[41.937685,38.081989],[41.922482,38.087957],[41.919504,38.118027],[41.927445,38.119998],[41.927722,38.132318],[41.922281,38.157176],[41.964812,38.150162],[41.946429,38.162491],[41.939824,38.178994],[41.925116,38.190924],[41.891466,38.1906],[41.829801,38.206429],[41.830098,38.196745],[41.821072,38.195002],[41.817539,38.211758],[41.785878,38.236294],[41.748862,38.238206],[41.745799,38.223953],[41.705872,38.23168],[41.696203,38.241911],[41.671709,38.24764],[41.670951,38.257583],[41.660305,38.268994],[41.64714,38.260857]]],"type":"Polygon"}},{"type":"Feature","properties":{"area_id":"TR-56-002","name_tr":"Eruh","area_level":"district","parent_id":"TR-56","endeksa_id":1317},"geometry":{"coordinates":[[[41.858033,37.761537],[41.871898,37.749326],[41.868664,37.745794],[41.879289,37.732663],[41.865121,37.719649],[41.881449,37.697071],[41.865566,37.68823],[41.843024,37.688658],[41.836889,37.683572],[41.846881,37.675733],[41.877097,37.670538],[41.964648,37.613908],[41.991473,37.610176],[42.12432,37.631789],[42.139935,37.627515],[42.132587,37.619964],[42.140856,37.614841],[42.14462,37.618851],[42.18217,37.607155],[42.24208,37.616333],[42.265104,37.626424],[42.265335,37.632807],[42.259672,37.633258],[42.271559,37.6423],[42.297599,37.642985],[42.298677,37.665096],[42.324465,37.676578],[42.335433,37.68846],[42.361972,37.664217],[42.383343,37.65917],[42.387392,37.673297],[42.410638,37.675959],[42.405214,37.662812],[42.432006,37.654248],[42.446681,37.658926],[42.464395,37.656158],[42.484419,37.668542],[42.487855,37.683073],[42.497772,37.688443],[42.50498,37.72181],[42.520019,37.73433],[42.50654,37.766562],[42.455275,37.762195],[42.450005,37.768152],[42.456312,37.785758],[42.451194,37.7951],[42.469586,37.803216],[42.494826,37.80365],[42.508022,37.812305],[42.528966,37.798154],[42.548409,37.795325],[42.566097,37.785033],[42.595324,37.786307],[42.572329,37.807516],[42.591486,37.821965],[42.456655,37.81817],[42.348795,37.849843],[42.316274,37.8312],[42.310485,37.834644],[42.315096,37.843035],[42.309923,37.850412],[42.265207,37.863725],[42.253977,37.858105],[42.232861,37.873281],[42.198786,37.876742],[42.181038,37.885217],[42.161266,37.883617],[42.152928,37.861941],[42.119533,37.860148],[42.105763,37.852132],[42.110031,37.831612],[42.1233,37.820194],[42.118638,37.802479],[42.110719,37.798926],[42.086659,37.815019],[42.06605,37.813871],[42.052499,37.830824],[42.044745,37.827515],[42.003447,37.833463],[41.978847,37.809864],[41.947172,37.827005],[41.943037,37.836577],[41.934798,37.81198],[41.944414,37.803934],[41.93138,37.788681],[41.890118,37.785685],[41.858033,37.761537]]],"type":"Polygon"}},{"type":"Feature","properties":{"area_id":"TR-56-003","name_tr":"Kurtalan","area_level":"district","parent_id":"TR-56","endeksa_id":1495},"geometry":{"coordinates":[[[41.359572,37.966506],[41.375507,37.948568],[41.396228,37.95371],[41.397985,37.941838],[41.408002,37.939261],[41.404389,37.922963],[41.433472,37.907726],[41.435893,37.90075],[41.471391,37.87772],[41.508404,37.865879],[41.530984,37.88635],[41.542294,37.881771],[41.549508,37.885548],[41.579407,37.882675],[41.604056,37.874057],[41.605755,37.883939],[41.618576,37.890808],[41.659055,37.887096],[41.65723,37.873355],[41.646056,37.866827],[41.653515,37.857436],[41.64064,37.847184],[41.684386,37.833881],[41.682243,37.823658],[41.705648,37.820446],[41.694512,37.807708],[41.697326,37.79646],[41.678365,37.770726],[41.674178,37.748635],[41.679586,37.738896],[41.673081,37.736987],[41.678268,37.728246],[41.697991,37.727618],[41.715921,37.709517],[41.71939,37.727739],[41.752691,37.734391],[41.775891,37.733761],[41.777894,37.728475],[41.792418,37.734546],[41.792664,37.753719],[41.807873,37.772541],[41.810405,37.793638],[41.834794,37.811145],[41.824441,37.815154],[41.830338,37.828921],[41.820517,37.835778],[41.821112,37.847337],[41.807944,37.855486],[41.797231,37.881111],[41.790623,37.877679],[41.78116,37.884545],[41.787662,37.889831],[41.785133,37.902875],[41.799531,37.914785],[41.792734,37.924512],[41.797001,37.937454],[41.786588,37.95827],[41.79081,37.962524],[41.773149,37.983554],[41.779423,38.009001],[41.77307,38.01402],[41.784424,38.038559],[41.777951,38.0436],[41.781937,38.051289],[41.77519,38.065219],[41.735007,38.052002],[41.715024,38.062893],[41.699362,38.057481],[41.702479,38.05526],[41.684731,38.056939],[41.681984,38.053088],[41.687375,38.048225],[41.682341,38.044701],[41.671773,38.049153],[41.672799,38.041282],[41.661887,38.043646],[41.653565,38.034478],[41.650917,38.038726],[41.648619,38.033861],[41.642492,38.03738],[41.632823,38.032974],[41.621804,38.03723],[41.624662,38.061572],[41.599967,38.079582],[41.561505,38.076665],[41.554657,38.073216],[41.557405,38.067271],[41.525743,38.059664],[41.531826,38.055257],[41.525507,38.035204],[41.543188,38.014783],[41.530661,38.001128],[41.519616,38.005985],[41.523265,38.017768],[41.513664,38.026524],[41.514873,38.032191],[41.505207,38.033311],[41.502909,38.040941],[41.488026,38.041312],[41.478058,38.02589],[41.414104,37.991326],[41.373854,37.978766],[41.359572,37.966506]]],"type":"Polygon"}},{"type":"Feature","properties":{"area_id":"TR-56-004","name_tr":"Pervari","area_level":"district","parent_id":"TR-56","endeksa_id":1575},"geometry":{"coordinates":[[[42.16314,37.947211],[42.162091,37.924736],[42.152179,37.916418],[42.16913,37.905726],[42.172315,37.891234],[42.181038,37.885217],[42.198786,37.876742],[42.232861,37.873281],[42.253977,37.858105],[42.265207,37.863725],[42.309923,37.850412],[42.315096,37.843035],[42.310485,37.834644],[42.316274,37.8312],[42.348795,37.849843],[42.456655,37.81817],[42.591486,37.821965],[42.572329,37.807516],[42.595324,37.786307],[42.566097,37.785033],[42.548409,37.795325],[42.528966,37.798154],[42.508022,37.812305],[42.494826,37.80365],[42.469586,37.803216],[42.451194,37.7951],[42.456312,37.785758],[42.450005,37.768152],[42.455275,37.762195],[42.50654,37.766562],[42.520019,37.73433],[42.583769,37.747314],[42.629349,37.743185],[42.649215,37.730951],[42.647475,37.704764],[42.69175,37.693162],[42.735306,37.702455],[42.780672,37.702902],[42.785769,37.693576],[42.769111,37.668772],[42.779106,37.664402],[42.78982,37.667785],[42.822614,37.65535],[42.840793,37.671761],[42.876446,37.697046],[42.903908,37.703494],[42.920732,37.725623],[42.921168,37.744354],[42.894409,37.754801],[42.89194,37.768913],[42.880336,37.780763],[42.838737,37.791283],[42.823926,37.806717],[42.817248,37.818983],[42.822505,37.827609],[42.819713,37.861061],[42.796342,37.883404],[42.802403,37.908214],[42.788601,37.907932],[42.770102,37.93672],[42.744685,37.949225],[42.734612,37.948835],[42.7476,37.963089],[42.787905,37.973521],[42.761744,37.983028],[42.75696,37.989457],[42.766635,37.995359],[42.748098,38.010293],[42.731281,38.016218],[42.72376,38.012695],[42.684779,38.030161],[42.677915,38.027733],[42.645876,37.986386],[42.622836,37.98574],[42.624925,37.977186],[42.589837,37.978139],[42.496097,38.002114],[42.499091,38.029689],[42.488494,38.044949],[42.431711,38.067975],[42.409566,38.037865],[42.403137,38.019098],[42.386999,38.018639],[42.366503,37.997111],[42.388196,37.97485],[42.260229,37.961858],[42.22734,37.924635],[42.204471,37.926327],[42.191006,37.936053],[42.189381,37.944166],[42.165865,37.943144],[42.16314,37.947211]]],"type":"Polygon"}},{"type":"Feature","properties":{"area_id":"TR-56-005","name_tr":"Siirt","area_level":"district","parent_id":"TR-56","endeksa_id":1620},"geometry":{"coordinates":[[[41.781937,38.051289],[41.777951,38.0436],[41.784424,38.038559],[41.77307,38.01402],[41.779423,38.009001],[41.773149,37.983554],[41.79081,37.962524],[41.786588,37.95827],[41.797001,37.937454],[41.792734,37.924512],[41.799531,37.914785],[41.785133,37.902875],[41.787662,37.889831],[41.78116,37.884545],[41.790623,37.877679],[41.797231,37.881111],[41.807944,37.855486],[41.821112,37.847337],[41.820517,37.835778],[41.830338,37.828921],[41.824441,37.815154],[41.834794,37.811145],[41.810405,37.793638],[41.807873,37.772541],[41.792664,37.753719],[41.792418,37.734546],[41.777894,37.728475],[41.774984,37.715057],[41.819262,37.713841],[41.822113,37.706605],[41.817217,37.701088],[41.827546,37.691867],[41.843024,37.688658],[41.865566,37.68823],[41.881449,37.697071],[41.865121,37.719649],[41.879289,37.732663],[41.868664,37.745794],[41.871898,37.749326],[41.858033,37.761537],[41.890118,37.785685],[41.93138,37.788681],[41.944414,37.803934],[41.934798,37.81198],[41.943037,37.836577],[41.947172,37.827005],[41.978847,37.809864],[42.003447,37.833463],[42.044745,37.827515],[42.052499,37.830824],[42.06605,37.813871],[42.086659,37.815019],[42.110719,37.798926],[42.118638,37.802479],[42.1233,37.820194],[42.110031,37.831612],[42.105763,37.852132],[42.119533,37.860148],[42.152928,37.861941],[42.161266,37.883617],[42.181038,37.885217],[42.172315,37.891234],[42.16913,37.905726],[42.152179,37.916418],[42.138884,37.908083],[42.111735,37.909505],[42.121437,37.926606],[42.113281,37.942088],[42.089321,37.955161],[42.066843,37.942325],[42.062378,37.924229],[42.045044,37.907959],[42.044034,37.893418],[42.0357,37.887004],[42.039665,37.882619],[42.019004,37.883307],[42.006075,37.890992],[41.999019,37.887348],[41.978203,37.906246],[41.984727,37.921987],[41.978219,37.932504],[41.985721,37.932673],[41.998058,37.949199],[41.992851,37.956208],[41.997625,37.961156],[41.985023,37.975478],[41.978416,37.968289],[41.947637,37.975976],[41.947475,37.996393],[41.957853,38.009493],[41.956398,38.025989],[41.929418,38.021972],[41.909931,38.026631],[41.910835,38.032085],[41.896344,38.034326],[41.887272,38.026631],[41.87006,38.026617],[41.856046,38.04052],[41.828818,38.042681],[41.834549,38.046448],[41.834937,38.069086],[41.814782,38.064441],[41.805784,38.055269],[41.781937,38.051289]]],"type":"Polygon"}},{"type":"Feature","properties":{"area_id":"TR-56-006","name_tr":"Şirvan","area_level":"district","parent_id":"TR-56","endeksa_id":1662},"geometry":{"coordinates":[[[41.922281,38.157176],[41.927722,38.132318],[41.927445,38.119998],[41.919504,38.118027],[41.922482,38.087957],[41.937685,38.081989],[41.936553,38.077918],[41.92442,38.070122],[41.9004,38.074822],[41.894725,38.063931],[41.885228,38.062166],[41.915984,38.042274],[41.910835,38.032085],[41.909931,38.026631],[41.929418,38.021972],[41.956398,38.025989],[41.957853,38.009493],[41.969933,38.008652],[41.981207,38.00035],[41.988585,38.008665],[42.112039,37.967533],[42.136159,37.967448],[42.16314,37.947211],[42.165865,37.943144],[42.189381,37.944166],[42.191006,37.936053],[42.204471,37.926327],[42.22734,37.924635],[42.260229,37.961858],[42.388196,37.97485],[42.366503,37.997111],[42.386999,38.018639],[42.403137,38.019098],[42.409566,38.037865],[42.431711,38.067975],[42.41232,38.08168],[42.383089,38.086357],[42.374015,38.093828],[42.37284,38.105339],[42.389815,38.122148],[42.38903,38.129614],[42.303427,38.127441],[42.264925,38.143328],[42.2493,38.161124],[42.236893,38.196644],[42.244697,38.234779],[42.234305,38.23886],[42.188427,38.226241],[42.118448,38.217659],[42.078062,38.192532],[42.049918,38.214743],[42.021382,38.198781],[42.009594,38.203365],[42.002242,38.183501],[41.989033,38.180604],[41.982762,38.17292],[41.981779,38.162135],[41.991386,38.153323],[41.964812,38.150162],[41.922281,38.157176]]],"type":"Polygon"}},{"type":"Feature","properties":{"area_id":"TR-56-007","name_tr":"Tillo","area_level":"district","parent_id":"TR-56","endeksa_id":1878},"geometry":{"coordinates":[[[41.947475,37.996393],[41.947637,37.975976],[41.978416,37.968289],[41.985023,37.975478],[41.997625,37.961156],[41.992851,37.956208],[41.998058,37.949199],[41.985721,37.932673],[41.978219,37.932504],[41.984727,37.921987],[41.978203,37.906246],[41.999019,37.887348],[42.006075,37.890992],[42.019004,37.883307],[42.039665,37.882619],[42.0357,37.887004],[42.044034,37.893418],[42.045044,37.907959],[42.062378,37.924229],[42.066843,37.942325],[42.089321,37.955161],[42.113281,37.942088],[42.121437,37.926606],[42.111735,37.909505],[42.138884,37.908083],[42.152179,37.916418],[42.162091,37.924736],[42.16314,37.947211],[42.136159,37.967448],[42.112039,37.967533],[41.988585,38.008665],[41.981207,38.00035],[41.969933,38.008652],[41.957853,38.009493],[41.947475,37.996393]]],"type":"Polygon"}}]}