{"type":"FeatureCollection","area_id":"TR-65","name_tr":"Van","source_id":"endeksa","licence":null,"retrieved_at":"2026-08-23","features":[{"type":"Feature","properties":{"area_id":"TR-65-002","name_tr":"Başkale","area_level":"district","parent_id":"TR-65","endeksa_id":1175},"geometry":{"coordinates":[[[43.622967,37.767712],[43.665589,37.769256],[43.669268,37.783424],[43.702335,37.776885],[43.737341,37.790768],[43.768106,37.783097],[43.817977,37.781142],[43.839655,37.784424],[43.841038,37.791301],[43.855759,37.790131],[43.892384,37.781767],[43.902549,37.771653],[44.048617,37.808524],[44.085319,37.787474],[44.088058,37.774353],[44.078028,37.756243],[44.093254,37.727069],[44.104009,37.721702],[44.14082,37.736132],[44.213301,37.731572],[44.307474,37.779803],[44.371945,37.786664],[44.420558,37.80645],[44.414382,37.815744],[44.39291,37.824607],[44.39637,37.838292],[44.406138,37.847369],[44.389118,37.863166],[44.361753,37.862801],[44.318991,37.87742],[44.293864,37.865953],[44.290483,37.873628],[44.267503,37.867552],[44.257407,37.870202],[44.222908,37.888538],[44.233334,37.900938],[44.225751,37.906786],[44.234461,37.926598],[44.242411,37.927893],[44.251598,37.942436],[44.24077,37.957364],[44.240973,37.966252],[44.256699,37.975591],[44.271419,37.994631],[44.266913,38.000008],[44.274526,38.016281],[44.288176,38.022011],[44.308601,38.043357],[44.301947,38.054788],[44.320061,38.063763],[44.311485,38.068865],[44.312579,38.073405],[44.328874,38.078773],[44.328303,38.100046],[44.366338,38.1047],[44.350403,38.133992],[44.380302,38.138703],[44.392878,38.146663],[44.391546,38.166579],[44.400386,38.184414],[44.395914,38.196261],[44.406275,38.204663],[44.410677,38.221011],[44.396816,38.239737],[44.402653,38.252682],[44.473866,38.295037],[44.477709,38.301974],[44.495687,38.305424],[44.497593,38.333616],[44.510102,38.334841],[44.511915,38.341531],[44.491784,38.345948],[44.499723,38.349755],[44.490909,38.357726],[44.462072,38.359394],[44.449626,38.385807],[44.38165,38.358206],[44.362223,38.375319],[44.351325,38.369542],[44.329599,38.36916],[44.312336,38.378535],[44.274088,38.374791],[44.249613,38.382775],[44.205958,38.378521],[44.21832,38.362038],[44.242662,38.362909],[44.262667,38.350754],[44.253434,38.349124],[44.251107,38.333153],[44.23139,38.324815],[44.215247,38.323749],[44.207784,38.333745],[44.195677,38.328034],[44.178985,38.329409],[44.156494,38.346349],[44.123459,38.347457],[44.123921,38.335699],[44.109689,38.329189],[44.099559,38.303667],[44.082735,38.302549],[44.064653,38.279403],[44.049619,38.27699],[44.04238,38.264648],[44.026361,38.256289],[44.021668,38.24303],[43.998168,38.229291],[43.967957,38.225507],[43.957306,38.217655],[43.958705,38.204134],[43.948112,38.197724],[43.942322,38.20155],[43.915438,38.198709],[43.913401,38.184732],[43.906188,38.181086],[43.916485,38.169979],[43.917913,38.15515],[43.903007,38.153189],[43.886387,38.133277],[43.899199,38.112242],[43.893444,38.095087],[43.87261,38.092331],[43.879535,38.084385],[43.862544,38.072391],[43.849964,38.048354],[43.838745,38.041691],[43.845661,38.032304],[43.823922,38.022781],[43.83489,38.005211],[43.82744,37.994844],[43.803145,37.983466],[43.797601,37.961707],[43.78042,37.941125],[43.787178,37.918495],[43.781705,37.893653],[43.76616,37.875757],[43.755271,37.876024],[43.739528,37.858168],[43.687905,37.836883],[43.687974,37.827993],[43.665109,37.813214],[43.661562,37.80272],[43.622967,37.767712]]],"type":"Polygon"}},{"type":"Feature","properties":{"area_id":"TR-65-004","name_tr":"Çatak","area_level":"district","parent_id":"TR-65","endeksa_id":1236},"geometry":{"coordinates":[[[42.734612,37.948835],[42.744685,37.949225],[42.770102,37.93672],[42.788601,37.907932],[42.802403,37.908214],[42.796342,37.883404],[42.819713,37.861061],[42.822505,37.827609],[42.817248,37.818983],[42.823926,37.806717],[42.838737,37.791283],[42.880336,37.780763],[42.89194,37.768913],[42.921229,37.76865],[42.948029,37.759014],[43.069407,37.753386],[43.187242,37.736919],[43.362727,37.75578],[43.481719,37.74326],[43.475248,37.759316],[43.47061,37.754544],[43.462919,37.756619],[43.442512,37.777597],[43.424066,37.78445],[43.414529,37.779957],[43.375923,37.781856],[43.345226,37.803414],[43.325354,37.800687],[43.310354,37.806662],[43.299004,37.802772],[43.284879,37.840635],[43.267033,37.851015],[43.268371,37.863746],[43.248853,37.870129],[43.233422,37.892044],[43.18852,37.884156],[43.189852,37.912208],[43.178692,37.936041],[43.164919,37.943677],[43.14662,37.941107],[43.136452,37.945759],[43.144039,37.955556],[43.140767,37.973581],[43.165516,37.989214],[43.183926,37.992855],[43.193504,38.004217],[43.208911,38.003741],[43.228975,38.021857],[43.231866,38.030495],[43.218501,38.040082],[43.214955,38.060129],[43.227567,38.071848],[43.287078,38.077247],[43.299249,38.088133],[43.341153,38.083921],[43.369922,38.068288],[43.378988,38.068502],[43.392016,38.084136],[43.411041,38.092095],[43.399368,38.100604],[43.370719,38.093604],[43.347741,38.10627],[43.329637,38.104309],[43.321608,38.113256],[43.32118,38.119848],[43.344238,38.128247],[43.320966,38.165332],[43.308476,38.170555],[43.319,38.195482],[43.30532,38.203378],[43.304511,38.214895],[43.277527,38.251492],[43.284894,38.255527],[43.328202,38.246295],[43.33001,38.258764],[43.316769,38.270749],[43.253277,38.257848],[43.232035,38.233723],[43.218633,38.233266],[43.189242,38.21786],[43.159664,38.230496],[43.133934,38.220649],[43.105474,38.231706],[43.09403,38.226279],[43.084691,38.231817],[43.057084,38.218401],[43.025372,38.212988],[43.015329,38.205242],[42.956835,38.212545],[42.933346,38.184864],[42.948164,38.16627],[42.941105,38.164395],[42.932574,38.136525],[42.895745,38.140732],[42.894748,38.126826],[42.913727,38.113441],[42.930773,38.109108],[42.935092,38.101598],[42.930632,38.095519],[42.947959,38.080163],[42.953285,38.060061],[42.948389,38.052939],[42.930458,38.047149],[42.916134,38.032571],[42.894202,38.022174],[42.875583,37.978945],[42.847085,37.992763],[42.816913,37.986133],[42.798404,37.997953],[42.766635,37.995359],[42.75696,37.989457],[42.761744,37.983028],[42.787905,37.973521],[42.7476,37.963089],[42.734612,37.948835]]],"type":"Polygon"}},{"type":"Feature","properties":{"area_id":"TR-65-006","name_tr":"Erciş","area_level":"district","parent_id":"TR-65","endeksa_id":1309},"geometry":{"coordinates":[[[43.107915,39.335295],[43.117276,39.298117],[43.117897,39.293804],[43.133598,39.294652],[43.143339,39.285805],[43.164401,39.281039],[43.166584,39.266732],[43.160651,39.259082],[43.178349,39.252971],[43.179459,39.247271],[43.171342,39.227206],[43.174729,39.214033],[43.156327,39.206762],[43.15618,39.193327],[43.144974,39.173988],[43.106,39.15814],[43.091616,39.136599],[43.065776,39.125163],[43.053134,39.11136],[43.018692,39.101255],[43.005636,39.08792],[43.00767,39.083048],[42.999954,39.079845],[42.991288,39.084125],[42.99303,39.058444],[43.017753,39.04221],[42.997295,39.025291],[43.027513,39.0143],[43.036292,38.9985],[43.049272,38.991423],[43.051089,38.973645],[43.064574,38.963499],[43.067673,38.946343],[43.071217,38.947203],[43.070436,38.938386],[43.059397,38.937451],[43.071701,38.93765],[43.077628,38.920601],[43.102946,38.914043],[43.175921,38.920044],[43.192535,38.913268],[43.225074,38.865935],[43.565105,38.949125],[43.567872,38.954974],[43.577888,38.981158],[43.567421,38.98249],[43.566184,38.975447],[43.54305,38.9783],[43.537531,38.981371],[43.543593,38.990212],[43.562518,39.001532],[43.610914,39.010988],[43.627121,39.026199],[43.624151,39.03733],[43.656707,39.043669],[43.622586,39.080517],[43.667082,39.104814],[43.666339,39.122662],[43.635481,39.156484],[43.638381,39.161532],[43.648843,39.161335],[43.641739,39.178923],[43.650378,39.198276],[43.654502,39.202727],[43.65059,39.209102],[43.657157,39.214964],[43.612521,39.233644],[43.603114,39.263215],[43.583321,39.26316],[43.571034,39.272136],[43.558106,39.272505],[43.547363,39.284472],[43.526302,39.292632],[43.522462,39.306709],[43.51212,39.309614],[43.504113,39.327944],[43.470633,39.341735],[43.447296,39.339677],[43.447584,39.350271],[43.459123,39.36],[43.442725,39.383448],[43.428516,39.392303],[43.420254,39.394909],[43.399633,39.382338],[43.373396,39.378026],[43.366355,39.382266],[43.320416,39.377165],[43.309488,39.383646],[43.295187,39.378689],[43.284046,39.382042],[43.251937,39.363641],[43.227294,39.365998],[43.209891,39.33628],[43.198288,39.342724],[43.184551,39.338248],[43.167642,39.349027],[43.107915,39.335295]]],"type":"Polygon"}},{"type":"Feature","properties":{"area_id":"TR-65-007","name_tr":"Gevaş","area_level":"district","parent_id":"TR-65","endeksa_id":1350},"geometry":{"coordinates":[[[42.75398,38.484126],[42.761595,38.439914],[42.746835,38.43942],[42.765834,38.429427],[42.777992,38.410994],[42.778289,38.394397],[42.788407,38.374217],[42.7856,38.366456],[42.795368,38.354329],[42.789286,38.329461],[42.770509,38.319291],[42.725096,38.321674],[42.713703,38.327367],[42.682562,38.311486],[42.67848,38.298305],[42.672787,38.28672],[42.677192,38.27742],[42.713798,38.283896],[42.723269,38.278569],[42.731798,38.252615],[42.721504,38.231791],[42.735592,38.224081],[42.736988,38.229734],[42.775836,38.225795],[42.784562,38.232221],[42.803442,38.231793],[42.819619,38.218063],[42.842657,38.220439],[42.856194,38.21472],[42.889247,38.190872],[42.924333,38.191802],[42.933346,38.184864],[42.956835,38.212545],[43.015329,38.205242],[43.025372,38.212988],[43.057084,38.218401],[43.084691,38.231817],[43.09403,38.226279],[43.105474,38.231706],[43.133934,38.220649],[43.159664,38.230496],[43.189242,38.21786],[43.218633,38.233266],[43.232035,38.233723],[43.253277,38.257848],[43.316769,38.270749],[43.319406,38.287662],[43.353874,38.299112],[43.324201,38.315997],[43.31381,38.30823],[43.29285,38.31052],[43.293401,38.304744],[43.280763,38.309033],[43.263653,38.305722],[43.246068,38.33001],[43.223531,38.309346],[43.215174,38.293759],[43.207144,38.294455],[43.187733,38.318745],[43.167277,38.315158],[43.165261,38.326882],[43.174353,38.330614],[43.16959,38.33553],[43.175468,38.343125],[43.173153,38.351517],[43.160946,38.350639],[43.165783,38.337049],[43.158343,38.329226],[43.163182,38.326201],[43.149025,38.323835],[43.148787,38.337599],[43.139365,38.344452],[43.141707,38.334594],[43.137138,38.337884],[43.133711,38.343709],[43.137693,38.348648],[43.130438,38.34732],[43.119379,38.37428],[43.210601,38.434999],[42.971884,38.607612],[42.885087,38.577788],[42.793713,38.537022],[42.776936,38.515019],[42.75398,38.484126]]],"type":"Polygon"}},{"type":"Feature","properties":{"area_id":"TR-65-008","name_tr":"Gürpınar","area_level":"district","parent_id":"TR-65","endeksa_id":1372},"geometry":{"coordinates":[[[43.327865,38.354391],[43.32911,38.338226],[43.325076,38.324102],[43.320972,38.324378],[43.324201,38.315997],[43.353874,38.299112],[43.319406,38.287662],[43.316769,38.270749],[43.33001,38.258764],[43.328202,38.246295],[43.284894,38.255527],[43.277527,38.251492],[43.304511,38.214895],[43.30532,38.203378],[43.319,38.195482],[43.308476,38.170555],[43.320966,38.165332],[43.344238,38.128247],[43.32118,38.119848],[43.321608,38.113256],[43.329637,38.104309],[43.347741,38.10627],[43.370719,38.093604],[43.399368,38.100604],[43.411041,38.092095],[43.392016,38.084136],[43.378988,38.068502],[43.369922,38.068288],[43.341153,38.083921],[43.299249,38.088133],[43.287078,38.077247],[43.227567,38.071848],[43.214955,38.060129],[43.218501,38.040082],[43.231866,38.030495],[43.228975,38.021857],[43.208911,38.003741],[43.193504,38.004217],[43.183926,37.992855],[43.165516,37.989214],[43.140767,37.973581],[43.144039,37.955556],[43.136452,37.945759],[43.14662,37.941107],[43.164919,37.943677],[43.178692,37.936041],[43.189852,37.912208],[43.18852,37.884156],[43.233422,37.892044],[43.248853,37.870129],[43.268371,37.863746],[43.267033,37.851015],[43.284879,37.840635],[43.299004,37.802772],[43.310354,37.806662],[43.325354,37.800687],[43.345226,37.803414],[43.375923,37.781856],[43.414529,37.779957],[43.424066,37.78445],[43.442512,37.777597],[43.462919,37.756619],[43.47061,37.754544],[43.475248,37.759316],[43.481719,37.74326],[43.502063,37.736502],[43.553134,37.740992],[43.622967,37.767712],[43.661562,37.80272],[43.665109,37.813214],[43.687974,37.827993],[43.687905,37.836883],[43.739528,37.858168],[43.755271,37.876024],[43.76616,37.875757],[43.781705,37.893653],[43.787178,37.918495],[43.78042,37.941125],[43.797601,37.961707],[43.803145,37.983466],[43.82744,37.994844],[43.83489,38.005211],[43.823922,38.022781],[43.845661,38.032304],[43.838745,38.041691],[43.849964,38.048354],[43.862544,38.072391],[43.879535,38.084385],[43.87261,38.092331],[43.893444,38.095087],[43.899199,38.112242],[43.886387,38.133277],[43.903007,38.153189],[43.917913,38.15515],[43.916485,38.169979],[43.906188,38.181086],[43.913401,38.184732],[43.915438,38.198709],[43.942322,38.20155],[43.948112,38.197724],[43.958705,38.204134],[43.957306,38.217655],[43.967957,38.225507],[43.998168,38.229291],[44.021668,38.24303],[44.026361,38.256289],[44.04238,38.264648],[44.049619,38.27699],[44.064653,38.279403],[44.082735,38.302549],[44.099559,38.303667],[44.109689,38.329189],[44.123921,38.335699],[44.123459,38.347457],[44.084443,38.348404],[44.073009,38.35898],[44.048634,38.365474],[44.047649,38.372617],[44.028296,38.384751],[44.035786,38.391253],[44.031467,38.397785],[44.045716,38.418629],[44.01593,38.423805],[43.987089,38.438138],[43.974864,38.452028],[43.987585,38.460658],[44.00222,38.457889],[44.00479,38.467983],[43.999712,38.471595],[43.999034,38.487418],[43.985372,38.499683],[43.980985,38.513408],[43.940836,38.501752],[43.956202,38.467409],[43.945298,38.462716],[43.941403,38.450991],[43.928165,38.44811],[43.921735,38.458351],[43.896514,38.46916],[43.894515,38.479268],[43.883835,38.488418],[43.866702,38.483183],[43.858463,38.486853],[43.856833,38.497796],[43.840593,38.494177],[43.834492,38.511093],[43.837122,38.518817],[43.794931,38.497885],[43.786969,38.515828],[43.775282,38.514605],[43.780828,38.498422],[43.767784,38.49475],[43.770439,38.488999],[43.75614,38.454797],[43.736989,38.45337],[43.704062,38.46492],[43.672532,38.463383],[43.650316,38.470407],[43.633897,38.463602],[43.594686,38.460418],[43.582582,38.466202],[43.587757,38.468859],[43.575938,38.4971],[43.550767,38.492402],[43.518703,38.46935],[43.521826,38.432973],[43.495062,38.422456],[43.496916,38.413481],[43.487417,38.403241],[43.477508,38.406903],[43.478547,38.393093],[43.492078,38.391024],[43.498186,38.382338],[43.493564,38.378124],[43.497474,38.372898],[43.490172,38.367575],[43.46767,38.360713],[43.461652,38.391723],[43.454354,38.398561],[43.412806,38.389138],[43.375124,38.367597],[43.345076,38.37272],[43.327865,38.354391]]],"type":"Polygon"}},{"type":"Feature","properties":{"area_id":"TR-65-010","name_tr":"Muradiye","area_level":"district","parent_id":"TR-65","endeksa_id":1533},"geometry":{"coordinates":[[[43.650378,39.198276],[43.641739,39.178923],[43.648843,39.161335],[43.638381,39.161532],[43.635481,39.156484],[43.666339,39.122662],[43.667082,39.104814],[43.622586,39.080517],[43.656707,39.043669],[43.624151,39.03733],[43.627121,39.026199],[43.610914,39.010988],[43.562518,39.001532],[43.543593,38.990212],[43.537531,38.981371],[43.54305,38.9783],[43.566184,38.975447],[43.567421,38.98249],[43.577888,38.981158],[43.567872,38.954974],[43.621947,38.927938],[43.630911,38.906914],[43.657741,38.902573],[43.657781,38.88926],[43.666231,38.878912],[43.661808,38.862633],[43.619183,38.853161],[43.614938,38.84736],[43.619495,38.838344],[43.605206,38.833663],[43.619505,38.807698],[43.587558,38.797378],[43.594181,38.787557],[43.624041,38.783264],[43.632751,38.773769],[43.664544,38.767402],[43.667564,38.761657],[43.657452,38.750298],[43.658815,38.744326],[43.672205,38.742324],[43.697596,38.751937],[43.752296,38.743039],[43.753493,38.748595],[43.769081,38.745065],[43.78572,38.751319],[43.804578,38.747228],[43.820325,38.760003],[43.82852,38.77725],[43.822338,38.799522],[43.796978,38.806319],[43.831716,38.829545],[43.820542,38.835637],[43.822902,38.838987],[43.807584,38.861456],[43.792263,38.865412],[43.792072,38.876092],[43.812646,38.892821],[43.829258,38.884236],[43.84643,38.900159],[43.86182,38.898651],[43.86391,38.920574],[43.869906,38.9252],[43.871694,38.935241],[43.860291,38.955143],[43.843043,38.963981],[43.847659,38.998452],[43.866445,39.022438],[43.856772,39.044829],[43.860413,39.057119],[43.854857,39.066875],[43.870489,39.084658],[43.869382,39.102838],[43.852636,39.109224],[43.834683,39.104986],[43.809511,39.146214],[43.808414,39.167707],[43.764734,39.163254],[43.757953,39.167764],[43.764518,39.180257],[43.760244,39.184216],[43.773261,39.18555],[43.764136,39.202302],[43.73897,39.201041],[43.740602,39.195969],[43.71935,39.190797],[43.677907,39.209543],[43.650378,39.198276]]],"type":"Polygon"}},{"type":"Feature","properties":{"area_id":"TR-65-011","name_tr":"Özalp","area_level":"district","parent_id":"TR-65","endeksa_id":1565},"geometry":{"coordinates":[[[43.792072,38.876092],[43.792263,38.865412],[43.807584,38.861456],[43.822902,38.838987],[43.820542,38.835637],[43.831716,38.829545],[43.796978,38.806319],[43.822338,38.799522],[43.82852,38.77725],[43.820325,38.760003],[43.804578,38.747228],[43.825495,38.741112],[43.828945,38.730999],[43.841366,38.726568],[43.841081,38.693897],[43.845459,38.688329],[43.841866,38.673493],[43.830424,38.661897],[43.843861,38.659458],[43.833345,38.637998],[43.824279,38.632882],[43.812188,38.604752],[43.820811,38.596585],[43.825444,38.568232],[43.811084,38.564921],[43.815933,38.557021],[43.805054,38.550482],[43.804383,38.534592],[43.786969,38.515828],[43.794931,38.497885],[43.837122,38.518817],[43.834492,38.511093],[43.840593,38.494177],[43.856833,38.497796],[43.858463,38.486853],[43.866702,38.483183],[43.883835,38.488418],[43.894515,38.479268],[43.896514,38.46916],[43.921735,38.458351],[43.928165,38.44811],[43.941403,38.450991],[43.945298,38.462716],[43.956202,38.467409],[43.940836,38.501752],[43.980985,38.513408],[43.986614,38.522875],[43.993002,38.519512],[44.008645,38.527298],[44.025485,38.52679],[44.050091,38.550702],[44.073454,38.542515],[44.088417,38.544235],[44.103121,38.557832],[44.11832,38.563022],[44.114688,38.574406],[44.106595,38.577641],[44.110574,38.589065],[44.098661,38.605753],[44.102501,38.619273],[44.095991,38.621829],[44.119575,38.648544],[44.098449,38.657651],[44.100552,38.662248],[44.065809,38.670474],[44.13477,38.691059],[44.145743,38.707308],[44.162625,38.718672],[44.155331,38.721634],[44.155005,38.727873],[44.165242,38.747492],[44.155172,38.752327],[44.180084,38.76199],[44.195148,38.747106],[44.208913,38.757884],[44.22759,38.743718],[44.249862,38.737043],[44.262773,38.722526],[44.269402,38.72189],[44.278916,38.731958],[44.27687,38.744916],[44.292149,38.763996],[44.2872,38.784288],[44.300148,38.791268],[44.303273,38.804653],[44.313892,38.809694],[44.293907,38.825998],[44.300922,38.840781],[44.278223,38.854165],[44.256774,38.846912],[44.245269,38.851018],[44.241147,38.858261],[44.245869,38.870212],[44.216397,38.883765],[44.210034,38.892236],[44.22084,38.904533],[44.219309,38.916839],[44.198865,38.922019],[44.188159,38.93501],[44.200652,38.948998],[44.181908,38.957579],[44.165277,38.954234],[44.135216,38.961579],[44.121924,38.955012],[44.113422,38.941277],[44.105833,38.940264],[44.084861,38.955102],[44.063275,38.931756],[44.07384,38.913566],[44.054056,38.90528],[44.047998,38.895386],[44.032222,38.893792],[44.003883,38.908747],[43.991119,38.901006],[43.98822,38.890163],[43.968633,38.884061],[43.904977,38.919908],[43.869906,38.9252],[43.86391,38.920574],[43.86182,38.898651],[43.84643,38.900159],[43.829258,38.884236],[43.812646,38.892821],[43.792072,38.876092]]],"type":"Polygon"}},{"type":"Feature","properties":{"area_id":"TR-65-013","name_tr":"Tuşba","area_level":"district","parent_id":"TR-65","endeksa_id":2099},"geometry":{"coordinates":[[[42.982604,38.673876],[42.976674,38.660823],[42.992074,38.654776],[42.971884,38.607612],[43.210601,38.434999],[43.251761,38.448213],[43.306972,38.431375],[43.321613,38.447779],[43.31932,38.477498],[43.323698,38.486856],[43.319662,38.489841],[43.320694,38.508806],[43.315402,38.514104],[43.325564,38.520551],[43.402447,38.50556],[43.401043,38.50961],[43.417039,38.521909],[43.411228,38.538157],[43.425561,38.542871],[43.436083,38.555982],[43.522885,38.592132],[43.576476,38.64974],[43.584191,38.664341],[43.579275,38.682021],[43.564017,38.690269],[43.539818,38.726308],[43.523794,38.732393],[43.55489,38.78422],[43.587558,38.797378],[43.619505,38.807698],[43.605206,38.833663],[43.619495,38.838344],[43.614938,38.84736],[43.619183,38.853161],[43.661808,38.862633],[43.666231,38.878912],[43.657781,38.88926],[43.657741,38.902573],[43.630911,38.906914],[43.621947,38.927938],[43.567872,38.954974],[43.565105,38.949125],[43.225074,38.865935],[43.171145,38.82774],[43.124364,38.776809],[43.090058,38.759496],[43.038385,38.722046],[42.998774,38.678891],[42.982604,38.673876]]],"type":"Polygon"}},{"type":"Feature","properties":{"area_id":"TR-65-001","name_tr":"Bahçesaray","area_level":"district","parent_id":"TR-65","endeksa_id":1770},"geometry":{"coordinates":[[[42.721504,38.231791],[42.706033,38.198793],[42.701491,38.171814],[42.685576,38.153749],[42.671308,38.120427],[42.675764,38.067882],[42.684467,38.052736],[42.677915,38.027733],[42.684779,38.030161],[42.72376,38.012695],[42.731281,38.016218],[42.748098,38.010293],[42.766635,37.995359],[42.798404,37.997953],[42.816913,37.986133],[42.847085,37.992763],[42.875583,37.978945],[42.894202,38.022174],[42.916134,38.032571],[42.930458,38.047149],[42.948389,38.052939],[42.953285,38.060061],[42.947959,38.080163],[42.930632,38.095519],[42.935092,38.101598],[42.930773,38.109108],[42.913727,38.113441],[42.894748,38.126826],[42.895745,38.140732],[42.932574,38.136525],[42.941105,38.164395],[42.948164,38.16627],[42.933346,38.184864],[42.924333,38.191802],[42.889247,38.190872],[42.856194,38.21472],[42.842657,38.220439],[42.819619,38.218063],[42.803442,38.231793],[42.784562,38.232221],[42.775836,38.225795],[42.736988,38.229734],[42.735592,38.224081],[42.721504,38.231791]]],"type":"Polygon"}},{"type":"Feature","properties":{"area_id":"TR-65-003","name_tr":"Çaldıran","area_level":"district","parent_id":"TR-65","endeksa_id":1786},"geometry":{"coordinates":[[[43.761967,39.324114],[43.766441,39.310527],[43.776382,39.307428],[43.76441,39.267586],[43.769428,39.259701],[43.790897,39.255427],[43.785026,39.232911],[43.753973,39.232971],[43.751353,39.220673],[43.764136,39.202302],[43.773261,39.18555],[43.760244,39.184216],[43.764518,39.180257],[43.757953,39.167764],[43.764734,39.163254],[43.808414,39.167707],[43.809511,39.146214],[43.834683,39.104986],[43.852636,39.109224],[43.869382,39.102838],[43.870489,39.084658],[43.854857,39.066875],[43.860413,39.057119],[43.856772,39.044829],[43.866445,39.022438],[43.847659,38.998452],[43.843043,38.963981],[43.860291,38.955143],[43.871694,38.935241],[43.869906,38.9252],[43.904977,38.919908],[43.968633,38.884061],[43.98822,38.890163],[43.991119,38.901006],[44.003883,38.908747],[44.032222,38.893792],[44.047998,38.895386],[44.054056,38.90528],[44.07384,38.913566],[44.063275,38.931756],[44.084861,38.955102],[44.105833,38.940264],[44.113422,38.941277],[44.121924,38.955012],[44.135216,38.961579],[44.165277,38.954234],[44.181908,38.957579],[44.188839,38.980501],[44.172323,38.989559],[44.173568,39.00013],[44.1798,39.010577],[44.191391,39.009602],[44.21161,39.020538],[44.195683,39.041732],[44.205839,39.054413],[44.190327,39.075039],[44.199691,39.087311],[44.223827,39.094126],[44.207658,39.1138],[44.213206,39.130792],[44.166949,39.176943],[44.11376,39.189434],[44.108416,39.200314],[44.096615,39.203798],[44.094054,39.216549],[44.102646,39.242323],[44.084056,39.255059],[44.092295,39.263519],[44.094026,39.27642],[44.107097,39.28366],[44.07953,39.296683],[44.079179,39.326279],[44.056253,39.345674],[44.034211,39.345952],[44.026279,39.355947],[43.940667,39.366578],[43.862135,39.354131],[43.811665,39.384747],[43.800945,39.382816],[43.792378,39.366969],[43.790141,39.340961],[43.761967,39.324114]]],"type":"Polygon"}},{"type":"Feature","properties":{"area_id":"TR-65-005","name_tr":"Edremit","area_level":"district","parent_id":"TR-65","endeksa_id":1918},"geometry":{"coordinates":[[[43.119379,38.37428],[43.130438,38.34732],[43.137693,38.348648],[43.133711,38.343709],[43.137138,38.337884],[43.141707,38.334594],[43.139365,38.344452],[43.148787,38.337599],[43.149025,38.323835],[43.163182,38.326201],[43.158343,38.329226],[43.165783,38.337049],[43.160946,38.350639],[43.173153,38.351517],[43.175468,38.343125],[43.16959,38.33553],[43.174353,38.330614],[43.165261,38.326882],[43.167277,38.315158],[43.187733,38.318745],[43.207144,38.294455],[43.215174,38.293759],[43.223531,38.309346],[43.246068,38.33001],[43.263653,38.305722],[43.280763,38.309033],[43.293401,38.304744],[43.29285,38.31052],[43.31381,38.30823],[43.324201,38.315997],[43.320972,38.324378],[43.325076,38.324102],[43.32911,38.338226],[43.327865,38.354391],[43.345076,38.37272],[43.375124,38.367597],[43.412806,38.389138],[43.454354,38.398561],[43.461652,38.391723],[43.46767,38.360713],[43.490172,38.367575],[43.497474,38.372898],[43.493564,38.378124],[43.498186,38.382338],[43.492078,38.391024],[43.478547,38.393093],[43.477508,38.406903],[43.465231,38.408989],[43.458027,38.424862],[43.422853,38.452604],[43.421074,38.466938],[43.40648,38.470557],[43.398505,38.479521],[43.387389,38.478587],[43.368013,38.488694],[43.358203,38.479086],[43.350176,38.489911],[43.319662,38.489841],[43.323698,38.486856],[43.31932,38.477498],[43.321613,38.447779],[43.306972,38.431375],[43.251761,38.448213],[43.210601,38.434999],[43.119379,38.37428]]],"type":"Polygon"}},{"type":"Feature","properties":{"area_id":"TR-65-012","name_tr":"Saray","area_level":"district","parent_id":"TR-65","endeksa_id":1980},"geometry":{"coordinates":[[[44.065809,38.670474],[44.100552,38.662248],[44.098449,38.657651],[44.119575,38.648544],[44.095991,38.621829],[44.102501,38.619273],[44.098661,38.605753],[44.110574,38.589065],[44.106595,38.577641],[44.114688,38.574406],[44.11832,38.563022],[44.103121,38.557832],[44.088417,38.544235],[44.073454,38.542515],[44.050091,38.550702],[44.025485,38.52679],[44.008645,38.527298],[43.993002,38.519512],[43.986614,38.522875],[43.980985,38.513408],[43.985372,38.499683],[43.999034,38.487418],[43.999712,38.471595],[44.00479,38.467983],[44.00222,38.457889],[43.987585,38.460658],[43.974864,38.452028],[43.987089,38.438138],[44.01593,38.423805],[44.045716,38.418629],[44.031467,38.397785],[44.035786,38.391253],[44.028296,38.384751],[44.047649,38.372617],[44.048634,38.365474],[44.073009,38.35898],[44.084443,38.348404],[44.123459,38.347457],[44.156494,38.346349],[44.178985,38.329409],[44.195677,38.328034],[44.207784,38.333745],[44.215247,38.323749],[44.23139,38.324815],[44.251107,38.333153],[44.253434,38.349124],[44.262667,38.350754],[44.242662,38.362909],[44.21832,38.362038],[44.205958,38.378521],[44.249613,38.382775],[44.274088,38.374791],[44.312336,38.378535],[44.300628,38.394668],[44.31104,38.395393],[44.319523,38.408136],[44.318812,38.42641],[44.301505,38.447634],[44.310623,38.454465],[44.312788,38.476749],[44.324591,38.483305],[44.320105,38.494846],[44.325519,38.502722],[44.313418,38.515356],[44.30922,38.530597],[44.31768,38.551448],[44.311726,38.560072],[44.316902,38.573863],[44.325318,38.577197],[44.317497,38.598648],[44.32072,38.622204],[44.305062,38.635894],[44.274287,38.641798],[44.267181,38.649768],[44.283028,38.661966],[44.279219,38.66724],[44.282895,38.674594],[44.271954,38.680327],[44.270433,38.702608],[44.261615,38.703087],[44.260084,38.714662],[44.253154,38.717498],[44.262773,38.722526],[44.249862,38.737043],[44.22759,38.743718],[44.208913,38.757884],[44.195148,38.747106],[44.180084,38.76199],[44.155172,38.752327],[44.165242,38.747492],[44.155005,38.727873],[44.155331,38.721634],[44.162625,38.718672],[44.145743,38.707308],[44.13477,38.691059],[44.065809,38.670474]]],"type":"Polygon"}},{"type":"Feature","properties":{"area_id":"TR-65-009","name_tr":"İpekyolu","area_level":"district","parent_id":"TR-65","endeksa_id":2098},"geometry":{"coordinates":[[[43.315402,38.514104],[43.320694,38.508806],[43.319662,38.489841],[43.350176,38.489911],[43.358203,38.479086],[43.368013,38.488694],[43.387389,38.478587],[43.398505,38.479521],[43.40648,38.470557],[43.421074,38.466938],[43.422853,38.452604],[43.458027,38.424862],[43.465231,38.408989],[43.477508,38.406903],[43.487417,38.403241],[43.496916,38.413481],[43.495062,38.422456],[43.521826,38.432973],[43.518703,38.46935],[43.550767,38.492402],[43.575938,38.4971],[43.587757,38.468859],[43.582582,38.466202],[43.594686,38.460418],[43.633897,38.463602],[43.650316,38.470407],[43.672532,38.463383],[43.704062,38.46492],[43.736989,38.45337],[43.75614,38.454797],[43.770439,38.488999],[43.767784,38.49475],[43.780828,38.498422],[43.775282,38.514605],[43.786969,38.515828],[43.804383,38.534592],[43.805054,38.550482],[43.815933,38.557021],[43.811084,38.564921],[43.825444,38.568232],[43.820811,38.596585],[43.812188,38.604752],[43.824279,38.632882],[43.833345,38.637998],[43.843861,38.659458],[43.830424,38.661897],[43.841866,38.673493],[43.845459,38.688329],[43.841081,38.693897],[43.841366,38.726568],[43.828945,38.730999],[43.825495,38.741112],[43.804578,38.747228],[43.78572,38.751319],[43.769081,38.745065],[43.753493,38.748595],[43.752296,38.743039],[43.697596,38.751937],[43.672205,38.742324],[43.658815,38.744326],[43.657452,38.750298],[43.667564,38.761657],[43.664544,38.767402],[43.632751,38.773769],[43.624041,38.783264],[43.594181,38.787557],[43.587558,38.797378],[43.55489,38.78422],[43.523794,38.732393],[43.539818,38.726308],[43.564017,38.690269],[43.579275,38.682021],[43.584191,38.664341],[43.576476,38.64974],[43.522885,38.592132],[43.436083,38.555982],[43.425561,38.542871],[43.411228,38.538157],[43.417039,38.521909],[43.401043,38.50961],[43.402447,38.50556],[43.325564,38.520551],[43.315402,38.514104]]],"type":"Polygon"}}]}