{"type":"FeatureCollection","area_id":"TR-60","name_tr":"Tokat","source_id":"endeksa","licence":null,"retrieved_at":"2026-08-23","features":[{"type":"Feature","properties":{"area_id":"TR-60-001","name_tr":"Almus","area_level":"district","parent_id":"TR-60","endeksa_id":1129},"geometry":{"coordinates":[[[36.743888,40.371732],[36.748717,40.350598],[36.765832,40.337515],[36.754735,40.305746],[36.764962,40.30271],[36.762218,40.277972],[36.769181,40.274642],[36.765679,40.259767],[36.769537,40.252471],[36.762118,40.239582],[36.774649,40.201435],[36.781003,40.20728],[36.835305,40.219109],[36.871711,40.197702],[36.907168,40.193575],[36.941243,40.204627],[36.958148,40.191798],[36.95445,40.17495],[36.983719,40.163683],[37.028763,40.164261],[37.073548,40.177483],[37.080521,40.195281],[37.074238,40.202506],[37.074092,40.219384],[37.083522,40.222851],[37.078864,40.235603],[37.09349,40.249676],[37.118631,40.23754],[37.172606,40.230941],[37.192934,40.237527],[37.228058,40.219097],[37.32306,40.206239],[37.350298,40.182678],[37.350637,40.170461],[37.40949,40.155266],[37.406805,40.165805],[37.412126,40.173534],[37.439947,40.168434],[37.448338,40.15328],[37.445198,40.145644],[37.472206,40.148602],[37.478011,40.156169],[37.469697,40.157952],[37.461124,40.170786],[37.465191,40.183183],[37.459156,40.197719],[37.439453,40.204572],[37.449559,40.222616],[37.439549,40.226222],[37.43741,40.254464],[37.411123,40.25977],[37.376048,40.277914],[37.324772,40.287929],[37.298369,40.303505],[37.25271,40.317012],[37.233454,40.312397],[37.236313,40.319448],[37.220779,40.323759],[37.221228,40.33231],[37.232409,40.338935],[37.231317,40.34674],[37.220266,40.34974],[37.217805,40.344227],[37.197638,40.338081],[37.185249,40.341715],[37.191235,40.35099],[37.186478,40.359482],[37.19804,40.368096],[37.180282,40.368801],[37.164445,40.380167],[37.183902,40.395631],[37.115961,40.390178],[37.061481,40.407367],[37.048622,40.418558],[37.029807,40.421722],[37.021567,40.428646],[36.974406,40.4246],[36.958754,40.439842],[36.942678,40.445382],[36.945444,40.451159],[36.932769,40.447658],[36.931242,40.454471],[36.905799,40.464033],[36.891499,40.451372],[36.89642,40.448753],[36.889789,40.434887],[36.877243,40.449137],[36.877863,40.470239],[36.855865,40.481129],[36.848492,40.451574],[36.835812,40.433233],[36.842596,40.435649],[36.856303,40.423988],[36.872404,40.428583],[36.878295,40.423147],[36.872488,40.417267],[36.850195,40.397899],[36.831889,40.391061],[36.75761,40.39511],[36.743888,40.371732]]],"type":"Polygon"}},{"type":"Feature","properties":{"area_id":"TR-60-002","name_tr":"Artova","area_level":"district","parent_id":"TR-60","endeksa_id":1151},"geometry":{"coordinates":[[[36.095337,40.158498],[36.098105,40.149514],[36.093741,40.146253],[36.107869,40.141899],[36.102339,40.136622],[36.106656,40.116672],[36.066548,40.097322],[36.067432,40.084745],[36.076752,40.070985],[36.101305,40.076265],[36.1176,40.070896],[36.121508,40.063706],[36.207929,40.071451],[36.236391,40.057446],[36.249262,40.061967],[36.251207,40.076262],[36.263883,40.081149],[36.27173,40.060866],[36.268577,40.056366],[36.273048,40.054463],[36.270608,40.046229],[36.277997,40.043342],[36.273318,40.042315],[36.274856,40.037316],[36.289073,40.033829],[36.314534,40.044453],[36.322276,40.038147],[36.338756,40.042475],[36.381417,40.052408],[36.38454,40.05769],[36.403715,40.058679],[36.410483,40.064447],[36.411723,40.07983],[36.422205,40.079959],[36.412539,40.115674],[36.400755,40.129623],[36.427276,40.158163],[36.412405,40.162073],[36.392618,40.178093],[36.398641,40.202028],[36.39073,40.220318],[36.374844,40.226156],[36.363805,40.221467],[36.352863,40.21269],[36.324359,40.215136],[36.320178,40.20025],[36.297213,40.186856],[36.29041,40.193434],[36.262908,40.193898],[36.24883,40.201419],[36.218518,40.192637],[36.200884,40.195787],[36.191313,40.187896],[36.167497,40.186836],[36.145902,40.197952],[36.13181,40.193301],[36.12284,40.196473],[36.125099,40.189673],[36.118515,40.193724],[36.103986,40.163218],[36.095337,40.158498]]],"type":"Polygon"}},{"type":"Feature","properties":{"area_id":"TR-60-004","name_tr":"Erbaa","area_level":"district","parent_id":"TR-60","endeksa_id":1308},"geometry":{"coordinates":[[[36.412533,40.838394],[36.41389,40.814852],[36.509726,40.765735],[36.475495,40.756953],[36.445654,40.761792],[36.42363,40.73844],[36.407408,40.734459],[36.396632,40.708712],[36.403064,40.673083],[36.32578,40.603305],[36.309861,40.589742],[36.338974,40.592233],[36.362272,40.580149],[36.366269,40.571349],[36.357527,40.558642],[36.362844,40.55612],[36.353131,40.551246],[36.361347,40.550446],[36.369389,40.539146],[36.352104,40.514344],[36.384198,40.517845],[36.401177,40.507817],[36.412305,40.512544],[36.489347,40.514589],[36.494157,40.513277],[36.491444,40.504577],[36.510791,40.4938],[36.525692,40.494282],[36.555147,40.518526],[36.552734,40.51148],[36.573589,40.514648],[36.55148,40.532072],[36.559795,40.547175],[36.555247,40.551284],[36.5913,40.544619],[36.614426,40.54864],[36.614682,40.543303],[36.628716,40.542883],[36.633283,40.554829],[36.641773,40.551922],[36.639817,40.556793],[36.669471,40.557993],[36.688145,40.587294],[36.679833,40.597323],[36.702723,40.608157],[36.707995,40.629011],[36.704862,40.637107],[36.713065,40.653073],[36.723374,40.647403],[36.723971,40.660125],[36.741386,40.660839],[36.746189,40.650693],[36.769896,40.653004],[36.79242,40.638863],[36.799884,40.644266],[36.804948,40.658954],[36.816936,40.668562],[36.787547,40.687196],[36.792959,40.695623],[36.790574,40.709357],[36.805364,40.711896],[36.807599,40.721387],[36.820971,40.728967],[36.840053,40.740372],[36.847993,40.760358],[36.872793,40.77321],[36.866368,40.772451],[36.864781,40.778882],[36.859022,40.77725],[36.849416,40.78684],[36.842706,40.781153],[36.813243,40.790481],[36.811875,40.784537],[36.801001,40.781745],[36.798398,40.792658],[36.784268,40.799899],[36.789686,40.809208],[36.78394,40.81632],[36.785262,40.832593],[36.742428,40.833891],[36.695543,40.848925],[36.69257,40.853236],[36.703606,40.858984],[36.689299,40.87239],[36.695024,40.880243],[36.689427,40.885506],[36.682844,40.882263],[36.684027,40.887571],[36.682649,40.894295],[36.670427,40.893851],[36.665042,40.900884],[36.659733,40.897919],[36.65977,40.904176],[36.643487,40.904216],[36.639313,40.910499],[36.624537,40.907358],[36.618739,40.89548],[36.59616,40.908683],[36.583866,40.895331],[36.568922,40.899318],[36.494152,40.873126],[36.483485,40.877033],[36.472608,40.87353],[36.45303,40.882033],[36.447588,40.878026],[36.44852,40.870488],[36.435032,40.87561],[36.426449,40.864802],[36.412533,40.838394]]],"type":"Polygon"}},{"type":"Feature","properties":{"area_id":"TR-60-005","name_tr":"Niksar","area_level":"district","parent_id":"TR-60","endeksa_id":1545},"geometry":{"coordinates":[[[36.679833,40.597323],[36.688145,40.587294],[36.669471,40.557993],[36.713053,40.552102],[36.710741,40.545405],[36.725859,40.552794],[36.761574,40.5512],[36.794443,40.54523],[36.800325,40.537226],[36.822479,40.536018],[36.825908,40.521882],[36.837168,40.525196],[36.833142,40.518249],[36.840287,40.51596],[36.833142,40.505698],[36.832275,40.490475],[36.845857,40.480579],[36.867435,40.490914],[36.862291,40.484393],[36.868956,40.476986],[36.905799,40.464033],[36.931242,40.454471],[36.932769,40.447658],[36.945444,40.451159],[36.942678,40.445382],[36.958754,40.439842],[36.974406,40.4246],[37.021567,40.428646],[37.029807,40.421722],[37.048622,40.418558],[37.061481,40.407367],[37.115961,40.390178],[37.121458,40.412883],[37.113794,40.42238],[37.121904,40.436346],[37.122446,40.449194],[37.133115,40.463286],[37.165885,40.464697],[37.173997,40.471219],[37.166051,40.484214],[37.146794,40.491876],[37.145288,40.502012],[37.16006,40.51942],[37.130074,40.518103],[37.128357,40.510674],[37.115183,40.50313],[37.105044,40.506164],[37.106121,40.511148],[37.094696,40.51913],[37.086391,40.506662],[37.072045,40.506575],[37.065153,40.500745],[37.049651,40.511386],[37.034912,40.496134],[37.023806,40.50756],[37.008298,40.508001],[37.014866,40.513692],[37.089854,40.519877],[37.078174,40.521385],[37.093103,40.533349],[37.085642,40.5357],[37.047766,40.525874],[37.026553,40.536264],[37.043897,40.549294],[37.048788,40.560356],[37.080172,40.557346],[37.096201,40.566595],[37.107571,40.560775],[37.117709,40.570927],[37.0895,40.581368],[37.058742,40.577615],[37.055509,40.583608],[37.067876,40.597271],[37.067561,40.604781],[37.075613,40.610622],[37.098616,40.605415],[37.128584,40.618612],[37.137301,40.604539],[37.132025,40.588325],[37.142494,40.580547],[37.154235,40.580828],[37.167955,40.583777],[37.170553,40.588752],[37.164811,40.592561],[37.174323,40.593014],[37.189047,40.607256],[37.209344,40.614356],[37.206809,40.606204],[37.24084,40.613344],[37.24789,40.622663],[37.241308,40.633672],[37.246716,40.645719],[37.22996,40.657257],[37.240679,40.668481],[37.225532,40.667581],[37.223611,40.673741],[37.187866,40.685641],[37.189677,40.706759],[37.178724,40.716153],[37.164385,40.70707],[37.150837,40.708454],[37.134917,40.736859],[37.121922,40.738755],[37.105909,40.745145],[37.102376,40.728486],[37.09166,40.721946],[37.091808,40.707527],[37.083911,40.71025],[37.073927,40.701424],[37.058547,40.705445],[37.059415,40.701599],[37.044503,40.698289],[37.041566,40.703127],[37.036009,40.693331],[36.995762,40.691028],[36.985137,40.672436],[36.970909,40.669755],[36.951372,40.68874],[36.945873,40.702924],[36.951917,40.732785],[36.932032,40.731281],[36.928664,40.726029],[36.91933,40.738789],[36.898201,40.744058],[36.890146,40.720278],[36.879063,40.714619],[36.859889,40.721264],[36.827674,40.719683],[36.820971,40.728967],[36.807599,40.721387],[36.805364,40.711896],[36.790574,40.709357],[36.792959,40.695623],[36.787547,40.687196],[36.816936,40.668562],[36.804948,40.658954],[36.799884,40.644266],[36.79242,40.638863],[36.769896,40.653004],[36.746189,40.650693],[36.741386,40.660839],[36.723971,40.660125],[36.723374,40.647403],[36.713065,40.653073],[36.704862,40.637107],[36.707995,40.629011],[36.702723,40.608157],[36.679833,40.597323]]],"type":"Polygon"}},{"type":"Feature","properties":{"area_id":"TR-60-007","name_tr":"Reşadiye","area_level":"district","parent_id":"TR-60","endeksa_id":1584},"geometry":{"coordinates":[[[37.113794,40.42238],[37.121458,40.412883],[37.115961,40.390178],[37.183902,40.395631],[37.164445,40.380167],[37.180282,40.368801],[37.19804,40.368096],[37.186478,40.359482],[37.191235,40.35099],[37.185249,40.341715],[37.197638,40.338081],[37.217805,40.344227],[37.220266,40.34974],[37.231317,40.34674],[37.232409,40.338935],[37.221228,40.33231],[37.220779,40.323759],[37.236313,40.319448],[37.233454,40.312397],[37.25271,40.317012],[37.298369,40.303505],[37.324772,40.287929],[37.376048,40.277914],[37.411123,40.25977],[37.43741,40.254464],[37.443517,40.257832],[37.451485,40.249285],[37.493529,40.248368],[37.514369,40.253958],[37.522713,40.267942],[37.534651,40.264462],[37.540255,40.273647],[37.536423,40.280438],[37.545086,40.291367],[37.539399,40.300778],[37.557293,40.306629],[37.574737,40.325271],[37.599869,40.32283],[37.611685,40.327263],[37.616541,40.336363],[37.613387,40.358204],[37.60124,40.360901],[37.607719,40.364006],[37.586762,40.376022],[37.578542,40.390476],[37.565396,40.420474],[37.604221,40.481388],[37.59672,40.488701],[37.597461,40.49559],[37.619866,40.511491],[37.622015,40.525835],[37.613053,40.528558],[37.601963,40.521489],[37.595003,40.52751],[37.55295,40.53494],[37.541164,40.539062],[37.536854,40.533033],[37.528776,40.53935],[37.518865,40.53221],[37.489229,40.546627],[37.482466,40.540176],[37.47111,40.550399],[37.451756,40.55673],[37.443555,40.566419],[37.41861,40.544916],[37.393052,40.544153],[37.385837,40.549565],[37.386702,40.557128],[37.367025,40.559655],[37.372841,40.568007],[37.367343,40.584398],[37.357459,40.572993],[37.348864,40.581782],[37.327903,40.588951],[37.31346,40.586191],[37.304948,40.593299],[37.292238,40.587816],[37.288852,40.597696],[37.282572,40.593894],[37.269431,40.602502],[37.272887,40.597701],[37.260827,40.579374],[37.238067,40.570289],[37.239466,40.562036],[37.24652,40.562164],[37.241935,40.555583],[37.245471,40.545927],[37.231443,40.536128],[37.214866,40.535379],[37.208877,40.521385],[37.1902,40.514095],[37.182385,40.503617],[37.18259,40.464904],[37.166643,40.450582],[37.167823,40.441619],[37.181114,40.440139],[37.175245,40.428089],[37.156289,40.425222],[37.121904,40.436346],[37.113794,40.42238]]],"type":"Polygon"}},{"type":"Feature","properties":{"area_id":"TR-60-009","name_tr":"Tokat","area_level":"district","parent_id":"TR-60","endeksa_id":1679},"geometry":{"coordinates":[[[36.323751,40.387956],[36.326868,40.362359],[36.338691,40.352243],[36.335732,40.325838],[36.339305,40.315052],[36.347486,40.310457],[36.334601,40.301773],[36.340202,40.278196],[36.353841,40.270636],[36.350467,40.257971],[36.357369,40.246226],[36.356715,40.228696],[36.363805,40.221467],[36.374844,40.226156],[36.39073,40.220318],[36.398641,40.202028],[36.392618,40.178093],[36.412405,40.162073],[36.427276,40.158163],[36.400755,40.129623],[36.412539,40.115674],[36.422205,40.079959],[36.411723,40.07983],[36.410483,40.064447],[36.403715,40.058679],[36.38454,40.05769],[36.381417,40.052408],[36.338756,40.042475],[36.349719,40.034102],[36.356124,40.01712],[36.369369,40.019262],[36.389151,40.010052],[36.396641,39.991773],[36.401024,39.99442],[36.402774,39.987562],[36.42314,39.975699],[36.446553,39.9448],[36.476159,39.941156],[36.465773,39.924899],[36.484528,39.913233],[36.488772,39.943275],[36.513459,39.95956],[36.578532,39.964873],[36.58809,39.968151],[36.598614,39.983202],[36.610992,39.980326],[36.629037,40.001648],[36.631244,40.027185],[36.595718,40.050991],[36.615484,40.059709],[36.616806,40.074105],[36.655197,40.083228],[36.6466,40.095908],[36.649047,40.101508],[36.674572,40.107029],[36.680315,40.118761],[36.663797,40.131703],[36.717507,40.137054],[36.71708,40.147127],[36.728223,40.151404],[36.742734,40.177096],[36.764914,40.183301],[36.761719,40.198991],[36.774649,40.201435],[36.762118,40.239582],[36.769537,40.252471],[36.765679,40.259767],[36.769181,40.274642],[36.762218,40.277972],[36.764962,40.30271],[36.754735,40.305746],[36.765832,40.337515],[36.748717,40.350598],[36.743888,40.371732],[36.75761,40.39511],[36.831889,40.391061],[36.850195,40.397899],[36.872488,40.417267],[36.878295,40.423147],[36.872404,40.428583],[36.856303,40.423988],[36.842596,40.435649],[36.835812,40.433233],[36.848492,40.451574],[36.855865,40.481129],[36.877863,40.470239],[36.877243,40.449137],[36.889789,40.434887],[36.89642,40.448753],[36.891499,40.451372],[36.905799,40.464033],[36.868956,40.476986],[36.862291,40.484393],[36.867435,40.490914],[36.845857,40.480579],[36.832275,40.490475],[36.833142,40.505698],[36.840287,40.51596],[36.833142,40.518249],[36.837168,40.525196],[36.825908,40.521882],[36.822479,40.536018],[36.800325,40.537226],[36.794443,40.54523],[36.761574,40.5512],[36.725859,40.552794],[36.710741,40.545405],[36.713053,40.552102],[36.669471,40.557993],[36.639817,40.556793],[36.641773,40.551922],[36.633283,40.554829],[36.628716,40.542883],[36.614682,40.543303],[36.614426,40.54864],[36.5913,40.544619],[36.555247,40.551284],[36.559795,40.547175],[36.55148,40.532072],[36.573589,40.514648],[36.552734,40.51148],[36.555147,40.518526],[36.525692,40.494282],[36.510791,40.4938],[36.491444,40.504577],[36.494157,40.513277],[36.489347,40.514589],[36.412305,40.512544],[36.424176,40.50437],[36.431057,40.487567],[36.444773,40.482567],[36.447349,40.471857],[36.424128,40.45443],[36.399823,40.454],[36.392278,40.444561],[36.390755,40.419764],[36.377622,40.417285],[36.385868,40.394994],[36.376917,40.390384],[36.379639,40.384158],[36.361536,40.38418],[36.340756,40.374401],[36.332623,40.379591],[36.33243,40.387723],[36.323751,40.387956]]],"type":"Polygon"}},{"type":"Feature","properties":{"area_id":"TR-60-010","name_tr":"Turhal","area_level":"district","parent_id":"TR-60","endeksa_id":1690},"geometry":{"coordinates":[[[35.819992,40.452154],[35.835156,40.444178],[35.830768,40.436847],[35.840281,40.437732],[35.840464,40.431731],[35.854629,40.429168],[35.865028,40.402367],[35.861565,40.396437],[35.897198,40.387956],[35.902596,40.376199],[35.898314,40.375405],[35.911117,40.371974],[35.915913,40.363692],[35.93174,40.362186],[35.950451,40.377006],[35.963453,40.366396],[35.984095,40.367778],[36.002508,40.360169],[36.004723,40.367908],[36.014092,40.35546],[36.030898,40.347577],[36.004606,40.321197],[36.00039,40.309796],[36.023231,40.297811],[36.022224,40.284761],[36.034458,40.273426],[36.03044,40.268501],[36.038666,40.26568],[36.041883,40.255419],[36.033894,40.235233],[36.037553,40.228617],[36.048818,40.223557],[36.045075,40.217223],[36.057531,40.211469],[36.077856,40.205707],[36.089814,40.210711],[36.087107,40.202045],[36.11542,40.201843],[36.116492,40.197578],[36.125005,40.219576],[36.121122,40.233326],[36.125044,40.240884],[36.106918,40.281382],[36.124232,40.285734],[36.13393,40.268191],[36.144963,40.270505],[36.141257,40.277457],[36.154581,40.285464],[36.151181,40.291406],[36.159309,40.298306],[36.142469,40.313478],[36.15846,40.303971],[36.173424,40.30746],[36.171386,40.301998],[36.178462,40.305186],[36.180876,40.300103],[36.217419,40.301802],[36.216749,40.296664],[36.235372,40.293486],[36.23672,40.287492],[36.246051,40.298426],[36.263579,40.300318],[36.29329,40.289798],[36.306889,40.300044],[36.334601,40.301773],[36.347486,40.310457],[36.339305,40.315052],[36.335732,40.325838],[36.338691,40.352243],[36.326868,40.362359],[36.323751,40.387956],[36.33243,40.387723],[36.332623,40.379591],[36.340756,40.374401],[36.361536,40.38418],[36.379639,40.384158],[36.376917,40.390384],[36.385868,40.394994],[36.377622,40.417285],[36.390755,40.419764],[36.392278,40.444561],[36.399823,40.454],[36.424128,40.45443],[36.447349,40.471857],[36.444773,40.482567],[36.431057,40.487567],[36.424176,40.50437],[36.412305,40.512544],[36.401177,40.507817],[36.384198,40.517845],[36.352104,40.514344],[36.369389,40.539146],[36.361347,40.550446],[36.353131,40.551246],[36.362844,40.55612],[36.357527,40.558642],[36.366269,40.571349],[36.362272,40.580149],[36.338974,40.592233],[36.309861,40.589742],[36.260746,40.517528],[36.245639,40.505396],[36.200022,40.48585],[36.127024,40.469381],[36.121703,40.466291],[36.134251,40.465384],[36.111923,40.437031],[36.01956,40.468762],[36.009783,40.475511],[36.01778,40.482543],[36.011541,40.489025],[35.978918,40.499581],[35.970193,40.495862],[35.949116,40.4992],[35.942887,40.495228],[35.947214,40.484538],[35.929451,40.479896],[35.916569,40.479338],[35.90785,40.486815],[35.86871,40.482965],[35.857053,40.464516],[35.843104,40.463907],[35.841931,40.468894],[35.819992,40.452154]]],"type":"Polygon"}},{"type":"Feature","properties":{"area_id":"TR-60-012","name_tr":"Zile","area_level":"district","parent_id":"TR-60","endeksa_id":1740},"geometry":{"coordinates":[[[35.434036,40.234141],[35.441972,40.229714],[35.458404,40.201076],[35.479601,40.211577],[35.503529,40.209873],[35.503604,40.203163],[35.495355,40.19859],[35.496908,40.194827],[35.502555,40.199004],[35.49587,40.187295],[35.505619,40.179026],[35.50062,40.177128],[35.504055,40.175417],[35.49509,40.145539],[35.491988,40.1505],[35.47592,40.13041],[35.51192,40.12231],[35.539647,40.143598],[35.541118,40.137628],[35.550039,40.135865],[35.55124,40.11677],[35.56265,40.11622],[35.59864,40.09376],[35.619408,40.107981],[35.611892,40.118809],[35.631994,40.123446],[35.651983,40.115991],[35.660755,40.119218],[35.675026,40.113151],[35.671001,40.104338],[35.67894,40.09926],[35.677174,40.095404],[35.68422,40.09502],[35.67964,40.09258],[35.682578,40.089412],[35.69327,40.08518],[35.7107,40.10054],[35.75423,40.11],[35.754042,40.103983],[35.79445,40.10694],[35.811228,40.117364],[35.823843,40.106181],[35.862705,40.106174],[35.868627,40.129797],[35.90323,40.13942],[35.90735,40.11422],[35.96824,40.11993],[35.962515,40.087215],[36.066548,40.097322],[36.106656,40.116672],[36.102339,40.136622],[36.107869,40.141899],[36.093741,40.146253],[36.098105,40.149514],[36.095337,40.158498],[36.103986,40.163218],[36.118515,40.193724],[36.116492,40.197578],[36.11542,40.201843],[36.087107,40.202045],[36.089814,40.210711],[36.077856,40.205707],[36.057531,40.211469],[36.045075,40.217223],[36.048818,40.223557],[36.037553,40.228617],[36.033894,40.235233],[36.041883,40.255419],[36.038666,40.26568],[36.03044,40.268501],[36.034458,40.273426],[36.022224,40.284761],[36.023231,40.297811],[36.00039,40.309796],[36.004606,40.321197],[36.030898,40.347577],[36.014092,40.35546],[36.004723,40.367908],[36.002508,40.360169],[35.984095,40.367778],[35.963453,40.366396],[35.950451,40.377006],[35.93174,40.362186],[35.915913,40.363692],[35.911117,40.371974],[35.898314,40.375405],[35.902596,40.376199],[35.897198,40.387956],[35.861565,40.396437],[35.865028,40.402367],[35.854629,40.429168],[35.840464,40.431731],[35.840281,40.437732],[35.830768,40.436847],[35.835156,40.444178],[35.819992,40.452154],[35.800908,40.449372],[35.799276,40.44047],[35.770614,40.42669],[35.753934,40.425454],[35.731047,40.408433],[35.705279,40.365744],[35.665928,40.356727],[35.662239,40.367965],[35.646274,40.367684],[35.645972,40.355763],[35.635528,40.340457],[35.509776,40.303049],[35.434036,40.234141]]],"type":"Polygon"}},{"type":"Feature","properties":{"area_id":"TR-60-006","name_tr":"Pazar","area_level":"district","parent_id":"TR-60","endeksa_id":1834},"geometry":{"coordinates":[[[36.106918,40.281382],[36.125044,40.240884],[36.121122,40.233326],[36.125005,40.219576],[36.116492,40.197578],[36.118515,40.193724],[36.125099,40.189673],[36.12284,40.196473],[36.13181,40.193301],[36.145902,40.197952],[36.167497,40.186836],[36.191313,40.187896],[36.200884,40.195787],[36.218518,40.192637],[36.24883,40.201419],[36.262908,40.193898],[36.29041,40.193434],[36.297213,40.186856],[36.320178,40.20025],[36.324359,40.215136],[36.352863,40.21269],[36.363805,40.221467],[36.356715,40.228696],[36.357369,40.246226],[36.350467,40.257971],[36.353841,40.270636],[36.340202,40.278196],[36.334601,40.301773],[36.306889,40.300044],[36.29329,40.289798],[36.263579,40.300318],[36.246051,40.298426],[36.23672,40.287492],[36.235372,40.293486],[36.216749,40.296664],[36.217419,40.301802],[36.180876,40.300103],[36.178462,40.305186],[36.171386,40.301998],[36.173424,40.30746],[36.15846,40.303971],[36.142469,40.313478],[36.159309,40.298306],[36.151181,40.291406],[36.154581,40.285464],[36.141257,40.277457],[36.144963,40.270505],[36.13393,40.268191],[36.124232,40.285734],[36.106918,40.281382]]],"type":"Polygon"}},{"type":"Feature","properties":{"area_id":"TR-60-011","name_tr":"Yeşilyurt","area_level":"district","parent_id":"TR-60","endeksa_id":1858},"geometry":{"coordinates":[[[36.104167,40.052513],[36.111194,40.043901],[36.101168,40.021301],[36.112987,40.020648],[36.109522,40.011457],[36.113286,40.013375],[36.13838,39.983871],[36.142243,39.96735],[36.155028,39.966027],[36.150802,39.959557],[36.136837,39.963658],[36.123044,39.958209],[36.121641,39.923858],[36.130482,39.915652],[36.17207,39.911015],[36.178412,39.898534],[36.195384,39.89522],[36.216765,39.90217],[36.247182,39.893984],[36.265748,39.906813],[36.24178,39.922322],[36.235222,39.938556],[36.241001,39.950592],[36.26382,39.965495],[36.267989,39.978816],[36.296481,39.969692],[36.309438,39.971202],[36.318435,39.960475],[36.345747,39.966156],[36.388777,39.965812],[36.395525,39.972722],[36.42314,39.975699],[36.402774,39.987562],[36.401024,39.99442],[36.396641,39.991773],[36.389151,40.010052],[36.369369,40.019262],[36.356124,40.01712],[36.349719,40.034102],[36.338756,40.042475],[36.322276,40.038147],[36.314534,40.044453],[36.289073,40.033829],[36.274856,40.037316],[36.273318,40.042315],[36.277997,40.043342],[36.270608,40.046229],[36.273048,40.054463],[36.268577,40.056366],[36.27173,40.060866],[36.263883,40.081149],[36.251207,40.076262],[36.249262,40.061967],[36.236391,40.057446],[36.207929,40.071451],[36.121508,40.063706],[36.1176,40.070896],[36.104167,40.052513]]],"type":"Polygon"}},{"type":"Feature","properties":{"area_id":"TR-60-003","name_tr":"Başçiftlik","area_level":"district","parent_id":"TR-60","endeksa_id":1883},"geometry":{"coordinates":[[[37.008298,40.508001],[37.023806,40.50756],[37.034912,40.496134],[37.049651,40.511386],[37.065153,40.500745],[37.072045,40.506575],[37.086391,40.506662],[37.094696,40.51913],[37.106121,40.511148],[37.105044,40.506164],[37.115183,40.50313],[37.128357,40.510674],[37.130074,40.518103],[37.16006,40.51942],[37.145288,40.502012],[37.146794,40.491876],[37.166051,40.484214],[37.173997,40.471219],[37.165885,40.464697],[37.133115,40.463286],[37.122446,40.449194],[37.121904,40.436346],[37.156289,40.425222],[37.175245,40.428089],[37.181114,40.440139],[37.167823,40.441619],[37.166643,40.450582],[37.18259,40.464904],[37.182385,40.503617],[37.1902,40.514095],[37.208877,40.521385],[37.214866,40.535379],[37.231443,40.536128],[37.245471,40.545927],[37.241935,40.555583],[37.24652,40.562164],[37.239466,40.562036],[37.238067,40.570289],[37.260827,40.579374],[37.272887,40.597701],[37.269431,40.602502],[37.273719,40.620554],[37.268723,40.627616],[37.2685,40.61949],[37.257338,40.608213],[37.24084,40.613344],[37.206809,40.606204],[37.209344,40.614356],[37.189047,40.607256],[37.174323,40.593014],[37.164811,40.592561],[37.170553,40.588752],[37.167955,40.583777],[37.154235,40.580828],[37.142494,40.580547],[37.132025,40.588325],[37.137301,40.604539],[37.128584,40.618612],[37.098616,40.605415],[37.075613,40.610622],[37.067561,40.604781],[37.067876,40.597271],[37.055509,40.583608],[37.058742,40.577615],[37.0895,40.581368],[37.117709,40.570927],[37.107571,40.560775],[37.096201,40.566595],[37.080172,40.557346],[37.048788,40.560356],[37.043897,40.549294],[37.026553,40.536264],[37.047766,40.525874],[37.085642,40.5357],[37.093103,40.533349],[37.078174,40.521385],[37.089854,40.519877],[37.014866,40.513692],[37.008298,40.508001]]],"type":"Polygon"}},{"type":"Feature","properties":{"area_id":"TR-60-008","name_tr":"Sulusaray","area_level":"district","parent_id":"TR-60","endeksa_id":1987},"geometry":{"coordinates":[[[35.933151,40.040651],[35.94035,40.03022],[35.934775,40.023599],[35.94379,39.9962],[35.96258,39.98864],[35.963557,39.978657],[35.983959,39.957799],[35.976683,39.951028],[35.974439,39.935156],[35.986001,39.921045],[35.996888,39.925654],[36.008346,39.919437],[36.039772,39.93145],[36.031116,39.948024],[36.043882,39.954467],[36.050433,39.929572],[36.054892,39.92924],[36.050987,39.916826],[36.074355,39.912029],[36.079594,39.904012],[36.079114,39.871137],[36.098394,39.866619],[36.1078,39.87069],[36.126441,39.86476],[36.147236,39.884682],[36.178412,39.898534],[36.17207,39.911015],[36.130482,39.915652],[36.121641,39.923858],[36.123044,39.958209],[36.136837,39.963658],[36.150802,39.959557],[36.155028,39.966027],[36.142243,39.96735],[36.13838,39.983871],[36.113286,40.013375],[36.109522,40.011457],[36.112987,40.020648],[36.101168,40.021301],[36.111194,40.043901],[36.104167,40.052513],[36.1176,40.070896],[36.101305,40.076265],[36.076752,40.070985],[36.067432,40.084745],[36.066548,40.097322],[35.962515,40.087215],[35.96783,40.07996],[35.957406,40.041727],[35.943733,40.044962],[35.933151,40.040651]]],"type":"Polygon"}}]}