{"type":"FeatureCollection","area_id":"TR-73","name_tr":"Şırnak","source_id":"endeksa","licence":null,"retrieved_at":"2026-08-23","features":[{"type":"Feature","properties":{"area_id":"TR-73-001","name_tr":"Beytüşşebap","area_level":"district","parent_id":"TR-73","endeksa_id":1189},"geometry":{"coordinates":[[[42.64507,37.52148],[42.759583,37.500444],[42.823225,37.510237],[42.823348,37.526137],[42.843363,37.530029],[42.857833,37.541026],[42.879063,37.536654],[42.888919,37.541704],[42.90715,37.543869],[42.946144,37.542715],[42.888926,37.541692],[42.879082,37.536651],[42.882939,37.51327],[42.917014,37.510427],[42.920124,37.519804],[42.957182,37.537316],[42.960951,37.528182],[42.975158,37.526854],[42.980905,37.515142],[43.025671,37.508007],[43.029945,37.484524],[43.017573,37.475067],[43.019196,37.456684],[43.029243,37.454383],[43.030723,37.442478],[43.045,37.431026],[43.054805,37.4278],[43.064651,37.437367],[43.084377,37.432557],[43.112047,37.445297],[43.131646,37.44553],[43.155923,37.43683],[43.154667,37.429298],[43.164585,37.416073],[43.215612,37.403249],[43.242024,37.404192],[43.25828,37.412387],[43.261747,37.432289],[43.25628,37.442533],[43.317811,37.460373],[43.309188,37.490766],[43.308299,37.52879],[43.36575,37.564657],[43.39001,37.5739],[43.418646,37.566294],[43.433251,37.589049],[43.477283,37.633429],[43.490673,37.67235],[43.492663,37.705141],[43.502063,37.736502],[43.481719,37.74326],[43.362727,37.75578],[43.187242,37.736919],[43.069407,37.753386],[42.948029,37.759014],[42.921229,37.76865],[42.89194,37.768913],[42.894409,37.754801],[42.921168,37.744354],[42.920732,37.725623],[42.903908,37.703494],[42.876446,37.697046],[42.840793,37.671761],[42.845769,37.606318],[42.815924,37.578481],[42.806304,37.575618],[42.80359,37.583661],[42.788303,37.570996],[42.761204,37.561299],[42.75584,37.56795],[42.75807,37.57388],[42.73977,37.57823],[42.71177,37.57083],[42.68988,37.55989],[42.67862,37.53965],[42.64507,37.52148]]],"type":"Polygon"}},{"type":"Feature","properties":{"area_id":"TR-73-002","name_tr":"Cizre","area_level":"district","parent_id":"TR-73","endeksa_id":1223},"geometry":{"coordinates":[[[41.913574,37.171902],[41.924572,37.157623],[41.962796,37.160581],[42.002295,37.181187],[42.033945,37.181298],[42.056047,37.197819],[42.088927,37.207567],[42.102469,37.22827],[42.183595,37.286251],[42.196117,37.311291],[42.208104,37.318261],[42.221773,37.318048],[42.225735,37.313083],[42.207053,37.290286],[42.208561,37.278462],[42.235919,37.283105],[42.261705,37.271524],[42.283143,37.282413],[42.290476,37.262902],[42.311298,37.255286],[42.335666,37.300654],[42.331895,37.303683],[42.339716,37.319618],[42.339227,37.338448],[42.348768,37.344562],[42.339208,37.34807],[42.380149,37.366838],[42.387171,37.357957],[42.402711,37.366589],[42.405913,37.386444],[42.417618,37.391391],[42.395419,37.412846],[42.339771,37.409359],[42.31028,37.413115],[42.304697,37.399922],[42.287809,37.389327],[42.26935,37.390858],[42.256605,37.385571],[42.177534,37.394537],[42.183286,37.388083],[42.152753,37.379968],[42.160026,37.382183],[42.167824,37.396593],[42.138021,37.405062],[42.126346,37.40409],[42.128082,37.395667],[42.118632,37.385046],[42.102952,37.388137],[42.089678,37.373001],[42.057155,37.368842],[42.049307,37.357601],[42.051604,37.343984],[42.038622,37.344473],[42.016221,37.323084],[42.012621,37.309128],[42.035825,37.313094],[42.036902,37.29264],[42.055025,37.27436],[42.056627,37.268699],[42.045144,37.250933],[42.039956,37.251165],[42.028672,37.268905],[42.016655,37.273714],[41.994589,37.302477],[41.983117,37.298471],[41.988395,37.275356],[41.996871,37.269441],[41.988862,37.258332],[42.025132,37.23415],[42.031465,37.234926],[42.031768,37.203577],[42.023444,37.204699],[42.014,37.188152],[41.944953,37.196978],[41.937681,37.193485],[41.939842,37.182397],[41.934604,37.176401],[41.913574,37.171902]]],"type":"Polygon"}},{"type":"Feature","properties":{"area_id":"TR-73-004","name_tr":"İdil","area_level":"district","parent_id":"TR-73","endeksa_id":1403},"geometry":{"coordinates":[[[41.589482,37.439783],[41.589245,37.430079],[41.607086,37.426012],[41.600875,37.411748],[41.610945,37.406685],[41.603575,37.401657],[41.591447,37.4044],[41.587195,37.398748],[41.598546,37.381206],[41.574433,37.386016],[41.571882,37.367068],[41.563719,37.363581],[41.571224,37.344959],[41.562465,37.337436],[41.576035,37.318568],[41.564593,37.310624],[41.538263,37.306031],[41.54003,37.289269],[41.55785,37.275242],[41.574646,37.26226],[41.625675,37.260392],[41.655012,37.23478],[41.672034,37.204979],[41.67439,37.18075],[41.662095,37.162599],[41.663613,37.149715],[41.682074,37.148683],[41.675088,37.132874],[41.680143,37.116189],[41.79336,37.128527],[41.924572,37.157623],[41.913574,37.171902],[41.934604,37.176401],[41.939842,37.182397],[41.937681,37.193485],[41.944953,37.196978],[42.014,37.188152],[42.023444,37.204699],[42.031768,37.203577],[42.031465,37.234926],[42.025132,37.23415],[41.988862,37.258332],[41.996871,37.269441],[41.988395,37.275356],[41.983117,37.298471],[41.994589,37.302477],[42.016655,37.273714],[42.028672,37.268905],[42.039956,37.251165],[42.045144,37.250933],[42.056627,37.268699],[42.055025,37.27436],[42.036902,37.29264],[42.035825,37.313094],[42.012621,37.309128],[42.016221,37.323084],[42.038622,37.344473],[42.051604,37.343984],[42.049307,37.357601],[42.057155,37.368842],[42.089678,37.373001],[42.102952,37.388137],[42.025412,37.420993],[41.992133,37.422513],[41.975559,37.430202],[41.957442,37.425538],[41.940198,37.434964],[41.936454,37.433913],[41.943385,37.419886],[41.937684,37.414332],[41.891222,37.404722],[41.883092,37.416508],[41.866608,37.409804],[41.873968,37.412081],[41.873713,37.402038],[41.868276,37.399278],[41.861936,37.407046],[41.860867,37.399122],[41.853235,37.403659],[41.84088,37.400337],[41.841625,37.411756],[41.831792,37.407619],[41.82433,37.415728],[41.799158,37.414545],[41.774019,37.421473],[41.757797,37.409612],[41.751492,37.417752],[41.73634,37.420165],[41.722804,37.430188],[41.701723,37.43347],[41.703951,37.426941],[41.69523,37.426853],[41.699936,37.419007],[41.689437,37.415797],[41.689458,37.410694],[41.665676,37.415042],[41.661202,37.407047],[41.647229,37.404225],[41.627981,37.42024],[41.634183,37.422867],[41.618001,37.437559],[41.621334,37.449106],[41.610471,37.458083],[41.599531,37.456335],[41.605993,37.444609],[41.589482,37.439783]]],"type":"Polygon"}},{"type":"Feature","properties":{"area_id":"TR-73-005","name_tr":"Silopi","area_level":"district","parent_id":"TR-73","endeksa_id":1623},"geometry":{"coordinates":[[[42.339208,37.34807],[42.348768,37.344562],[42.339227,37.338448],[42.339716,37.319618],[42.331895,37.303683],[42.335666,37.300654],[42.311298,37.255286],[42.316554,37.246569],[42.341166,37.235135],[42.341407,37.221378],[42.348261,37.215075],[42.331518,37.203656],[42.320166,37.184568],[42.330552,37.153878],[42.35355,37.128794],[42.352611,37.100528],[42.362841,37.114941],[42.403074,37.112434],[42.411798,37.121741],[42.435758,37.127009],[42.449275,37.137226],[42.534436,37.14058],[42.557321,37.150393],[42.57989,37.142649],[42.58384,37.168341],[42.601979,37.182238],[42.599905,37.190096],[42.608144,37.19991],[42.617284,37.201983],[42.612564,37.213911],[42.629806,37.219042],[42.628831,37.223804],[42.655783,37.246322],[42.650335,37.254388],[42.658358,37.262943],[42.654378,37.267074],[42.673263,37.273607],[42.682805,37.271104],[42.682115,37.281692],[42.697527,37.291703],[42.690005,37.294508],[42.693215,37.300955],[42.688335,37.308652],[42.708355,37.307241],[42.716918,37.311882],[42.709957,37.321658],[42.668576,37.343599],[42.66772,37.359252],[42.676955,37.365723],[42.712025,37.370888],[42.724928,37.366445],[42.730241,37.379892],[42.704596,37.384532],[42.70216,37.409259],[42.659213,37.417106],[42.66415,37.428999],[42.616449,37.435345],[42.621402,37.417262],[42.628453,37.42058],[42.625873,37.408921],[42.615777,37.401647],[42.624322,37.379384],[42.605571,37.365956],[42.537257,37.364634],[42.534062,37.372774],[42.504448,37.362617],[42.491636,37.364012],[42.417618,37.391391],[42.405913,37.386444],[42.402711,37.366589],[42.387171,37.357957],[42.380149,37.366838],[42.339208,37.34807]]],"type":"Polygon"}},{"type":"Feature","properties":{"area_id":"TR-73-006","name_tr":"Şırnak","area_level":"district","parent_id":"TR-73","endeksa_id":1661},"geometry":{"coordinates":[[[42.034764,37.518993],[42.042598,37.49619],[42.068713,37.47516],[42.105273,37.42333],[42.117958,37.400527],[42.118632,37.385046],[42.128082,37.395667],[42.126346,37.40409],[42.138021,37.405062],[42.167824,37.396593],[42.160026,37.382183],[42.152753,37.379968],[42.183286,37.388083],[42.177534,37.394537],[42.256605,37.385571],[42.26935,37.390858],[42.287809,37.389327],[42.304697,37.399922],[42.31028,37.413115],[42.339771,37.409359],[42.395419,37.412846],[42.417618,37.391391],[42.491636,37.364012],[42.504448,37.362617],[42.534062,37.372774],[42.537257,37.364634],[42.605571,37.365956],[42.624322,37.379384],[42.615777,37.401647],[42.625873,37.408921],[42.628453,37.42058],[42.621402,37.417262],[42.616449,37.435345],[42.66415,37.428999],[42.682733,37.426704],[42.680524,37.449861],[42.667592,37.470107],[42.634623,37.488608],[42.629402,37.50993],[42.64507,37.52148],[42.67862,37.53965],[42.68988,37.55989],[42.71177,37.57083],[42.73977,37.57823],[42.75807,37.57388],[42.75584,37.56795],[42.761204,37.561299],[42.788303,37.570996],[42.80359,37.583661],[42.806304,37.575618],[42.815924,37.578481],[42.845769,37.606318],[42.840793,37.671761],[42.822614,37.65535],[42.78982,37.667785],[42.779106,37.664402],[42.769111,37.668772],[42.785769,37.693576],[42.780672,37.702902],[42.735306,37.702455],[42.69175,37.693162],[42.647475,37.704764],[42.649215,37.730951],[42.629349,37.743185],[42.583769,37.747314],[42.520019,37.73433],[42.50498,37.72181],[42.497772,37.688443],[42.487855,37.683073],[42.484419,37.668542],[42.464395,37.656158],[42.446681,37.658926],[42.432006,37.654248],[42.405214,37.662812],[42.410638,37.675959],[42.387392,37.673297],[42.383343,37.65917],[42.361972,37.664217],[42.335433,37.68846],[42.324465,37.676578],[42.298677,37.665096],[42.297599,37.642985],[42.271559,37.6423],[42.259672,37.633258],[42.265335,37.632807],[42.265104,37.626424],[42.24208,37.616333],[42.18217,37.607155],[42.14462,37.618851],[42.140856,37.614841],[42.132587,37.619964],[42.139935,37.627515],[42.12432,37.631789],[42.091092,37.605762],[42.034764,37.518993]]],"type":"Polygon"}},{"type":"Feature","properties":{"area_id":"TR-73-007","name_tr":"Uludere","area_level":"district","parent_id":"TR-73","endeksa_id":1698},"geometry":{"coordinates":[[[42.629402,37.50993],[42.634623,37.488608],[42.667592,37.470107],[42.680524,37.449861],[42.682733,37.426704],[42.66415,37.428999],[42.659213,37.417106],[42.70216,37.409259],[42.704596,37.384532],[42.730241,37.379892],[42.724928,37.366445],[42.712025,37.370888],[42.676955,37.365723],[42.66772,37.359252],[42.668576,37.343599],[42.709957,37.321658],[42.716918,37.311882],[42.728427,37.320274],[42.736517,37.318987],[42.734568,37.334826],[42.779251,37.373997],[42.794092,37.380717],[42.825342,37.369831],[42.825204,37.357846],[42.835227,37.342353],[42.850921,37.348113],[42.870575,37.33647],[42.916271,37.32833],[42.954512,37.312948],[42.972589,37.325708],[43.009974,37.332205],[43.021735,37.35292],[43.056408,37.355785],[43.071669,37.366254],[43.116212,37.372819],[43.146475,37.372657],[43.162252,37.3577],[43.186712,37.359455],[43.211822,37.346455],[43.237484,37.347004],[43.24973,37.330461],[43.269821,37.32892],[43.26946,37.314616],[43.290345,37.311783],[43.300805,37.304214],[43.316539,37.30568],[43.323447,37.32658],[43.33534,37.326514],[43.31777,37.35041],[43.33415,37.36227],[43.341069,37.377854],[43.34496,37.397424],[43.336369,37.421227],[43.317811,37.460373],[43.25628,37.442533],[43.261747,37.432289],[43.25828,37.412387],[43.242024,37.404192],[43.215612,37.403249],[43.164585,37.416073],[43.154667,37.429298],[43.155923,37.43683],[43.131646,37.44553],[43.112047,37.445297],[43.084377,37.432557],[43.064651,37.437367],[43.054805,37.4278],[43.045,37.431026],[43.030723,37.442478],[43.029243,37.454383],[43.019196,37.456684],[43.017573,37.475067],[43.029945,37.484524],[43.025671,37.508007],[42.980905,37.515142],[42.975158,37.526854],[42.960951,37.528182],[42.957182,37.537316],[42.920124,37.519804],[42.917014,37.510427],[42.882939,37.51327],[42.879082,37.536651],[42.888926,37.541692],[42.946144,37.542715],[42.90715,37.543869],[42.888919,37.541704],[42.879063,37.536654],[42.857833,37.541026],[42.843363,37.530029],[42.823348,37.526137],[42.823225,37.510237],[42.759583,37.500444],[42.64507,37.52148],[42.629402,37.50993]]],"type":"Polygon"}},{"type":"Feature","properties":{"area_id":"TR-73-003","name_tr":"Güçlükonak","area_level":"district","parent_id":"TR-73","endeksa_id":1931},"geometry":{"coordinates":[[[41.817217,37.701088],[41.813978,37.693304],[41.825226,37.659926],[41.824014,37.645851],[41.836586,37.637642],[41.830631,37.624802],[41.869087,37.608903],[41.875844,37.603301],[41.876875,37.592469],[41.896234,37.579133],[41.88949,37.555771],[41.866558,37.547527],[41.852521,37.552735],[41.854205,37.529281],[41.837944,37.518962],[41.854515,37.494175],[41.855792,37.477796],[41.848524,37.466541],[41.860157,37.457466],[41.845833,37.443091],[41.858435,37.429869],[41.851352,37.424824],[41.856617,37.416228],[41.866608,37.409804],[41.883092,37.416508],[41.891222,37.404722],[41.937684,37.414332],[41.943385,37.419886],[41.936454,37.433913],[41.940198,37.434964],[41.957442,37.425538],[41.975559,37.430202],[41.992133,37.422513],[42.025412,37.420993],[42.102952,37.388137],[42.118632,37.385046],[42.117958,37.400527],[42.105273,37.42333],[42.068713,37.47516],[42.042598,37.49619],[42.034764,37.518993],[42.091092,37.605762],[42.12432,37.631789],[41.991473,37.610176],[41.964648,37.613908],[41.877097,37.670538],[41.846881,37.675733],[41.836889,37.683572],[41.843024,37.688658],[41.827546,37.691867],[41.817217,37.701088]]],"type":"Polygon"}}]}