{"type":"FeatureCollection","area_id":"TR-76","name_tr":"Iğdır","source_id":"endeksa","licence":null,"retrieved_at":"2026-08-23","features":[{"type":"Feature","properties":{"area_id":"TR-76-001","name_tr":"Aralık","area_level":"district","parent_id":"TR-76","endeksa_id":1142},"geometry":{"coordinates":[[[44.286207,39.980733],[44.290085,39.939394],[44.296754,39.928273],[44.290858,39.926676],[44.320287,39.9034],[44.331041,39.883706],[44.310503,39.817881],[44.3044,39.813881],[44.305977,39.768477],[44.317734,39.738032],[44.335253,39.730593],[44.351002,39.733332],[44.383437,39.673486],[44.392716,39.665277],[44.448396,39.673843],[44.45714,39.669135],[44.468081,39.683642],[44.614525,39.782037],[44.63197,39.755394],[44.62955,39.745827],[44.661865,39.717986],[44.690207,39.71723],[44.688556,39.713602],[44.701474,39.710108],[44.714112,39.714216],[44.727786,39.698634],[44.749864,39.686645],[44.762154,39.665835],[44.797801,39.648786],[44.805411,39.629345],[44.817715,39.651584],[44.799346,39.65842],[44.806122,39.672807],[44.794282,39.670617],[44.802204,39.683504],[44.784208,39.686023],[44.787802,39.691226],[44.780788,39.694289],[44.781079,39.699963],[44.764639,39.706344],[44.768689,39.713551],[44.74769,39.716035],[44.744192,39.743776],[44.724655,39.740918],[44.710854,39.769849],[44.688237,39.770768],[44.686275,39.781085],[44.696595,39.788074],[44.694596,39.792789],[44.68497,39.796077],[44.677592,39.78788],[44.65888,39.791164],[44.628601,39.813241],[44.611872,39.814187],[44.620788,39.823061],[44.615934,39.828671],[44.594224,39.824211],[44.588174,39.832962],[44.596119,39.843742],[44.592289,39.858699],[44.576987,39.862125],[44.551827,39.882841],[44.553505,39.900751],[44.537002,39.920043],[44.521307,39.91986],[44.51635,39.929065],[44.503212,39.934683],[44.491741,39.957447],[44.45778,39.990118],[44.440076,39.985123],[44.385929,39.965111],[44.333727,39.972867],[44.325041,39.993187],[44.286207,39.980733]]],"type":"Polygon"}},{"type":"Feature","properties":{"area_id":"TR-76-002","name_tr":"Iğdır","area_level":"district","parent_id":"TR-76","endeksa_id":1398},"geometry":{"coordinates":[[[43.803825,40.024332],[43.813101,39.995602],[43.805431,39.98401],[43.800077,39.923383],[43.803114,39.89829],[43.777843,39.871291],[43.761824,39.833029],[43.709381,39.776196],[43.76212,39.766915],[43.805288,39.778562],[43.831837,39.779805],[43.881554,39.757753],[43.982962,39.747511],[44.075213,39.709232],[44.172658,39.703006],[44.241483,39.704544],[44.250384,39.72841],[44.239241,39.752722],[44.245143,39.759867],[44.282006,39.759031],[44.289851,39.768401],[44.305977,39.768477],[44.3044,39.813881],[44.244864,39.801506],[44.218233,39.81971],[44.216821,39.838966],[44.196884,39.854528],[44.189448,39.868647],[44.174658,39.877009],[44.156829,39.954372],[44.128423,39.963423],[44.105168,39.964069],[44.109183,39.966751],[44.105487,39.969845],[44.121596,39.968498],[44.133471,39.979629],[44.145678,39.975588],[44.163035,39.980593],[44.106634,40.005432],[44.112408,40.009441],[44.122917,40.003412],[44.128147,40.005945],[44.109898,40.019504],[44.119946,40.029519],[44.115646,40.035218],[44.109288,40.030228],[44.085351,40.034761],[44.013232,40.023037],[43.988121,40.031188],[43.967984,40.017566],[43.928899,40.02491],[43.898235,40.020952],[43.8565,40.043384],[43.840254,40.044891],[43.826539,40.042972],[43.809918,40.024667],[43.803825,40.024332]]],"type":"Polygon"}},{"type":"Feature","properties":{"area_id":"TR-76-004","name_tr":"Tuzluca","area_level":"district","parent_id":"TR-76","endeksa_id":1692},"geometry":{"coordinates":[[[43.326976,40.116946],[43.338624,40.107484],[43.336695,40.091526],[43.345506,40.070497],[43.342606,40.054158],[43.305153,40.025906],[43.288142,39.997857],[43.326331,39.998266],[43.369159,39.990951],[43.383887,39.980788],[43.369478,39.931339],[43.372696,39.919633],[43.404861,39.876959],[43.40851,39.864971],[43.404359,39.846535],[43.422581,39.797985],[43.437274,39.780463],[43.470653,39.773222],[43.495377,39.789755],[43.50117,39.820076],[43.524582,39.840113],[43.564618,39.840826],[43.583503,39.826187],[43.619695,39.798319],[43.692192,39.786096],[43.709381,39.776196],[43.761824,39.833029],[43.777843,39.871291],[43.803114,39.89829],[43.800077,39.923383],[43.805431,39.98401],[43.813101,39.995602],[43.803825,40.024332],[43.809918,40.024667],[43.826539,40.042972],[43.840254,40.044891],[43.825292,40.047434],[43.823679,40.060075],[43.786284,40.069558],[43.76836,40.084529],[43.728915,40.077953],[43.700748,40.08727],[43.693337,40.096674],[43.677518,40.096161],[43.676328,40.106301],[43.654736,40.11349],[43.648799,40.131096],[43.595125,40.131708],[43.57757,40.126917],[43.565522,40.112896],[43.519555,40.119504],[43.49114,40.108087],[43.475031,40.103918],[43.433939,40.108657],[43.413798,40.119096],[43.375464,40.123043],[43.379399,40.126715],[43.375228,40.13062],[43.347092,40.117074],[43.326976,40.116946]]],"type":"Polygon"}},{"type":"Feature","properties":{"area_id":"TR-76-003","name_tr":"Karakoyunlu","area_level":"district","parent_id":"TR-76","endeksa_id":2011},"geometry":{"coordinates":[[[44.115646,40.035218],[44.119946,40.029519],[44.109898,40.019504],[44.128147,40.005945],[44.122917,40.003412],[44.112408,40.009441],[44.106634,40.005432],[44.163035,39.980593],[44.145678,39.975588],[44.133471,39.979629],[44.121596,39.968498],[44.105487,39.969845],[44.109183,39.966751],[44.105168,39.964069],[44.128423,39.963423],[44.156829,39.954372],[44.174658,39.877009],[44.189448,39.868647],[44.196884,39.854528],[44.216821,39.838966],[44.218233,39.81971],[44.244864,39.801506],[44.3044,39.813881],[44.310503,39.817881],[44.331041,39.883706],[44.320287,39.9034],[44.290858,39.926676],[44.296754,39.928273],[44.290085,39.939394],[44.286207,39.980733],[44.325041,39.993187],[44.333727,39.972867],[44.385929,39.965111],[44.440076,39.985123],[44.418053,40.000581],[44.380181,40.003436],[44.353396,40.026698],[44.326471,40.030931],[44.314698,40.039134],[44.297611,40.035957],[44.29418,40.043874],[44.277968,40.048875],[44.23478,40.047168],[44.214708,40.03397],[44.191232,40.039244],[44.189528,40.031222],[44.173606,40.027272],[44.14671,40.033227],[44.131061,40.027485],[44.115646,40.035218]]],"type":"Polygon"}}]}