{"type":"FeatureCollection","area_id":"TR-80","name_tr":"Osmaniye","source_id":"endeksa","licence":null,"retrieved_at":"2026-08-23","features":[{"type":"Feature","properties":{"area_id":"TR-80-001","name_tr":"Bahçe","area_level":"district","parent_id":"TR-80","endeksa_id":1165},"geometry":{"coordinates":[[[36.432083,37.188642],[36.436394,37.176858],[36.442309,37.171652],[36.485054,37.177867],[36.484602,37.161065],[36.518176,37.148959],[36.530078,37.160282],[36.519667,37.168406],[36.53725,37.174722],[36.537647,37.181341],[36.552133,37.181191],[36.559913,37.173553],[36.552595,37.154601],[36.5558,37.148802],[36.599883,37.151889],[36.624394,37.139464],[36.632622,37.147514],[36.66528,37.151703],[36.683226,37.159837],[36.68165,37.167496],[36.695152,37.192439],[36.723987,37.211479],[36.717737,37.218373],[36.696792,37.220876],[36.70309,37.22694],[36.691302,37.243418],[36.673709,37.247151],[36.675862,37.253829],[36.663508,37.273587],[36.656425,37.274157],[36.657463,37.288723],[36.638455,37.289736],[36.617113,37.280789],[36.588716,37.278986],[36.578611,37.266648],[36.538143,37.246513],[36.533998,37.242198],[36.540034,37.238472],[36.532786,37.227127],[36.516259,37.225263],[36.52288,37.211371],[36.510138,37.205424],[36.471012,37.208366],[36.45049,37.20354],[36.446744,37.191751],[36.432083,37.188642]]],"type":"Polygon"}},{"type":"Feature","properties":{"area_id":"TR-80-004","name_tr":"Kadirli","area_level":"district","parent_id":"TR-80","endeksa_id":1423},"geometry":{"coordinates":[[[35.92093,37.403116],[35.914262,37.383527],[35.920105,37.345579],[35.91116,37.331366],[35.903502,37.285187],[35.917341,37.252375],[35.916832,37.242893],[35.911279,37.241977],[35.914724,37.23608],[35.899964,37.228878],[35.886896,37.208014],[35.876135,37.184926],[35.881843,37.182237],[35.881598,37.174854],[35.899039,37.174603],[35.895675,37.183602],[35.925988,37.191461],[35.932983,37.203984],[35.945651,37.204271],[35.94538,37.209977],[35.958044,37.205986],[35.972153,37.21973],[36.001801,37.215425],[36.005285,37.225454],[35.996394,37.229927],[36.003682,37.234827],[36.024241,37.23436],[36.029187,37.240101],[36.035916,37.236438],[36.049814,37.2434],[36.061052,37.239393],[36.072102,37.244891],[36.081998,37.238156],[36.110279,37.244909],[36.117014,37.253598],[36.140355,37.248998],[36.1451,37.25714],[36.171671,37.262234],[36.183555,37.259271],[36.205515,37.268592],[36.208955,37.238031],[36.250952,37.223102],[36.276559,37.235914],[36.263643,37.242342],[36.26568,37.259948],[36.277715,37.256352],[36.275859,37.267123],[36.269595,37.270352],[36.2746,37.2742],[36.2676,37.2837],[36.256722,37.281959],[36.253771,37.290461],[36.276264,37.331023],[36.26533,37.318192],[36.277817,37.350896],[36.27046,37.362167],[36.26128,37.364133],[36.267509,37.386589],[36.265775,37.397101],[36.258402,37.398358],[36.26639,37.408048],[36.262187,37.418713],[36.252653,37.415918],[36.257879,37.424585],[36.251885,37.425156],[36.26043,37.431722],[36.251988,37.436322],[36.258796,37.461013],[36.245242,37.476265],[36.246453,37.497269],[36.238395,37.519475],[36.249814,37.562063],[36.259983,37.576631],[36.255224,37.596371],[36.262045,37.615571],[36.255232,37.632899],[36.271776,37.653344],[36.241896,37.68508],[36.23203,37.717863],[36.238059,37.722696],[36.226621,37.727028],[36.207557,37.748358],[36.205188,37.748306],[36.202495,37.738137],[36.181648,37.719935],[36.157833,37.657638],[36.144405,37.648484],[36.14057,37.621274],[36.147719,37.612687],[36.114862,37.576486],[36.108132,37.5184],[36.092571,37.508357],[36.100372,37.497274],[36.090419,37.484848],[36.093526,37.471953],[36.077971,37.457897],[36.079438,37.436281],[36.065845,37.433371],[36.037098,37.414617],[36.032759,37.410264],[36.037025,37.399208],[36.011821,37.406033],[36.002529,37.389504],[35.9943,37.389129],[35.983963,37.37803],[35.966398,37.386952],[35.976916,37.394901],[35.948486,37.409253],[35.92093,37.403116]]],"type":"Polygon"}},{"type":"Feature","properties":{"area_id":"TR-80-005","name_tr":"Osmaniye","area_level":"district","parent_id":"TR-80","endeksa_id":1560},"geometry":{"coordinates":[[[35.996394,37.229927],[36.005285,37.225454],[36.001801,37.215425],[36.035731,37.211804],[36.07938,37.19796],[36.072807,37.196017],[36.067919,37.169292],[36.092932,37.157857],[36.096328,37.135794],[36.089703,37.127883],[36.098499,37.121507],[36.136933,37.117461],[36.14432,37.103171],[36.152768,37.100929],[36.1466,37.089223],[36.156455,37.089974],[36.179417,37.078714],[36.181009,37.05612],[36.171417,37.038499],[36.183499,37.026225],[36.197204,37.015446],[36.222854,37.01418],[36.223169,37.002832],[36.228268,37.000121],[36.239241,37.000888],[36.247059,37.012349],[36.27786,36.998419],[36.299696,36.997637],[36.302972,36.985948],[36.276178,36.973724],[36.26739,36.957568],[36.295011,36.955626],[36.299072,36.953925],[36.292221,36.945558],[36.336585,36.935589],[36.357686,36.925135],[36.399699,36.917388],[36.418762,36.928005],[36.440441,36.92584],[36.451681,36.945082],[36.468964,36.945408],[36.468183,36.959156],[36.45467,36.964391],[36.463158,36.96935],[36.460086,36.978737],[36.451438,36.984657],[36.460863,36.981815],[36.485958,36.992705],[36.494185,36.988138],[36.517438,37.003672],[36.527984,37.019205],[36.49889,37.017187],[36.493635,37.029496],[36.502045,37.053585],[36.499148,37.059912],[36.475392,37.071099],[36.475372,37.089752],[36.429841,37.089669],[36.45795,37.109165],[36.490933,37.116202],[36.49023,37.125753],[36.501284,37.123291],[36.498832,37.138681],[36.485746,37.129679],[36.473679,37.144576],[36.43569,37.162623],[36.407061,37.165388],[36.410407,37.17222],[36.363166,37.170143],[36.345401,37.190638],[36.309165,37.172931],[36.302741,37.175966],[36.29317,37.171247],[36.236832,37.191364],[36.240808,37.204659],[36.251257,37.208602],[36.250952,37.223102],[36.208955,37.238031],[36.205515,37.268592],[36.183555,37.259271],[36.171671,37.262234],[36.1451,37.25714],[36.140355,37.248998],[36.117014,37.253598],[36.110279,37.244909],[36.081998,37.238156],[36.072102,37.244891],[36.061052,37.239393],[36.049814,37.2434],[36.035916,37.236438],[36.029187,37.240101],[36.024241,37.23436],[36.003682,37.234827],[35.996394,37.229927]]],"type":"Polygon"}},{"type":"Feature","properties":{"area_id":"TR-80-002","name_tr":"Düziçi","area_level":"district","parent_id":"TR-80","endeksa_id":1743},"geometry":{"coordinates":[[[36.253771,37.290461],[36.256722,37.281959],[36.2676,37.2837],[36.2746,37.2742],[36.269595,37.270352],[36.275859,37.267123],[36.277715,37.256352],[36.26568,37.259948],[36.263643,37.242342],[36.276559,37.235914],[36.250952,37.223102],[36.251257,37.208602],[36.240808,37.204659],[36.236832,37.191364],[36.29317,37.171247],[36.302741,37.175966],[36.309165,37.172931],[36.345401,37.190638],[36.363166,37.170143],[36.410407,37.17222],[36.436394,37.176858],[36.432083,37.188642],[36.446744,37.191751],[36.45049,37.20354],[36.471012,37.208366],[36.510138,37.205424],[36.52288,37.211371],[36.516259,37.225263],[36.532786,37.227127],[36.540034,37.238472],[36.533998,37.242198],[36.538143,37.246513],[36.578611,37.266648],[36.588716,37.278986],[36.617113,37.280789],[36.638455,37.289736],[36.638909,37.297575],[36.618966,37.298199],[36.631286,37.310102],[36.631465,37.317836],[36.669768,37.331981],[36.666445,37.347036],[36.647858,37.348025],[36.640725,37.353232],[36.638963,37.364996],[36.562559,37.369396],[36.570969,37.407831],[36.507139,37.43394],[36.496853,37.422016],[36.467708,37.411605],[36.475743,37.387217],[36.469991,37.375601],[36.430814,37.368905],[36.425709,37.362755],[36.414998,37.366144],[36.403793,37.352166],[36.387994,37.35253],[36.368076,37.343646],[36.356975,37.324926],[36.353864,37.327948],[36.362333,37.350865],[36.365992,37.341913],[36.370004,37.351596],[36.354082,37.366999],[36.344,37.3585],[36.332328,37.36724],[36.314659,37.361449],[36.28302,37.340967],[36.28548,37.333907],[36.276264,37.331023],[36.253771,37.290461]]],"type":"Polygon"}},{"type":"Feature","properties":{"area_id":"TR-80-003","name_tr":"Hasanbeyli","area_level":"district","parent_id":"TR-80","endeksa_id":2027},"geometry":{"coordinates":[[[36.407061,37.165388],[36.43569,37.162623],[36.473679,37.144576],[36.485746,37.129679],[36.498832,37.138681],[36.501284,37.123291],[36.49023,37.125753],[36.490933,37.116202],[36.45795,37.109165],[36.429841,37.089669],[36.475372,37.089752],[36.475392,37.071099],[36.499148,37.059912],[36.502045,37.053585],[36.493635,37.029496],[36.49889,37.017187],[36.527984,37.019205],[36.53917,37.028678],[36.547335,37.047115],[36.57124,37.054499],[36.569936,37.070967],[36.586164,37.069809],[36.590709,37.084521],[36.62068,37.122853],[36.639404,37.117704],[36.652485,37.127881],[36.632622,37.147514],[36.624394,37.139464],[36.599883,37.151889],[36.5558,37.148802],[36.552595,37.154601],[36.559913,37.173553],[36.552133,37.181191],[36.537647,37.181341],[36.53725,37.174722],[36.519667,37.168406],[36.530078,37.160282],[36.518176,37.148959],[36.484602,37.161065],[36.485054,37.177867],[36.442309,37.171652],[36.436394,37.176858],[36.410407,37.17222],[36.407061,37.165388]]],"type":"Polygon"}},{"type":"Feature","properties":{"area_id":"TR-80-006","name_tr":"Sumbas","area_level":"district","parent_id":"TR-80","endeksa_id":2028},"geometry":{"coordinates":[[[35.962925,37.549326],[35.961421,37.521898],[35.926125,37.468985],[35.925188,37.454168],[35.941279,37.439791],[35.937392,37.421821],[35.921706,37.419106],[35.92093,37.403116],[35.948486,37.409253],[35.976916,37.394901],[35.966398,37.386952],[35.983963,37.37803],[35.9943,37.389129],[36.002529,37.389504],[36.011821,37.406033],[36.037025,37.399208],[36.032759,37.410264],[36.037098,37.414617],[36.065845,37.433371],[36.079438,37.436281],[36.077971,37.457897],[36.093526,37.471953],[36.090419,37.484848],[36.100372,37.497274],[36.092571,37.508357],[36.108132,37.5184],[36.114862,37.576486],[36.147719,37.612687],[36.14057,37.621274],[36.144405,37.648484],[36.157833,37.657638],[36.181648,37.719935],[36.202495,37.738137],[36.205188,37.748306],[36.162132,37.733683],[36.155053,37.724452],[36.133189,37.717839],[36.090562,37.672084],[36.067293,37.677297],[36.050371,37.665045],[36.040684,37.651804],[36.038983,37.633434],[36.021656,37.617831],[36.016299,37.604116],[35.992078,37.589906],[35.969103,37.562522],[35.962925,37.549326]]],"type":"Polygon"}},{"type":"Feature","properties":{"area_id":"TR-80-007","name_tr":"Toprakkale","area_level":"district","parent_id":"TR-80","endeksa_id":2029},"geometry":{"coordinates":[[[36.08435,37.120156],[36.082777,37.106027],[36.109363,37.074838],[36.062024,37.061375],[36.045445,37.01889],[36.054339,37.003928],[36.065953,37.000073],[36.121476,37.002797],[36.136162,37.021631],[36.132765,37.032898],[36.140388,37.033614],[36.139891,37.025601],[36.150394,37.019619],[36.170649,37.029037],[36.175019,37.023747],[36.183499,37.026225],[36.171417,37.038499],[36.181009,37.05612],[36.179417,37.078714],[36.156455,37.089974],[36.1466,37.089223],[36.152768,37.100929],[36.14432,37.103171],[36.136933,37.117461],[36.098499,37.121507],[36.08435,37.120156]]],"type":"Polygon"}}]}