{"type":"FeatureCollection","source_id":"endeksa","retrieved_at":"2026-08-23","features":[{"type":"Feature","properties":{"area_id":"TR-06-017-1697","name_tr":"Gümüşdere","area_level":"neighbourhood","parent_id":"TR-06-017","endeksa_id":1697},"geometry":{"coordinates":[[[32.86157170000007,39.965671999999984],[32.860544500000174,39.9662222000004],[32.8596369,39.96643240000003],[32.857739800000104,39.966386000000455],[32.85759590000009,39.9658146000001],[32.856692000000066,39.965564900000004],[32.854790100000116,39.96527660000032],[32.85483880000004,39.965158200000474],[32.85322830000018,39.96416680000016],[32.852277600000036,39.96330110000065],[32.85191980000013,39.96316400000018],[32.851331400000106,39.96313070000008],[32.84920130000006,39.962157400000194],[32.84706210000019,39.960484900000154],[32.85015150000015,39.95796220000051],[32.860899800000084,39.95908940000015],[32.86136020000015,39.96076290000025],[32.86294540000006,39.96466590000006],[32.862524200000166,39.96516770000005],[32.86157170000007,39.965671999999984]]],"type":"Polygon"}},{"type":"Feature","properties":{"area_id":"TR-06-017-1705","name_tr":"Kavacık Subayevleri","area_level":"neighbourhood","parent_id":"TR-06-017","endeksa_id":1705},"geometry":{"coordinates":[[[32.87553670000017,39.97357560000006],[32.87491090000009,39.9735970000001],[32.87434120000006,39.97381180000025],[32.871819400000106,39.97518600000012],[32.87158590000013,39.97558680000003],[32.87136390000006,39.97692260000042],[32.870616700000085,39.97739500000006],[32.86898940000009,39.97562260000018],[32.86866250000003,39.9749283000001],[32.8681395000001,39.974212600000044],[32.867691100000116,39.97391200000004],[32.865963200000124,39.9733394000001],[32.865449500000125,39.972867000000235],[32.864779300000066,39.971845200000246],[32.864708300000075,39.970081200000664],[32.86460310000007,39.96955020000007],[32.86438400000003,39.96870980000017],[32.86294540000006,39.96466590000006],[32.86136020000015,39.96076290000025],[32.860899800000084,39.95908940000015],[32.86318320000015,39.95933120000012],[32.86548860000016,39.95924260000004],[32.86672210000006,39.960576700000104],[32.86775300000011,39.96149770000011],[32.87214760000006,39.96499630000022],[32.87341480000015,39.96618200000012],[32.87425250000018,39.96711280000005],[32.87694069999998,39.970567200000005],[32.87738600000006,39.971034600000166],[32.87567590000015,39.973151300000154],[32.87553670000017,39.97357560000006]]],"type":"Polygon"}},{"type":"Feature","properties":{"area_id":"TR-06-017-1690","name_tr":"Basınevleri","area_level":"neighbourhood","parent_id":"TR-06-017","endeksa_id":1690},"geometry":{"coordinates":[[[32.857739800000104,39.966386000000455],[32.85818830000005,39.9680666000001],[32.85822570000016,39.968947100000264],[32.858141600000124,39.969262000000015],[32.85716329999997,39.97075930000028],[32.858062900000164,39.97098600000021],[32.85822320000011,39.97166599999997],[32.85862990000004,39.9724971],[32.85539870000002,39.97415970000026],[32.85515800000019,39.974420100000486],[32.8549599000001,39.97489740000003],[32.854903200000024,39.975483200000156],[32.853786600000035,39.9762182000004],[32.85438480000016,39.97698170000069],[32.85439200000019,39.97779200000059],[32.85402550000009,39.978217000000086],[32.852581500000156,39.9774685000001],[32.85173210000005,39.97749020000049],[32.851530500000024,39.97713540000012],[32.8514196000001,39.97709060000011],[32.85037220000015,39.97719590000065],[32.85040800000007,39.9767181000002],[32.849985200000106,39.97546570000031],[32.8499771000001,39.975004600000034],[32.84935910000013,39.974805300000014],[32.8494659000001,39.97364330000016],[32.85023680000012,39.97079790000009],[32.85174960000006,39.96866750000004],[32.85298550000016,39.96721550000052],[32.85166020000014,39.96482250000008],[32.854790100000116,39.96527660000032],[32.856692000000066,39.965564900000004],[32.85759590000009,39.9658146000001],[32.857739800000104,39.966386000000455]]],"type":"Polygon"}},{"type":"Feature","properties":{"area_id":"TR-06-017-1686","name_tr":"Aşağı Eğlence","area_level":"neighbourhood","parent_id":"TR-06-017","endeksa_id":1686},"geometry":{"coordinates":[[[32.838966200000186,39.978241400000115],[32.837652400000024,39.97868130000063],[32.836651400000164,39.977703399999996],[32.83627660000002,39.9772195000001],[32.835425500000156,39.97562080000017],[32.83520520000019,39.975434500000574],[32.83446140000012,39.97512540000008],[32.83281480000011,39.97494410000013],[32.82985100000002,39.97501949999997],[32.82983400000006,39.974703200000135],[32.8296716000001,39.97429680000005],[32.8283629,39.97271290000009],[32.829287500000135,39.972139300000094],[32.82852730000013,39.97123130000011],[32.82868360000009,39.97101540000051],[32.82874130000005,39.96888050000007],[32.83192650000018,39.96882530000016],[32.83271290000005,39.96894220000007],[32.833559300000104,39.96918600000049],[32.835001900000066,39.970124699999985],[32.838631000000134,39.96722189999997],[32.8424667000001,39.970046700000296],[32.842933700000174,39.970576400000425],[32.84307380000007,39.97085560000011],[32.84307380000007,39.97129940000002],[32.84235400000017,39.97292650000054],[32.84069510000006,39.9760811000001],[32.84056430000004,39.97709570000018],[32.84031280000005,39.977574000000175],[32.838966200000186,39.978241400000115]]],"type":"Polygon"}},{"type":"Feature","properties":{"area_id":"TR-06-017-1699","name_tr":"Hasköy","area_level":"neighbourhood","parent_id":"TR-06-017","endeksa_id":1699},"geometry":{"coordinates":[[[32.88568670000012,39.97875480000016],[32.8843978000001,39.97877630000016],[32.88419120000003,39.978159100000084],[32.88317749999999,39.97662810000003],[32.88287610000009,39.97633080000048],[32.88251020000001,39.976281000000085],[32.88284350000009,39.97540870000057],[32.88268090000014,39.97519680000045],[32.88156700000013,39.9756330000003],[32.88056690000019,39.97658630000012],[32.879838100000086,39.976552500000025],[32.87811020000015,39.97600140000009],[32.878492900000026,39.97581820000016],[32.87690530000009,39.97387560000004],[32.876335600000004,39.97367520000017],[32.87553670000017,39.97357560000006],[32.87567590000015,39.973151300000154],[32.87738600000006,39.971034600000166],[32.87820350000004,39.97166140000013],[32.87922530000003,39.97222390000013],[32.88282630000009,39.973560700000064],[32.88360850000015,39.97403880000002],[32.884374900000125,39.974699500000156],[32.884990900000105,39.97548090000015],[32.88539530000003,39.97635340000022],[32.88546790000015,39.97689480000025],[32.88568670000012,39.97875480000016]]],"type":"Polygon"}},{"type":"Feature","properties":{"area_id":"TR-06-017-1704","name_tr":"Karargahtepe","area_level":"neighbourhood","parent_id":"TR-06-017","endeksa_id":1704},"geometry":{"coordinates":[[[32.85988620000006,39.979332300000124],[32.85981110000006,39.97959540000005],[32.85841410000012,39.97958390000019],[32.85606409999997,39.97923680000008],[32.85402550000009,39.978217000000086],[32.85439200000019,39.97779200000059],[32.85438480000016,39.97698170000069],[32.853786600000035,39.9762182000004],[32.854903200000024,39.975483200000156],[32.8549599000001,39.97489740000003],[32.85515800000019,39.974420100000486],[32.85539870000002,39.97415970000026],[32.85862990000004,39.9724971],[32.85822320000011,39.97166599999997],[32.858062900000164,39.97098600000021],[32.85716329999997,39.97075930000028],[32.858141600000124,39.969262000000015],[32.85822570000016,39.968947100000264],[32.85818830000005,39.9680666000001],[32.857739800000104,39.966386000000455],[32.8596369,39.96643240000003],[32.860544500000174,39.9662222000004],[32.86157170000007,39.965671999999984],[32.8609795000001,39.96680030000027],[32.8607459000001,39.96773260000032],[32.86083080000003,39.969110600000135],[32.86184640000005,39.97150830000044],[32.86141120000008,39.97272340000006],[32.86102900000009,39.97455690000044],[32.86043440000009,39.976097400000356],[32.859918400000026,39.976953000000094],[32.85988620000006,39.979332300000124]]],"type":"Polygon"}},{"type":"Feature","properties":{"area_id":"TR-06-017-1693","name_tr":"Emrah","area_level":"neighbourhood","parent_id":"TR-06-017","endeksa_id":1693},"geometry":{"coordinates":[[[32.85037220000015,39.97719590000065],[32.84999820000007,39.97723950000017],[32.849860000000035,39.97735170000004],[32.84905630000014,39.97908070000028],[32.84887070000008,39.98105480000004],[32.84598630000016,39.97922749999998],[32.84432700000019,39.97679250000067],[32.84403950000018,39.976061300000026],[32.84393150000011,39.97540980000031],[32.843378400000006,39.97415790000014],[32.84235400000017,39.97292650000054],[32.84307380000007,39.97129940000002],[32.84307380000007,39.97085560000011],[32.842933700000174,39.970576400000425],[32.8424667000001,39.970046700000296],[32.838631000000134,39.96722189999997],[32.84706210000019,39.960484900000154],[32.84920130000006,39.962157400000194],[32.851331400000106,39.96313070000008],[32.85191980000013,39.96316400000018],[32.852277600000036,39.96330110000065],[32.85322830000018,39.96416680000016],[32.85483880000004,39.965158200000474],[32.854790100000116,39.96527660000032],[32.85166020000014,39.96482250000008],[32.85298550000016,39.96721550000052],[32.85174960000006,39.96866750000004],[32.85023680000012,39.97079790000009],[32.8494659000001,39.97364330000016],[32.84935910000013,39.974805300000014],[32.8499771000001,39.975004600000034],[32.849985200000106,39.97546570000031],[32.85040800000007,39.9767181000002],[32.85037220000015,39.97719590000065]]],"type":"Polygon"}},{"type":"Feature","properties":{"area_id":"TR-06-017-1701","name_tr":"Kalaba","area_level":"neighbourhood","parent_id":"TR-06-017","endeksa_id":1701},"geometry":{"coordinates":[[[32.86838938235758,39.97797397389843],[32.86696530000012,39.977702500000646],[32.86709540000004,39.97819479999998],[32.86703850000015,39.97872440000015],[32.866892100000086,39.97905460000061],[32.86542860000014,39.980624700000135],[32.86440467325144,39.98241389418672],[32.86422257007109,39.98246488181189],[32.864104574623866,39.982347106047996],[32.86408040000015,39.981624800000134],[32.863734500000135,39.98072870000021],[32.8635283000001,39.97986780000002],[32.862205900000106,39.97857300000055],[32.85988620000006,39.979332300000124],[32.859918400000026,39.976953000000094],[32.86043440000009,39.976097400000356],[32.86102900000009,39.97455690000044],[32.86141120000008,39.97272340000006],[32.86184640000005,39.97150830000044],[32.86083080000003,39.969110600000135],[32.8607459000001,39.96773260000032],[32.8609795000001,39.96680030000027],[32.86157170000007,39.965671999999984],[32.862524200000166,39.96516770000005],[32.86294540000006,39.96466590000006],[32.86438400000003,39.96870980000017],[32.86460310000007,39.96955020000007],[32.864708300000075,39.970081200000664],[32.864779300000066,39.971845200000246],[32.865449500000125,39.972867000000235],[32.865963200000124,39.9733394000001],[32.867691100000116,39.97391200000004],[32.8681395000001,39.974212600000044],[32.86866250000003,39.9749283000001],[32.86898940000009,39.97562260000018],[32.870616700000085,39.97739500000006],[32.86946010000014,39.97771480000006],[32.86905360000003,39.97771480000006],[32.86862647786046,39.97757078825015],[32.86874035707581,39.9776945628322],[32.86872508844857,39.97784810233048],[32.86838938235758,39.97797397389843]]],"type":"Polygon"}},{"type":"Feature","properties":{"area_id":"TR-06-017-1692","name_tr":"Çiçekli","area_level":"neighbourhood","parent_id":"TR-06-017","endeksa_id":1692},"geometry":{"coordinates":[[[32.85895510000012,39.98442930000016],[32.85668820000012,39.98439300000035],[32.8543684,39.98469430000006],[32.85415610000007,39.98352280000012],[32.85402860000016,39.98324080000009],[32.85380210000005,39.982937100000186],[32.85341990000006,39.98263330000009],[32.85296690000007,39.982427200000416],[32.85027300000007,39.98163280000006],[32.84942770000015,39.981369600000164],[32.84887070000008,39.98105480000004],[32.84905630000014,39.97908070000028],[32.849860000000035,39.97735170000004],[32.84999820000007,39.97723950000017],[32.8514196000001,39.97709060000011],[32.851530500000024,39.97713540000012],[32.85173210000005,39.97749020000049],[32.852581500000156,39.9774685000001],[32.85402550000009,39.978217000000086],[32.85606409999997,39.97923680000008],[32.85841410000012,39.97958390000019],[32.85981110000006,39.97959540000005],[32.85919460000002,39.98251000000016],[32.85895510000012,39.98442930000016]]],"type":"Polygon"}},{"type":"Feature","properties":{"area_id":"TR-06-017-1712","name_tr":"Şefkat","area_level":"neighbourhood","parent_id":"TR-06-017","endeksa_id":1712},"geometry":{"coordinates":[[[32.8843978000001,39.97877630000016],[32.88368250000002,39.97879590000019],[32.884101100000066,39.97953360000008],[32.88017230000003,39.98122140000015],[32.87951730000003,39.98133030000025],[32.87896340000003,39.981144600000164],[32.87780630000003,39.982958200000155],[32.87757330000011,39.983639000000494],[32.87758660000014,39.98739110000008],[32.87538780000011,39.98736680000002],[32.875346000000036,39.98426450000005],[32.87507290000019,39.982417700000155],[32.87479310000015,39.9816416000001],[32.87203460000012,39.978832000000125],[32.871524900000054,39.97857170000009],[32.86838938235758,39.97797397389843],[32.86872508844857,39.97784810233048],[32.86874035707581,39.9776945628322],[32.86862647786046,39.97757078825015],[32.86905360000003,39.97771480000006],[32.86946010000014,39.97771480000006],[32.870616700000085,39.97739500000006],[32.87136390000006,39.97692260000042],[32.87158590000013,39.97558680000003],[32.871819400000106,39.97518600000012],[32.87434120000006,39.97381180000025],[32.87491090000009,39.9735970000001],[32.87553670000017,39.97357560000006],[32.876335600000004,39.97367520000017],[32.87690530000009,39.97387560000004],[32.878492900000026,39.97581820000016],[32.87811020000015,39.97600140000009],[32.879838100000086,39.976552500000025],[32.88056690000019,39.97658630000012],[32.88156700000013,39.9756330000003],[32.88268090000014,39.97519680000045],[32.88284350000009,39.97540870000057],[32.88251020000001,39.976281000000085],[32.88287610000009,39.97633080000048],[32.88317749999999,39.97662810000003],[32.88419120000003,39.978159100000084],[32.8843978000001,39.97877630000016]]],"type":"Polygon"}},{"type":"Feature","properties":{"area_id":"TR-06-017-1696","name_tr":"Güçlükaya","area_level":"neighbourhood","parent_id":"TR-06-017","endeksa_id":1696},"geometry":{"coordinates":[[[32.87538780000011,39.98736680000002],[32.875394900000174,39.988017600000035],[32.86831490000003,39.98778390000007],[32.86822740000008,39.98709770000016],[32.868005600000004,39.98682390000005],[32.86753729999998,39.98650280000015],[32.86524500000007,39.985539700000004],[32.864896200000146,39.98546740000006],[32.86421340000015,39.98569050000009],[32.863618200000076,39.98493210000004],[32.863389000000154,39.98439430000013],[32.864110900000185,39.982536100000004],[32.864104574623866,39.982347106047996],[32.86422257007109,39.98246488181189],[32.86440467325144,39.98241389418672],[32.86542860000014,39.980624700000135],[32.866892100000086,39.97905460000061],[32.86703850000015,39.97872440000015],[32.86709540000004,39.97819479999998],[32.86696530000012,39.977702500000646],[32.871524900000054,39.97857170000009],[32.87203460000012,39.978832000000125],[32.87479310000015,39.9816416000001],[32.87507290000019,39.982417700000155],[32.875346000000036,39.98426450000005],[32.87538780000011,39.98736680000002]]],"type":"Polygon"}},{"type":"Feature","properties":{"area_id":"TR-06-017-1695","name_tr":"Etlik","area_level":"neighbourhood","parent_id":"TR-06-017","endeksa_id":1695},"geometry":{"coordinates":[[[32.83282880000007,39.98373780000014],[32.83089360000014,39.984348400000215],[32.829794300000174,39.98455480000024],[32.829067200000054,39.98460200000005],[32.82508470000005,39.98443240000006],[32.82423220000004,39.984535700000436],[32.82367830000004,39.98488680000003],[32.82323210000004,39.98565010000027],[32.82264060000011,39.986330000000066],[32.822024400000146,39.98687770000009],[32.820582400000035,39.98786910000001],[32.82000960000005,39.98803490000006],[32.81912060000019,39.98791320000015],[32.819569200000046,39.9860882000001],[32.81994470000018,39.98290900000012],[32.82245520000009,39.98048380000006],[32.82379639999999,39.97828870000012],[32.824987300000146,39.97711300000003],[32.82744420000006,39.97352010000009],[32.8283629,39.97271290000009],[32.8296716000001,39.97429680000005],[32.82983400000006,39.974703200000135],[32.82985100000002,39.97501949999997],[32.83281480000011,39.97494410000013],[32.83446140000012,39.97512540000008],[32.83520520000019,39.975434500000574],[32.835425500000156,39.97562080000017],[32.83627660000002,39.9772195000001],[32.836651400000164,39.977703399999996],[32.837652400000024,39.97868130000063],[32.83710690000015,39.97908340000015],[32.836781700000074,39.97969400000022],[32.83622060000005,39.9811332000001],[32.83451310000015,39.983014800000035],[32.8344194,39.98363070000016],[32.83282880000007,39.98373780000014]]],"type":"Polygon"}},{"type":"Feature","properties":{"area_id":"TR-06-017-1702","name_tr":"Kamil Ocak","area_level":"neighbourhood","parent_id":"TR-06-017","endeksa_id":1702},"geometry":{"coordinates":[[[32.88391600000017,39.9866416000001],[32.88274420000005,39.98822180000025],[32.88150890000014,39.98917520000026],[32.880468199999996,39.988271000000054],[32.879790700000115,39.987927400000046],[32.87758660000014,39.98739110000008],[32.87757330000011,39.983639000000494],[32.87780630000003,39.982958200000155],[32.87896340000003,39.981144600000164],[32.87951730000003,39.98133030000025],[32.88017230000003,39.98122140000015],[32.884101100000066,39.97953360000008],[32.88368250000002,39.97879590000019],[32.8843978000001,39.97877630000016],[32.88568670000012,39.97875480000016],[32.88590860000005,39.98094230000015],[32.88610290000014,39.981868700000064],[32.88634800000017,39.9822736000005],[32.8869916000001,39.98291060000008],[32.88534940000011,39.9844068000001],[32.88577390000006,39.98466050000013],[32.885303100000044,39.98517110000006],[32.8856646000001,39.9857507000001],[32.88469910000015,39.98638430000062],[32.88418820000015,39.986089100000356],[32.88385910000011,39.986460900000566],[32.88391600000017,39.9866416000001]]],"type":"Polygon"}},{"type":"Feature","properties":{"area_id":"TR-06-017-1687","name_tr":"Ayvalı","area_level":"neighbourhood","parent_id":"TR-06-017","endeksa_id":1687},"geometry":{"coordinates":[[[32.81912060000019,39.98791320000015],[32.81814710000015,39.9878348000002],[32.81810800000011,39.98850010000018],[32.81721010000007,39.98834840000006],[32.81646260000019,39.98838410000053],[32.816465700000094,39.988559900000155],[32.81586620000007,39.98859649999997],[32.81549030000002,39.988362800000004],[32.814654700000176,39.98804210000014],[32.81449210000005,39.988185300000055],[32.813280600000155,39.988534200000515],[32.81224800000018,39.989269300000046],[32.8111909000001,39.98812300000009],[32.81158940000006,39.986123299999974],[32.81139420000005,39.98560620000001],[32.811401400000136,39.98502710000059],[32.81223070000016,39.983531900000514],[32.812444800000094,39.98262780000016],[32.812086500000134,39.982635000000016],[32.8120153000001,39.98247810000004],[32.811999300000025,39.980289000000425],[32.81117810000012,39.9797415000001],[32.811135100000115,39.97748350000029],[32.81123500000001,39.97679670000031],[32.811397600000134,39.97659110000035],[32.81219690000006,39.97628420000018],[32.81263350000012,39.97570800000011],[32.81261170000005,39.974902400000246],[32.812973100000136,39.97418370000014],[32.813594900000055,39.97419340000056],[32.81367650000004,39.97401640000015],[32.813434000000086,39.97360750000007],[32.81408890000006,39.973217100000056],[32.81479750000011,39.9724736],[32.81482870000019,39.97174860000007],[32.81541520000002,39.971698000000174],[32.81613720000007,39.97149730000024],[32.81642740000012,39.971622100000104],[32.81886240000017,39.97162750000035],[32.81887120000016,39.96891660000023],[32.82874130000005,39.96888050000007],[32.82868360000009,39.97101540000051],[32.82852730000013,39.97123130000011],[32.829287500000135,39.972139300000094],[32.8283629,39.97271290000009],[32.82744420000006,39.97352010000009],[32.824987300000146,39.97711300000003],[32.82379639999999,39.97828870000012],[32.82245520000009,39.98048380000006],[32.81994470000018,39.98290900000012],[32.819569200000046,39.9860882000001],[32.81912060000019,39.98791320000015]]],"type":"Polygon"}},{"type":"Feature","properties":{"area_id":"TR-06-017-1691","name_tr":"Çaldıran","area_level":"neighbourhood","parent_id":"TR-06-017","endeksa_id":1691},"geometry":{"coordinates":[[[32.89353619999997,39.99157800000012],[32.893035700000155,39.99178970000008],[32.892871300000024,39.99149640000047],[32.89195160000014,39.99203990000018],[32.89166670000003,39.99200750000011],[32.89083620000008,39.9905816000001],[32.88971950000001,39.990832100000034],[32.889296400000035,39.99084750000043],[32.88799350000005,39.99121490000027],[32.88682690000013,39.989930900000104],[32.886005400000045,39.98947350000043],[32.885817200000076,39.98925390000005],[32.88534700000008,39.98796860000061],[32.88444450000003,39.986996700000134],[32.88391600000017,39.9866416000001],[32.88385910000011,39.986460900000566],[32.88418820000015,39.986089100000356],[32.88469910000015,39.98638430000062],[32.8856646000001,39.9857507000001],[32.885303100000044,39.98517110000006],[32.88577390000006,39.98466050000013],[32.88534940000011,39.9844068000001],[32.8869916000001,39.98291060000008],[32.88743160000007,39.98322010000015],[32.887953500000094,39.983413500000665],[32.88892690000017,39.98359840000069],[32.88895750000006,39.98446250000006],[32.89050110000005,39.98450320000023],[32.890934500000185,39.98483940000034],[32.890912200000116,39.98502550000046],[32.89180500000009,39.98649220000016],[32.89242409999997,39.986432400000695],[32.89252190000008,39.98698930000023],[32.89249970000003,39.98765390000051],[32.893151999999986,39.98899000000006],[32.89292870000003,39.99056580000007],[32.89305850000011,39.99070590000008],[32.89317750000015,39.99113370000066],[32.89343710000014,39.99123320000018],[32.893559000000096,39.991391799999974],[32.89353619999997,39.99157800000012]]],"type":"Polygon"}},{"type":"Feature","properties":{"area_id":"TR-06-017-1700","name_tr":"İncirli","area_level":"neighbourhood","parent_id":"TR-06-017","endeksa_id":1700},"geometry":{"coordinates":[[[32.84452160000012,39.989879200000246],[32.84377020000011,39.990178100000094],[32.84352380000013,39.990539900000044],[32.84343630000018,39.990890900000466],[32.84345969999998,39.99270440000009],[32.84144930000008,39.99269320000019],[32.84004130000011,39.99211170000058],[32.84006180000006,39.991727300000036],[32.840807200000086,39.99040869999999],[32.841012600000056,39.98955000000018],[32.84105000000011,39.9891492000001],[32.84058210000012,39.988111600000366],[32.840881900000056,39.9871455],[32.84075110000009,39.986716200000046],[32.84058060000018,39.98656300000016],[32.84082440000009,39.986313400000085],[32.84173650000008,39.98601850000006],[32.841433000000166,39.98535650000014],[32.84165010000004,39.98463010000006],[32.841165000000046,39.98374039999999],[32.8404336000001,39.98295190000016],[32.83803300000005,39.98159830000003],[32.838801500000045,39.97968380000009],[32.839216100000044,39.97946129999997],[32.83895780000017,39.97918740000023],[32.838966200000186,39.978241400000115],[32.84031280000005,39.977574000000175],[32.84056430000004,39.97709570000018],[32.84069510000006,39.9760811000001],[32.84235400000017,39.97292650000054],[32.843378400000006,39.97415790000014],[32.84393150000011,39.97540980000031],[32.84403950000018,39.976061300000026],[32.84432700000019,39.97679250000067],[32.84598630000016,39.97922749999998],[32.84887070000008,39.98105480000004],[32.84942770000015,39.981369600000164],[32.85027300000007,39.98163280000006],[32.84963859999999,39.98309180000069],[32.84966650000018,39.983383200000105],[32.84993150000008,39.98376800000051],[32.85109470000003,39.98466890000009],[32.85061470000011,39.984778700000106],[32.8502378,39.984974500000135],[32.849182400000075,39.98566850000037],[32.84736060000017,39.98846180000021],[32.84700410000016,39.98876200000018],[32.846216200000185,39.98931620000002],[32.84452160000012,39.989879200000246]]],"type":"Polygon"}},{"type":"Feature","properties":{"area_id":"TR-06-017-1724","name_tr":"19 Mayıs","area_level":"neighbourhood","parent_id":"TR-06-017","endeksa_id":1724},"geometry":{"coordinates":[[[32.85925490000005,39.99312310000005],[32.85792140000018,39.99210770000025],[32.85675060000011,39.991839900000116],[32.85566920000019,39.9939516000004],[32.85509190000005,39.99370870000001],[32.85473410000009,39.993291300000124],[32.8545390000001,39.99235070000009],[32.854343800000095,39.992101500000445],[32.851262200000065,39.99041950000003],[32.85030270000004,39.98975300000046],[32.85028650000015,39.989447700000426],[32.84974170000004,39.98943530000014],[32.84964770000005,39.98957100000018],[32.84903090000017,39.98991300000006],[32.8483432000001,39.9900707000001],[32.84722110000018,39.99048809999999],[32.846050300000115,39.99068740000018],[32.844537900000034,39.99147860000005],[32.84440780000011,39.990513000000135],[32.84452160000012,39.989879200000246],[32.846216200000185,39.98931620000002],[32.84700410000016,39.98876200000018],[32.84736060000017,39.98846180000021],[32.849182400000075,39.98566850000037],[32.8502378,39.984974500000135],[32.85061470000011,39.984778700000106],[32.85109470000003,39.98466890000009],[32.84993150000008,39.98376800000051],[32.84966650000018,39.983383200000105],[32.84963859999999,39.98309180000069],[32.85027300000007,39.98163280000006],[32.85296690000007,39.982427200000416],[32.85341990000006,39.98263330000009],[32.85380210000005,39.982937100000186],[32.85402860000016,39.98324080000009],[32.85415610000007,39.98352280000012],[32.8543684,39.98469430000006],[32.85668820000012,39.98439300000035],[32.85895510000012,39.98442930000016],[32.85897440000008,39.98490290000012],[32.85914760000003,39.9855903000003],[32.85955810000007,39.986664100000326],[32.85916170000013,39.988453800000116],[32.859572300000025,39.990720700000054],[32.86021160000013,39.99223450000011],[32.860055800000055,39.992530600000066],[32.85925490000005,39.99312310000005]]],"type":"Polygon"}},{"type":"Feature","properties":{"area_id":"TR-06-017-1719","name_tr":"Yakacık","area_level":"neighbourhood","parent_id":"TR-06-017","endeksa_id":1719},"geometry":{"coordinates":[[[32.87519640000011,39.99077960000017],[32.87426240000008,39.990064000000075],[32.87367400000005,39.98997810000026],[32.86958310000017,39.99123040000012],[32.86933090000008,39.991416400000105],[32.868756899999994,39.99220780000036],[32.86776960000003,39.993298400000356],[32.86697720000001,39.99379930000009],[32.86628810000019,39.994583400000124],[32.865445500000135,39.994178499999975],[32.863596200000075,39.99399960000011],[32.86374799999999,39.99371190000011],[32.86476410000006,39.99297690000003],[32.865961800000036,39.99190330000039],[32.86615710000001,39.9913691000001],[32.86599100000012,39.99014280000006],[32.865966300000025,39.98890590000036],[32.86576910000008,39.98812210000017],[32.86530080000006,39.98723450000011],[32.86421340000015,39.98569050000009],[32.864896200000146,39.98546740000006],[32.86524500000007,39.985539700000004],[32.86753729999998,39.98650280000015],[32.868005600000004,39.98682390000005],[32.86822740000008,39.98709770000016],[32.86831490000003,39.98778390000007],[32.875394900000174,39.988017600000035],[32.87539260000017,39.99017850000013],[32.87519640000011,39.99077960000017]]],"type":"Polygon"}},{"type":"Feature","properties":{"area_id":"TR-06-017-1721","name_tr":"Yeşilöz","area_level":"neighbourhood","parent_id":"TR-06-017","endeksa_id":1721},"geometry":{"coordinates":[[[32.90018880000014,39.99393780000014],[32.900021600000116,39.99438220000013],[32.8990654000001,39.995624200000236],[32.89747660000006,39.994579999999985],[32.89688800000005,39.99378700000028],[32.89716540000006,39.99327090000003],[32.89667570000006,39.99304270000016],[32.89604200000019,39.99322290000015],[32.89580560000019,39.99277480000001],[32.895643000000064,39.99263780000041],[32.8946754000001,39.992295200000115],[32.89412250000004,39.99164110000004],[32.893635200000176,39.99174060000007],[32.89353619999997,39.99157800000012],[32.893559000000096,39.991391799999974],[32.89343710000014,39.99123320000018],[32.89317750000015,39.99113370000066],[32.89305850000011,39.99070590000008],[32.89292870000003,39.99056580000007],[32.893151999999986,39.98899000000006],[32.89249970000003,39.98765390000051],[32.89252190000008,39.98698930000023],[32.89242409999997,39.986432400000695],[32.89180500000009,39.98649220000016],[32.890912200000116,39.98502550000046],[32.890934500000185,39.98483940000034],[32.89050110000005,39.98450320000023],[32.88895750000006,39.98446250000006],[32.88892690000017,39.98359840000069],[32.89002460000006,39.983573500000034],[32.891552100000126,39.98339890000017],[32.8924535000001,39.983420800000204],[32.893493200000194,39.98364230000004],[32.89441900000003,39.98404980000038],[32.89532290000005,39.98481950000047],[32.89999000000017,39.991459200000236],[32.90028370000016,39.992184500000064],[32.90034730000008,39.99260640000011],[32.90036850000007,39.99303650000036],[32.90018880000014,39.99393780000014]]],"type":"Polygon"}},{"type":"Feature","properties":{"area_id":"TR-06-017-1716","name_tr":"Tepebaşı","area_level":"neighbourhood","parent_id":"TR-06-017","endeksa_id":1716},"geometry":{"coordinates":[[[32.863596200000075,39.99399960000011],[32.862749700000165,39.99746020000009],[32.86088870000003,39.99613840000018],[32.85986580000014,39.995222600000034],[32.858612600000185,39.993615200000136],[32.85925490000005,39.99312310000005],[32.860055800000055,39.992530600000066],[32.86021160000013,39.99223450000011],[32.859572300000025,39.990720700000054],[32.85916170000013,39.988453800000116],[32.85955810000007,39.986664100000326],[32.85914760000003,39.9855903000003],[32.85897440000008,39.98490290000012],[32.85895510000012,39.98442930000016],[32.85919460000002,39.98251000000016],[32.85981110000006,39.97959540000005],[32.85988620000006,39.979332300000124],[32.862205900000106,39.97857300000055],[32.8635283000001,39.97986780000002],[32.863734500000135,39.98072870000021],[32.86408040000015,39.981624800000134],[32.864110900000185,39.982536100000004],[32.863389000000154,39.98439430000013],[32.863618200000076,39.98493210000004],[32.86421340000015,39.98569050000009],[32.86530080000006,39.98723450000011],[32.86576910000008,39.98812210000017],[32.865966300000025,39.98890590000036],[32.86599100000012,39.99014280000006],[32.86615710000001,39.9913691000001],[32.865961800000036,39.99190330000039],[32.86476410000006,39.99297690000003],[32.86374799999999,39.99371190000011],[32.863596200000075,39.99399960000011]]],"type":"Polygon"}},{"type":"Feature","properties":{"area_id":"TR-06-017-1689","name_tr":"Bağlarbaşı","area_level":"neighbourhood","parent_id":"TR-06-017","endeksa_id":1689},"geometry":{"coordinates":[[[32.88391380000019,39.99770220000022],[32.88356590000018,39.99766370000009],[32.88032550000008,39.99788360000031],[32.880296900000076,39.99731050000014],[32.88041150000009,39.996480099999985],[32.87916680000018,39.99663110000006],[32.87926230000005,39.9970088000004],[32.876813000000084,39.9972707000004],[32.87581150000017,39.99715350000065],[32.875447000000065,39.9967101000002],[32.87407550000006,39.99657740000009],[32.87462020000004,39.99459660000048],[32.87470970000015,39.99212980000016],[32.87519640000011,39.99077960000017],[32.87539260000017,39.99017850000013],[32.875394900000174,39.988017600000035],[32.87538780000011,39.98736680000002],[32.87758660000014,39.98739110000008],[32.879790700000115,39.987927400000046],[32.880468199999996,39.988271000000054],[32.88150890000014,39.98917520000026],[32.88274420000005,39.98822180000025],[32.88391600000017,39.9866416000001],[32.88444450000003,39.986996700000134],[32.88534700000008,39.98796860000061],[32.885817200000076,39.98925390000005],[32.886005400000045,39.98947350000043],[32.88682690000013,39.989930900000104],[32.88799350000005,39.99121490000027],[32.889176700000064,39.993307300000026],[32.88928350000003,39.994915400000025],[32.88945110000003,39.995408200000156],[32.8902465000001,39.996162200000185],[32.890194000000065,39.99659630000019],[32.89030450000013,39.99722270000018],[32.88999130000013,39.997277600000075],[32.88512059999999,39.99768290000003],[32.88391380000019,39.99770220000022]]],"type":"Polygon"}},{"type":"Feature","properties":{"area_id":"TR-06-017-1714","name_tr":"Şenlik","area_level":"neighbourhood","parent_id":"TR-06-017","endeksa_id":1714},"geometry":{"coordinates":[[[32.87407550000006,39.99657740000009],[32.87357370000012,39.99802780000016],[32.87328910000019,39.99851990000019],[32.871524700000066,39.999958700000036],[32.866514400000085,39.999014900000475],[32.86496150000005,39.99916590000004],[32.863581200000056,39.999005400000044],[32.86303900000013,39.99876940000041],[32.862749700000165,39.99746020000009],[32.863596200000075,39.99399960000011],[32.865445500000135,39.994178499999975],[32.86628810000019,39.994583400000124],[32.86697720000001,39.99379930000009],[32.86776960000003,39.993298400000356],[32.868756899999994,39.99220780000036],[32.86933090000008,39.991416400000105],[32.86958310000017,39.99123040000012],[32.87367400000005,39.98997810000026],[32.87426240000008,39.990064000000075],[32.87519640000011,39.99077960000017],[32.87470970000015,39.99212980000016],[32.87462020000004,39.99459660000048],[32.87407550000006,39.99657740000009]]],"type":"Polygon"}},{"type":"Feature","properties":{"area_id":"TR-06-017-1711","name_tr":"Sancaktepe","area_level":"neighbourhood","parent_id":"TR-06-017","endeksa_id":1711},"geometry":{"coordinates":[[[32.82000960000005,39.98803490000006],[32.819311200000186,39.9905533000001],[32.81919800000003,39.991920000000164],[32.81932540000008,39.99518450000045],[32.81950940000007,39.996117200000526],[32.82266640000012,40.001832500000546],[32.82137810000012,40.00206020000002],[32.81916970000003,40.003025400000126],[32.81723730000016,40.00360550000016],[32.81803710000008,40.002277100000015],[32.81833690000019,40.00118870000006],[32.81766670000019,40.00129640000006],[32.81631470000002,40.00125860000031],[32.81641580000007,39.999505800000236],[32.81495140000004,40.000190900000064],[32.81482950000009,40.00019330000009],[32.8147335000001,39.99956870000011],[32.81461030000008,39.999408200000175],[32.81412970000008,39.99939880000011],[32.810888400000124,40.000097400000186],[32.809680600000036,39.999880300000314],[32.81059260000018,39.997907100000475],[32.81064160000011,39.997274800000014],[32.810784400000045,39.995853700000396],[32.810467300000084,39.99207260000003],[32.811125900000036,39.99077690000013],[32.811182800000154,39.99029100000007],[32.81136980000019,39.99000440000066],[32.81224800000018,39.989269300000046],[32.813280600000155,39.988534200000515],[32.81449210000005,39.988185300000055],[32.814654700000176,39.98804210000014],[32.81549030000002,39.988362800000004],[32.81586620000007,39.98859649999997],[32.816465700000094,39.988559900000155],[32.81646260000019,39.98838410000053],[32.81721010000007,39.98834840000006],[32.81810800000011,39.98850010000018],[32.81814710000015,39.9878348000002],[32.81912060000019,39.98791320000015],[32.82000960000005,39.98803490000006]]],"type":"Polygon"}},{"type":"Feature","properties":{"area_id":"TR-06-017-1713","name_tr":"Şehit Kubilay","area_level":"neighbourhood","parent_id":"TR-06-017","endeksa_id":1713},"geometry":{"coordinates":[[[32.81064160000011,39.997274800000014],[32.807347100000015,39.99942640000006],[32.804083100000184,40.002025300000184],[32.80370240000008,40.002197900000226],[32.799123600000144,40.00325450000025],[32.79812560000016,40.00370790000011],[32.79763870000005,40.00405170000016],[32.797254800000076,40.004019900000344],[32.79665230000012,40.00120690000011],[32.796894900000154,39.99987650000003],[32.796614900000066,39.998309500000005],[32.79647860000017,39.99817750000011],[32.796769700000084,39.99782440000001],[32.79727910000014,39.997582800000146],[32.797715700000026,39.99696960000017],[32.79890430000012,39.99583610000036],[32.79977750000006,39.994256500000404],[32.80022109999999,39.992124500000216],[32.79955920000015,39.99115310000013],[32.79972900000013,39.99089290000063],[32.80033540000005,39.99102300000038],[32.80077200000011,39.990446900000165],[32.801548300000036,39.989759200000265],[32.802106200000026,39.98909020000019],[32.80261710000019,39.98880070000018],[32.80484940000014,39.98872920000031],[32.805138900000145,39.98836420000066],[32.806265900000085,39.988433200000145],[32.806714900000145,39.98836540000008],[32.808243100000084,39.98659980000019],[32.80924830000015,39.98604420000004],[32.80966730000017,39.986072500000034],[32.81014800000014,39.98531710000043],[32.81139420000005,39.98560620000001],[32.81158940000006,39.986123299999974],[32.8111909000001,39.98812300000009],[32.81224800000018,39.989269300000046],[32.81136980000019,39.99000440000066],[32.811182800000154,39.99029100000007],[32.811125900000036,39.99077690000013],[32.810467300000084,39.99207260000003],[32.810784400000045,39.995853700000396],[32.81064160000011,39.997274800000014]]],"type":"Polygon"}},{"type":"Feature","properties":{"area_id":"TR-06-017-1685","name_tr":"Aktepe","area_level":"neighbourhood","parent_id":"TR-06-017","endeksa_id":1685},"geometry":{"coordinates":[[[32.88984760000017,40.00214790000035],[32.88912400000015,40.0021167000001],[32.88929470000005,40.0026835000001],[32.88922150000002,40.002970000000516],[32.88562950000005,40.004207500000234],[32.88438550000012,40.001965300000165],[32.884052100000076,40.00121160000015],[32.883832600000005,40.00037080000004],[32.88372390000012,39.99983520000012],[32.883738700000094,39.998671500000114],[32.88391380000019,39.99770220000022],[32.88512059999999,39.99768290000003],[32.88999130000013,39.997277600000075],[32.8901987000001,39.9980970000002],[32.88995560000001,39.99814710000044],[32.890012800000136,39.99834790000017],[32.89026970000009,39.99833650000011],[32.890725200000134,40.000068900000144],[32.8909867000001,40.00003990000005],[32.89104450000008,40.00027740000013],[32.8907918000001,40.00031110000043],[32.891078400000026,40.00139680000001],[32.89089790000003,40.0021481],[32.89056480000016,40.00215250000019],[32.8902250000001,40.002033900000185],[32.88984760000017,40.00214790000035]]],"type":"Polygon"}},{"type":"Feature","properties":{"area_id":"TR-06-017-1722","name_tr":"Yeşiltepe","area_level":"neighbourhood","parent_id":"TR-06-017","endeksa_id":1722},"geometry":{"coordinates":[[[32.89767370000004,40.001588900000286],[32.897543100000064,40.00196170000004],[32.89687420000013,40.00294690000038],[32.89631210000016,40.003576500000065],[32.89614150000011,40.00436750000017],[32.89587080000007,40.00441640000014],[32.894573700000024,40.0049934000001],[32.894381600000145,40.00494480000049],[32.89377360000009,40.004439800000114],[32.89325279999997,40.004411600000424],[32.89324920000007,40.00459430000012],[32.892957000000024,40.00505679999998],[32.89236570000014,40.00533110000015],[32.89156240000011,40.005376200000114],[32.89060110000014,40.005251400000134],[32.89012890000015,40.00434040000022],[32.889888300000166,40.00293890000006],[32.88984760000017,40.00214790000035],[32.8902250000001,40.002033900000185],[32.89056480000016,40.00215250000019],[32.89089790000003,40.0021481],[32.891078400000026,40.00139680000001],[32.8907918000001,40.00031110000043],[32.89104450000008,40.00027740000013],[32.8909867000001,40.00003990000005],[32.890725200000134,40.000068900000144],[32.89026970000009,39.99833650000011],[32.890012800000136,39.99834790000017],[32.88995560000001,39.99814710000044],[32.8901987000001,39.9980970000002],[32.88999130000013,39.997277600000075],[32.89030450000013,39.99722270000018],[32.890194000000065,39.99659630000019],[32.8902465000001,39.996162200000185],[32.88945110000003,39.995408200000156],[32.88928350000003,39.994915400000025],[32.889176700000064,39.993307300000026],[32.88799350000005,39.99121490000027],[32.889296400000035,39.99084750000043],[32.88971950000001,39.990832100000034],[32.89083620000008,39.9905816000001],[32.89166670000003,39.99200750000011],[32.89195160000014,39.99203990000018],[32.892871300000024,39.99149640000047],[32.893035700000155,39.99178970000008],[32.89353619999997,39.99157800000012],[32.893635200000176,39.99174060000007],[32.89412250000004,39.99164110000004],[32.8946754000001,39.992295200000115],[32.895643000000064,39.99263780000041],[32.89580560000019,39.99277480000001],[32.89604200000019,39.99322290000015],[32.89667570000006,39.99304270000016],[32.89716540000006,39.99327090000003],[32.89688800000005,39.99378700000028],[32.89747660000006,39.994579999999985],[32.8990654000001,39.995624200000236],[32.89709470000008,39.996975300000145],[32.89704290000009,39.997282600000176],[32.89767370000004,40.001588900000286]]],"type":"Polygon"}},{"type":"Feature","properties":{"area_id":"TR-06-017-1684","name_tr":"Adnan Menderes","area_level":"neighbourhood","parent_id":"TR-06-017","endeksa_id":1684},"geometry":{"coordinates":[[[32.88555290000011,40.00407580000035],[32.881319000000076,40.00541730000015],[32.87939970000008,40.00161630000042],[32.87926970000012,40.000520000000165],[32.87454560000009,40.00083770000015],[32.87263480000007,40.00149790000057],[32.871524700000066,39.999958700000036],[32.87328910000019,39.99851990000019],[32.87357370000012,39.99802780000016],[32.87407550000006,39.99657740000009],[32.875447000000065,39.9967101000002],[32.87581150000017,39.99715350000065],[32.876813000000084,39.9972707000004],[32.87926230000005,39.9970088000004],[32.87916680000018,39.99663110000006],[32.88041150000009,39.996480099999985],[32.880296900000076,39.99731050000014],[32.88032550000008,39.99788360000031],[32.88356590000018,39.99766370000009],[32.88391380000019,39.99770220000022],[32.883738700000094,39.998671500000114],[32.88372390000012,39.99983520000012],[32.883832600000005,40.00037080000004],[32.884052100000076,40.00121160000015],[32.88438550000012,40.001965300000165],[32.88555290000011,40.00407580000035]]],"type":"Polygon"}},{"type":"Feature","properties":{"area_id":"TR-06-017-1707","name_tr":"Kuşcağız","area_level":"neighbourhood","parent_id":"TR-06-017","endeksa_id":1707},"geometry":{"coordinates":[[[32.858612600000185,39.993615200000136],[32.85762280000017,39.994420000000105],[32.857092900000055,39.99510930000008],[32.85681890000012,39.99696519999998],[32.856501300000104,39.99814940000027],[32.85605060000012,40.002146800000105],[32.855707200000154,40.00369999999998],[32.85484900000017,40.0064411000003],[32.85147280000007,40.006079800000066],[32.851650500000005,40.005547000000035],[32.851086200000054,40.0028496000005],[32.85081620000011,40.00230610000011],[32.84987580000012,40.00108160000059],[32.84900080000017,40.001402600000176],[32.848162800000125,40.001185500000304],[32.84688340000014,40.001043500000094],[32.84605290000013,40.00012890000028],[32.84388710000019,39.999939400000585],[32.84382570000008,40.00052290000019],[32.84253000000018,40.000575600000104],[32.842772800000034,40.00193180000008],[32.84192360000009,40.0020104000007],[32.84182400000003,40.00147820000018],[32.84089060000008,40.001556400000084],[32.8407797000001,40.00205040000009],[32.83931680000006,40.00207160000008],[32.839104500000076,40.002290000000016],[32.83851900000013,40.002159600000255],[32.83863620000005,40.0014498000005],[32.83831990000016,40.001294200000416],[32.837407799999994,40.001149100000134],[32.83781270000014,39.999925899999994],[32.83786350000008,39.99787350000054],[32.83798250000012,39.9969210000001],[32.838919900000064,39.997194700000136],[32.839683800000046,39.996293200000025],[32.84137690000017,39.99526190000046],[32.841564000000176,39.99462850000009],[32.84332290000003,39.99483750000019],[32.84348860000006,39.993810400000086],[32.84345969999998,39.99270440000009],[32.84343630000018,39.990890900000466],[32.84352380000013,39.990539900000044],[32.84377020000011,39.990178100000094],[32.84452160000012,39.989879200000246],[32.84440780000011,39.990513000000135],[32.844537900000034,39.99147860000005],[32.846050300000115,39.99068740000018],[32.84722110000018,39.99048809999999],[32.8483432000001,39.9900707000001],[32.84903090000017,39.98991300000006],[32.84964770000005,39.98957100000018],[32.84974170000004,39.98943530000014],[32.85028650000015,39.989447700000426],[32.85030270000004,39.98975300000046],[32.851262200000065,39.99041950000003],[32.854343800000095,39.992101500000445],[32.8545390000001,39.99235070000009],[32.85473410000009,39.993291300000124],[32.85509190000005,39.99370870000001],[32.85566920000019,39.9939516000004],[32.85675060000011,39.991839900000116],[32.85792140000018,39.99210770000025],[32.85925490000005,39.99312310000005],[32.858612600000185,39.993615200000136]]],"type":"Polygon"}},{"type":"Feature","properties":{"area_id":"TR-06-017-1720","name_tr":"Yayla","area_level":"neighbourhood","parent_id":"TR-06-017","endeksa_id":1720},"geometry":{"coordinates":[[[32.83282880000007,39.98373780000014],[32.83263770000002,39.984298500000705],[32.832288100000085,39.98476270000003],[32.83149530000003,39.98547910000019],[32.83105690000019,39.98572870000038],[32.82951380000003,39.98615720000066],[32.82896880000004,39.98647170000004],[32.82874930000003,39.986694100000136],[32.828629000000035,39.987046599999985],[32.828629000000035,39.98781670000011],[32.82840960000016,39.98861940000046],[32.828777700000046,39.98959010000016],[32.82908200000003,39.98992090000013],[32.83076670000014,39.99068020000044],[32.832260200000064,39.990707300000054],[32.832529200000124,39.991157400000134],[32.83202660000012,39.99277890000036],[32.831998300000066,39.993565200000035],[32.83238760000012,39.99384720000029],[32.83441210000012,39.99476910000004],[32.834107700000175,39.99547940000019],[32.83354850000006,39.995989200000054],[32.83346360000019,39.99746410000006],[32.83429170000011,39.998342600000115],[32.83228150000008,40.002409300000124],[32.83213990000007,40.00291360000011],[32.8324856000001,40.006821600000194],[32.81723730000016,40.00360550000016],[32.81916970000003,40.003025400000126],[32.82137810000012,40.00206020000002],[32.82266640000012,40.001832500000546],[32.81950940000007,39.996117200000526],[32.81932540000008,39.99518450000045],[32.81919800000003,39.991920000000164],[32.819311200000186,39.9905533000001],[32.82000960000005,39.98803490000006],[32.820582400000035,39.98786910000001],[32.822024400000146,39.98687770000009],[32.82264060000011,39.986330000000066],[32.82323210000004,39.98565010000027],[32.82367830000004,39.98488680000003],[32.82423220000004,39.984535700000436],[32.82508470000005,39.98443240000006],[32.829067200000054,39.98460200000005],[32.829794300000174,39.98455480000024],[32.83089360000014,39.984348400000215],[32.83282880000007,39.98373780000014]]],"type":"Polygon"}},{"type":"Feature","properties":{"area_id":"TR-06-017-1710","name_tr":"Pınarbaşı","area_level":"neighbourhood","parent_id":"TR-06-017","endeksa_id":1710},"geometry":{"coordinates":[[[32.865899000000184,40.006341400000224],[32.86453860000006,40.0064454000003],[32.86237829999999,40.007350400000064],[32.86046750000003,40.00763690000048],[32.85967070000015,40.00768670000019],[32.85635330000014,40.00746870000006],[32.85532880000011,40.00734410000041],[32.85489780000012,40.00697050000008],[32.85484900000017,40.0064411000003],[32.855707200000154,40.00369999999998],[32.85605060000012,40.002146800000105],[32.856501300000104,39.99814940000027],[32.85681890000012,39.99696519999998],[32.857092900000055,39.99510930000008],[32.85762280000017,39.994420000000105],[32.858612600000185,39.993615200000136],[32.85986580000014,39.995222600000034],[32.86088870000003,39.99613840000018],[32.862749700000165,39.99746020000009],[32.86303900000013,39.99876940000041],[32.863581200000056,39.999005400000044],[32.86496150000005,39.99916590000004],[32.866514400000085,39.999014900000475],[32.871524700000066,39.999958700000036],[32.87069280000014,40.00122020000015],[32.869513200000085,40.00227760000007],[32.86844930000012,40.003093300000046],[32.867839200000105,40.00404090000012],[32.86763360000015,40.00422490000011],[32.86677980000002,40.00473610000063],[32.86583990000008,40.004819900000086],[32.86547910000007,40.004764200000466],[32.86583650000017,40.00541559999999],[32.865984400000116,40.005925300000115],[32.865899000000184,40.006341400000224]]],"type":"Polygon"}},{"type":"Feature","properties":{"area_id":"TR-06-017-1706","name_tr":"Köşk","area_level":"neighbourhood","parent_id":"TR-06-017","endeksa_id":1706},"geometry":{"coordinates":[[[32.87987340000018,40.00256160000015],[32.87701130000016,40.00347080000006],[32.87716150000017,40.00449780000008],[32.878578500000174,40.006661200000394],[32.87606310000007,40.00806180000046],[32.87540160000003,40.00745820000026],[32.874564700000064,40.00601190000032],[32.87406780000015,40.00531450000017],[32.87347760000017,40.00468870000026],[32.87325570000013,40.002394700000025],[32.87263480000007,40.00149790000057],[32.87454560000009,40.00083770000015],[32.87926970000012,40.000520000000165],[32.87939970000008,40.00161630000042],[32.87987340000018,40.00256160000015]]],"type":"Polygon"}},{"type":"Feature","properties":{"area_id":"TR-06-017-1694","name_tr":"Esertepe","area_level":"neighbourhood","parent_id":"TR-06-017","endeksa_id":1694},"geometry":{"coordinates":[[[32.837407799999994,40.001149100000134],[32.837105500000064,40.002641400000186],[32.836895600000105,40.00471260000046],[32.83707870000012,40.005940200000055],[32.83750850000018,40.007632200000444],[32.83756750000009,40.00844400000011],[32.833153500000094,40.006996900000104],[32.83266790000005,40.00708280000009],[32.8324856000001,40.006821600000194],[32.83213990000007,40.00291360000011],[32.83228150000008,40.002409300000124],[32.83429170000011,39.998342600000115],[32.83346360000019,39.99746410000006],[32.83354850000006,39.995989200000054],[32.834107700000175,39.99547940000019],[32.83441210000012,39.99476910000004],[32.83238760000012,39.99384720000029],[32.831998300000066,39.993565200000035],[32.83202660000012,39.99277890000036],[32.832529200000124,39.991157400000134],[32.832260200000064,39.990707300000054],[32.83076670000014,39.99068020000044],[32.82908200000003,39.98992090000013],[32.828777700000046,39.98959010000016],[32.82840960000016,39.98861940000046],[32.828629000000035,39.98781670000011],[32.828629000000035,39.987046599999985],[32.82874930000003,39.986694100000136],[32.82896880000004,39.98647170000004],[32.82951380000003,39.98615720000066],[32.83105690000019,39.98572870000038],[32.83149530000003,39.98547910000019],[32.832288100000085,39.98476270000003],[32.83263770000002,39.984298500000705],[32.83282880000007,39.98373780000014],[32.8344194,39.98363070000016],[32.83451310000015,39.983014800000035],[32.83622060000005,39.9811332000001],[32.836781700000074,39.97969400000022],[32.83710690000015,39.97908340000015],[32.837652400000024,39.97868130000063],[32.838966200000186,39.978241400000115],[32.83895780000017,39.97918740000023],[32.839216100000044,39.97946129999997],[32.838801500000045,39.97968380000009],[32.83803300000005,39.98159830000003],[32.8404336000001,39.98295190000016],[32.841165000000046,39.98374039999999],[32.84165010000004,39.98463010000006],[32.841433000000166,39.98535650000014],[32.84173650000008,39.98601850000006],[32.84082440000009,39.986313400000085],[32.84058060000018,39.98656300000016],[32.84075110000009,39.986716200000046],[32.840881900000056,39.9871455],[32.84058210000012,39.988111600000366],[32.84105000000011,39.9891492000001],[32.841012600000056,39.98955000000018],[32.840807200000086,39.99040869999999],[32.84006180000006,39.991727300000036],[32.84004130000011,39.99211170000058],[32.84144930000008,39.99269320000019],[32.84345969999998,39.99270440000009],[32.84348860000006,39.993810400000086],[32.84332290000003,39.99483750000019],[32.841564000000176,39.99462850000009],[32.84137690000017,39.99526190000046],[32.839683800000046,39.996293200000025],[32.838919900000064,39.997194700000136],[32.83798250000012,39.9969210000001],[32.83786350000008,39.99787350000054],[32.83781270000014,39.999925899999994],[32.837407799999994,40.001149100000134]]],"type":"Polygon"}},{"type":"Feature","properties":{"area_id":"TR-06-017-1698","name_tr":"Güzelyurt","area_level":"neighbourhood","parent_id":"TR-06-017","endeksa_id":1698},"geometry":{"coordinates":[[[32.89060110000014,40.005251400000134],[32.89048120000018,40.00558980000005],[32.89019540000015,40.005846000000076],[32.889370100000065,40.00603430000007],[32.88902450000006,40.00619170000027],[32.88885640000001,40.00644920000008],[32.888548200000116,40.00658520000013],[32.88787570000005,40.006485000000055],[32.88758610000008,40.00635630000039],[32.887380700000165,40.00613449999997],[32.886325200000044,40.00657090000038],[32.88503630000014,40.00760109999999],[32.884186399999976,40.00872430000021],[32.88407430000012,40.008774300000084],[32.883504600000094,40.008774300000084],[32.88326170000005,40.00865270000014],[32.88272000000018,40.008109000000104],[32.88195410000003,40.00753670000017],[32.88211290000004,40.00702160000037],[32.88202880000017,40.00662810000017],[32.88187940000006,40.00624180000051],[32.881319000000076,40.00541730000015],[32.88555290000011,40.00407580000035],[32.88562950000005,40.004207500000234],[32.88922150000002,40.002970000000516],[32.88929470000005,40.0026835000001],[32.88912400000015,40.0021167000001],[32.88984760000017,40.00214790000035],[32.889888300000166,40.00293890000006],[32.89012890000015,40.00434040000022],[32.89060110000014,40.005251400000134]]],"type":"Polygon"}},{"type":"Feature","properties":{"area_id":"TR-06-017-1725","name_tr":"23 Nisan","area_level":"neighbourhood","parent_id":"TR-06-017","endeksa_id":1725},"geometry":{"coordinates":[[[32.88195410000003,40.00753670000017],[32.88193540000009,40.00797310000007],[32.882066200000054,40.00833080000018],[32.882542500000056,40.00898900000044],[32.88253320000018,40.009403900000166],[32.88227170000005,40.00962559999999],[32.88232770000002,40.010026300000106],[32.88144980000004,40.010477000000094],[32.880095500000095,40.01165020000036],[32.879740500000025,40.012158100000136],[32.879254500000116,40.012416300000154],[32.87917970000018,40.01225900000014],[32.87920780000019,40.01199430000008],[32.87922640000011,40.011336100000165],[32.87914240000009,40.01101420000032],[32.87699740000005,40.008834900000124],[32.87606310000007,40.00806180000046],[32.878578500000174,40.006661200000394],[32.87716150000017,40.00449780000008],[32.87701130000016,40.00347080000006],[32.87987340000018,40.00256160000015],[32.881319000000076,40.00541730000015],[32.88187940000006,40.00624180000051],[32.88202880000017,40.00662810000017],[32.88211290000004,40.00702160000037],[32.88195410000003,40.00753670000017]]],"type":"Polygon"}},{"type":"Feature","properties":{"area_id":"TR-06-017-1718","name_tr":"Uyanış","area_level":"neighbourhood","parent_id":"TR-06-017","endeksa_id":1718},"geometry":{"coordinates":[[[32.87347760000017,40.00468870000026],[32.8726607000001,40.00544720000016],[32.87179170000013,40.00603070000045],[32.871367000000134,40.00660790000006],[32.87125370000018,40.00711750000016],[32.87118300000003,40.00919950000008],[32.87092810000007,40.009546400000374],[32.87024859999997,40.00996930000019],[32.86954080000004,40.01058740000053],[32.86837990000009,40.01213790000003],[32.86730400000005,40.01259330000005],[32.86570840000019,40.01140700000013],[32.86488990000015,40.01149230000044],[32.86291540000002,40.01201860000015],[32.86287290000007,40.01191020000056],[32.86351000000019,40.01093440000011],[32.86345340000014,40.008646399999975],[32.86352410000012,40.00847300000038],[32.86567600000018,40.00662960000011],[32.865899000000184,40.006341400000224],[32.865984400000116,40.005925300000115],[32.86583650000017,40.00541559999999],[32.86547910000007,40.004764200000466],[32.86583990000008,40.004819900000086],[32.86677980000002,40.00473610000063],[32.86763360000015,40.00422490000011],[32.867839200000105,40.00404090000012],[32.86844930000012,40.003093300000046],[32.869513200000085,40.00227760000007],[32.87069280000014,40.00122020000015],[32.871524700000066,39.999958700000036],[32.87263480000007,40.00149790000057],[32.87325570000013,40.002394700000025],[32.87347760000017,40.00468870000026]]],"type":"Polygon"}},{"type":"Feature","properties":{"area_id":"TR-06-017-1717","name_tr":"Ufuktepe","area_level":"neighbourhood","parent_id":"TR-06-017","endeksa_id":1717},"geometry":{"coordinates":[[[32.85752430000019,40.01570040000013],[32.855686400000025,40.01599520000019],[32.85471250000006,40.01536350000015],[32.85431610000012,40.01530930000007],[32.85294290000019,40.01547190000019],[32.85171130000009,40.01615500000008],[32.85039910000006,40.01606200000003],[32.849913500000184,40.01619410000012],[32.849183100000175,40.01590000000027],[32.85001450000004,40.01502480000033],[32.85053130000017,40.01406050000048],[32.85134440000013,40.014228600000536],[32.85206140000008,40.01388020000013],[32.85135480000008,40.01247220000016],[32.85074270000007,40.012665500000026],[32.84932790000005,40.00887910000023],[32.850693900000124,40.008586400000524],[32.85096220000008,40.007776700000136],[32.851311800000076,40.00725360000001],[32.85161270000009,40.00704180000008],[32.85349910000002,40.00714150000016],[32.85489780000012,40.00697050000008],[32.85532880000011,40.00734410000041],[32.85635330000014,40.00746870000006],[32.85687360000003,40.00785480000002],[32.85703420000016,40.008391500000016],[32.85699180000017,40.010169800000085],[32.85723240000004,40.01246850000007],[32.85707670000011,40.01396480000005],[32.85752430000019,40.01570040000013]]],"type":"Polygon"}},{"type":"Feature","properties":{"area_id":"TR-06-017-1726","name_tr":"Atapark","area_level":"neighbourhood","parent_id":"TR-06-017","endeksa_id":1726},"geometry":{"coordinates":[[[32.849183100000175,40.01590000000027],[32.84839630000005,40.016764400000056],[32.84672870000014,40.018927000000076],[32.845793600000036,40.01827310000016],[32.8454359000001,40.017837200000145],[32.84516760000008,40.017314200000044],[32.84507810000014,40.01659180000013],[32.845257000000004,40.01459290000048],[32.84385040000018,40.01438740000003],[32.84176880000007,40.014287700000125],[32.841591900000026,40.01316290000011],[32.84133470000006,40.01264810000015],[32.8397490000001,40.01084680000014],[32.83856510000004,40.00975030000001],[32.83706920000009,40.00957970000013],[32.83756750000009,40.00844400000011],[32.83750850000018,40.007632200000444],[32.83707870000012,40.005940200000055],[32.836895600000105,40.00471260000046],[32.837105500000064,40.002641400000186],[32.837407799999994,40.001149100000134],[32.83831990000016,40.001294200000416],[32.83863620000005,40.0014498000005],[32.83851900000013,40.002159600000255],[32.839104500000076,40.002290000000016],[32.83931680000006,40.00207160000008],[32.8407797000001,40.00205040000009],[32.84089060000008,40.001556400000084],[32.84182400000003,40.00147820000018],[32.84192360000009,40.0020104000007],[32.842772800000034,40.00193180000008],[32.84253000000018,40.000575600000104],[32.84382570000008,40.00052290000019],[32.84388710000019,39.999939400000585],[32.84605290000013,40.00012890000028],[32.84688340000014,40.001043500000094],[32.848162800000125,40.001185500000304],[32.84900080000017,40.001402600000176],[32.84987580000012,40.00108160000059],[32.85081620000011,40.00230610000011],[32.851086200000054,40.0028496000005],[32.851650500000005,40.005547000000035],[32.85147280000007,40.006079800000066],[32.85484900000017,40.0064411000003],[32.85489780000012,40.00697050000008],[32.85349910000002,40.00714150000016],[32.85161270000009,40.00704180000008],[32.851311800000076,40.00725360000001],[32.85096220000008,40.007776700000136],[32.850693900000124,40.008586400000524],[32.84932790000005,40.00887910000023],[32.85074270000007,40.012665500000026],[32.85135480000008,40.01247220000016],[32.85206140000008,40.01388020000013],[32.85134440000013,40.014228600000536],[32.85053130000017,40.01406050000048],[32.85001450000004,40.01502480000033],[32.849183100000175,40.01590000000027]]],"type":"Polygon"}},{"type":"Feature","properties":{"area_id":"TR-06-017-1708","name_tr":"Osmangazi","area_level":"neighbourhood","parent_id":"TR-06-017","endeksa_id":1708},"geometry":{"coordinates":[[[32.86546370000019,40.01730350000008],[32.86418320000013,40.01782540000005],[32.863093100000185,40.0181055000005],[32.86264390000014,40.01836200000008],[32.86232060000003,40.01895270000011],[32.86037330000005,40.020547400000396],[32.860143600000185,40.019726900000364],[32.86004760000009,40.01858920000001],[32.85992990000011,40.018279700000164],[32.858182000000056,40.01720350000011],[32.85780910000011,40.01652480000013],[32.85752430000019,40.01570040000013],[32.85707670000011,40.01396480000005],[32.85723240000004,40.01246850000007],[32.85699180000017,40.010169800000085],[32.85703420000016,40.008391500000016],[32.85687360000003,40.00785480000002],[32.85635330000014,40.00746870000006],[32.85967070000015,40.00768670000019],[32.86046750000003,40.00763690000048],[32.86237829999999,40.007350400000064],[32.86453860000006,40.0064454000003],[32.865899000000184,40.006341400000224],[32.86567600000018,40.00662960000011],[32.86352410000012,40.00847300000038],[32.86345340000014,40.008646399999975],[32.86351000000019,40.01093440000011],[32.86287290000007,40.01191020000056],[32.86291540000002,40.01201860000015],[32.86488990000015,40.01149230000044],[32.865223000000185,40.01310290000015],[32.86516630000011,40.01380770000003],[32.864585900000066,40.01561840000005],[32.86430110000009,40.016235500000676],[32.865208900000084,40.01699020000024],[32.86546370000019,40.01730350000008]]],"type":"Polygon"}},{"type":"Feature","properties":{"area_id":"TR-06-017-1688","name_tr":"Bademlik","area_level":"neighbourhood","parent_id":"TR-06-017","endeksa_id":1688},"geometry":{"coordinates":[[[32.87920780000019,40.01199430000008],[32.87904900000018,40.01191560000029],[32.878217700000164,40.01254510000018],[32.87760130000015,40.01270250000039],[32.877386500000114,40.012874200000056],[32.87710630000004,40.0133749000006],[32.87565860000012,40.01398290000009],[32.87444169999998,40.01427290000015],[32.873840900000005,40.01428110000012],[32.87340100000006,40.01447010000027],[32.87295040000009,40.01507810000015],[32.8726607000001,40.01583410000018],[32.872414000000106,40.01596549999999],[32.871684400000106,40.01594910000006],[32.87133040000015,40.016129900000465],[32.87099780000017,40.01670510000008],[32.87037550000019,40.01707480000016],[32.87027890000019,40.01772390000019],[32.869281200000046,40.0188167],[32.86865890000007,40.01995060000007],[32.86705190000015,40.02107010000066],[32.8666128000001,40.020659100000046],[32.86611680000004,40.01914600000026],[32.86585660000003,40.01873499999999],[32.86585660000003,40.018523300000254],[32.866245400000025,40.017907300000445],[32.86546370000019,40.01730350000008],[32.865208900000084,40.01699020000024],[32.86430110000009,40.016235500000676],[32.864585900000066,40.01561840000005],[32.86516630000011,40.01380770000003],[32.865223000000185,40.01310290000015],[32.86488990000015,40.01149230000044],[32.86570840000019,40.01140700000013],[32.86730400000005,40.01259330000005],[32.86837990000009,40.01213790000003],[32.86954080000004,40.01058740000053],[32.87024859999997,40.00996930000019],[32.87092810000007,40.009546400000374],[32.87118300000003,40.00919950000008],[32.87125370000018,40.00711750000016],[32.871367000000134,40.00660790000006],[32.87179170000013,40.00603070000045],[32.8726607000001,40.00544720000016],[32.87347760000017,40.00468870000026],[32.87406780000015,40.00531450000017],[32.874564700000064,40.00601190000032],[32.87540160000003,40.00745820000026],[32.87606310000007,40.00806180000046],[32.87699740000005,40.008834900000124],[32.87914240000009,40.01101420000032],[32.87922640000011,40.011336100000165],[32.87920780000019,40.01199430000008]]],"type":"Polygon"}},{"type":"Feature","properties":{"area_id":"TR-06-017-1723","name_tr":"Yükseltepe","area_level":"neighbourhood","parent_id":"TR-06-017","endeksa_id":1723},"geometry":{"coordinates":[[[32.81723730000016,40.00360550000016],[32.81826440000009,40.00461230000019],[32.81867999999997,40.00872470000024],[32.81528180000004,40.01352030000055],[32.8127927000001,40.02313370000019],[32.804738900000075,40.03113390000004],[32.801451199999974,40.02988980000032],[32.800663000000156,40.02892179999998],[32.800062200000184,40.02783730000067],[32.79727270000012,40.0254877000001],[32.795191300000056,40.022332800000186],[32.790349700000036,40.01604460000016],[32.791155700000104,40.01474130000014],[32.79199250000005,40.01392850000008],[32.79236180000004,40.0137443000001],[32.792928800000084,40.01311310000011],[32.79447150000016,40.01152790000003],[32.79612200000014,40.01044220000006],[32.79652710000005,40.01000080000017],[32.79650290000001,40.00787660000009],[32.79701230000006,40.00653890000058],[32.797327600000074,40.00473860000011],[32.79763870000005,40.00405170000016],[32.79812560000016,40.00370790000011],[32.799123600000144,40.00325450000025],[32.80370240000008,40.002197900000226],[32.804083100000184,40.002025300000184],[32.807347100000015,39.99942640000006],[32.81064160000011,39.997274800000014],[32.81059260000018,39.997907100000475],[32.809680600000036,39.999880300000314],[32.810888400000124,40.000097400000186],[32.81412970000008,39.99939880000011],[32.81461030000008,39.999408200000175],[32.8147335000001,39.99956870000011],[32.81482950000009,40.00019330000009],[32.81495140000004,40.000190900000064],[32.81641580000007,39.999505800000236],[32.81631470000002,40.00125860000031],[32.81766670000019,40.00129640000006],[32.81833690000019,40.00118870000006],[32.81803710000008,40.002277100000015],[32.81723730000016,40.00360550000016]]],"type":"Polygon"}},{"type":"Feature","properties":{"area_id":"TR-06-017-1715","name_tr":"Şenyuva","area_level":"neighbourhood","parent_id":"TR-06-017","endeksa_id":1715},"geometry":{"coordinates":[[[32.88286367900008,40.027886870000145],[32.882851751000146,40.02778489400009],[32.882671099000106,40.02788331200003],[32.882313200000056,40.027685029000054],[32.881880297000066,40.027825076],[32.88086440000012,40.02920243200015],[32.87880619599997,40.03075927400016],[32.87603076800019,40.031932708000056],[32.874294870000085,40.032231880000154],[32.87417255500003,40.03215785500015],[32.87485320000013,40.03081500000013],[32.87480832800014,40.03047618800019],[32.87472120000001,40.030496600000106],[32.87330149999997,40.025989400000185],[32.87394670000009,40.02505250000047],[32.86729580000008,40.02123820000003],[32.86705190000015,40.02107010000066],[32.86865890000007,40.01995060000007],[32.869281200000046,40.0188167],[32.87027890000019,40.01772390000019],[32.87037550000019,40.01707480000016],[32.87099780000017,40.01670510000008],[32.87133040000015,40.016129900000465],[32.871684400000106,40.01594910000006],[32.872414000000106,40.01596549999999],[32.8726607000001,40.01583410000018],[32.87295040000009,40.01507810000015],[32.87340100000006,40.01447010000027],[32.873840900000005,40.01428110000012],[32.87444169999998,40.01427290000015],[32.87565860000012,40.01398290000009],[32.87710630000004,40.0133749000006],[32.877386500000114,40.012874200000056],[32.87760130000015,40.01270250000039],[32.878217700000164,40.01254510000018],[32.87904900000018,40.01191560000029],[32.87920780000019,40.01199430000008],[32.87917970000018,40.01225900000014],[32.879254500000116,40.012416300000154],[32.879740500000025,40.012158100000136],[32.880095500000095,40.01165020000036],[32.88144980000004,40.010477000000094],[32.88232770000002,40.010026300000106],[32.88227170000005,40.00962559999999],[32.88253320000018,40.009403900000166],[32.882542500000056,40.00898900000044],[32.882066200000054,40.00833080000018],[32.88193540000009,40.00797310000007],[32.88195410000003,40.00753670000017],[32.88272000000018,40.008109000000104],[32.88326170000005,40.00865270000014],[32.883504600000094,40.008774300000084],[32.88407430000012,40.008774300000084],[32.884186399999976,40.00872430000021],[32.88503630000014,40.00760109999999],[32.886325200000044,40.00657090000038],[32.887380700000165,40.00613449999997],[32.88758610000008,40.00635630000039],[32.88787570000005,40.006485000000055],[32.888548200000116,40.00658520000013],[32.88885640000001,40.00644920000008],[32.88902450000006,40.00619170000027],[32.889370100000065,40.00603430000007],[32.89019540000015,40.005846000000076],[32.89048120000018,40.00558980000005],[32.89060110000014,40.005251400000134],[32.89156240000011,40.005376200000114],[32.89236570000014,40.00533110000015],[32.892957000000024,40.00505679999998],[32.89324920000007,40.00459430000012],[32.89325279999997,40.004411600000424],[32.89377360000009,40.004439800000114],[32.894381600000145,40.00494480000049],[32.894573700000024,40.0049934000001],[32.89587080000007,40.00441640000014],[32.89614150000011,40.00436750000017],[32.89631210000016,40.003576500000065],[32.89687420000013,40.00294690000038],[32.897543100000064,40.00196170000004],[32.89767370000004,40.001588900000286],[32.89819920000019,40.00256340000027],[32.89908940000009,40.00347560000006],[32.89927610000012,40.00377750000018],[32.899338600000135,40.00411230000003],[32.89932810000016,40.004449600000044],[32.899118900000076,40.005059200000176],[32.897447600000135,40.006618],[32.89720760000017,40.00696900000014],[32.89694610000004,40.007887200000084],[32.897021900000084,40.0086278000004],[32.898040700000024,40.01346860000018],[32.89818900000006,40.014601300000095],[32.89735900000011,40.017307200000175],[32.89636850000005,40.0201735],[32.896207600000025,40.022863700000016],[32.89463600000005,40.02342300000015],[32.89383550000008,40.02364010000014],[32.8932430000001,40.02368830000057],[32.89281800000009,40.02400979999999],[32.88826440000008,40.023790300000485],[32.88932810000017,40.02229100000005],[32.88773360000005,40.02122690000016],[32.88766550000008,40.021372400000075],[32.88673110000002,40.022184900000525],[32.885390600000164,40.02284550000047],[32.88429100000013,40.02367240000018],[32.88399559999999,40.024216600000045],[32.883944700000086,40.02448210000017],[32.883932700000116,40.02480860000003],[32.884155200000066,40.025693500000216],[32.88397970000011,40.02628110000052],[32.88363930000003,40.026941100000045],[32.88286367900008,40.027886870000145]]],"type":"Polygon"}},{"type":"Feature","properties":{"area_id":"TR-06-017-1703","name_tr":"Kanuni","area_level":"neighbourhood","parent_id":"TR-06-017","endeksa_id":1703},"geometry":{"coordinates":[[[32.861233700000184,40.02919820000011],[32.85398070000008,40.02956540000048],[32.85222540000018,40.03130760000039],[32.84225570000001,40.03263000000038],[32.84200080000011,40.03244570000004],[32.84368550000005,40.030201900000066],[32.84619709999998,40.028865700000495],[32.845974100000035,40.02795240000006],[32.84519350000011,40.02736710000016],[32.844315400000085,40.02605960000017],[32.84384380000017,40.0258479000002],[32.843047000000126,40.025237800000525],[32.84486830000003,40.02008210000008],[32.84672870000014,40.018927000000076],[32.84839630000005,40.016764400000056],[32.849183100000175,40.01590000000027],[32.849913500000184,40.01619410000012],[32.85039910000006,40.01606200000003],[32.85171130000009,40.01615500000008],[32.85294290000019,40.01547190000019],[32.85431610000012,40.01530930000007],[32.85471250000006,40.01536350000015],[32.855686400000025,40.01599520000019],[32.85752430000019,40.01570040000013],[32.85780910000011,40.01652480000013],[32.858182000000056,40.01720350000011],[32.85992990000011,40.018279700000164],[32.86004760000009,40.01858920000001],[32.860143600000185,40.019726900000364],[32.86037330000005,40.020547400000396],[32.86232060000003,40.01895270000011],[32.86264390000014,40.01836200000008],[32.863093100000185,40.0181055000005],[32.86418320000013,40.01782540000005],[32.86546370000019,40.01730350000008],[32.866245400000025,40.017907300000445],[32.86585660000003,40.018523300000254],[32.86585660000003,40.01873499999999],[32.86611680000004,40.01914600000026],[32.8666128000001,40.020659100000046],[32.86705190000015,40.02107010000066],[32.86729580000008,40.02123820000003],[32.864239100000134,40.02882920000013],[32.861233700000184,40.02919820000011]]],"type":"Polygon"}},{"type":"Feature","properties":{"area_id":"TR-06-017-1732","name_tr":"Kafkas","area_level":"neighbourhood","parent_id":"TR-06-017","endeksa_id":1732},"geometry":{"coordinates":[[[32.861233700000184,40.02919820000011],[32.86016940000019,40.03108330000066],[32.85152400000004,40.03620710000041],[32.84927420000008,40.03743820000017],[32.84777240000017,40.038082200000304],[32.8452539000001,40.03864310000017],[32.841927600000076,40.03643240000008],[32.84225570000001,40.03263000000038],[32.85222540000018,40.03130760000039],[32.85398070000008,40.02956540000048],[32.861233700000184,40.02919820000011]]],"type":"Polygon"}},{"type":"Feature","properties":{"area_id":"TR-06-017-1709","name_tr":"Ovacık","area_level":"neighbourhood","parent_id":"TR-06-017","endeksa_id":1709},"geometry":{"coordinates":[[[32.841927600000076,40.03643240000008],[32.840253300000086,40.03984480000048],[32.83381200000002,40.04015910000055],[32.8264221,40.03772040000007],[32.820419200000174,40.03343490000054],[32.81506010000015,40.0339270000004],[32.81173410000014,40.03568490000055],[32.804738900000075,40.03113390000004],[32.8127927000001,40.02313370000019],[32.81528180000004,40.01352030000055],[32.81867999999997,40.00872470000024],[32.81826440000009,40.00461230000019],[32.81723730000016,40.00360550000016],[32.8324856000001,40.006821600000194],[32.83266790000005,40.00708280000009],[32.833153500000094,40.006996900000104],[32.83756750000009,40.00844400000011],[32.83706920000009,40.00957970000013],[32.83856510000004,40.00975030000001],[32.8397490000001,40.01084680000014],[32.84133470000006,40.01264810000015],[32.841591900000026,40.01316290000011],[32.84176880000007,40.014287700000125],[32.84385040000018,40.01438740000003],[32.845257000000004,40.01459290000048],[32.84507810000014,40.01659180000013],[32.84516760000008,40.017314200000044],[32.8454359000001,40.017837200000145],[32.845793600000036,40.01827310000016],[32.84672870000014,40.018927000000076],[32.84486830000003,40.02008210000008],[32.843047000000126,40.025237800000525],[32.84384380000017,40.0258479000002],[32.844315400000085,40.02605960000017],[32.84519350000011,40.02736710000016],[32.845974100000035,40.02795240000006],[32.84619709999998,40.028865700000495],[32.84368550000005,40.030201900000066],[32.84200080000011,40.03244570000004],[32.84225570000001,40.03263000000038],[32.841927600000076,40.03643240000008]]],"type":"Polygon"}},{"type":"Feature","properties":{"area_id":"TR-06-017-1733","name_tr":"Karakaya","area_level":"neighbourhood","parent_id":"TR-06-017","endeksa_id":1733},"geometry":{"coordinates":[[[32.864239100000134,40.02882920000013],[32.86439839999997,40.031073400000196],[32.86101480000019,40.03396790000005],[32.86038190000005,40.03862040000007],[32.8545883000001,40.04165949999998],[32.854051900000115,40.0413803000007],[32.852614200000176,40.04210310000013],[32.85214210000004,40.04279300000019],[32.85160570000005,40.04433720000003],[32.85141260000006,40.04591410000012],[32.84999640000012,40.0487887000001],[32.84930970000016,40.049265000000446],[32.848215400000186,40.04965930000003],[32.84748580000007,40.04980710000018],[32.84598380000011,40.049971300000266],[32.84258490000008,40.049897600000065],[32.84234420000007,40.04589870000012],[32.842089400000134,40.0441756000007],[32.841806300000144,40.04328140000007],[32.841806300000144,40.0427016000001],[32.84262030000019,40.040788700000064],[32.84305910000006,40.0401655],[32.84370580000012,40.039514100000474],[32.8452539000001,40.03864310000017],[32.84777240000017,40.038082200000304],[32.84927420000008,40.03743820000017],[32.85152400000004,40.03620710000041],[32.86016940000019,40.03108330000066],[32.861233700000184,40.02919820000011],[32.864239100000134,40.02882920000013]]],"type":"Polygon"}},{"type":"Feature","properties":{"area_id":"TR-06-017-1731","name_tr":"Hisar","area_level":"neighbourhood","parent_id":"TR-06-017","endeksa_id":1731},"geometry":{"coordinates":[[[32.84258490000008,40.049897600000065],[32.84185580000019,40.0498922000001],[32.84137140000007,40.05270170000023],[32.8399955000001,40.05617910000018],[32.83978560000014,40.0573771],[32.839365200000145,40.058860700000366],[32.838915400000076,40.06016090000014],[32.837383700000146,40.06300599999997],[32.83689800000013,40.06444990000011],[32.83667380000003,40.0657508000001],[32.83572110000006,40.06773790000017],[32.83357290000015,40.06936760000036],[32.83138740000015,40.07081140000008],[32.82576470000015,40.07348450000029],[32.82171110000013,40.074742400000275],[32.81739610000017,40.07577149999997],[32.81481820000005,40.07697220000006],[32.81229640000009,40.077872700000285],[32.81168000000008,40.07838730000009],[32.80984930000011,40.080402600000355],[32.80777589999997,40.08181760000019],[32.80671109999997,40.0830181000004],[32.80583310000003,40.08366130000019],[32.80432010000004,40.08606230000004],[32.80379700000009,40.08659110000008],[32.800864300000114,40.087262800000246],[32.79824910000008,40.08832030000019],[32.79707220000006,40.08909210000007],[32.79634370000019,40.08974950000015],[32.79625030000011,40.09120710000013],[32.795802000000094,40.09202170000003],[32.79559650000016,40.09329350000007],[32.79608220000006,40.09570850000023],[32.78101640000011,40.096328100000335],[32.78393380000011,40.09472060000002],[32.786369200000024,40.09370440000032],[32.78783390000007,40.09287060000025],[32.78808940000005,40.090408100000104],[32.78795310000015,40.09008240000048],[32.78791900000016,40.08926150000042],[32.788162800000066,40.089058200000295],[32.78798720000009,40.08831040000024],[32.787283000000116,40.08736730000004],[32.785670300000106,40.08564170000005],[32.78547960000009,40.08196800000002],[32.787453700000185,40.082641200000126],[32.78996430000012,40.08070390000006],[32.794406000000095,40.077945600000135],[32.802066400000115,40.07185390000001],[32.799997899999994,40.0685572000001],[32.80328090000006,40.067571900000644],[32.805877300000134,40.06226770000018],[32.806091800000104,40.05656880000009],[32.807057400000076,40.053776700000356],[32.80707890000008,40.053316800000175],[32.80731490000005,40.05284050000034],[32.80720760000003,40.052068500000416],[32.80710040000008,40.051838600000224],[32.806807000000106,40.05165030000012],[32.80699310000006,40.05144440000015],[32.807722600000034,40.051165100000276],[32.80780850000019,40.050984500000254],[32.80742220000002,40.05062310000005],[32.807164700000044,40.05062310000005],[32.80695010000005,40.050458800000456],[32.8066927000001,40.048997000000156],[32.806113300000106,40.04852060000013],[32.806113300000106,40.04829070000011],[32.80692870000007,40.04776500000014],[32.806799900000044,40.04765000000003],[32.806263500000114,40.04776500000014],[32.804761500000154,40.0436255000003],[32.806971600000054,40.04374050000058],[32.80725060000003,40.04214710000019],[32.806585400000074,40.03887800000007],[32.80302340000003,40.035937300000114],[32.80325940000006,40.035345800000016],[32.80128530000013,40.03275000000036],[32.801451199999974,40.02988980000032],[32.804738900000075,40.03113390000004],[32.81173410000014,40.03568490000055],[32.81506010000015,40.0339270000004],[32.820419200000174,40.03343490000054],[32.8264221,40.03772040000007],[32.83381200000002,40.04015910000055],[32.840253300000086,40.03984480000048],[32.841927600000076,40.03643240000008],[32.8452539000001,40.03864310000017],[32.84370580000012,40.039514100000474],[32.84305910000006,40.0401655],[32.84262030000019,40.040788700000064],[32.841806300000144,40.0427016000001],[32.841806300000144,40.04328140000007],[32.842089400000134,40.0441756000007],[32.84234420000007,40.04589870000012],[32.84258490000008,40.049897600000065]]],"type":"Polygon"}},{"type":"Feature","properties":{"area_id":"TR-06-017-1737","name_tr":"Kösrelik","area_level":"neighbourhood","parent_id":"TR-06-017","endeksa_id":1737},"geometry":{"coordinates":[[[32.88073229600019,40.09146755900025],[32.88060486000012,40.09158193900015],[32.87875739800006,40.091487747000144],[32.877623562,40.09106202900011],[32.87695047800008,40.09113282999999],[32.874964643,40.09244602300021],[32.87391645400004,40.09434783699999],[32.87130905800018,40.094924330000026],[32.87099578400017,40.0955353220001],[32.86938962900007,40.09627272300014],[32.8680740210001,40.097416992000035],[32.86790193600018,40.09799151100003],[32.86838583200006,40.09825247200007],[32.86844231300017,40.09876649300003],[32.86833946200011,40.09978924300009],[32.86805136400011,40.10018373300005],[32.86602328600014,40.10073947800015],[32.864661040000044,40.101510982000036],[32.86461350600001,40.10160865900053],[32.86452799600005,40.101515766000034],[32.85846503100015,40.09993306900009],[32.85517223900018,40.09959291400014],[32.85430451400009,40.098982177000096],[32.853703895000024,40.09887499300015],[32.8507745070001,40.09937825000014],[32.843086147000065,40.09709670800015],[32.83199385800009,40.09494690500003],[32.828225647000124,40.093829917000164],[32.8277808090001,40.0938231990001],[32.82778450000012,40.0937105010002],[32.82740615000006,40.09343100299998],[32.82726367800018,40.092972670000165],[32.827321900000015,40.0928333010001],[32.827714800000024,40.09260320100009],[32.827317300000175,40.0925178010001],[32.826683065000054,40.09110483000035],[32.82638499800015,40.090145944000085],[32.82678911700009,40.089052095000056],[32.82700380000017,40.088687501000265],[32.82695933200006,40.08859136300066],[32.82759989900006,40.08685750500001],[32.82801221100004,40.08396139300038],[32.82828784000003,40.083170691000134],[32.82876950000008,40.082949301000156],[32.829071531000125,40.08257834300019],[32.83024010000008,40.081687601],[32.83024133399999,40.081219859000385],[32.83046815600011,40.0805306590002],[32.83101497100017,40.080045058999985],[32.832495240000185,40.08002759800041],[32.834113300000126,40.08060520000009],[32.83864200000016,40.08043320000007],[32.8405714000001,40.07503630000008],[32.84070230000009,40.07380380100051],[32.84020284200017,40.07042891800006],[32.840228056000115,40.070083555],[32.840523200000064,40.06973810100055],[32.84113600000012,40.07009320000003],[32.84355623000016,40.06951981400016],[32.843674637000106,40.0697338610002],[32.84365180000009,40.070141000000035],[32.84468720000012,40.07087990000008],[32.84561370000006,40.071107301000154],[32.84672930000016,40.07197680000024],[32.84766450000012,40.07176340100011],[32.84775430000008,40.07091920100004],[32.84766343700011,40.0705022520001],[32.846239382000135,40.06859355800009],[32.84611291800013,40.06622548800044],[32.84658754800017,40.0652279790001],[32.846803100000045,40.06502490000008],[32.84677382400014,40.06483649200027],[32.84688826399997,40.06459597899999],[32.8477260570001,40.064450122000096],[32.84925840000017,40.0647026000002],[32.8508238,40.06401970000019],[32.852571123000075,40.061841550999986],[32.85428121400008,40.062597156000436],[32.85526687200013,40.062492233],[32.856536709000125,40.06142859100015],[32.85714910700017,40.059507856000266],[32.857890517000044,40.05915588100004],[32.859072164,40.05911338600049],[32.85973890000014,40.059713101000284],[32.864426400000184,40.06130960100006],[32.865250081000056,40.06122696800003],[32.86829864800012,40.0605337720001],[32.868342185000074,40.06062901900003],[32.86797901600016,40.06166989200045],[32.86800132500014,40.06276364700011],[32.868235915000184,40.0643401690005],[32.868699557000184,40.065260503000445],[32.86936470000006,40.06578520100015],[32.86969252100005,40.06581518900015],[32.872780584000054,40.066890706000095],[32.87474796700019,40.06982688100044],[32.876508092999984,40.071349172],[32.87775403600017,40.07338367500006],[32.87898196500004,40.07417245700009],[32.88112250200015,40.074689335000414],[32.881201961000045,40.07482369899998],[32.880504827000095,40.07575568000027],[32.8805056060001,40.07656648700015],[32.88235622400009,40.084352953999996],[32.88248297600012,40.08443425100006],[32.88235410600009,40.084514201000104],[32.880666826000095,40.09110859300006],[32.88073229600019,40.09146755900025]]],"type":"Polygon"}},{"type":"Feature","properties":{"area_id":"TR-06-017-1734","name_tr":"Karşıyaka","area_level":"neighbourhood","parent_id":"TR-06-017","endeksa_id":1734},"geometry":{"coordinates":[[[32.82725088100011,40.09810782300042],[32.827145345000076,40.09822971500006],[32.826651429000094,40.09817831300006],[32.82387295900003,40.096734474000016],[32.821603516000096,40.09663340300028],[32.8206530810001,40.096784037000134],[32.81914582800016,40.09757133400035],[32.816752155000074,40.101895749000164],[32.811590473000024,40.106844339000304],[32.81094556700015,40.10713213400004],[32.80905875000008,40.10734617800017],[32.80882839200001,40.10829196000009],[32.80939692700008,40.1086349080004],[32.809208290000186,40.10911102000017],[32.80667327600008,40.111345334000305],[32.8040799960001,40.113030185000355],[32.80386202000017,40.11511710800028],[32.80445075900013,40.11734946000024],[32.803043002000095,40.11787295000039],[32.80220789000009,40.11785237200013],[32.801354763999996,40.11751551100002],[32.800692243000185,40.11766811700005],[32.7984565270001,40.11961129700006],[32.79843032500008,40.11986684000016],[32.79830128900005,40.11976865200006],[32.7950828000001,40.11985440000001],[32.79322880000018,40.11150150000026],[32.7791481000001,40.100153200000136],[32.780510600000184,40.09990570000008],[32.78100450000005,40.09960610000013],[32.78101640000011,40.096328100000335],[32.79608220000006,40.09570850000023],[32.79559650000016,40.09329350000007],[32.795802000000094,40.09202170000003],[32.79625030000011,40.09120710000013],[32.79634370000019,40.08974950000015],[32.79707220000006,40.08909210000007],[32.79824910000008,40.08832030000019],[32.800864300000114,40.087262800000246],[32.80379700000009,40.08659110000008],[32.80432010000004,40.08606230000004],[32.80583310000003,40.08366130000019],[32.80671109999997,40.0830181000004],[32.80777589999997,40.08181760000019],[32.80984930000011,40.080402600000355],[32.81168000000008,40.07838730000009],[32.81229640000009,40.077872700000285],[32.81481820000005,40.07697220000006],[32.81739610000017,40.07577149999997],[32.82171110000013,40.074742400000275],[32.82576470000015,40.07348450000029],[32.83138740000015,40.07081140000008],[32.83357290000015,40.06936760000036],[32.83572110000006,40.06773790000017],[32.83667380000003,40.0657508000001],[32.83689800000013,40.06444990000011],[32.837383700000146,40.06300599999997],[32.838915400000076,40.06016090000014],[32.839365200000145,40.058860700000366],[32.83978560000014,40.0573771],[32.8399955000001,40.05617910000018],[32.84137140000007,40.05270170000023],[32.84185580000019,40.0498922000001],[32.84258490000008,40.049897600000065],[32.84598380000011,40.049971300000266],[32.84748580000007,40.04980710000018],[32.848215400000186,40.04965930000003],[32.84930970000016,40.049265000000446],[32.84999640000012,40.0487887000001],[32.85141260000006,40.04591410000012],[32.85160570000005,40.04433720000003],[32.85214210000004,40.04279300000019],[32.852614200000176,40.04210310000013],[32.854051900000115,40.0413803000007],[32.8545883000001,40.04165949999998],[32.86038190000005,40.03862040000007],[32.86101480000019,40.03396790000005],[32.86439839999997,40.031073400000196],[32.864239100000134,40.02882920000013],[32.86729580000008,40.02123820000003],[32.87394670000009,40.02505250000047],[32.87330149999997,40.025989400000185],[32.87472120000001,40.030496600000106],[32.87480832800014,40.03047618800019],[32.87485320000013,40.03081500000013],[32.87417255500003,40.03215785500015],[32.87416405200014,40.03209154400008],[32.87348557500019,40.033209677000116],[32.87353799400017,40.033842308000146],[32.874733253000045,40.035963814000354],[32.87608149000016,40.03939381700002],[32.87572185300013,40.04126768200007],[32.87429192800005,40.04554458700005],[32.8745632080001,40.04697058400018],[32.875025076000156,40.048145928000224],[32.880294343000116,40.04992240300004],[32.88535772600011,40.05311354300011],[32.88601724100005,40.055763692000085],[32.88983227600011,40.05794360000016],[32.891147401000126,40.05993060900016],[32.89106844500003,40.060070434000124],[32.890297891000046,40.06011060500049],[32.879606189000185,40.05980131200039],[32.878085894000094,40.0600773150004],[32.87710942400008,40.061884612000085],[32.87719601900005,40.062312728000165],[32.87986060200018,40.06354507999998],[32.88134543700005,40.067301661000045],[32.8845138480001,40.07065565700009],[32.88136543800016,40.074670954000226],[32.88112250200015,40.074689335000414],[32.87898196500004,40.07417245700009],[32.87775403600017,40.07338367500006],[32.876508092999984,40.071349172],[32.87474796700019,40.06982688100044],[32.872780584000054,40.066890706000095],[32.86969252100005,40.06581518900015],[32.86936470000006,40.06578520100015],[32.868699557000184,40.065260503000445],[32.868235915000184,40.0643401690005],[32.86800132500014,40.06276364700011],[32.86797901600016,40.06166989200045],[32.868342185000074,40.06062901900003],[32.86829864800012,40.0605337720001],[32.865250081000056,40.06122696800003],[32.864426400000184,40.06130960100006],[32.85973890000014,40.059713101000284],[32.859072164,40.05911338600049],[32.857890517000044,40.05915588100004],[32.85714910700017,40.059507856000266],[32.856536709000125,40.06142859100015],[32.85526687200013,40.062492233],[32.85428121400008,40.062597156000436],[32.852571123000075,40.061841550999986],[32.8508238,40.06401970000019],[32.84925840000017,40.0647026000002],[32.8477260570001,40.064450122000096],[32.84688826399997,40.06459597899999],[32.84677382400014,40.06483649200027],[32.846803100000045,40.06502490000008],[32.84658754800017,40.0652279790001],[32.84611291800013,40.06622548800044],[32.846239382000135,40.06859355800009],[32.84766343700011,40.0705022520001],[32.84775430000008,40.07091920100004],[32.84766450000012,40.07176340100011],[32.84672930000016,40.07197680000024],[32.84561370000006,40.071107301000154],[32.84468720000012,40.07087990000008],[32.84365180000009,40.070141000000035],[32.843674637000106,40.0697338610002],[32.84355623000016,40.06951981400016],[32.84113600000012,40.07009320000003],[32.840523200000064,40.06973810100055],[32.840228056000115,40.070083555],[32.84020284200017,40.07042891800006],[32.84070230000009,40.07380380100051],[32.8405714000001,40.07503630000008],[32.83864200000016,40.08043320000007],[32.834113300000126,40.08060520000009],[32.832495240000185,40.08002759800041],[32.83101497100017,40.080045058999985],[32.83046815600011,40.0805306590002],[32.83024133399999,40.081219859000385],[32.83024010000008,40.081687601],[32.829071531000125,40.08257834300019],[32.82876950000008,40.082949301000156],[32.82828784000003,40.083170691000134],[32.82801221100004,40.08396139300038],[32.82759989900006,40.08685750500001],[32.82695933200006,40.08859136300066],[32.82700380000017,40.088687501000265],[32.82678911700009,40.089052095000056],[32.82638499800015,40.090145944000085],[32.826683065000054,40.09110483000035],[32.827317300000175,40.0925178010001],[32.827714800000024,40.09260320100009],[32.827321900000015,40.0928333010001],[32.82726367800018,40.092972670000165],[32.82740615000006,40.09343100299998],[32.82778450000012,40.0937105010002],[32.8277808090001,40.0938231990001],[32.827557730000024,40.09391864100019],[32.82754815200013,40.09577406900041],[32.82710466999998,40.097638568000036],[32.82725088100011,40.09810782300042]]],"type":"Polygon"}},{"type":"Feature","properties":{"area_id":"TR-06-017-1738","name_tr":"Sarıbeyler","area_level":"neighbourhood","parent_id":"TR-06-017","endeksa_id":1738},"geometry":{"coordinates":[[[32.7950828000001,40.11985440000001],[32.79632370000013,40.129072100000144],[32.79083050000003,40.13310800000011],[32.784200100000135,40.132140000000106],[32.781754000000035,40.14381989999998],[32.77840660000004,40.14529610000045],[32.777721200000144,40.14526610000013],[32.776861600000075,40.143885500000124],[32.77325340000016,40.141933700000095],[32.77185710000009,40.1401938000007],[32.769461700000136,40.13964840000034],[32.765005300000155,40.13973160000012],[32.75760310000004,40.14094719999997],[32.75289460000016,40.140490500000055],[32.751257200000055,40.136755500000106],[32.74968940000019,40.12907410000008],[32.74854810000005,40.117323500000225],[32.74677860000003,40.11512190000013],[32.74684090000005,40.113822000000084],[32.74780020000003,40.11236580000036],[32.74315821500005,40.10975754700047],[32.74037039400008,40.10028156800024],[32.740471053000135,40.10016260200052],[32.74184212100005,40.09999718400019],[32.74117020000017,40.095049500000414],[32.74252210000009,40.09513160000046],[32.74395970000006,40.095821000000115],[32.74462490000019,40.09678940000049],[32.74539740000017,40.09889040000024],[32.74584800000014,40.10069590000006],[32.74650529999997,40.10166440000012],[32.74638610000005,40.10221150000041],[32.746811900000125,40.10425670000052],[32.747459100000015,40.10581990000003],[32.750541699999985,40.10540300000014],[32.750916300000085,40.10615860000013],[32.75226180000004,40.10570270000011],[32.75255129999999,40.105416100000525],[32.75324960000006,40.10539000000017],[32.7534199000001,40.10575480000011],[32.75548060000011,40.10608040000005],[32.75568500000014,40.10567660000004],[32.75697940000009,40.10531190000006],[32.758324800000025,40.105142500000625],[32.75861430000003,40.10540300000014],[32.75997680000012,40.10497320000047],[32.76098160000015,40.10400920000029],[32.761918400000184,40.10330579999999],[32.76263370000004,40.102915000000166],[32.76333190000008,40.10228970000048],[32.763757700000156,40.10226360000013],[32.7643197000001,40.102641400000095],[32.76462630000009,40.10357930000009],[32.76535860000007,40.103605400000276],[32.76627830000018,40.103006200000436],[32.767146900000114,40.10260230000006],[32.76774290000003,40.102511100000186],[32.76959370000003,40.10275870000021],[32.7733065000001,40.1037096],[32.774754100000166,40.103331800000376],[32.778041100000166,40.10184680000043],[32.77856900000012,40.10169040000028],[32.7791481000001,40.100153200000136],[32.79322880000018,40.11150150000026],[32.7950828000001,40.11985440000001]]],"type":"Polygon"}},{"type":"Feature","properties":{"area_id":"TR-06-017-1735","name_tr":"Çalseki","area_level":"neighbourhood","parent_id":"TR-06-017","endeksa_id":1735},"geometry":{"coordinates":[[[32.817457503000185,40.15587602700003],[32.817306324000185,40.15577117500021],[32.817113900000095,40.155869400000256],[32.80842430000018,40.15460860000002],[32.807172700000024,40.15850620000015],[32.80843360000006,40.16244970000008],[32.804231200000174,40.16758550000014],[32.798716600000034,40.16894650000046],[32.79303970000018,40.168368100000066],[32.78648560000005,40.171879000000445],[32.78352469999999,40.170957300000055],[32.78368920000014,40.16458850000015],[32.783140900000035,40.16316380000001],[32.783140900000035,40.16199060000014],[32.783908500000166,40.16052390000061],[32.78211260000006,40.15787920000014],[32.78545730000002,40.15440090000061],[32.78611530000012,40.151760700000295],[32.784475500000156,40.151462000000095],[32.78488730000015,40.14986560000017],[32.78323780000005,40.149236900000005],[32.78139980000003,40.150168100000144],[32.780319700000064,40.14967380000064],[32.77904210000003,40.1495395],[32.77844950000019,40.146493500000076],[32.777721200000144,40.14526610000013],[32.77840660000004,40.14529610000045],[32.781754000000035,40.14381989999998],[32.784200100000135,40.132140000000106],[32.79083050000003,40.13310800000011],[32.79632370000013,40.129072100000144],[32.7950828000001,40.11985440000001],[32.79830128900005,40.11976865200006],[32.79843032500008,40.11986684000016],[32.798442082000065,40.120182152000496],[32.79979283900019,40.12254583100008],[32.80193965400008,40.12439562900033],[32.802461283000184,40.125107307000064],[32.80555233300015,40.13435100700019],[32.81020932300015,40.13647270600012],[32.812463028000025,40.138674158000015],[32.81268702500017,40.14006628800013],[32.81168574000003,40.1405575720006],[32.811866952000116,40.14392188200026],[32.81202442000017,40.144522008000195],[32.81193421600017,40.14510747200012],[32.81218941900005,40.14565454600012],[32.81414770800018,40.147714481000264],[32.816191081,40.148905797000054],[32.8176711210001,40.14920051300015],[32.81966506800012,40.14884082300006],[32.81981226100015,40.148912607000454],[32.82037194399999,40.15027063600064],[32.821273071000064,40.151506762000054],[32.819073373000094,40.15282011800019],[32.81748149300006,40.15569280200003],[32.817457503000185,40.15587602700003]]],"type":"Polygon"}},{"type":"Feature","properties":{"area_id":"TR-06-017-1736","name_tr":"Bağlum Güzelyurt","area_level":"neighbourhood","parent_id":"TR-06-017","endeksa_id":1736},"geometry":{"coordinates":[[[32.81837941400016,40.215209462000075],[32.81835340000015,40.215299200000004],[32.81618650000007,40.21309500000007],[32.81576090000004,40.21141910000017],[32.81544070000018,40.209622500000194],[32.81670610000009,40.209937700000125],[32.816916800000115,40.20735650000012],[32.817789600000026,40.20532820000011],[32.819164800000124,40.20316889999998],[32.821412900000155,40.20254070000004],[32.82218050000006,40.201326200000096],[32.824867300000165,40.19952540000014],[32.82519619999999,40.195295400000134],[32.82113880000003,40.193787600000064],[32.817026400000145,40.1930756000001],[32.81642330000017,40.19135830000016],[32.81362690000003,40.189431600000034],[32.81296890000016,40.1879656000001],[32.81099920000008,40.18714140000009],[32.80711110000004,40.186276800000144],[32.80442220000015,40.18750810000006],[32.80409810000015,40.18729380000008],[32.802914100000066,40.18708260000005],[32.80178280000007,40.18712280000051],[32.801349400000106,40.18724350000019],[32.800671799999975,40.187223400000164],[32.79780690000007,40.18676780000027],[32.79684090000012,40.18644840000013],[32.7958617000001,40.18654140000018],[32.79625000000004,40.1857943],[32.79530040000003,40.18454430000014],[32.795594000000165,40.18299630000013],[32.79534430000007,40.18039580000027],[32.78973780000018,40.17942720000042],[32.78796670000003,40.17807990000017],[32.78648560000005,40.17636180000045],[32.78730800000005,40.17405760000008],[32.78648560000005,40.171879000000445],[32.79303970000018,40.168368100000066],[32.798716600000034,40.16894650000046],[32.804231200000174,40.16758550000014],[32.80843360000006,40.16244970000008],[32.807172700000024,40.15850620000015],[32.80842430000018,40.15460860000002],[32.817113900000095,40.155869400000256],[32.817306324000185,40.15577117500021],[32.817457503000185,40.15587602700003],[32.81742382900006,40.15634460100023],[32.81833824600011,40.157761474000154],[32.82198396200016,40.158747756000025],[32.82507580600003,40.16067175200004],[32.82549052200005,40.161107971000035],[32.82548991900006,40.16198454400018],[32.833803485000146,40.16597454400005],[32.837433567999994,40.16708531900002],[32.83880502799997,40.16713748600017],[32.84171176700005,40.16686290800004],[32.842428305,40.166917040000044],[32.843382024000164,40.1671618150005],[32.843423210000026,40.16728265000046],[32.842253155000094,40.16912510100008],[32.84008477100008,40.17125110400036],[32.83987228000018,40.171825771000215],[32.83945495100005,40.197334118000015],[32.83975461000006,40.19755991500017],[32.837825548000126,40.19958626600021],[32.83636121300003,40.20152516900032],[32.834595965000176,40.20313530000004],[32.83382124899998,40.20428506500059],[32.83131635000012,40.2058459110001],[32.827791872000034,40.20737008900005],[32.826315692000094,40.20907470400016],[32.823068036000166,40.210457566000514],[32.81962678700006,40.2132017830001],[32.81971144600004,40.21423567400012],[32.81837941400016,40.215209462000075]]],"type":"Polygon"}}]}