{"type":"FeatureCollection","source_id":"endeksa","retrieved_at":"2026-08-23","features":[{"type":"Feature","properties":{"area_id":"TR-01-003-11","name_tr":"Beyazevler","area_level":"neighbourhood","parent_id":"TR-01-003","endeksa_id":11},"geometry":{"coordinates":[[[35.331967016001784,37.03966980500161],[35.33150005200207,37.03950000000202],[35.33140027942699,37.03969954565298],[35.33184243828015,37.04066531367357],[35.332089902224766,37.041845526332565],[35.33182340259208,37.04300670330332],[35.33142365314308,37.04298766761542],[35.33098175791031,37.04273659077876],[35.33090005300204,37.04290000100241],[35.32920005300207,37.04170000000215],[35.327600053002016,37.04070000100228],[35.3268000530021,37.04060000100219],[35.32560005200202,37.040100000002155],[35.32470005300206,37.0402000000019],[35.324500053002055,37.040100000002155],[35.32410005200211,37.039600000002],[35.32407731648624,37.03944085161487],[35.32382841361226,37.03948510101475],[35.3227433793939,37.03952317239083],[35.32190005200283,37.039129186294815],[35.32190005200175,37.03916303500142],[35.32093102500039,37.03831075600044],[35.32079155600047,37.03510724600045],[35.320654167000384,37.03506585500048],[35.31912450700048,37.033740278000494],[35.317701466000415,37.03293586100045],[35.31390103700028,37.03237615000057],[35.31355620000028,37.032295500000316],[35.3135915000002,37.02974380000023],[35.3135884000003,37.029355200000225],[35.31830920000027,37.026687500000094],[35.32070440000035,37.02549420000048],[35.324063200000296,37.02425720000031],[35.32478360000022,37.02501060000026],[35.326757700000314,37.026017900000284],[35.3293704000003,37.02750500000059],[35.33446530000032,37.029053400000805],[35.334053300000335,37.03134900000032],[35.33196566400028,37.03933096900039],[35.331967016001784,37.03966980500161]]],"type":"Polygon"}},{"type":"Feature","properties":{"area_id":"TR-01-003-39","name_tr":"Mahfesığmaz","area_level":"neighbourhood","parent_id":"TR-01-003","endeksa_id":39},"geometry":{"coordinates":[[[35.31390103700028,37.03237615000057],[35.31375583800025,37.032473749000246],[35.3139275880003,37.03522081500034],[35.315096916000186,37.03842157900033],[35.31504139100031,37.03945904400024],[35.314162971000314,37.04104171400047],[35.30898064600024,37.04515069800061],[35.29922843400033,37.047632225000314],[35.299098284000195,37.04760098700058],[35.29908148200025,37.047494468000195],[35.2988745910003,37.04773084100049],[35.299276099999986,37.04689700000051],[35.301443300000074,37.0437029000002],[35.303331600000035,37.04163910000068],[35.308384900000135,37.03348590000002],[35.30903930000011,37.03249240000025],[35.309886900000095,37.03143040000049],[35.31090620000003,37.0290408000003],[35.31104690000012,37.029035100000044],[35.31168939999998,37.02907500000015],[35.312268700000175,37.02922920000026],[35.3135915000002,37.02974380000023],[35.31355620000028,37.032295500000316],[35.31390103700028,37.03237615000057]]],"type":"Polygon"}},{"type":"Feature","properties":{"area_id":"TR-01-003-58","name_tr":"Toros","area_level":"neighbourhood","parent_id":"TR-01-003","endeksa_id":58},"geometry":{"coordinates":[[[35.2988745910003,37.04773084100049],[35.2979689630003,37.048060459000226],[35.28670275900021,37.048506659000395],[35.286577042000204,37.048387768000396],[35.28653523400027,37.04850655700022],[35.28656240000004,37.04789890000063],[35.28681990000018,37.04735090000008],[35.28746359999997,37.046682900000064],[35.288150300000154,37.046220500000175],[35.288708200000144,37.04603209999999],[35.29000640000004,37.046246200000155],[35.29340740000009,37.03827340000038],[35.294501800000035,37.035995300000536],[35.29479140000001,37.03316050000046],[35.29513480000003,37.03242390000008],[35.294670800000176,37.0314039000001],[35.30144869999998,37.02851830000009],[35.302355300000045,37.02853110000041],[35.30385200000006,37.02897650000017],[35.30649660000006,37.02994870000009],[35.30789140000019,37.030334100000005],[35.30837950000006,37.030304100000194],[35.30906960000016,37.030076099999974],[35.309490000000096,37.02985440000015],[35.310069300000066,37.029366200000084],[35.31046630000003,37.02914350000009],[35.31090620000003,37.0290408000003],[35.309886900000095,37.03143040000049],[35.30903930000011,37.03249240000025],[35.308384900000135,37.03348590000002],[35.303331600000035,37.04163910000068],[35.301443300000074,37.0437029000002],[35.299276099999986,37.04689700000051],[35.2988745910003,37.04773084100049]]],"type":"Polygon"}},{"type":"Feature","properties":{"area_id":"TR-01-003-30","name_tr":"Huzurevleri","area_level":"neighbourhood","parent_id":"TR-01-003","endeksa_id":30},"geometry":{"coordinates":[[[35.29145730000005,37.030817300000024],[35.29028530000005,37.0316959000001],[35.28965230000006,37.032406800000274],[35.28920170000009,37.03313480000014],[35.28875110000013,37.03423110000023],[35.28391240000013,37.041767500000105],[35.283558400000175,37.04271810000006],[35.28283950000019,37.045218600000055],[35.28169150000008,37.04704260000011],[35.27840850000001,37.051692200000105],[35.277442900000096,37.05252280000059],[35.27643440000014,37.05411540000006],[35.27575310000026,37.05497160000016],[35.274551500000314,37.05442360000029],[35.27314600000034,37.05333620000056],[35.271917600000165,37.05203469999998],[35.27156890000009,37.05148240000011],[35.27104850000018,37.05031790000004],[35.27092520000008,37.0497656],[35.27095870000005,37.04938129999999],[35.27330160000008,37.04031170000013],[35.27364490000008,37.037819500000126],[35.27364490000008,37.03671480000003],[35.27328010000008,37.034188200000585],[35.27322650000008,37.032226900000126],[35.27329090000006,37.03149040000011],[35.27355910000006,37.030231300000025],[35.27423500000003,37.028766700000176],[35.275667300000066,37.02719070000035],[35.27999760000006,37.029963200000054],[35.280811800000095,37.030154200000084],[35.2812517000001,37.03011140000007],[35.28160570000006,37.02996580000013],[35.28191680000003,37.02975170000013],[35.283064800000034,37.028612500000065],[35.283558400000175,37.02835550000009],[35.28441670000012,37.02816710000013],[35.28559150000018,37.02832980000045],[35.28993820000011,37.029351200000406],[35.290334400000006,37.029483700000355],[35.29092910000003,37.02983730000011],[35.29120799999998,37.030231300000025],[35.29145730000005,37.030817300000024]]],"type":"Polygon"}},{"type":"Feature","properties":{"area_id":"TR-01-003-69","name_tr":"Yurt","area_level":"neighbourhood","parent_id":"TR-01-003","endeksa_id":69},"geometry":{"coordinates":[[[35.28324093200035,37.056640999000194],[35.28324190000029,37.056735400000434],[35.28025390000033,37.056144600000266],[35.27915950000033,37.0556480000007],[35.2765524000003,37.0552799000003],[35.27575310000026,37.05497160000016],[35.27643440000014,37.05411540000006],[35.277442900000096,37.05252280000059],[35.27840850000001,37.051692200000105],[35.28169150000008,37.04704260000011],[35.28283950000019,37.045218600000055],[35.283558400000175,37.04271810000006],[35.28391240000013,37.041767500000105],[35.28875110000013,37.03423110000023],[35.28920170000009,37.03313480000014],[35.28965230000006,37.032406800000274],[35.29028530000005,37.0316959000001],[35.29145730000005,37.030817300000024],[35.29190540000013,37.03125910000017],[35.29230770000004,37.03148610000011],[35.29320360000008,37.031725900000424],[35.294249600000114,37.03158880000012],[35.294670800000176,37.0314039000001],[35.29513480000003,37.03242390000008],[35.29479140000001,37.03316050000046],[35.294501800000035,37.035995300000536],[35.29340740000009,37.03827340000038],[35.29000640000004,37.046246200000155],[35.288708200000144,37.04603209999999],[35.288150300000154,37.046220500000175],[35.28746359999997,37.046682900000064],[35.28681990000018,37.04735090000008],[35.28656240000004,37.04789890000063],[35.28653523400027,37.04850655700022],[35.28618462600019,37.049502748000634],[35.28552021500025,37.05045818900055],[35.28246629600022,37.05283658100052],[35.28241555000028,37.05464292200031],[35.28306690500028,37.05554654000048],[35.28324093200035,37.056640999000194]]],"type":"Polygon"}},{"type":"Feature","properties":{"area_id":"TR-01-003-26","name_tr":"Güzelyalı","area_level":"neighbourhood","parent_id":"TR-01-003","endeksa_id":26},"geometry":{"coordinates":[[[35.306854761001716,37.05282291900153],[35.30649078900035,37.05305662900025],[35.30547029900032,37.052691068000286],[35.30389689600025,37.052691068000286],[35.301601394000215,37.053492763000634],[35.29925878700027,37.053909282000234],[35.2976668030002,37.05364379800028],[35.29724546400024,37.05334684800039],[35.296946739000305,37.052687854000396],[35.293159493000246,37.05226071400057],[35.29253125400027,37.05235154300021],[35.287639999000305,37.05470067500039],[35.28658894500035,37.05640019300051],[35.28616150900035,37.056712127000196],[35.28573705400032,37.056869925000285],[35.28331870000022,37.05672549700023],[35.28324093200035,37.056640999000194],[35.28306690500028,37.05554654000048],[35.28241555000028,37.05464292200031],[35.28246629600022,37.05283658100052],[35.28552021500025,37.05045818900055],[35.28618462600019,37.049502748000634],[35.286577042000204,37.048387768000396],[35.28670275900021,37.048506659000395],[35.2979689630003,37.048060459000226],[35.2988745910003,37.04773084100049],[35.29908148200025,37.047494468000195],[35.299098284000195,37.04760098700058],[35.29922843400033,37.047632225000314],[35.30898064600024,37.04515069800061],[35.314162971000314,37.04104171400047],[35.31504139100031,37.03945904400024],[35.315096916000186,37.03842157900033],[35.3139275880003,37.03522081500034],[35.31375583800025,37.032473749000246],[35.31390103700028,37.03237615000057],[35.317701466000415,37.03293586100045],[35.31912450700048,37.033740278000494],[35.320654167000384,37.03506585500048],[35.32079155600047,37.03510724600045],[35.32093102500039,37.03831075600044],[35.32190005200175,37.03916303500142],[35.32190005200283,37.039129186294815],[35.3227433793939,37.03952317239083],[35.322845223760964,37.03951959890429],[35.322990843338346,37.040113278720185],[35.322914700586125,37.040436885416966],[35.32047813251614,37.04136963413134],[35.319500052002695,37.04150000100276],[35.31828902839078,37.042492739726015],[35.317546636556926,37.04367295238478],[35.31722302986009,37.04441534421869],[35.31712746166869,37.045248152742886],[35.31740005300202,37.046100001002344],[35.31740005300219,37.04642492261161],[35.318209395762835,37.047162323793316],[35.318923234064584,37.048256875856],[35.319541893926214,37.05073151530206],[35.31863769874383,37.05282544098702],[35.31559198865648,37.0539199930497],[35.31473538269432,37.05330133318819],[35.31402154439263,37.05144535360358],[35.31440782477131,37.04881479809666],[35.31372036300206,37.04929043300234],[35.31069631500196,37.049627121002175],[35.310062698002014,37.049768578002556],[35.3086500270021,37.05072415200203],[35.306854761001716,37.05282291900153]]],"type":"Polygon"}},{"type":"Feature","properties":{"area_id":"TR-01-003-70","name_tr":"Yüzüncüyıl","area_level":"neighbourhood","parent_id":"TR-01-003","endeksa_id":70},"geometry":{"coordinates":[[[35.24537440000023,37.057120699999984],[35.243067700000324,37.05778850000053],[35.2386367000002,37.058242300000416],[35.238711799999976,37.05682960000024],[35.23863670000003,37.054826100000014],[35.23855090000018,37.054346600000144],[35.23755310000007,37.05178640000008],[35.23755310000007,37.05154670000047],[35.238196800000026,37.04993690000015],[35.237617500000056,37.04823280000005],[35.23681280000011,37.046751400000005],[35.23659820000012,37.04604929999999],[35.23683430000011,37.04394270000017],[35.23665190000008,37.0425896000001],[35.23683430000011,37.04163050000068],[35.23771400000004,37.03895000000023],[35.23792860000003,37.03627800000015],[35.23804660000019,37.03568700000011],[35.2393221255785,37.0318618167247],[35.242180000000076,37.03229000000056],[35.245960000000025,37.03263000000027],[35.250390000000095,37.03274000000016],[35.25530668555939,37.03253425986088],[35.25578140000016,37.03384570000031],[35.25676850000008,37.03506180000039],[35.25704740000009,37.03563560000026],[35.25726200000008,37.03632080000011],[35.25732640000007,37.03689460000015],[35.25724050000008,37.03761400000053],[35.255663400000174,37.042957900000374],[35.25339960000008,37.048053000000095],[35.253131400000086,37.04979130000004],[35.253109900000084,37.0519405],[35.25317430000024,37.052488500000266],[35.25107140000034,37.05348180000021],[35.24682280000036,37.0564186000002],[35.24587870000022,37.056958000000236],[35.24537440000023,37.057120699999984]]],"type":"Polygon"}},{"type":"Feature","properties":{"area_id":"TR-01-003-102","name_tr":"Esentepe","area_level":"neighbourhood","parent_id":"TR-01-003","endeksa_id":102},"geometry":{"coordinates":[[[35.2386367000002,37.058242300000416],[35.23616910000027,37.05850770000035],[35.23261780000024,37.058696100000304],[35.232113600000275,37.05819100000008],[35.23174880000033,37.058216600000776],[35.23170590000029,37.05684670000005],[35.231373300000314,37.056367300000204],[35.23005370000021,37.05154670000064],[35.2256763000002,37.05070750000033],[35.22600890000018,37.049089100000515],[35.222961900000314,37.0483270000002],[35.22313360000015,37.04779610000014],[35.22284390000016,37.047316600000045],[35.22358420000012,37.04711970000011],[35.22326230000016,37.045852300000035],[35.223369600000126,37.04568960000012],[35.22314430000017,37.045218600000055],[35.22329450000012,37.04449070000004],[35.22272590000017,37.044319500000086],[35.22323010000014,37.04360010000022],[35.22319790000017,37.04333470000029],[35.222801000000175,37.04178460000014],[35.22206070000004,37.04067140000001],[35.2219748,37.036046699999986],[35.22201770000004,37.034179700000095],[35.22244690000019,37.03287790000053],[35.222682900000166,37.03008570000043],[35.22268330000003,37.0290217000005],[35.22492490000002,37.02904780000017],[35.22780060000014,37.02932340000024],[35.23049350000019,37.02982870000011],[35.23447424725788,37.03086074866104],[35.234630140322395,37.03081893205541],[35.23465483626347,37.03068930050671],[35.234780000000114,37.030930000000296],[35.2393221255785,37.0318618167247],[35.23804660000019,37.03568700000011],[35.23792860000003,37.03627800000015],[35.23771400000004,37.03895000000023],[35.23683430000011,37.04163050000068],[35.23665190000008,37.0425896000001],[35.23683430000011,37.04394270000017],[35.23659820000012,37.04604929999999],[35.23681280000011,37.046751400000005],[35.237617500000056,37.04823280000005],[35.238196800000026,37.04993690000015],[35.23755310000007,37.05154670000047],[35.23755310000007,37.05178640000008],[35.23855090000018,37.054346600000144],[35.23863670000003,37.054826100000014],[35.238711799999976,37.05682960000024],[35.2386367000002,37.058242300000416]]],"type":"Polygon"}},{"type":"Feature","properties":{"area_id":"TR-01-003-8","name_tr":"Belediye Evleri","area_level":"neighbourhood","parent_id":"TR-01-003","endeksa_id":8},"geometry":{"coordinates":[[[35.27314600000034,37.05333620000056],[35.27187470000035,37.05396130000025],[35.264836500000285,37.05799400000012],[35.26563050000027,37.058345100000395],[35.26544810000024,37.05872180000034],[35.26505110000028,37.05858480000069],[35.263860200000295,37.05932970000015],[35.26214360000023,37.06004029999997],[35.261156500000254,37.060203000000286],[35.25991200000033,37.0602372000003],[35.25815250000022,37.06004889999997],[35.25709030000024,37.059697800000265],[35.25533080000014,37.058302300000264],[35.254418800000224,37.05694950000003],[35.25359270000024,37.05525420000009],[35.25332450000025,37.05415820000036],[35.25317430000024,37.052488500000266],[35.253109900000084,37.0519405],[35.253131400000086,37.04979130000004],[35.25339960000008,37.048053000000095],[35.255663400000174,37.042957900000374],[35.25724050000008,37.03761400000053],[35.25732640000007,37.03689460000015],[35.25726200000008,37.03632080000011],[35.25704740000009,37.03563560000026],[35.25676850000008,37.03506180000039],[35.25578140000016,37.03384570000031],[35.25530668555939,37.03253425986088],[35.25537666311578,37.032512253843265],[35.259686700000145,37.03202140000036],[35.26401130000005,37.03131730000018],[35.26619910000005,37.03085660000011],[35.268945700000074,37.03046260000019],[35.27355910000006,37.030231300000025],[35.27329090000006,37.03149040000011],[35.27322650000008,37.032226900000126],[35.27328010000008,37.034188200000585],[35.27364490000008,37.03671480000003],[35.27364490000008,37.037819500000126],[35.27330160000008,37.04031170000013],[35.27095870000005,37.04938129999999],[35.27092520000008,37.0497656],[35.27104850000018,37.05031790000004],[35.27156890000009,37.05148240000011],[35.271917600000165,37.05203469999998],[35.27314600000034,37.05333620000056]]],"type":"Polygon"}},{"type":"Feature","properties":{"area_id":"TR-01-003-95","name_tr":"Şambayadı","area_level":"neighbourhood","parent_id":"TR-01-003","endeksa_id":95},"geometry":{"coordinates":[[[35.18717050000032,37.06658110000029],[35.18652679999997,37.067146100000116],[35.18607620000017,37.06694070000003],[35.18513200000007,37.06702630000018],[35.1838982000001,37.06606750000003],[35.182857500000125,37.065870600000096],[35.18330810000015,37.06530550000059],[35.18229960000019,37.0642868000005],[35.18481020000007,37.06462060000041],[35.18390890000012,37.062617300000056],[35.18326520000011,37.062634400000206],[35.1834583000001,37.06078520000017],[35.18343690000012,37.06018580000011],[35.18328670000011,37.059714900000586],[35.182911100000126,37.05920980000036],[35.183082800000136,37.05888450000009],[35.182696600000156,37.05837930000007],[35.183029200000135,37.05730910000011],[35.18283600000012,37.05647860000033],[35.18199920000018,37.05529700000011],[35.18130180000003,37.05479180000003],[35.181033600000035,37.05415820000019],[35.18093700000003,37.05339620000001],[35.181065800000056,37.0528910000005],[35.18078962800013,37.05211956500017],[35.17981743800016,37.05013734500011],[35.1792526000001,37.04926040000066],[35.179126920000044,37.04873015200013],[35.177319572000044,37.0450592690006],[35.172683714000186,37.04465913000013],[35.172508165000124,37.04440650600014],[35.171903400000076,37.0446021000007],[35.171935500000075,37.04497880000025],[35.17222520000007,37.04597220000005],[35.17145270000009,37.045835200000056],[35.16893150000004,37.0456382000001],[35.16760110000013,37.04573240000008],[35.166957400000115,37.045955100000015],[35.166238500000134,37.04567250000008],[35.165916700000025,37.04573240000008],[35.16568060000003,37.04561250000046],[35.16547405999677,37.04561970001669],[35.1665500000002,37.039330000000405],[35.16789000000023,37.03903000000008],[35.171800000000076,37.03791000000018],[35.17367000000007,37.0372600000004],[35.18013000000008,37.0344800000002],[35.185800000000086,37.032600000000116],[35.189800000000105,37.03157000000067],[35.19437000000005,37.030680000000245],[35.198530000000176,37.03011000000015],[35.20389000000006,37.029750000000035],[35.213220000000035,37.029720000000395],[35.21327015385765,37.029570066363306],[35.21341183752776,37.02972859844857],[35.21485090000016,37.02965740000019],[35.21961450000015,37.02915210000009],[35.22268330000003,37.0290217000005],[35.222682900000166,37.03008570000043],[35.22244690000019,37.03287790000053],[35.22201770000004,37.034179700000095],[35.2219748,37.036046699999986],[35.22206070000004,37.04067140000001],[35.222801000000175,37.04178460000014],[35.22319790000017,37.04333470000029],[35.22323010000014,37.04360010000022],[35.22272590000017,37.044319500000086],[35.22329450000012,37.04449070000004],[35.22314430000017,37.045218600000055],[35.223369600000126,37.04568960000012],[35.22326230000016,37.045852300000035],[35.22358420000012,37.04711970000011],[35.22284390000016,37.047316600000045],[35.22313360000015,37.04779610000014],[35.222961900000314,37.0483270000002],[35.22201780000023,37.0483442000002],[35.22093410000025,37.04882370000058],[35.222114300000214,37.05030510000023],[35.22092340000023,37.050870200000304],[35.22021530000029,37.05295950000033],[35.219314100000304,37.05327630000022],[35.21888490000032,37.052642700000376],[35.2200007000003,37.05221450000033],[35.2192390000003,37.05115280000024],[35.21852020000034,37.05149530000034],[35.21820900000034,37.050382100000206],[35.21745800000025,37.0505277000002],[35.21525860000031,37.0498170000007],[35.214808000000346,37.0493632000003],[35.21326300000021,37.05000540000066],[35.21359560000019,37.05051060000022],[35.21329520000023,37.05121270000001],[35.21235110000026,37.050913000000435],[35.21250130000027,37.0505876000002],[35.21221160000027,37.049954000000355],[35.210967100000346,37.049508700000274],[35.21050570000034,37.049662900000385],[35.210387700000354,37.04979130000021],[35.21049500000015,37.050339300000246],[35.2103984000002,37.0505191000002],[35.210065800000166,37.050776000000326],[35.21001220000022,37.05142680000034],[35.20975470000036,37.0516837000003],[35.2099264000002,37.05194050000023],[35.20979760000023,37.0522916000001],[35.20951870000022,37.05244570000042],[35.20910020000025,37.05249710000027],[35.20903590000023,37.052591300000245],[35.20873550000027,37.052651200000014],[35.20826340000025,37.053284800000256],[35.20833850000025,37.05357600000036],[35.20790930000027,37.053498900000875],[35.20712610000032,37.05355880000036],[35.206611100000316,37.0537729000003],[35.206396600000346,37.05364450000013],[35.206031800000346,37.053987000000404],[35.20516280000021,37.054278099999976],[35.20446540000029,37.05471480000023],[35.20372510000027,37.0552627000003],[35.203295900000285,37.0558621000003],[35.20337100000029,37.05682960000041],[35.20249130000036,37.056666900000096],[35.20241620000036,37.056255900000224],[35.20284530000032,37.05455210000031],[35.201729500000226,37.054706200000226],[35.20059230000027,37.054671900000585],[35.19988420000027,37.05554530000023],[35.199101000000326,37.05533120000007],[35.19815680000033,37.05596480000031],[35.19754530000023,37.055588100000364],[35.19775990000022,37.05536550000028],[35.19739510000022,37.05519420000081],[35.19719120000025,37.054278099999976],[35.19797440000036,37.05358450000034],[35.19696590000024,37.0525399000004],[35.1959896000003,37.05313930000028],[35.19624710000028,37.053421800000535],[35.19623640000026,37.0539698000004],[35.19647240000023,37.05403830000074],[35.19627930000024,37.05471480000023],[35.19588230000028,37.054988700000195],[35.195646300000305,37.05531410000043],[35.195614100000284,37.05554530000023],[35.19461630000035,37.055451100000255],[35.19370440000023,37.05713780000036],[35.19318940000022,37.05778000000021],[35.19242760000026,37.05841360000073],[35.193275200000244,37.05937250000085],[35.1920736000003,37.06153860000035],[35.19155860000029,37.064089800000204],[35.190507200000354,37.064089800000204],[35.1896596000002,37.064543600000604],[35.18940210000022,37.06541680000038],[35.18895150000026,37.06541680000038],[35.18841500000025,37.065177100000085],[35.18704170000029,37.0658791000003],[35.18717050000032,37.06658110000029]]],"type":"Polygon"}},{"type":"Feature","properties":{"area_id":"TR-01-003-83","name_tr":"Karslılar","area_level":"neighbourhood","parent_id":"TR-01-003","endeksa_id":83},"geometry":{"coordinates":[[[35.306854761001716,37.05282291900153],[35.3066350690018,37.05453231700227],[35.30681832000181,37.05688900600177],[35.30553166100185,37.05709254300183],[35.30549695800187,37.057200954001644],[35.30566893300181,37.05738590900194],[35.30543190300193,37.057877917001974],[35.30439666300191,37.057987707001814],[35.30186018700181,37.05879972000213],[35.30166241500194,37.05978313700223],[35.30252221100187,37.06052367700204],[35.30277650800184,37.0612684800023],[35.30377171600179,37.06143498000222],[35.30379826100193,37.06195157700188],[35.30324895700181,37.06257568000245],[35.30224957300186,37.06305614400242],[35.30018316100194,37.06288970500225],[35.29950134100187,37.063176347001786],[35.299416266001856,37.06417454100159],[35.299817050001934,37.06454523100189],[35.30018397000197,37.06606475800248],[35.30013528400184,37.066161884001986],[35.2998145320019,37.06620041900243],[35.29778676000183,37.064785358002155],[35.296853556001906,37.06434514500222],[35.294045628001925,37.06328607000171],[35.293238980001945,37.0634968000021],[35.293040930001894,37.063982251001846],[35.29398457100194,37.06504150200237],[35.294055000002004,37.06610320000192],[35.293981112001916,37.06619390400215],[35.29320236200198,37.06620789500215],[35.29161446200186,37.06557485200244],[35.289501248001955,37.065579664002314],[35.28734636800186,37.066553140002384],[35.284703051001884,37.06627772400179],[35.28314419500185,37.06676174000188],[35.28243000400187,37.067351734002386],[35.281702960001724,37.06738404600151],[35.28181829700014,37.06726980600075],[35.28161708000033,37.066384152000126],[35.28189740000022,37.06663060000062],[35.28263500000031,37.06599620000071],[35.28238530000027,37.06528590000056],[35.28218510000022,37.06398710000025],[35.28176660000025,37.06397000000004],[35.28169150000025,37.064406600000325],[35.28116580000028,37.06448370000027],[35.280715200000316,37.06210360000051],[35.28102640000026,37.061658400000624],[35.28203490000021,37.060982100000444],[35.28219580000024,37.06069950000051],[35.28226020000022,37.05968930000006],[35.282120700000235,37.059012900000255],[35.28310770000036,37.05805400000082],[35.28329010000033,37.05775430000023],[35.28336520000033,37.057488900000294],[35.28324190000029,37.056735400000434],[35.28324093200035,37.056640999000194],[35.28331870000022,37.05672549700023],[35.28573705400032,37.056869925000285],[35.28616150900035,37.056712127000196],[35.28658894500035,37.05640019300051],[35.287639999000305,37.05470067500039],[35.29253125400027,37.05235154300021],[35.293159493000246,37.05226071400057],[35.296946739000305,37.052687854000396],[35.29724546400024,37.05334684800039],[35.2976668030002,37.05364379800028],[35.29925878700027,37.053909282000234],[35.301601394000215,37.053492763000634],[35.30389689600025,37.052691068000286],[35.30547029900032,37.052691068000286],[35.30649078900035,37.05305662900025],[35.306854761001716,37.05282291900153]]],"type":"Polygon"}},{"type":"Feature","properties":{"area_id":"TR-01-003-88","name_tr":"Kurttepe","area_level":"neighbourhood","parent_id":"TR-01-003","endeksa_id":88},"geometry":{"coordinates":[[[35.281702960001724,37.06738404600151],[35.281606445737964,37.067357300533615],[35.281660874713566,37.06805399142439],[35.2814705178331,37.06867265128602],[35.27799650476459,37.07019550632987],[35.272523744451064,37.07129005839255],[35.27133401394815,37.071813539813775],[35.27028705110564,37.07190871825384],[35.26795517931987,37.07162318293314],[35.26590884285497,37.07129005839255],[35.263434203408906,37.07109970151191],[35.26181616992483,37.0717659505936],[35.259627065799464,37.0717659505936],[35.25734278323387,37.07095693385179],[35.25639099883165,37.06962443568824],[35.25601028507066,37.069434078807944],[35.255581982089495,37.07043345243022],[35.25548680364943,37.071813539813775],[35.25482055456774,37.07281291343605],[35.253868770165354,37.07366951939838],[35.25101341695836,37.07528755288229],[35.24891949127323,37.07604898040421],[35.24254253577766,37.07809531686928],[35.23954441491037,37.07980852879325],[35.23649870482285,37.08037959943488],[35.2349449170689,37.08059391498648],[35.23400027076639,37.07803781322764],[35.233328408449495,37.07787438725887],[35.23329239800137,37.07779902300143],[35.23309080000138,37.07773430000134],[35.23262090000122,37.07735080000123],[35.23217190000139,37.07717620000153],[35.23199068000133,37.07678533200152],[35.23114701100138,37.07645514500166],[35.231086548001315,37.07622021300176],[35.22995785800134,37.075158851001504],[35.22893139700125,37.07462118100125],[35.22821900000031,37.074516700000345],[35.22619130000021,37.073035800000525],[35.22532220000022,37.071717500000204],[35.22521490000025,37.071375100000296],[35.22554750000023,37.07121240000049],[35.227725500000304,37.07153770000025],[35.22889490000023,37.0715634000004],[35.2306652000002,37.071118300000364],[35.23460270000021,37.07194010000046],[35.23592230000031,37.07151200000021],[35.23610470000028,37.07186300000029],[35.23696300000023,37.07165760000021],[35.237038100000234,37.071084000000326],[35.23661970000029,37.0700140000003],[35.236716300000296,37.06897810000021],[35.237048900000275,37.068481600000496],[35.23755310000024,37.06837890000014],[35.237971500000185,37.06844740000031],[35.23914100000036,37.06811350000021],[35.239226800000324,37.06785670000028],[35.239033700000334,37.06771970000085],[35.23848650000036,37.067574200000536],[35.24086830000027,37.06682080000019],[35.24157640000021,37.06683790000022],[35.241973400000234,37.06610170000056],[35.242509800000164,37.06603320000022],[35.24355050000031,37.066606800000784],[35.24388310000029,37.06632430000036],[35.24422640000029,37.0663928000003],[35.244537600000285,37.06681230000038],[35.24485940000028,37.06703480000067],[35.245256400000244,37.066880800000376],[35.24539590000023,37.0667267000004],[35.24518130000024,37.06631570000036],[35.24527790000025,37.066153100000236],[35.24570700000021,37.065956200000244],[35.24615760000023,37.065536700000166],[35.245943100000204,37.064920300000324],[35.24601820000021,37.06467200000026],[35.245803600000215,37.06438090000029],[35.24610400000023,37.06410700000038],[35.2458680000002,37.0639357000004],[35.245814300000234,37.063764500000445],[35.24595380000022,37.06349910000051],[35.2458680000002,37.063276500000256],[35.24535300000025,37.06298540000029],[35.244956000000286,37.06307110000063],[35.24408700000032,37.06284850000014],[35.24373290000034,37.063019700000325],[35.24335740000032,37.06293410000035],[35.242295300000364,37.06236050000081],[35.24537440000023,37.057120699999984],[35.24587870000022,37.056958000000236],[35.24682280000036,37.0564186000002],[35.25107140000034,37.05348180000021],[35.25317430000024,37.052488500000266],[35.25332450000025,37.05415820000036],[35.25359270000024,37.05525420000009],[35.254418800000224,37.05694950000003],[35.25533080000014,37.058302300000264],[35.25709030000024,37.059697800000265],[35.25815250000022,37.06004889999997],[35.25991200000033,37.0602372000003],[35.261156500000254,37.060203000000286],[35.26214360000023,37.06004029999997],[35.263860200000295,37.05932970000015],[35.26505110000028,37.05858480000069],[35.26544810000024,37.05872180000034],[35.26563050000027,37.058345100000395],[35.264836500000285,37.05799400000012],[35.27187470000035,37.05396130000025],[35.27314600000034,37.05333620000056],[35.274551500000314,37.05442360000029],[35.27575310000026,37.05497160000016],[35.2765524000003,37.0552799000003],[35.27915950000033,37.0556480000007],[35.28025390000033,37.056144600000266],[35.28324190000029,37.056735400000434],[35.28336520000033,37.057488900000294],[35.28329010000033,37.05775430000023],[35.28310770000036,37.05805400000082],[35.282120700000235,37.059012900000255],[35.28226020000022,37.05968930000006],[35.28219580000024,37.06069950000051],[35.28203490000021,37.060982100000444],[35.28102640000026,37.061658400000624],[35.280715200000316,37.06210360000051],[35.28116580000028,37.06448370000027],[35.28169150000025,37.064406600000325],[35.28176660000025,37.06397000000004],[35.28218510000022,37.06398710000025],[35.28238530000027,37.06528590000056],[35.28263500000031,37.06599620000071],[35.28189740000022,37.06663060000062],[35.28161708000033,37.066384152000126],[35.28181829700014,37.06726980600075],[35.281702960001724,37.06738404600151]]],"type":"Polygon"}},{"type":"Feature","properties":{"area_id":"TR-01-003-347","name_tr":"Gökkuyu","area_level":"neighbourhood","parent_id":"TR-01-003","endeksa_id":347},"geometry":{"coordinates":[[[35.106125648000045,37.056922701000076],[35.10371213000019,37.05779093000001],[35.10422633200005,37.06168239300007],[35.10621378000019,37.06280667800007],[35.10749355000007,37.063429230000054],[35.10843655000008,37.06671333000037],[35.10280942600008,37.07043451699997],[35.104797740000095,37.072838270000034],[35.1023135480001,37.07440461500005],[35.10331260000015,37.07536239000012],[35.10327986100003,37.075427019000585],[35.10350076000009,37.07563995999999],[35.102360298000065,37.07796556500011],[35.10189156100006,37.07801310600024],[35.10032033800019,37.077766295000515],[35.097493475000135,37.07663164900009],[35.09691033900003,37.07620331500016],[35.093831009000155,37.072757267000156],[35.09175277100019,37.071289768000156],[35.09119019600007,37.07095106200035],[35.08672484099998,37.06955099500004],[35.085284758000114,37.06863294900012],[35.08401079200007,37.067702385000075],[35.08158314000008,37.064143516],[35.08144126300016,37.064097946000174],[35.081531429000165,37.0639965430002],[35.080644347000145,37.051923262],[35.080648023000094,37.051155698000116],[35.08090902499998,37.05043001800027],[35.08539010400011,37.04848924400045],[35.087613569000155,37.050669784000036],[35.091239207000115,37.04847056500006],[35.09292203799998,37.05084880600009],[35.0930733620001,37.05089179200013],[35.09688578300012,37.04927854100015],[35.09739100400009,37.04664436900066],[35.097542167000086,37.04656532700034],[35.106125648000045,37.056922701000076]]],"type":"Polygon"}},{"type":"Feature","properties":{"area_id":"TR-01-003-177829","name_tr":"Karahan","area_level":"neighbourhood","parent_id":"TR-01-003","endeksa_id":177829},"geometry":{"coordinates":[[[35.1983043280012,37.08507739400142],[35.19580005200112,37.08620000000121],[35.19450005200122,37.08640000000088],[35.19230005200126,37.08630000000113],[35.19160005300114,37.085900001001164],[35.19020005300115,37.084100000001],[35.18840005300126,37.0811000010014],[35.186700052001186,37.080000000001235],[35.18580005200113,37.079700001001186],[35.18360005300127,37.07980000100093],[35.18310005200118,37.08010000000115],[35.181200053001135,37.08230000000111],[35.18010005200114,37.084000000001254],[35.1791099640011,37.08493184700154],[35.17554286500109,37.085043835001045],[35.17576052300029,37.084530306000204],[35.175281302000315,37.08162780100031],[35.17456003000035,37.08027609000027],[35.16874868800022,37.07481517200034],[35.16620727000026,37.07589891000032],[35.16650603000028,37.07743784000024],[35.16163913000025,37.078747860000306],[35.161441640000305,37.080749800000206],[35.1613917490003,37.08069226000026],[35.16133290000033,37.08115481000033],[35.15786643700034,37.07636654300069],[35.15471480000025,37.07690763000028],[35.1545952700003,37.07656994500064],[35.15427916000027,37.07660111000047],[35.15426593100028,37.07563952600049],[35.152146220000134,37.06965111000011],[35.15283237000011,37.064869710000096],[35.15186889000012,37.06239241000026],[35.15008674000012,37.06212175100018],[35.149978239999996,37.058199731],[35.15981569900015,37.057175197000504],[35.15863088000009,37.056778830000155],[35.15922544000006,37.055260621],[35.155536246087934,37.05435773964331],[35.155702800000086,37.05438080000016],[35.15712974980818,37.05234301217723],[35.157186719692106,37.0515757860814],[35.15751597471001,37.050724385170554],[35.15768769051357,37.04962006103142],[35.15755581420012,37.04947008851201],[35.15771509461513,37.04891039432022],[35.15785792736875,37.04885470274638],[35.157988097280565,37.048926324193815],[35.158052446546776,37.04767230009418],[35.15946855896999,37.046785683658754],[35.159394669181836,37.046308479227946],[35.160852631566456,37.04506447948086],[35.16110349590372,37.044608186531434],[35.161863065683406,37.044625126790265],[35.162129469039144,37.045287035158026],[35.16331000000014,37.04498000000035],[35.163600000000145,37.044990000000325],[35.163870000000145,37.04603000000054],[35.16544000000016,37.04615000000052],[35.165490000000034,37.045990000000074],[35.165330000000154,37.04582000000022],[35.16547405999677,37.04561970001669],[35.16568060000003,37.04561250000046],[35.165916700000025,37.04573240000008],[35.166238500000134,37.04567250000008],[35.166957400000115,37.045955100000015],[35.16760110000013,37.04573240000008],[35.16893150000004,37.0456382000001],[35.17145270000009,37.045835200000056],[35.17222520000007,37.04597220000005],[35.171935500000075,37.04497880000025],[35.171903400000076,37.0446021000007],[35.172508165000124,37.04440650600014],[35.172683714000186,37.04465913000013],[35.177319572000044,37.0450592690006],[35.179126920000044,37.04873015200013],[35.1792526000001,37.04926040000066],[35.17981743800016,37.05013734500011],[35.18078962800013,37.05211956500017],[35.181065800000056,37.0528910000005],[35.18093700000003,37.05339620000001],[35.181033600000035,37.05415820000019],[35.18130180000003,37.05479180000003],[35.18199920000018,37.05529700000011],[35.18283600000012,37.05647860000033],[35.183029200000135,37.05730910000011],[35.182696600000156,37.05837930000007],[35.183082800000136,37.05888450000009],[35.182911100000126,37.05920980000036],[35.18328670000011,37.059714900000586],[35.18343690000012,37.06018580000011],[35.1834583000001,37.06078520000017],[35.18326520000011,37.062634400000206],[35.18390890000012,37.062617300000056],[35.18481020000007,37.06462060000041],[35.18229960000019,37.0642868000005],[35.18330810000015,37.06530550000059],[35.182857500000125,37.065870600000096],[35.1838982000001,37.06606750000003],[35.18513200000007,37.06702630000018],[35.18607620000017,37.06694070000003],[35.18652679999997,37.067146100000116],[35.18717050000032,37.06658110000029],[35.187985900000285,37.06700919999997],[35.18845790000023,37.06769400000036],[35.18946650000021,37.06765980000051],[35.19028180000032,37.06776250000013],[35.191826800000285,37.068498700000646],[35.19232030000023,37.068498700000646],[35.193285900000205,37.06812210000004],[35.195088400000316,37.06796800000029],[35.19568920000029,37.06933770000029],[35.194208600000195,37.07027940000023],[35.19304990000023,37.07125520000028],[35.201721442000235,37.079843728000355],[35.19931782400033,37.082189647000234],[35.19866981200033,37.083111814000574],[35.198266546000355,37.08456130200028],[35.1983043280012,37.08507739400142]]],"type":"Polygon"}},{"type":"Feature","properties":{"area_id":"TR-01-003-177827","name_tr":"Kabasakal","area_level":"neighbourhood","parent_id":"TR-01-003","endeksa_id":177827},"geometry":{"coordinates":[[[35.235702320188864,37.0867848502553],[35.205395873903,37.095598459634175],[35.20335281301112,37.08955440449563],[35.1983043280012,37.08507739400142],[35.198266546000355,37.08456130200028],[35.19866981200033,37.083111814000574],[35.19931782400033,37.082189647000234],[35.201721442000235,37.079843728000355],[35.19304990000023,37.07125520000028],[35.194208600000195,37.07027940000023],[35.19568920000029,37.06933770000029],[35.195088400000316,37.06796800000029],[35.193285900000205,37.06812210000004],[35.19232030000023,37.068498700000646],[35.191826800000285,37.068498700000646],[35.19028180000032,37.06776250000013],[35.18946650000021,37.06765980000051],[35.18845790000023,37.06769400000036],[35.187985900000285,37.06700919999997],[35.18717050000032,37.06658110000029],[35.18704170000029,37.0658791000003],[35.18841500000025,37.065177100000085],[35.18895150000026,37.06541680000038],[35.18940210000022,37.06541680000038],[35.1896596000002,37.064543600000604],[35.190507200000354,37.064089800000204],[35.19155860000029,37.064089800000204],[35.1920736000003,37.06153860000035],[35.193275200000244,37.05937250000085],[35.19242760000026,37.05841360000073],[35.19318940000022,37.05778000000021],[35.19370440000023,37.05713780000036],[35.19461630000035,37.055451100000255],[35.195614100000284,37.05554530000023],[35.195646300000305,37.05531410000043],[35.19588230000028,37.054988700000195],[35.19627930000024,37.05471480000023],[35.19647240000023,37.05403830000074],[35.19623640000026,37.0539698000004],[35.19624710000028,37.053421800000535],[35.1959896000003,37.05313930000028],[35.19696590000024,37.0525399000004],[35.19797440000036,37.05358450000034],[35.19719120000025,37.054278099999976],[35.19739510000022,37.05519420000081],[35.19775990000022,37.05536550000028],[35.19754530000023,37.055588100000364],[35.19815680000033,37.05596480000031],[35.199101000000326,37.05533120000007],[35.19988420000027,37.05554530000023],[35.20059230000027,37.054671900000585],[35.201729500000226,37.054706200000226],[35.20284530000032,37.05455210000031],[35.20241620000036,37.056255900000224],[35.20249130000036,37.056666900000096],[35.20337100000029,37.05682960000041],[35.203295900000285,37.0558621000003],[35.20372510000027,37.0552627000003],[35.20446540000029,37.05471480000023],[35.20516280000021,37.054278099999976],[35.206031800000346,37.053987000000404],[35.206396600000346,37.05364450000013],[35.206611100000316,37.0537729000003],[35.20712610000032,37.05355880000036],[35.20790930000027,37.053498900000875],[35.20833850000025,37.05357600000036],[35.20826340000025,37.053284800000256],[35.20873550000027,37.052651200000014],[35.20903590000023,37.052591300000245],[35.20910020000025,37.05249710000027],[35.20951870000022,37.05244570000042],[35.20979760000023,37.0522916000001],[35.2099264000002,37.05194050000023],[35.20975470000036,37.0516837000003],[35.21001220000022,37.05142680000034],[35.210065800000166,37.050776000000326],[35.2103984000002,37.0505191000002],[35.21049500000015,37.050339300000246],[35.210387700000354,37.04979130000021],[35.21050570000034,37.049662900000385],[35.210967100000346,37.049508700000274],[35.21221160000027,37.049954000000355],[35.21250130000027,37.0505876000002],[35.21235110000026,37.050913000000435],[35.21329520000023,37.05121270000001],[35.21359560000019,37.05051060000022],[35.21326300000021,37.05000540000066],[35.214808000000346,37.0493632000003],[35.21525860000031,37.0498170000007],[35.21745800000025,37.0505277000002],[35.21820900000034,37.050382100000206],[35.21852020000034,37.05149530000034],[35.2192390000003,37.05115280000024],[35.2200007000003,37.05221450000033],[35.21888490000032,37.052642700000376],[35.219314100000304,37.05327630000022],[35.22021530000029,37.05295950000033],[35.22092340000023,37.050870200000304],[35.222114300000214,37.05030510000023],[35.22093410000025,37.04882370000058],[35.22201780000023,37.0483442000002],[35.222961900000314,37.0483270000002],[35.22600890000018,37.049089100000515],[35.2256763000002,37.05070750000033],[35.23005370000021,37.05154670000064],[35.231373300000314,37.056367300000204],[35.23170590000029,37.05684670000005],[35.23174880000033,37.058216600000776],[35.232113600000275,37.05819100000008],[35.23261780000024,37.058696100000304],[35.23616910000027,37.05850770000035],[35.2386367000002,37.058242300000416],[35.243067700000324,37.05778850000053],[35.24537440000023,37.057120699999984],[35.242295300000364,37.06236050000081],[35.24335740000032,37.06293410000035],[35.24373290000034,37.063019700000325],[35.24408700000032,37.06284850000014],[35.244956000000286,37.06307110000063],[35.24535300000025,37.06298540000029],[35.2458680000002,37.063276500000256],[35.24595380000022,37.06349910000051],[35.245814300000234,37.063764500000445],[35.2458680000002,37.0639357000004],[35.24610400000023,37.06410700000038],[35.245803600000215,37.06438090000029],[35.24601820000021,37.06467200000026],[35.245943100000204,37.064920300000324],[35.24615760000023,37.065536700000166],[35.24570700000021,37.065956200000244],[35.24527790000025,37.066153100000236],[35.24518130000024,37.06631570000036],[35.24539590000023,37.0667267000004],[35.245256400000244,37.066880800000376],[35.24485940000028,37.06703480000067],[35.244537600000285,37.06681230000038],[35.24422640000029,37.0663928000003],[35.24388310000029,37.06632430000036],[35.24355050000031,37.066606800000784],[35.242509800000164,37.06603320000022],[35.241973400000234,37.06610170000056],[35.24157640000021,37.06683790000022],[35.24086830000027,37.06682080000019],[35.23848650000036,37.067574200000536],[35.239033700000334,37.06771970000085],[35.239226800000324,37.06785670000028],[35.23914100000036,37.06811350000021],[35.237971500000185,37.06844740000031],[35.23755310000024,37.06837890000014],[35.237048900000275,37.068481600000496],[35.236716300000296,37.06897810000021],[35.23661970000029,37.0700140000003],[35.237038100000234,37.071084000000326],[35.23696300000023,37.07165760000021],[35.23610470000028,37.07186300000029],[35.23592230000031,37.07151200000021],[35.23460270000021,37.07194010000046],[35.2306652000002,37.071118300000364],[35.22889490000023,37.0715634000004],[35.227725500000304,37.07153770000025],[35.22554750000023,37.07121240000049],[35.22521490000025,37.071375100000296],[35.22532220000022,37.071717500000204],[35.22619130000021,37.073035800000525],[35.22821900000031,37.074516700000345],[35.22893139700125,37.07462118100125],[35.22995785800134,37.075158851001504],[35.231086548001315,37.07622021300176],[35.23114701100138,37.07645514500166],[35.23199068000133,37.07678533200152],[35.23217190000139,37.07717620000153],[35.23262090000122,37.07735080000123],[35.23309080000138,37.07773430000134],[35.23329239800137,37.07779902300143],[35.233328408449495,37.07787438725887],[35.23400027076639,37.07803781322764],[35.235618304251034,37.08241602147905],[35.235702320188864,37.0867848502553]]],"type":"Polygon"}},{"type":"Feature","properties":{"area_id":"TR-01-003-177841","name_tr":"Söğütlü","area_level":"neighbourhood","parent_id":"TR-01-003","endeksa_id":177841},"geometry":{"coordinates":[[[35.153420065362695,37.07325016513295],[35.149654646000215,37.07596986800064],[35.15038976000034,37.07724155000017],[35.148708540000314,37.079188340000485],[35.143775403000234,37.08053079200022],[35.144929190000255,37.08142441000058],[35.14404316300022,37.08184999900021],[35.14422311000027,37.08241004000024],[35.13497672000028,37.08685802000025],[35.131330880000235,37.09204961000006],[35.12136659000021,37.09307951000022],[35.121237552000196,37.09191063600082],[35.1209190000003,37.09190625000031],[35.121026913000264,37.09000259599998],[35.12095747500035,37.08964828100028],[35.117515140000364,37.09101533000046],[35.11066632000035,37.09069128000033],[35.10778125900032,37.09210069600056],[35.10501661000012,37.085412501000064],[35.10333715000007,37.08484796000016],[35.1012487000001,37.086011070000154],[35.103258641000025,37.081159649000085],[35.101985313,37.07807923400003],[35.10189156100006,37.07801310600024],[35.102360298000065,37.07796556500011],[35.10350076000009,37.07563995999999],[35.10327986100003,37.075427019000585],[35.10331260000015,37.07536239000012],[35.1023135480001,37.07440461500005],[35.104797740000095,37.072838270000034],[35.10280942600008,37.07043451699997],[35.10843655000008,37.06671333000037],[35.10749355000007,37.063429230000054],[35.10621378000019,37.06280667800007],[35.10422633200005,37.06168239300007],[35.10371213000019,37.05779093000001],[35.106125648000045,37.056922701000076],[35.109007764000125,37.05872366200009],[35.113219764000064,37.05734871200002],[35.11485115500017,37.052469095000674],[35.11186784600011,37.04867264300026],[35.11291926100017,37.04704651200012],[35.11303970700004,37.0470757330001],[35.11469470300017,37.04857497500035],[35.11615170600004,37.047825242000044],[35.1170909440001,37.04141065600061],[35.11773513200012,37.04066452600051],[35.11820517400008,37.04059816100062],[35.11917290100013,37.039373404000116],[35.119188350000115,37.03893844900006],[35.121861731000024,37.03579025600027],[35.1220319250001,37.03575501800037],[35.12730428600014,37.039486251000085],[35.13200214400018,37.03917836100038],[35.13415150800006,37.03730507300014],[35.13400910000013,37.03770820000051],[35.13351560000018,37.03841050000017],[35.136712800000055,37.04047440000005],[35.137785700000165,37.04443930000019],[35.137807100000146,37.0448076000003],[35.13812900000016,37.045372800000166],[35.13815040000014,37.04566390000008],[35.13766760000016,37.045946500000014],[35.137785700000165,37.04635750000028],[35.13745310000019,37.04650310000011],[35.13754960000017,37.046785700000044],[35.13731360000003,37.04704260000011],[35.137807100000146,37.04722240000007],[35.13901206000003,37.04672164800007],[35.13909708400013,37.046935050000286],[35.141827262000106,37.046976543000255],[35.1426780098962,37.04736796560587],[35.14353401843886,37.047002505097794],[35.14401909733499,37.04706825073498],[35.14608427514935,37.047042764637524],[35.146304457882934,37.04723947025536],[35.146883732566266,37.04744491169396],[35.14709511714682,37.0472894361165],[35.14725212308343,37.04729768477955],[35.14732153080729,37.04739193881829],[35.14752058288502,37.0494349161263],[35.14736473177504,37.04951514002636],[35.14630000000017,37.04939000000019],[35.14573000000007,37.05027000000035],[35.14741000000015,37.05225000000007],[35.1501100000001,37.052400000000375],[35.152010000000075,37.05315000000007],[35.15224000000012,37.05313000000041],[35.1522700000001,37.053020000000515],[35.152540000000045,37.05285000000015],[35.152290000000164,37.05260000000004],[35.15248000000008,37.05236000000008],[35.15312000000006,37.05260000000004],[35.15445000000017,37.05378000000019],[35.155475117151866,37.054211185527606],[35.155536246087934,37.05435773964331],[35.15922544000006,37.055260621],[35.15863088000009,37.056778830000155],[35.15981569900015,37.057175197000504],[35.149978239999996,37.058199731],[35.15008674000012,37.06212175100018],[35.15186889000012,37.06239241000026],[35.15283237000011,37.064869710000096],[35.152146220000134,37.06965111000011],[35.153420065362695,37.07325016513295]]],"type":"Polygon"}},{"type":"Feature","properties":{"area_id":"TR-01-003-346","name_tr":"Yeni","area_level":"neighbourhood","parent_id":"TR-01-003","endeksa_id":346},"geometry":{"coordinates":[[[35.12298397700033,37.11224705400036],[35.12283778500017,37.11232686500017],[35.12036668400009,37.11178390400005],[35.117829537000034,37.111781787000155],[35.11675028400015,37.11137061900024],[35.11489303800016,37.111205772000005],[35.114786755000125,37.11124976100018],[35.11457463300019,37.11160236900008],[35.113514140999996,37.1118445850002],[35.11331473700005,37.11184998600038],[35.11242650500009,37.11118397399997],[35.11150094700008,37.10814983200015],[35.11236988400009,37.107700833000536],[35.113202649000186,37.10699983900008],[35.11324912900011,37.10654609800065],[35.112371788000075,37.10644894500069],[35.112278211000046,37.10634191000008],[35.11254508800005,37.10536923100017],[35.11332929300016,37.10516662100014],[35.11357294700025,37.10459026600029],[35.114006455000265,37.10434000300063],[35.11467623000033,37.10352497400061],[35.11896020500029,37.10297590300024],[35.1196446360002,37.10329331700018],[35.120111960000315,37.10643091800017],[35.120722233000265,37.10881454100013],[35.12134952500031,37.1090277250002],[35.123517287000254,37.108873890000154],[35.124542247000306,37.109204618000206],[35.123882726000204,37.11035374700083],[35.12363405600024,37.11146421400025],[35.123087061000206,37.11183031900043],[35.12298397700033,37.11224705400036]]],"type":"Polygon"}},{"type":"Feature","properties":{"area_id":"TR-01-003-177833","name_tr":"Fadıl","area_level":"neighbourhood","parent_id":"TR-01-003","endeksa_id":177833},"geometry":{"coordinates":[[[35.07950729200013,37.108780476000106],[35.07939821600013,37.10854195100018],[35.07928269200016,37.10849458400003],[35.07174545900011,37.10913224400008],[35.06970681300004,37.11079059900021],[35.0695399879458,37.11077596535267],[35.069532098398156,37.11093384897816],[35.06747846500002,37.112621631000366],[35.06649527627172,37.11299031824484],[35.066375245433505,37.1129777396244],[35.06632384562607,37.11287602257096],[35.060511660000145,37.10565834000056],[35.06169141000004,37.10089526000013],[35.060255930000096,37.093256280000105],[35.06288214000017,37.08451668000015],[35.06252652000006,37.0817686900001],[35.05890809000016,37.07966826000023],[35.062026690000096,37.07806535000066],[35.05850220800011,37.078435730000024],[35.05849269100014,37.07650737800003],[35.058714211000165,37.07665757000035],[35.05882952200005,37.07659427200008],[35.059242727000026,37.07567669400055],[35.06310068700003,37.07326387500012],[35.06349439799999,37.073100486000044],[35.06265328700016,37.07147150600042],[35.06415641600006,37.071047777000445],[35.06524582600014,37.06619113200014],[35.067829769000184,37.064381828000194],[35.07242634100015,37.06470323700023],[35.07296073300017,37.06173565099999],[35.07779994000009,37.06367490000014],[35.077950666000106,37.06436659300044],[35.07863465400004,37.06470862200041],[35.08144126300016,37.064097946000174],[35.08158314000008,37.064143516],[35.08401079200007,37.067702385000075],[35.085284758000114,37.06863294900012],[35.08672484099998,37.06955099500004],[35.09119019600007,37.07095106200035],[35.09175277100019,37.071289768000156],[35.093831009000155,37.072757267000156],[35.09691033900003,37.07620331500016],[35.097493475000135,37.07663164900009],[35.10032033800019,37.077766295000515],[35.10189156100006,37.07801310600024],[35.101985313,37.07807923400003],[35.103258641000025,37.081159649000085],[35.1012487000001,37.086011070000154],[35.10333715000007,37.08484796000016],[35.10501661000012,37.085412501000064],[35.10778125900032,37.09210069600056],[35.10454840000028,37.093680020000136],[35.10099946000025,37.092072710000195],[35.10029673900027,37.09259378900026],[35.10027166000026,37.09278568000025],[35.09667114000024,37.09528223000001],[35.09838801000035,37.099578670000255],[35.09303977000036,37.0997367720002],[35.09192421600022,37.10024062300073],[35.09025843200027,37.10294368100023],[35.08942987900036,37.106322488000615],[35.08910690700009,37.10632331199997],[35.08861395200006,37.10615098300019],[35.08681137400015,37.10658401900014],[35.08565638000016,37.10658401900014],[35.08336132300008,37.10527029800011],[35.08205988600008,37.105319996000276],[35.0817010720001,37.105628564000085],[35.0802447210001,37.10826024300013],[35.07954225900005,37.10867263800003],[35.07950729200013,37.108780476000106]]],"type":"Polygon"}},{"type":"Feature","properties":{"area_id":"TR-01-003-177837","name_tr":"Küçükçınar","area_level":"neighbourhood","parent_id":"TR-01-003","endeksa_id":177837},"geometry":{"coordinates":[[[35.05849269100014,37.07650737800003],[35.05850220800011,37.078435730000024],[35.062026690000096,37.07806535000066],[35.05890809000016,37.07966826000023],[35.06252652000006,37.0817686900001],[35.06288214000017,37.08451668000015],[35.060255930000096,37.093256280000105],[35.06169141000004,37.10089526000013],[35.060511660000145,37.10565834000056],[35.06613734795559,37.11264439868711],[35.06545133741872,37.111799945639575],[35.065299461122606,37.111805256303626],[35.06528445145568,37.11191781745708],[35.061721660000046,37.10729973000048],[35.05388482500007,37.10844236500043],[35.04748752500012,37.111580664000144],[35.04422583000019,37.10999146000012],[35.04158652000012,37.110748820000026],[35.03919860400009,37.10742821500003],[35.032284237000056,37.108011162000366],[35.03129975900015,37.10677783000028],[35.029091090000065,37.108441370000435],[35.02705512300008,37.10679256000026],[35.03007970300007,37.106059583000274],[35.029276639000045,37.10376920300013],[35.02317183200006,37.103525347000016],[35.022384898000155,37.10198740800058],[35.024108108000064,37.100894390000065],[35.01957265600015,37.101372677000256],[35.019054497000184,37.10085633699998],[35.01758597900016,37.10084527900017],[35.01758751600005,37.100669179000136],[35.017338350000045,37.10084341400011],[35.01729347200006,37.10065415700012],[35.01677087300004,37.10064800200007],[35.01905174800004,37.100107141000194],[35.015542960000175,37.09745042000003],[35.01509451599998,37.094808907000015],[35.01591611000015,37.09493297900019],[35.01642447900019,37.09489212100016],[35.011348250000026,37.08522484000008],[35.01020320800012,37.078773476000094],[35.009945833000074,37.07892788800007],[35.01023432500011,37.078635018],[35.01152995600012,37.07770893200012],[35.008569920000184,37.07589979599999],[35.00863147600012,37.07580748000004],[35.01014537800012,37.07516717100003],[35.00946629700019,37.070952541000054],[35.009563539000055,37.07088266400001],[35.01175152400015,37.07063535700007],[35.011132880000105,37.066757333],[35.015267951000055,37.063810716000035],[35.02058202400019,37.06518932600039],[35.02060102300004,37.06511609100011],[35.02063821200005,37.06520390300011],[35.02072658900016,37.06499340400035],[35.02115140400002,37.06523973900039],[35.02117868500005,37.06513458100039],[35.02232112700011,37.065491335000104],[35.02234334499997,37.065429798000025],[35.02315736100019,37.065649517],[35.023123957999985,37.06574203600047],[35.02322405900003,37.065773295000156],[35.023177962000034,37.06565507800002],[35.02522255700018,37.06639324100007],[35.02689637500009,37.06682750500016],[35.03249548000019,37.07157791999998],[35.03395283500009,37.069144085000175],[35.03616492000003,37.070201390000136],[35.036741275000054,37.06705075700012],[35.044089058000054,37.068201798000246],[35.04565926000009,37.07062134000006],[35.04878359500009,37.07043489900036],[35.048943806000125,37.07277098900056],[35.05004597700008,37.07136596100048],[35.05031076000006,37.071664],[35.052845496000145,37.072994748000156],[35.052789068000095,37.07442946800006],[35.055689020000045,37.07397854000055],[35.05849269100014,37.07650737800003]]],"type":"Polygon"}},{"type":"Feature","properties":{"area_id":"TR-01-003-345","name_tr":"Kocatepe","area_level":"neighbourhood","parent_id":"TR-01-003","endeksa_id":345},"geometry":{"coordinates":[[[35.113514140999996,37.1118445850002],[35.113431371000104,37.1119738970001],[35.114106811,37.112841575999994],[35.114226700000074,37.113369611999985],[35.11325089200017,37.114952693000134],[35.112881403000074,37.116881827999975],[35.11130872600006,37.12096424900017],[35.111168031000034,37.12104630200065],[35.11123441900003,37.121163820000106],[35.085585044000084,37.11156314700054],[35.08091515700016,37.111854559000164],[35.07950729200013,37.108780476000106],[35.07954225900005,37.10867263800003],[35.0802447210001,37.10826024300013],[35.0817010720001,37.105628564000085],[35.08205988600008,37.105319996000276],[35.08336132300008,37.10527029800011],[35.08565638000016,37.10658401900014],[35.08681137400015,37.10658401900014],[35.08861395200006,37.10615098300019],[35.08910690700009,37.10632331199997],[35.09020714500036,37.106320506000316],[35.091548062000356,37.105466575000264],[35.09323674700022,37.103326990000255],[35.09407305300027,37.102765450000334],[35.09509484300031,37.10245274200071],[35.09749599700035,37.10253232500031],[35.0979735800002,37.10275021700022],[35.09824324000027,37.103136014000256],[35.10000897200035,37.10359647300004],[35.10072033800026,37.103586278000705],[35.101673050000215,37.10287320300006],[35.10234269300025,37.1026619930002],[35.10580359500028,37.1026619930002],[35.10784968100029,37.10317588800035],[35.10973395200034,37.10300274600024],[35.109832312000265,37.102880450000214],[35.10997481800035,37.10298069200036],[35.11278419300021,37.10266739200017],[35.11279900500034,37.10276324400064],[35.113540480000324,37.10348434000031],[35.11357294700025,37.10459026600029],[35.11332929300016,37.10516662100014],[35.11254508800005,37.10536923100017],[35.112278211000046,37.10634191000008],[35.112371788000075,37.10644894500069],[35.11324912900011,37.10654609800065],[35.113202649000186,37.10699983900008],[35.11236988400009,37.107700833000536],[35.11150094700008,37.10814983200015],[35.11242650500009,37.11118397399997],[35.11331473700005,37.11184998600038],[35.113514140999996,37.1118445850002]]],"type":"Polygon"}},{"type":"Feature","properties":{"area_id":"TR-01-003-177845","name_tr":"Memişli","area_level":"neighbourhood","parent_id":"TR-01-003","endeksa_id":177845},"geometry":{"coordinates":[[[35.239233271000444,37.12527565300019],[35.23440824000028,37.125901460000364],[35.22360045800025,37.117165123000234],[35.22026173000023,37.11708733000046],[35.21555336500029,37.11359650900073],[35.215427822000265,37.11361892500031],[35.21397534000022,37.1147894700004],[35.211933904000205,37.10887216600037],[35.20364089100036,37.111626488000354],[35.20228232000028,37.110893640000825],[35.20288700000128,37.10919592200088],[35.20563709557672,37.09631207375236],[35.205395873903,37.095598459634175],[35.235702320188864,37.0867848502553],[35.23571348269127,37.087365300371346],[35.234666519848076,37.093647077426],[35.23510100587424,37.094888466072064],[35.23440005200138,37.09520000000157],[35.234000052001306,37.095500001001426],[35.233900053001264,37.09590000000139],[35.234000052001306,37.09680000000179],[35.23430005200123,37.0974000000017],[35.234600053001316,37.09830000000176],[35.234700053001404,37.09910000000167],[35.234700053001404,37.09960000100176],[35.2345000530014,37.10000000000173],[35.23401937300139,37.100316136001766],[35.2390913480005,37.12519394900039],[35.239233271000444,37.12527565300019]]],"type":"Polygon"}},{"type":"Feature","properties":{"area_id":"TR-01-003-177843","name_tr":"Dörtler","area_level":"neighbourhood","parent_id":"TR-01-003","endeksa_id":177843},"geometry":{"coordinates":[[[35.29480686653761,37.101240888216466],[35.294900052001196,37.10180000100172],[35.29480005200111,37.10220000000112],[35.29450005300123,37.10270000100121],[35.293200052001225,37.103200000001095],[35.291754668001204,37.10404538400161],[35.28845199400075,37.10257258400071],[35.288027013000885,37.10207975800097],[35.286064646000796,37.10294011600092],[35.24094726200076,37.12678624900087],[35.24089699500058,37.12689783300101],[35.24023939100039,37.1251941550002],[35.239233271000444,37.12527565300019],[35.2390913480005,37.12519394900039],[35.23401937300139,37.100316136001766],[35.2345000530014,37.10000000000173],[35.234700053001404,37.09960000100176],[35.234700053001404,37.09910000000167],[35.234600053001316,37.09830000000176],[35.23430005200123,37.0974000000017],[35.234000052001306,37.09680000000179],[35.233900053001264,37.09590000000139],[35.234000052001306,37.095500001001426],[35.23440005200138,37.09520000000157],[35.23510100587424,37.094888466072064],[35.234666519848076,37.093647077426],[35.235425091543334,37.08909564725724],[35.23710005300228,37.08930000100219],[35.237700053002015,37.08920000100204],[35.2378677909054,37.08923354864993],[35.23954441491054,37.0890884267161],[35.24283742772889,37.088367674720416],[35.24310005200215,37.08800000000201],[35.24380005200197,37.087600001002045],[35.24450005200197,37.08740000100232],[35.24510005300198,37.08740000100232],[35.24560005200203,37.08750000100207],[35.245788156553374,37.08759405327777],[35.25277421810284,37.086756554930616],[35.25653376649211,37.08609030584876],[35.262006526805465,37.083282541861934],[35.26495705845275,37.08218798979925],[35.26752687633905,37.082616292780244],[35.268526249961496,37.08323495264176],[35.271704408634605,37.08390315227854],[35.2720000530021,37.08350000100222],[35.27300005300202,37.0828000010024],[35.274600053002075,37.082300000001965],[35.277000052001995,37.082300000001965],[35.2776201434138,37.08250669713959],[35.27875793228651,37.082616292780244],[35.28113739329234,37.082378346679775],[35.28223194535502,37.082663882000645],[35.28166087471374,37.083710844842926],[35.27956694902849,37.08613789506899],[35.27951935980843,37.087375214791905],[35.280661501091174,37.089516729697266],[35.282993372876945,37.09194377992327],[35.285991493744234,37.09327627808648],[35.280947036411874,37.094608776249686],[35.27942289744908,37.09468276357808],[35.27950005200205,37.095300000002055],[35.28040005200211,37.09630000100242],[35.28090005300197,37.096500001002084],[35.28190005200207,37.096500001002084],[35.28260005200207,37.09630000100242],[35.28390005300207,37.09610000000248],[35.284700053001984,37.09610000000248],[35.285500053002124,37.09660000000264],[35.28600005200201,37.097200001001966],[35.28630005300204,37.097300001002736],[35.286600052002086,37.097300001002736],[35.28710005300218,37.09710000100199],[35.28820005200197,37.09640000100234],[35.28910005200197,37.09620000100267],[35.28980005200202,37.09630000100242],[35.290300053002056,37.096500001002084],[35.291100053002026,37.097200001001966],[35.29200005300203,37.099000000002434],[35.29300005200207,37.099600001002614],[35.29450005300214,37.100700000002405],[35.29480686653761,37.101240888216466]]],"type":"Polygon"}},{"type":"Feature","properties":{"area_id":"TR-01-003-344","name_tr":"Salbaş Esentepe","area_level":"neighbourhood","parent_id":"TR-01-003","endeksa_id":344},"geometry":{"coordinates":[[[35.116325515000085,37.129534947000366],[35.11618290300004,37.12943713100009],[35.11413271500004,37.1298554710001],[35.11399792599997,37.12980204400003],[35.114406196000175,37.125766573000135],[35.11298895000016,37.12184030600008],[35.11123441900003,37.121163820000106],[35.111168031000034,37.12104630200065],[35.11130872600006,37.12096424900017],[35.112881403000074,37.116881827999975],[35.11325089200017,37.114952693000134],[35.114226700000074,37.113369611999985],[35.114106811,37.112841575999994],[35.113431371000104,37.1119738970001],[35.113514140999996,37.1118445850002],[35.11457463300019,37.11160236900008],[35.114786755000125,37.11124976100018],[35.11489303800016,37.111205772000005],[35.11675028400015,37.11137061900024],[35.117829537000034,37.111781787000155],[35.12036668400009,37.11178390400005],[35.12283778500017,37.11232686500017],[35.12298397700033,37.11224705400036],[35.1230110810003,37.1123896910002],[35.126366552000206,37.114743422000345],[35.12834870000023,37.118211079000446],[35.12845637300035,37.11865583700012],[35.12812011300025,37.12217874600037],[35.126193111000305,37.12771303900007],[35.12592048400006,37.127957057],[35.12485783700015,37.127619954000124],[35.116417893999994,37.12938812100015],[35.116325515000085,37.129534947000366]]],"type":"Polygon"}},{"type":"Feature","properties":{"area_id":"TR-01-003-177839","name_tr":"Pirili","area_level":"neighbourhood","parent_id":"TR-01-003","endeksa_id":177839},"geometry":{"coordinates":[[[35.17554286500109,37.085043835001045],[35.17541756000111,37.0853394700016],[35.175145634514365,37.08533776837038],[35.17345292673991,37.09110362502156],[35.17220005200119,37.09120000000155],[35.170600052001134,37.09220000100106],[35.16991802700113,37.09277709900158],[35.169008170000325,37.09492742000032],[35.17103284000035,37.095467750000296],[35.17099649100027,37.09788384800032],[35.17241330000036,37.09786742000057],[35.172503790000235,37.09478987000034],[35.175169490000314,37.09349341000052],[35.17531192800021,37.093772720000345],[35.1760988810002,37.093487674000244],[35.175629822000246,37.094396088000224],[35.178394690000346,37.09981779000083],[35.17797321000029,37.09837555000087],[35.180411740000295,37.10455205000068],[35.17670608000026,37.113587710000445],[35.16819414000031,37.11569862000084],[35.167894850000266,37.11928147000032],[35.1642357300002,37.1195248700007],[35.16179424100022,37.121781604000375],[35.15721649500034,37.12622412900015],[35.15683598000021,37.12958533000017],[35.15421538000032,37.13029640000025],[35.14888588000025,37.126775325000324],[35.14876660000033,37.12684807500062],[35.14689187900035,37.132915808000405],[35.14740594000034,37.13681897000026],[35.14330832100035,37.1342252470003],[35.14314363928105,37.134319750019586],[35.143207195783475,37.13419521001907],[35.14308447000036,37.134076736000225],[35.142638470000236,37.132139190000316],[35.14082841000021,37.12647577100023],[35.13734479000027,37.12760959100075],[35.136184346000164,37.130220901000314],[35.1345321510002,37.130650355000455],[35.1331057030003,37.13074733300033],[35.126487311000346,37.12807648700033],[35.126194118000285,37.127838715000166],[35.126193111000305,37.12771303900007],[35.12812011300025,37.12217874600037],[35.12845637300035,37.11865583700012],[35.12834870000023,37.118211079000446],[35.126366552000206,37.114743422000345],[35.1230110810003,37.1123896910002],[35.12298397700033,37.11224705400036],[35.123087061000206,37.11183031900043],[35.12363405600024,37.11146421400025],[35.123882726000204,37.11035374700083],[35.124542247000306,37.109204618000206],[35.123517287000254,37.108873890000154],[35.12134952500031,37.1090277250002],[35.120722233000265,37.10881454100013],[35.120111960000315,37.10643091800017],[35.1196446360002,37.10329331700018],[35.11896020500029,37.10297590300024],[35.11467623000033,37.10352497400061],[35.114006455000265,37.10434000300063],[35.11357294700025,37.10459026600029],[35.113540480000324,37.10348434000031],[35.11279900500034,37.10276324400064],[35.11278419300021,37.10266739200017],[35.10997481800035,37.10298069200036],[35.109832312000265,37.102880450000214],[35.10973395200034,37.10300274600024],[35.10784968100029,37.10317588800035],[35.10580359500028,37.1026619930002],[35.10234269300025,37.1026619930002],[35.101673050000215,37.10287320300006],[35.10072033800026,37.103586278000705],[35.10000897200035,37.10359647300004],[35.09824324000027,37.103136014000256],[35.0979735800002,37.10275021700022],[35.09749599700035,37.10253232500031],[35.09509484300031,37.10245274200071],[35.09407305300027,37.102765450000334],[35.09323674700022,37.103326990000255],[35.091548062000356,37.105466575000264],[35.09020714500036,37.106320506000316],[35.08942987900036,37.106322488000615],[35.09025843200027,37.10294368100023],[35.09192421600022,37.10024062300073],[35.09303977000036,37.0997367720002],[35.09838801000035,37.099578670000255],[35.09667114000024,37.09528223000001],[35.10027166000026,37.09278568000025],[35.10029673900027,37.09259378900026],[35.10099946000025,37.092072710000195],[35.10454840000028,37.093680020000136],[35.11066632000035,37.09069128000033],[35.117515140000364,37.09101533000046],[35.12095747500035,37.08964828100028],[35.121026913000264,37.09000259599998],[35.1209190000003,37.09190625000031],[35.121237552000196,37.09191063600082],[35.12136659000021,37.09307951000022],[35.131330880000235,37.09204961000006],[35.13497672000028,37.08685802000025],[35.14422311000027,37.08241004000024],[35.14404316300022,37.08184999900021],[35.144929190000255,37.08142441000058],[35.143775403000234,37.08053079200022],[35.148708540000314,37.079188340000485],[35.15038976000034,37.07724155000017],[35.149654646000215,37.07596986800064],[35.153420065362695,37.07325016513295],[35.15426593100028,37.07563952600049],[35.15427916000027,37.07660111000047],[35.1545952700003,37.07656994500064],[35.15471480000025,37.07690763000028],[35.15786643700034,37.07636654300069],[35.16133290000033,37.08115481000033],[35.1613917490003,37.08069226000026],[35.161441640000305,37.080749800000206],[35.16163913000025,37.078747860000306],[35.16650603000028,37.07743784000024],[35.16620727000026,37.07589891000032],[35.16874868800022,37.07481517200034],[35.17456003000035,37.08027609000027],[35.175281302000315,37.08162780100031],[35.17576052300029,37.084530306000204],[35.17554286500109,37.085043835001045]]],"type":"Polygon"}},{"type":"Feature","properties":{"area_id":"TR-01-003-177847","name_tr":"Örcün","area_level":"neighbourhood","parent_id":"TR-01-003","endeksa_id":177847},"geometry":{"coordinates":[[[35.271400874985375,37.15203381953978],[35.26912976699214,37.15197836302684],[35.26883604900104,37.15236400400107],[35.264622707000626,37.150198498000634],[35.25612357000057,37.151720760000956],[35.25047272200055,37.14695377100048],[35.240350942000646,37.145125444000996],[35.2358623960007,37.13744121100069],[35.23033126600063,37.14046212000062],[35.23018156700056,37.140448932000595],[35.23016033500062,37.14032724800063],[35.23163236100055,37.13832590800092],[35.23347758900064,37.137614858000404],[35.23843513000054,37.13060405000084],[35.241653018000704,37.129012589000524],[35.24089699500058,37.12689783300101],[35.24094726200076,37.12678624900087],[35.286064646000796,37.10294011600092],[35.288027013000885,37.10207975800097],[35.28845199400075,37.10257258400071],[35.291754668001204,37.10404538400161],[35.293200052001225,37.103200000001095],[35.29450005300123,37.10270000100121],[35.29480005200111,37.10220000000112],[35.294900052001196,37.10180000100172],[35.29480686653761,37.101240888216466],[35.29602613937175,37.10327436942316],[35.2963703627089,37.10361859276031],[35.29807915565368,37.10346037119115],[35.29903094005613,37.10350796041132],[35.30079174120027,37.10755304412129],[35.29907925878257,37.108497862006914],[35.29998350400274,37.11253682399024],[35.303083651248016,37.111934853651235],[35.30330551437055,37.11253923939961],[35.30378986206762,37.11240714457301],[35.30383745128762,37.10821929320258],[35.30783494577753,37.108076525542515],[35.309072265500504,37.10860000696374],[35.30864396251951,37.10959938058602],[35.30926262238097,37.10931384526526],[35.309500568481496,37.10850482852334],[35.311118601965575,37.106648848939074],[35.31354565219141,37.105982599857384],[35.31763832512138,37.105078404675055],[35.32311108543496,37.11036080810794],[35.318256984983066,37.11402517805709],[35.3160678808577,37.11783231566619],[35.313498062971235,37.120259365892196],[35.30831083797841,37.11940275993004],[35.30473060284231,37.11947436463282],[35.30490847815537,37.12075901966921],[35.30348080155176,37.12418544351772],[35.30186276806785,37.12856365176839],[35.299959199263185,37.13141900497544],[35.297684692083976,37.13373811033455],[35.29654367214073,37.13456031588174],[35.29273240326211,37.136200038546804],[35.28921493224226,37.138034328950084],[35.28507486662107,37.13931921839486],[35.28462838851806,37.1396552795361],[35.28536516400277,37.140401043214126],[35.28910047700157,37.14209300500187],[35.28936334100149,37.14260939300141],[35.287455524065024,37.14430259477473],[35.28260142361313,37.14506402229665],[35.277652144721,37.14620616357951],[35.272322152067886,37.148490446145104],[35.271400874985375,37.15203381953978]]],"type":"Polygon"}},{"type":"Feature","properties":{"area_id":"TR-01-003-177835","name_tr":"Kaşoba","area_level":"neighbourhood","parent_id":"TR-01-003","endeksa_id":177835},"geometry":{"coordinates":[[[35.20007012800022,37.15677823900046],[35.20002625000029,37.15663831100028],[35.19649946400034,37.155159213000616],[35.1906955900003,37.157083931000216],[35.19003747500028,37.15457393100036],[35.175950391000356,37.148834279000425],[35.16899833500031,37.1504251460002],[35.16876871300036,37.152783028000385],[35.16864833500034,37.152818249000234],[35.16694986500033,37.152469404000215],[35.166076309000346,37.15451711300028],[35.16800017900033,37.15587874500011],[35.16676174400027,37.15822639200064],[35.16464873000024,37.15867697000044],[35.165565559000356,37.15944902000024],[35.165537789000155,37.15959343300051],[35.158983525000224,37.15960543000017],[35.15127788400025,37.16240914100007],[35.14514369600022,37.159261280000294],[35.14511910000033,37.159154133000754],[35.146460796000326,37.1567320020003],[35.14276978900034,37.15507427699998],[35.146024915000226,37.15129195700024],[35.146298629000285,37.14966407100036],[35.14857485000027,37.1461833900002],[35.14770213000031,37.14163376000022],[35.14974972000027,37.13943588100034],[35.144977550000306,37.13772615000033],[35.14238401500023,37.138191616000654],[35.1413969740002,37.134924898000236],[35.1415451000002,37.13483427100027],[35.14335378000027,37.1352466900002],[35.14314363928105,37.134319750019586],[35.14330832100035,37.1342252470003],[35.14740594000034,37.13681897000026],[35.14689187900035,37.132915808000405],[35.14876660000033,37.12684807500062],[35.14888588000025,37.126775325000324],[35.15421538000032,37.13029640000025],[35.15683598000021,37.12958533000017],[35.15721649500034,37.12622412900015],[35.16179424100022,37.121781604000375],[35.1642357300002,37.1195248700007],[35.167894850000266,37.11928147000032],[35.16819414000031,37.11569862000084],[35.17670608000026,37.113587710000445],[35.180411740000295,37.10455205000068],[35.17797321000029,37.09837555000087],[35.178394690000346,37.09981779000083],[35.175629822000246,37.094396088000224],[35.1760988810002,37.093487674000244],[35.17531192800021,37.093772720000345],[35.175169490000314,37.09349341000052],[35.172503790000235,37.09478987000034],[35.17241330000036,37.09786742000057],[35.17099649100027,37.09788384800032],[35.17103284000035,37.095467750000296],[35.169008170000325,37.09492742000032],[35.16991802700113,37.09277709900158],[35.170600052001134,37.09220000100106],[35.17220005200119,37.09120000000155],[35.17345292673991,37.09110362502156],[35.175145634514365,37.08533776837038],[35.17541756000111,37.0853394700016],[35.17554286500109,37.085043835001045],[35.1791099640011,37.08493184700154],[35.18010005200114,37.084000000001254],[35.181200053001135,37.08230000000111],[35.18310005200118,37.08010000000115],[35.18360005300127,37.07980000100093],[35.18580005200113,37.079700001001186],[35.186700052001186,37.080000000001235],[35.18840005300126,37.0811000010014],[35.19020005300115,37.084100000001],[35.19160005300114,37.085900001001164],[35.19230005200126,37.08630000000113],[35.19450005200122,37.08640000000088],[35.19580005200112,37.08620000000121],[35.1983043280012,37.08507739400142],[35.20335281301112,37.08955440449563],[35.20563709557672,37.09631207375236],[35.20288700000128,37.10919592200088],[35.20228232000028,37.110893640000825],[35.20364089100036,37.111626488000354],[35.211933904000205,37.10887216600037],[35.21397534000022,37.1147894700004],[35.215427822000265,37.11361892500031],[35.21555336500029,37.11359650900073],[35.22026173000023,37.11708733000046],[35.22360045800025,37.117165123000234],[35.23440824000028,37.125901460000364],[35.239233271000444,37.12527565300019],[35.24023939100039,37.1251941550002],[35.24089699500058,37.12689783300101],[35.241653018000704,37.129012589000524],[35.23843513000054,37.13060405000084],[35.23347758900064,37.137614858000404],[35.23163236100055,37.13832590800092],[35.23016033500062,37.14032724800063],[35.22985541200035,37.14072662100034],[35.22458194500035,37.143670893000774],[35.22454880100025,37.14790775300014],[35.223919884000225,37.149079807000305],[35.22372045200024,37.150813457000254],[35.220982060000324,37.15100860200033],[35.21538878100034,37.1487496010007],[35.21339197600025,37.15090472900067],[35.21310460000029,37.15176884800036],[35.2114162000002,37.151499852000256],[35.2097007510003,37.15289100800044],[35.20968968300025,37.15313361700021],[35.20961114500034,37.15304935800026],[35.20948442700029,37.15306736900055],[35.207271641000204,37.154871179000054],[35.20735604000032,37.15452973000049],[35.205753710000295,37.15416554100011],[35.2071771600003,37.152573561000224],[35.20076172000023,37.15548189000026],[35.20007012800022,37.15677823900046]]],"type":"Polygon"}},{"type":"Feature","properties":{"area_id":"TR-01-003-177831","name_tr":"Bozcalar","area_level":"neighbourhood","parent_id":"TR-01-003","endeksa_id":177831},"geometry":{"coordinates":[[[35.027292185081365,37.16952071766241],[35.02738277261085,37.16963296316703],[35.02726804025849,37.16969962091798],[35.02390819700014,37.169556727000156],[35.02212914800009,37.166872567999974],[35.017223320000085,37.14037715800066],[35.01708374300017,37.14016491399997],[35.01689963600012,37.14021127700016],[35.01698544900006,37.13996741300042],[35.016224034000004,37.13868271500053],[35.00939009500007,37.12909831600007],[35.009482974000036,37.128950772999985],[35.01232408200008,37.12889276800007],[35.00863457800017,37.12024007700029],[35.010267590000126,37.119651190000184],[35.01001522900009,37.11745993400007],[35.01104968599998,37.111501500000145],[35.01121233500004,37.111528390000046],[35.01372682000016,37.10916290600045],[35.01400095000014,37.108661360000156],[35.012765938000086,37.101891301000535],[35.01227734000014,37.098613300000295],[35.01457968700015,37.09822552000003],[35.01592509700009,37.10084174700006],[35.01681455200003,37.100839470000096],[35.01730979100006,37.10072297500017],[35.017338350000045,37.10084341400011],[35.01758751600005,37.100669179000136],[35.01758597900016,37.10084527900017],[35.019054497000184,37.10085633699998],[35.01957265600015,37.101372677000256],[35.024108108000064,37.100894390000065],[35.022384898000155,37.10198740800058],[35.02317183200006,37.103525347000016],[35.029276639000045,37.10376920300013],[35.03007970300007,37.106059583000274],[35.02705512300008,37.10679256000026],[35.029091090000065,37.108441370000435],[35.03129975900015,37.10677783000028],[35.032284237000056,37.108011162000366],[35.03919860400009,37.10742821500003],[35.04158652000012,37.110748820000026],[35.04422583000019,37.10999146000012],[35.04748752500012,37.111580664000144],[35.05388482500007,37.10844236500043],[35.061721660000046,37.10729973000048],[35.06528445145568,37.11191781745708],[35.065299461122606,37.111805256303626],[35.06545133741872,37.111799945639575],[35.06632384562607,37.11287602257096],[35.0662570070221,37.113079667149805],[35.058160000932276,37.1161159742166],[35.05801345221494,37.116108934880515],[35.057949538754656,37.11611240068754],[35.05768983900015,37.11629231900014],[35.056950173000075,37.116570398000135],[35.044489193000004,37.12764416300024],[35.04245119100017,37.131640251000476],[35.04260517,37.13561328600014],[35.040435831000025,37.13867178099997],[35.042533836423445,37.139904767151904],[35.042598165695324,37.140006458394566],[35.04253374544129,37.140108166018194],[35.04166321000008,37.1404051810004],[35.041383790000054,37.14379998999999],[35.037793960000045,37.14670790000008],[35.02853901000003,37.15638946100012],[35.02686207400001,37.164782842000136],[35.02725421000014,37.16495687000014],[35.02606829600006,37.16875585500014],[35.025950560000126,37.16934513600029],[35.027292185081365,37.16952071766241]]],"type":"Polygon"}},{"type":"Feature","properties":{"area_id":"TR-01-003-0","name_tr":"Seyhan Barajı","area_level":"neighbourhood","parent_id":"TR-01-003","endeksa_id":0},"geometry":{"coordinates":[[[35.303083651248016,37.111934853651235],[35.29998350400274,37.11253682399024],[35.29907925878257,37.108497862006914],[35.30079174120027,37.10755304412129],[35.29903094005613,37.10350796041132],[35.29807915565368,37.10346037119115],[35.2963703627089,37.10361859276031],[35.29602613937175,37.10327436942316],[35.29480686653761,37.101240888216466],[35.29450005300214,37.100700000002405],[35.29300005200207,37.099600001002614],[35.29200005300203,37.099000000002434],[35.291100053002026,37.097200001001966],[35.290300053002056,37.096500001002084],[35.28980005200202,37.09630000100242],[35.28910005200197,37.09620000100267],[35.28820005200197,37.09640000100234],[35.28710005300218,37.09710000100199],[35.286600052002086,37.097300001002736],[35.28630005300204,37.097300001002736],[35.28600005200201,37.097200001001966],[35.285500053002124,37.09660000000264],[35.284700053001984,37.09610000000248],[35.28390005300207,37.09610000000248],[35.28260005200207,37.09630000100242],[35.28190005200207,37.096500001002084],[35.28090005300197,37.096500001002084],[35.28040005200211,37.09630000100242],[35.27950005200205,37.095300000002055],[35.27942289744908,37.09468276357808],[35.280947036411874,37.094608776249686],[35.285991493744234,37.09327627808648],[35.282993372876945,37.09194377992327],[35.280661501091174,37.089516729697266],[35.27951935980843,37.087375214791905],[35.27956694902849,37.08613789506899],[35.28166087471374,37.083710844842926],[35.28223194535502,37.082663882000645],[35.28113739329234,37.082378346679775],[35.27875793228651,37.082616292780244],[35.2776201434138,37.08250669713959],[35.277000052001995,37.082300000001965],[35.274600053002075,37.082300000001965],[35.27300005300202,37.0828000010024],[35.2720000530021,37.08350000100222],[35.271704408634605,37.08390315227854],[35.268526249961496,37.08323495264176],[35.26752687633905,37.082616292780244],[35.26495705845275,37.08218798979925],[35.262006526805465,37.083282541861934],[35.25653376649211,37.08609030584876],[35.25277421810284,37.086756554930616],[35.245788156553374,37.08759405327777],[35.24560005200203,37.08750000100207],[35.24510005300198,37.08740000100232],[35.24450005200197,37.08740000100232],[35.24380005200197,37.087600001002045],[35.24310005200215,37.08800000000201],[35.24283742772889,37.088367674720416],[35.23954441491054,37.0890884267161],[35.2378677909054,37.08923354864993],[35.237700053002015,37.08920000100204],[35.23710005300228,37.08930000100219],[35.235425091543334,37.08909564725724],[35.23571348269127,37.087365300371346],[35.235618304251034,37.08241602147905],[35.2349449170689,37.08059391498648],[35.23649870482285,37.08037959943488],[35.23954441491037,37.07980852879325],[35.24254253577766,37.07809531686928],[35.24891949127323,37.07604898040421],[35.25101341695836,37.07528755288229],[35.253868770165354,37.07366951939838],[35.25482055456774,37.07281291343605],[35.25548680364943,37.071813539813775],[35.255581982089495,37.07043345243022],[35.25601028507066,37.069434078807944],[35.25639099883165,37.06962443568824],[35.25734278323387,37.07095693385179],[35.259627065799464,37.0717659505936],[35.26181616992483,37.0717659505936],[35.263434203408906,37.07109970151191],[35.26590884285497,37.07129005839255],[35.26795517931987,37.07162318293314],[35.27028705110564,37.07190871825384],[35.27133401394815,37.071813539813775],[35.272523744451064,37.07129005839255],[35.27799650476459,37.07019550632987],[35.2814705178331,37.06867265128602],[35.281660874713566,37.06805399142439],[35.281606445737964,37.067357300533615],[35.281702960001724,37.06738404600151],[35.28243000400187,37.067351734002386],[35.28314419500185,37.06676174000188],[35.284703051001884,37.06627772400179],[35.28734636800186,37.066553140002384],[35.289501248001955,37.065579664002314],[35.29161446200186,37.06557485200244],[35.29320236200198,37.06620789500215],[35.293981112001916,37.06619390400215],[35.294055000002004,37.06610320000192],[35.29398457100194,37.06504150200237],[35.293040930001894,37.063982251001846],[35.293238980001945,37.0634968000021],[35.294045628001925,37.06328607000171],[35.296853556001906,37.06434514500222],[35.29778676000183,37.064785358002155],[35.2998145320019,37.06620041900243],[35.30013528400184,37.066161884001986],[35.30018397000197,37.06606475800248],[35.299817050001934,37.06454523100189],[35.299416266001856,37.06417454100159],[35.29950134100187,37.063176347001786],[35.30018316100194,37.06288970500225],[35.30224957300186,37.06305614400242],[35.30324895700181,37.06257568000245],[35.30379826100193,37.06195157700188],[35.30377171600179,37.06143498000222],[35.30277650800184,37.0612684800023],[35.30252221100187,37.06052367700204],[35.30166241500194,37.05978313700223],[35.30186018700181,37.05879972000213],[35.30439666300191,37.057987707001814],[35.30543190300193,37.057877917001974],[35.30566893300181,37.05738590900194],[35.30549695800187,37.057200954001644],[35.30553166100185,37.05709254300183],[35.30681832000181,37.05688900600177],[35.3066350690018,37.05453231700227],[35.306854761001716,37.05282291900153],[35.3086500270021,37.05072415200203],[35.310062698002014,37.049768578002556],[35.31069631500196,37.049627121002175],[35.31372036300206,37.04929043300234],[35.31440782477131,37.04881479809666],[35.31402154439263,37.05144535360358],[35.31473538269432,37.05330133318819],[35.31559198865648,37.0539199930497],[35.31863769874383,37.05282544098702],[35.319541893926214,37.05073151530206],[35.318923234064584,37.048256875856],[35.318209395762835,37.047162323793316],[35.31740005300219,37.04642492261161],[35.31740005300202,37.046100001002344],[35.31712746166869,37.045248152742886],[35.31722302986009,37.04441534421869],[35.317546636556926,37.04367295238478],[35.31828902839078,37.042492739726015],[35.319500052002695,37.04150000100276],[35.32047813251614,37.04136963413134],[35.322914700586125,37.040436885416966],[35.322990843338346,37.040113278720185],[35.322845223760964,37.03951959890429],[35.32382841361226,37.03948510101475],[35.32407731648624,37.03944085161487],[35.32410005200211,37.039600000002],[35.324500053002055,37.040100000002155],[35.32470005300206,37.0402000000019],[35.32560005200202,37.040100000002155],[35.3268000530021,37.04060000100219],[35.327600053002016,37.04070000100228],[35.32920005300207,37.04170000000215],[35.33090005300204,37.04290000100241],[35.33098175791031,37.04273659077876],[35.33142365314308,37.04298766761542],[35.33182340259208,37.04300670330332],[35.332089902224766,37.041845526332565],[35.33184243828015,37.04066531367357],[35.33140027942699,37.03969954565298],[35.33150005200207,37.03950000000202],[35.331967016001784,37.03966980500161],[35.33410663726613,37.040518312033555],[35.33958996331535,37.03834295973206],[35.346076341662126,37.03642350152262],[35.344503418000784,37.03878218000091],[35.34162833000073,37.04081357800095],[35.33979065600073,37.04060923000094],[35.33639514300182,37.04142586200169],[35.33917810800267,37.04254478600262],[35.33420655700314,37.046057443003065],[35.33407668600313,37.04607263000321],[35.33400290800307,37.045985747003215],[35.33396633300316,37.04623438900336],[35.322767739003154,37.053404498003545],[35.311711731003186,37.06407931800322],[35.31152381600316,37.064081189003105],[35.30961366100314,37.06237001400336],[35.30582304200311,37.06330719300337],[35.30377238300315,37.06599758800331],[35.30438293000316,37.070249974003616],[35.288698358003046,37.07958431400323],[35.288555481003186,37.08025633600323],[35.28934975323784,37.08264118306141],[35.288418543969954,37.08142656227716],[35.28727640268704,37.08018924255407],[35.28446863870022,37.08004647489361],[35.282612659115614,37.082330757459204],[35.283261313964374,37.0826334630554],[35.28451622792028,37.08204522213845],[35.28832336552972,37.08361566640235],[35.289513096032636,37.086471019609405],[35.29079194263636,37.08697143784565],[35.291239106003104,37.08831407100371],[35.29243635000307,37.09078676600325],[35.292146936003064,37.09109877300318],[35.29277619700321,37.091449649003266],[35.294693694003115,37.09483877000332],[35.30045371600312,37.09941619200333],[35.30078587000287,37.10313177400343],[35.301291697426734,37.10705332427602],[35.303083651248016,37.111934853651235]],[[35.327978193606384,37.04734684017808],[35.32750230140533,37.047175518985625],[35.327007373516096,37.04715648329744],[35.32681701663563,37.04728973311376],[35.32622691030616,37.04702323348124],[35.32590330360932,37.04671866247247],[35.326645695443176,37.046889983664755],[35.32685508801171,37.04664251972014],[35.32655051700294,37.046109520454934],[35.325313197280025,37.045157736052545],[35.3243233415015,37.044815093667694],[35.32365709241981,37.045500378437396],[35.32344769985127,37.04675673384838],[35.324302099007355,37.04753484736551],[35.324646948198335,37.047594304122526],[35.32466598388635,37.047841768067144],[35.325313197280025,37.047955982195276],[35.32721676608463,37.04833669595638],[35.32830180030322,37.047955982195276],[35.328320835991235,37.04765141118685],[35.327978193606384,37.04734684017808]]],"type":"Polygon"}},{"type":"Feature","properties":{"area_id":"TR-01-003-0","name_tr":"Ada 1570","area_level":"neighbourhood","parent_id":"TR-01-003","endeksa_id":0},"geometry":{"coordinates":[[[35.327978193606384,37.04734684017808],[35.328320835991235,37.04765141118685],[35.32830180030322,37.047955982195276],[35.32721676608463,37.04833669595638],[35.325313197280025,37.047955982195276],[35.32466598388635,37.047841768067144],[35.324646948198335,37.047594304122526],[35.324302099007355,37.04753484736551],[35.32344769985127,37.04675673384838],[35.32365709241981,37.045500378437396],[35.3243233415015,37.044815093667694],[35.325313197280025,37.045157736052545],[35.32655051700294,37.046109520454934],[35.32685508801171,37.04664251972014],[35.326645695443176,37.046889983664755],[35.32590330360932,37.04671866247247],[35.32622691030616,37.04702323348124],[35.32681701663563,37.04728973311376],[35.327007373516096,37.04715648329744],[35.32750230140533,37.047175518985625],[35.327978193606384,37.04734684017808]]],"type":"Polygon"}},{"type":"Feature","properties":{"area_id":"TR-01-003-0","name_tr":"Ada3121","area_level":"neighbourhood","parent_id":"TR-01-003","endeksa_id":0},"geometry":{"coordinates":[[[35.28934975323784,37.08264118306141],[35.29079194263636,37.08697143784565],[35.289513096032636,37.086471019609405],[35.28832336552972,37.08361566640235],[35.28451622792028,37.08204522213845],[35.283261313964374,37.0826334630554],[35.282612659115614,37.082330757459204],[35.28446863870022,37.08004647489361],[35.28727640268704,37.08018924255407],[35.288418543969954,37.08142656227716],[35.28934975323784,37.08264118306141]]],"type":"Polygon"}}]}