{"type":"FeatureCollection","source_id":"endeksa","retrieved_at":"2026-08-23","features":[{"type":"Feature","properties":{"area_id":"TR-03-011-2001269","name_tr":"Örtülü Köyü","area_level":"neighbourhood","parent_id":"TR-03-011","endeksa_id":2001269},"geometry":{"coordinates":[[[29.90777381392502,38.47915794587391],[29.907740000000047,38.479220000000055],[29.89878000000016,38.47983000000005],[29.89849000000015,38.479340000000036],[29.897680000000094,38.47902000000016],[29.8968000000001,38.47818000000012],[29.89621000000011,38.477860000000476],[29.89578000000006,38.4774800000003],[29.89553000000018,38.477430000000425],[29.89481000000012,38.47785000000039],[29.894120000000044,38.477990000000034],[29.891510000000096,38.47911000000016],[29.89113000000009,38.47908000000052],[29.89076519714729,38.47889292161432],[29.889685860443876,38.47879627293719],[29.889842961902673,38.47873402291037],[29.889833371575378,38.47859640485615],[29.889392442151404,38.47847276622241],[29.88734000000005,38.47832000000017],[29.886900000000253,38.47818000000012],[29.88502000000011,38.47800000000018],[29.884580000000142,38.47788000000071],[29.884360000000186,38.47700000000037],[29.883910000000128,38.476280000000486],[29.883550000000184,38.47593000000012],[29.883360000000096,38.475850000000435],[29.882660000000044,38.47577000000024],[29.882680000000107,38.475600000000384],[29.88310000000007,38.475230000000295],[29.88311000000016,38.47450000000032],[29.883280000000184,38.47372000000041],[29.881800000000112,38.471850000000586],[29.880660000000148,38.47165000000041],[29.879810000000134,38.4711300000007],[29.8782700000001,38.469310000000064],[29.883670000000166,38.46890000000025],[29.88515000000018,38.46699000000012],[29.891700000000185,38.464230000000384],[29.89478000000014,38.4637800000001],[29.89630000000011,38.46459000000033],[29.904460000000086,38.463030000000174],[29.90841000000006,38.45885000000004],[29.911550000000148,38.454900000000066],[29.912580000000105,38.45736000000039],[29.914980000000128,38.4581100000006],[29.91461000000004,38.46121000000005],[29.913270000000182,38.46183000000019],[29.911810000000173,38.462780000000464],[29.91188000000011,38.46430000000032],[29.908770000000175,38.46696000000031],[29.90798000000018,38.46896000000021],[29.908340000000123,38.47059000000007],[29.909480000000144,38.47221000000053],[29.9091600000001,38.47573000000045],[29.908650000000193,38.477550000000406],[29.90777381392502,38.47915794587391]]],"type":"Polygon"}},{"type":"Feature","properties":{"area_id":"TR-03-011-2001264","name_tr":"Güre Köyü","area_level":"neighbourhood","parent_id":"TR-03-011","endeksa_id":2001264},"geometry":{"coordinates":[[[29.94218847000019,38.4705860520001],[29.936861321000038,38.47709403000016],[29.936738787000024,38.47709904900012],[29.936626421000142,38.47723334000017],[29.933796531000098,38.4772195700001],[29.924733471000025,38.48347054999999],[29.922999081000057,38.480658801000175],[29.922086005000153,38.48004916200006],[29.921003340000027,38.48042607200034],[29.91441065100014,38.48518295200029],[29.91414999000017,38.485820898000156],[29.913924225000073,38.485166332000176],[29.909197738000046,38.48362536000019],[29.907774164000045,38.47915791700012],[29.911045331000082,38.47888811500019],[29.91464643000006,38.47377395100017],[29.92210526000008,38.47265341200011],[29.922973080000133,38.4651818600006],[29.927190179999968,38.460659370000144],[29.908720980000055,38.43642936000015],[29.913514858000042,38.43278222900045],[29.909314032071848,38.43149919790898],[29.913208450854142,38.43268836299535],[29.913404214310617,38.4326850030576],[29.91355719860161,38.43257473660583],[29.913581539765573,38.43243242501893],[29.913484508780698,38.432302624897886],[29.912153226516523,38.43165514626452],[29.913772451000114,38.43243923100067],[29.914576364000084,38.43400045200008],[29.915213932000086,38.43464958400068],[29.917223272000058,38.434755493000296],[29.917920860000095,38.43460261900026],[29.919999180000104,38.43315865800042],[29.920511166000153,38.43304130900003],[29.922084884000185,38.43331255300063],[29.923711478000087,38.43465189900007],[29.924913882000112,38.437997600000585],[29.926360834000093,38.43862341100004],[29.92701218200017,38.438691287000154],[29.929237789000013,38.43756308700006],[29.933499380000114,38.43753619500069],[29.935984114000178,38.43866862800019],[29.9393281240001,38.44369894800019],[29.939817684000104,38.446088397000096],[29.944064262000097,38.44660764500003],[29.94676456100018,38.44785284800031],[29.949535345000072,38.45012466700007],[29.950754314000164,38.452675544000044],[29.955233378000173,38.45532147000063],[29.95554057800001,38.455373454000664],[29.955367545000172,38.455428869],[29.955283034000047,38.455807895000135],[29.95507195500005,38.45575524800046],[29.95088025100017,38.45594857500038],[29.94883795200019,38.456576932000075],[29.941438200000107,38.459987960000376],[29.940182655,38.46142689699997],[29.939988920000076,38.46178317000005],[29.94278988000019,38.46551874000005],[29.941161460000103,38.46902612200017],[29.942059240000106,38.47059766100011],[29.94218847000019,38.4705860520001]]],"type":"Polygon"}},{"type":"Feature","properties":{"area_id":"TR-03-011-2001268","name_tr":"Örencik Köyü","area_level":"neighbourhood","parent_id":"TR-03-011","endeksa_id":2001268},"geometry":{"coordinates":[[[29.90139776957369,38.49917714325909],[29.90128322815326,38.49931261516565],[29.901091467481592,38.499242345083985],[29.900882239999987,38.49827947000017],[29.89811224000016,38.49816183100012],[29.894799440000156,38.503304590000255],[29.88764643000019,38.5025624310004],[29.88452355000004,38.50006371100005],[29.87632992000016,38.50332482000033],[29.875006390000067,38.50348763600016],[29.87458758200006,38.50313779200013],[29.875478461000114,38.49772398100009],[29.875394537000147,38.496957397000074],[29.873382141000036,38.49565567700006],[29.872523709000063,38.49216557],[29.872709950000115,38.491663787000675],[29.877564576000168,38.4879958140005],[29.87802744600009,38.48508186500004],[29.878921084000126,38.48204825600027],[29.87964937999999,38.48198357899997],[29.879563809000103,38.48118545000011],[29.880953869000052,38.47939659499997],[29.881436368000095,38.47895636600009],[29.88347095200004,38.4782397620001],[29.89076519714729,38.47889292161432],[29.89113000000009,38.47908000000052],[29.891510000000096,38.47911000000016],[29.894120000000044,38.477990000000034],[29.89481000000012,38.47785000000039],[29.89553000000018,38.477430000000425],[29.89578000000006,38.4774800000003],[29.89621000000011,38.477860000000476],[29.8968000000001,38.47818000000012],[29.897680000000094,38.47902000000016],[29.89849000000015,38.479340000000036],[29.89878000000016,38.47983000000005],[29.907740000000047,38.479220000000055],[29.907774164000045,38.47915791700012],[29.909197738000046,38.48362536000019],[29.913924225000073,38.485166332000176],[29.91414999000017,38.485820898000156],[29.912607480000077,38.48959607000006],[29.901327391000166,38.49866400999997],[29.90139776957369,38.49917714325909]]],"type":"Polygon"}},{"type":"Feature","properties":{"area_id":"TR-03-011-2001259","name_tr":"Avgancık Köyü","area_level":"neighbourhood","parent_id":"TR-03-011","endeksa_id":2001259},"geometry":{"coordinates":[[[29.875006390000067,38.50348763600016],[29.867048660000137,38.50446657000015],[29.861217000000067,38.50139819000026],[29.857814830000166,38.50132905000004],[29.851436110000122,38.50660818000006],[29.844077640000023,38.505208181000285],[29.83999535000015,38.505214309999985],[29.833564830000057,38.5019180700001],[29.828536940000106,38.50270219000015],[29.82536978258537,38.50378990581925],[29.82062000000019,38.48893000000015],[29.816500000000133,38.48020000000014],[29.816210000000126,38.47537000000051],[29.82840000000016,38.46489000000025],[29.828045121344758,38.4647221719693],[29.828465931000153,38.464812462000054],[29.83359910000007,38.463594246000184],[29.833628049000083,38.463677295000366],[29.84130717300002,38.463628381000035],[29.84309899700014,38.46378472200013],[29.848837212000035,38.465128264999976],[29.84887989100008,38.465076591000184],[29.852866427000095,38.46607171600033],[29.857249512000067,38.46694459000025],[29.873138200000028,38.46571389000002],[29.87790696900015,38.46626871700005],[29.87884068200009,38.4662643640001],[29.879789446000075,38.46613507400042],[29.882278280000094,38.468212060000496],[29.881707286590768,38.46904902083304],[29.8782700000001,38.469310000000064],[29.879810000000134,38.4711300000007],[29.880660000000148,38.47165000000041],[29.881800000000112,38.471850000000586],[29.883280000000184,38.47372000000041],[29.88311000000016,38.47450000000032],[29.88310000000007,38.475230000000295],[29.882680000000107,38.475600000000384],[29.882660000000044,38.47577000000024],[29.883360000000096,38.475850000000435],[29.883550000000184,38.47593000000012],[29.883910000000128,38.476280000000486],[29.884360000000186,38.47700000000037],[29.884580000000142,38.47788000000071],[29.88502000000011,38.47800000000018],[29.886900000000253,38.47818000000012],[29.88734000000005,38.47832000000017],[29.889392442151404,38.47847276622241],[29.889833371575378,38.47859640485615],[29.889842961902673,38.47873402291037],[29.889685860443876,38.47879627293719],[29.88347095200004,38.4782397620001],[29.881436368000095,38.47895636600009],[29.880953869000052,38.47939659499997],[29.879563809000103,38.48118545000011],[29.87964937999999,38.48198357899997],[29.878921084000126,38.48204825600027],[29.87802744600009,38.48508186500004],[29.877564576000168,38.4879958140005],[29.872709950000115,38.491663787000675],[29.872523709000063,38.49216557],[29.873382141000036,38.49565567700006],[29.875394537000147,38.496957397000074],[29.875478461000114,38.49772398100009],[29.87458758200006,38.50313779200013],[29.875006390000067,38.50348763600016]]],"type":"Polygon"}},{"type":"Feature","properties":{"area_id":"TR-03-011-2001266","name_tr":"Kocagöl Köyü","area_level":"neighbourhood","parent_id":"TR-03-011","endeksa_id":2001266},"geometry":{"coordinates":[[[29.929079633032075,38.572424644284865],[29.92573011000013,38.572661541000116],[29.912627190000137,38.564550821000466],[29.900191370000016,38.56446640100023],[29.896506820000184,38.562314230000084],[29.89542631000012,38.554130601],[29.88892959000009,38.53773283000015],[29.87578229000013,38.53968944100012],[29.868748693000043,38.537523577000115],[29.863495180000086,38.539708131000395],[29.854328175000035,38.53966238700019],[29.84421463000018,38.54785431000005],[29.83907731400018,38.549931572000105],[29.838996059000124,38.54983001000005],[29.833917494263005,38.55185859731455],[29.833241690000193,38.54889715100006],[29.835018600000126,38.5466573600001],[29.83312697958354,38.54431038976293],[29.834420000000136,38.54410000000007],[29.832070000000044,38.541800000000194],[29.83236000000005,38.53973000000019],[29.828840000000127,38.5321500000004],[29.82825000000014,38.521570000000395],[29.825910000000192,38.50548000000015],[29.82536978258537,38.50378990581925],[29.828536940000106,38.50270219000015],[29.833564830000057,38.5019180700001],[29.83999535000015,38.505214309999985],[29.844077640000023,38.505208181000285],[29.851436110000122,38.50660818000006],[29.857814830000166,38.50132905000004],[29.861217000000067,38.50139819000026],[29.867048660000137,38.50446657000015],[29.87632992000016,38.50332482000033],[29.88452355000004,38.50006371100005],[29.88764643000019,38.5025624310004],[29.894799440000156,38.503304590000255],[29.89811224000016,38.49816183100012],[29.900882239999987,38.49827947000017],[29.901091467481592,38.499242345083985],[29.90128322815326,38.49931261516565],[29.90139776957369,38.49917714325909],[29.90199347700019,38.50352048799999],[29.902545651000082,38.506124750000026],[29.90238100600004,38.50634597700014],[29.902441910999983,38.50679004000034],[29.900506520000192,38.508864641000116],[29.901030561000084,38.51213710200011],[29.89733863099997,38.51365023000005],[29.89717858200015,38.51427622300042],[29.896926598999983,38.516463447000206],[29.89888823000007,38.521976690000145],[29.895586641000136,38.52463141000021],[29.919322870000087,38.52779260000011],[29.922752868000032,38.526238666000324],[29.932140353000193,38.52289868100013],[29.932270630514495,38.5227486656604],[29.92978000000005,38.5273500000003],[29.931910000000073,38.532410000000596],[29.93238000000025,38.5369100000006],[29.933490000000063,38.54142000000019],[29.92402000000004,38.54580000000004],[29.920540000000074,38.546850000000234],[29.919360000000154,38.550620000000265],[29.921180000000106,38.55407000000008],[29.92544000000015,38.5567200000001],[29.928590000000156,38.55901000000023],[29.929150000000163,38.56043000000034],[29.92765000000003,38.56425000000036],[29.922520000000134,38.56542000000053],[29.926540000000216,38.569310000000144],[29.929079633032075,38.572424644284865]]],"type":"Polygon"}},{"type":"Feature","properties":{"area_id":"TR-03-011-2001263","name_tr":"Devlethan Köyü","area_level":"neighbourhood","parent_id":"TR-03-011","endeksa_id":2001263},"geometry":{"coordinates":[[[29.961150974923044,38.56494442854864],[29.958700000000135,38.56490000000014],[29.957950000000096,38.565580000000296],[29.956800000000158,38.56579000000005],[29.955660000000137,38.56572000000011],[29.9555000000002,38.56607000000031],[29.95531000000011,38.567160000000285],[29.954740000000243,38.567720000000406],[29.953470000000152,38.568120000000135],[29.95255000000003,38.56810000000007],[29.951050000000066,38.56838000000033],[29.948760000000163,38.56972000000036],[29.947950000000105,38.57052000000044],[29.946810000000085,38.5714000000001],[29.94633000000016,38.571940000000154],[29.943590000000142,38.57182000000017],[29.94193000000007,38.57284000000004],[29.940670000000125,38.57319000000041],[29.93951000000004,38.57399000000049],[29.938500000000147,38.57403000000028],[29.93759000000017,38.573580000000675],[29.936610000000087,38.57278000000042],[29.929190000000062,38.572560000000124],[29.926540000000216,38.569310000000144],[29.922520000000134,38.56542000000053],[29.92765000000003,38.56425000000036],[29.929150000000163,38.56043000000034],[29.928590000000156,38.55901000000023],[29.92544000000015,38.5567200000001],[29.921180000000106,38.55407000000008],[29.919360000000154,38.550620000000265],[29.920540000000074,38.546850000000234],[29.92402000000004,38.54580000000004],[29.933490000000063,38.54142000000019],[29.93238000000025,38.5369100000006],[29.931910000000073,38.532410000000596],[29.92978000000005,38.5273500000003],[29.93273000000005,38.52190000000019],[29.937040000000138,38.524480000000324],[29.9486500000001,38.528070000000355],[29.95812000000012,38.5304600000004],[29.972480000000076,38.53905000000003],[29.978280000000154,38.54049000000015],[29.983470000000068,38.54097000000007],[29.99447000000015,38.54598000000004],[30.001810000000148,38.54766000000046],[29.99251000000021,38.55255000000005],[29.98947000000021,38.555170000000146],[29.986790000000155,38.555700000000115],[29.982650000000092,38.55721000000051],[29.98076141367858,38.55846678150124],[29.98072010520923,38.558578418055845],[29.9808178568029,38.55867088836794],[29.980693942000073,38.558631903000105],[29.97890000400014,38.55990683900012],[29.977449027774924,38.561220208907],[29.977451636510864,38.56105981815085],[29.977255370663556,38.56102565473742],[29.974830000000168,38.56218000000035],[29.972070000000258,38.562580000000196],[29.970168370926103,38.56252458905169],[29.967139329478414,38.563360445307865],[29.965390000000184,38.563950000000034],[29.964300000000037,38.56387000000018],[29.963329972981853,38.563453893171925],[29.96266008118522,38.56379147082873],[29.9628400000002,38.5648700000005],[29.961150974923044,38.56494442854864]]],"type":"Polygon"}},{"type":"Feature","properties":{"area_id":"TR-03-011-981","name_tr":"Hürriyet","area_level":"neighbourhood","parent_id":"TR-03-011","endeksa_id":981},"geometry":{"coordinates":[[[30.01717361432509,38.569557188977],[30.009301100000187,38.570948790000216],[30.00655430000012,38.57301388100046],[30.003883310000106,38.578810180000346],[30.001005700000064,38.579551070000036],[30.000907910000137,38.581249610000214],[29.997200020000093,38.58363306100051],[29.99821419000017,38.58490413000061],[29.995305450000046,38.58424172100007],[29.995609579000075,38.584468345000346],[29.995340745000192,38.58441396100011],[29.99507778000003,38.5842189100004],[29.993405273305825,38.58389206494803],[29.99323729480591,38.58395043678945],[29.993248142832726,38.58409366322053],[29.989604932000134,38.58340220800051],[29.988984186000152,38.583104833000505],[29.986767282000187,38.58105910699999],[29.983992023000155,38.57942821400013],[29.982636297000113,38.57810819700012],[29.982240385000182,38.57784375500023],[29.98108144100007,38.57734154500042],[29.97852751800019,38.577026101000115],[29.976670009000088,38.576253662000056],[29.97639279600014,38.57584712200014],[29.974565362000135,38.57495896400019],[29.972076616000095,38.57505361200003],[29.971592664000184,38.575383593000424],[29.971342690000085,38.576014672000326],[29.9699011350001,38.57612882600017],[29.969779537000193,38.57623893600004],[29.969697333000113,38.576105334000545],[29.963598850000096,38.574844910000024],[29.962821508000104,38.57458631400027],[29.962560320000136,38.574009350000495],[29.962123111000153,38.57379429900004],[29.96160635900003,38.574182075000124],[29.960790045000124,38.57391051500008],[29.959495219000132,38.573226853000165],[29.958921594000174,38.57247641600031],[29.958812715000136,38.572166004000564],[29.957003953000026,38.571276323000404],[29.95634200500018,38.569151623000096],[29.958870040000193,38.568170099999975],[29.95733661000014,38.567104991000235],[29.961150974923044,38.56494442854864],[29.9628400000002,38.5648700000005],[29.96266008118522,38.56379147082873],[29.963329972981853,38.563453893171925],[29.964300000000037,38.56387000000018],[29.965390000000184,38.563950000000034],[29.967139329478414,38.563360445307865],[29.970168370926103,38.56252458905169],[29.972070000000258,38.562580000000196],[29.974830000000168,38.56218000000035],[29.977255370663556,38.56102565473742],[29.977451636510864,38.56105981815085],[29.977449027774924,38.561220208907],[29.97890000400014,38.55990683900012],[29.980693942000073,38.558631903000105],[29.985457130000157,38.56013047000039],[29.9889708500001,38.55596102000004],[29.99237547000007,38.556274170000165],[29.99899232000007,38.550216971000054],[30.005266805000076,38.54777890300011],[30.018118909000123,38.54771818100039],[30.018245959000183,38.547819686000025],[30.01824819049466,38.547900000000425],[30.018170000000225,38.547900000000425],[30.01838000000015,38.55274000000014],[30.018980000000056,38.557840000000056],[30.01844000000017,38.563160000000266],[30.018170000000225,38.567510000000084],[30.017723711000144,38.56945995000012],[30.01717361432509,38.569557188977]]],"type":"Polygon"}},{"type":"Feature","properties":{"area_id":"TR-03-011-982","name_tr":"Şafak","area_level":"neighbourhood","parent_id":"TR-03-011","endeksa_id":982},"geometry":{"coordinates":[[[29.993248142832726,38.58409366322053],[29.99344461800007,38.584455902000116],[29.99193288900011,38.588468627000395],[29.99087281300018,38.58910315100013],[29.98909103699998,38.59087811200004],[29.987198672000034,38.59394813900008],[29.986419360000184,38.59483224300004],[29.98064070900017,38.59538441199999],[29.979331856000158,38.59591915300064],[29.979122615000165,38.59580943399999],[29.976206695000144,38.59274180600005],[29.974371998000095,38.5896578440001],[29.973395780000146,38.58865886000024],[29.9717229420001,38.587581323000165],[29.96769878400005,38.58562414700009],[29.966534393000074,38.584478896000064],[29.966057320000118,38.58370483200014],[29.965825035000023,38.58318683000027],[29.965824555000154,38.58228462900013],[29.966425639000136,38.579991897000184],[29.968017599000063,38.57784434200005],[29.96954206800018,38.57667274900018],[29.969779537000193,38.57623893600004],[29.9699011350001,38.57612882600017],[29.971342690000085,38.576014672000326],[29.971592664000184,38.575383593000424],[29.972076616000095,38.57505361200003],[29.974565362000135,38.57495896400019],[29.97639279600014,38.57584712200014],[29.976670009000088,38.576253662000056],[29.97852751800019,38.577026101000115],[29.98108144100007,38.57734154500042],[29.982240385000182,38.57784375500023],[29.982636297000113,38.57810819700012],[29.983992023000155,38.57942821400013],[29.986767282000187,38.58105910699999],[29.988984186000152,38.583104833000505],[29.989604932000134,38.58340220800051],[29.993248142832726,38.58409366322053]]],"type":"Polygon"}},{"type":"Feature","properties":{"area_id":"TR-03-011-2001262","name_tr":"Davulga Köyü","area_level":"neighbourhood","parent_id":"TR-03-011","endeksa_id":2001262},"geometry":{"coordinates":[[[29.90718061115689,38.594270949057716],[29.906561260000046,38.600958620000426],[29.90544453000018,38.60233806100007],[29.902667170000086,38.601971690000084],[29.901018680000107,38.60619586100006],[29.89586122000003,38.605098570000166],[29.884539460000155,38.60997298100011],[29.884748560000048,38.60570606500039],[29.882043505000127,38.5981212640005],[29.878395344000182,38.597383586000035],[29.877890943000068,38.5973785490001],[29.86481104699999,38.59020773600014],[29.863161880000064,38.59302388000009],[29.855029838999997,38.59056807000013],[29.853755720000038,38.58435728100039],[29.85316571000004,38.579283510000096],[29.843752150000114,38.57250475100011],[29.845319230000086,38.57039361000011],[29.844816680000065,38.56602225000012],[29.83529498000007,38.55649717000017],[29.833831560000135,38.552052680000145],[29.833935767021956,38.551972847331115],[29.833917494263005,38.55185859731455],[29.838996059000124,38.54983001000005],[29.83907731400018,38.549931572000105],[29.84421463000018,38.54785431000005],[29.854328175000035,38.53966238700019],[29.863495180000086,38.539708131000395],[29.868748693000043,38.537523577000115],[29.87578229000013,38.53968944100012],[29.88892959000009,38.53773283000015],[29.89542631000012,38.554130601],[29.896506820000184,38.562314230000084],[29.897558932597576,38.56292877611219],[29.89761723187621,38.56306524727313],[29.897480538650086,38.563155302853204],[29.89688988000006,38.56298774000004],[29.899206526000114,38.56618498300014],[29.902604190000034,38.56980684100017],[29.907196125000098,38.577211564000095],[29.907869210000058,38.57814050000036],[29.90597017000016,38.583246750000114],[29.907627110000135,38.584383120000666],[29.911951510000165,38.583548680000035],[29.91095090000016,38.58805212000016],[29.90744169000004,38.59203110000004],[29.907460119000064,38.592722638000055],[29.907319377890644,38.59277312267318],[29.90718061115689,38.594270949057716]]],"type":"Polygon"}},{"type":"Feature","properties":{"area_id":"TR-03-011-983","name_tr":"Yeni","area_level":"neighbourhood","parent_id":"TR-03-011","endeksa_id":983},"geometry":{"coordinates":[[[29.94193105700009,38.63300479000037],[29.941856337000104,38.6330621940005],[29.941924150000148,38.63399231],[29.939768700000172,38.634666030000176],[29.939594855000053,38.63315456800018],[29.93792741700014,38.633489304000136],[29.936405626000067,38.635952292000354],[29.93669700999999,38.63393121000013],[29.935057380000046,38.63310442000011],[29.936993860000086,38.62914419000015],[29.934532699999977,38.62765060000021],[29.935404440000184,38.62013896000042],[29.93352069800011,38.61890578900011],[29.93730719000007,38.61623584000006],[29.93361941699999,38.61289872700007],[29.93585844000006,38.61304338100018],[29.936415128000135,38.61015794200006],[29.940030960000172,38.608960940000316],[29.93601968000013,38.60652567000011],[29.924395940000068,38.60406535000044],[29.92383809500018,38.603591664000135],[29.920865639999988,38.60037889000006],[29.919826898000053,38.600185614000054],[29.919316610000067,38.59975231000027],[29.916508959000055,38.599568252000495],[29.910483830000032,38.5984471700001],[29.90762703000013,38.59898599000013],[29.90750106348554,38.59427019987032],[29.907340888299757,38.59415397304963],[29.90718061115689,38.594270949057716],[29.907319377890644,38.59277312267318],[29.907460119000064,38.592722638000055],[29.90744169000004,38.59203110000004],[29.91095090000016,38.58805212000016],[29.911951510000165,38.583548680000035],[29.907627110000135,38.584383120000666],[29.90597017000016,38.583246750000114],[29.907869210000058,38.57814050000036],[29.907196125000098,38.577211564000095],[29.902604190000034,38.56980684100017],[29.899206526000114,38.56618498300014],[29.89688988000006,38.56298774000004],[29.897480538650086,38.563155302853204],[29.89761723187621,38.56306524727313],[29.897558932597576,38.56292877611219],[29.900191370000016,38.56446640100023],[29.912627190000137,38.564550821000466],[29.92573011000013,38.572661541000116],[29.929079633032075,38.572424644284865],[29.929190000000062,38.572560000000124],[29.936610000000087,38.57278000000042],[29.93759000000017,38.573580000000675],[29.938500000000147,38.57403000000028],[29.93951000000004,38.57399000000049],[29.940670000000125,38.57319000000041],[29.94193000000007,38.57284000000004],[29.943590000000142,38.57182000000017],[29.94633000000016,38.571940000000154],[29.946810000000085,38.5714000000001],[29.947950000000105,38.57052000000044],[29.948760000000163,38.56972000000036],[29.951050000000066,38.56838000000033],[29.95255000000003,38.56810000000007],[29.953470000000152,38.568120000000135],[29.954740000000243,38.567720000000406],[29.95531000000011,38.567160000000285],[29.9555000000002,38.56607000000031],[29.955660000000137,38.56572000000011],[29.956800000000158,38.56579000000005],[29.957950000000096,38.565580000000296],[29.958700000000135,38.56490000000014],[29.961150974923044,38.56494442854864],[29.95733661000014,38.567104991000235],[29.958870040000193,38.568170099999975],[29.95634200500018,38.569151623000096],[29.957003953000026,38.571276323000404],[29.958812715000136,38.572166004000564],[29.958921594000174,38.57247641600031],[29.959495219000132,38.573226853000165],[29.960790045000124,38.57391051500008],[29.96160635900003,38.574182075000124],[29.962123111000153,38.57379429900004],[29.962560320000136,38.574009350000495],[29.962821508000104,38.57458631400027],[29.963598850000096,38.574844910000024],[29.969697333000113,38.576105334000545],[29.969779537000193,38.57623893600004],[29.96954206800018,38.57667274900018],[29.968017599000063,38.57784434200005],[29.966425639000136,38.579991897000184],[29.965824555000154,38.58228462900013],[29.965825035000023,38.58318683000027],[29.966057320000118,38.58370483200014],[29.966534393000074,38.584478896000064],[29.96769878400005,38.58562414700009],[29.9717229420001,38.587581323000165],[29.973395780000146,38.58865886000024],[29.974371998000095,38.5896578440001],[29.976206695000144,38.59274180600005],[29.978081509000162,38.59471416100041],[29.978315281000164,38.595253052000146],[29.978593090000118,38.59556898000017],[29.978429340000105,38.59551598000007],[29.97855608000009,38.5958081400006],[29.976980350000076,38.59508258000011],[29.951190675000078,38.607027026000026],[29.95359290000016,38.61070073000002],[29.95161918600013,38.612500608999994],[29.95344875000012,38.613218340000174],[29.952274580000164,38.614595800000075],[29.95456604000003,38.61527656000027],[29.95310970000014,38.61806351000047],[29.950181933000124,38.61892566300048],[29.95114343967225,38.62081118890336],[29.946796320000033,38.6228987500005],[29.948134396000057,38.62571759100041],[29.943276090000097,38.624168320000024],[29.94210653000016,38.62526287000003],[29.944483120000143,38.62708520100006],[29.941446009999993,38.62725388100051],[29.941098580000073,38.630506290000085],[29.94193105700009,38.63300479000037]]],"type":"Polygon"}},{"type":"Feature","properties":{"area_id":"TR-03-011-2001265","name_tr":"İhsaniye Köyü","area_level":"neighbourhood","parent_id":"TR-03-011","endeksa_id":2001265},"geometry":{"coordinates":[[[29.936405626000067,38.635952292000354],[29.935983205000184,38.63680494100015],[29.935666700000013,38.63816332000033],[29.935304558000098,38.63817477400039],[29.935213650000037,38.63835827000014],[29.929545800000028,38.63835691000054],[29.928772833000096,38.63597088600011],[29.926727229000164,38.63571554500004],[29.922286030000123,38.637807040000155],[29.91622065000007,38.636514750000174],[29.915203800000143,38.63491912100022],[29.916210131000184,38.62912133700013],[29.91389814000013,38.62705915000015],[29.912552165000022,38.62212832000017],[29.903706740000132,38.6191300700001],[29.897501186000056,38.61956505100045],[29.884539460000155,38.60997298100011],[29.89586122000003,38.605098570000166],[29.901018680000107,38.60619586100006],[29.902667170000086,38.601971690000084],[29.90544453000018,38.60233806100007],[29.906561260000046,38.600958620000426],[29.90718061115689,38.594270949057716],[29.907340888299757,38.59415397304963],[29.90750106348554,38.59427019987032],[29.90762703000013,38.59898599000013],[29.910483830000032,38.5984471700001],[29.916508959000055,38.599568252000495],[29.919316610000067,38.59975231000027],[29.919826898000053,38.600185614000054],[29.920865639999988,38.60037889000006],[29.92383809500018,38.603591664000135],[29.924395940000068,38.60406535000044],[29.93601968000013,38.60652567000011],[29.940030960000172,38.608960940000316],[29.936415128000135,38.61015794200006],[29.93585844000006,38.61304338100018],[29.93361941699999,38.61289872700007],[29.93730719000007,38.61623584000006],[29.93352069800011,38.61890578900011],[29.935404440000184,38.62013896000042],[29.934532699999977,38.62765060000021],[29.936993860000086,38.62914419000015],[29.935057380000046,38.63310442000011],[29.93669700999999,38.63393121000013],[29.936405626000067,38.635952292000354]]],"type":"Polygon"}},{"type":"Feature","properties":{"area_id":"TR-03-011-2001267","name_tr":"Kozluca Köyü","area_level":"neighbourhood","parent_id":"TR-03-011","endeksa_id":2001267},"geometry":{"coordinates":[[[30.01717361432509,38.569557188977],[30.017355909877267,38.569629444480086],[30.017303873214985,38.56978190884922],[30.013900000000035,38.57080000000019],[30.0106600000002,38.57359000000008],[30.01045000000005,38.57663000000008],[30.01045000000005,38.581730000000164],[30.009470000000135,38.58359000000041],[30.00446000000005,38.587200000000166],[30.006250000000193,38.58872000000014],[30.006810000000144,38.589090000000056],[30.00722000000013,38.58927000000017],[30.00803000000019,38.58936000000034],[30.008420000000115,38.58951000000013],[30.011030000000062,38.59165000000013],[30.013060000000166,38.592380000000105],[30.014200000000187,38.59261000000015],[30.01698000000016,38.595390000000464],[30.017300000000148,38.60134000000039],[30.017460000000085,38.60741000000024],[30.01698000000016,38.61057000000022],[30.01763000000011,38.61686000000054],[30.016170000000102,38.62129000000044],[30.020160000000203,38.625340000000165],[30.020600000000172,38.62905000000018],[30.019190000000037,38.632930000000044],[30.016090000000247,38.63758000000041],[30.01265000000018,38.63948000000005],[30.010070299119548,38.64203415928819],[30.007304946000033,38.640505400000166],[30.00612653900015,38.63814530400026],[30.00492111000017,38.633752000000015],[30.003103217000103,38.632090242000004],[30.00252186000006,38.630925910000315],[29.995052962000102,38.627441268000155],[29.99198121000012,38.623653370000056],[29.982471530000055,38.62143774000009],[29.97942458000017,38.60953503100012],[29.97742467000006,38.61281513000017],[29.964247790000172,38.61464567000047],[29.962302596000143,38.61571442600007],[29.961380320000046,38.615891250000175],[29.95114343967225,38.62081118890336],[29.950181933000124,38.61892566300048],[29.95310970000014,38.61806351000047],[29.95456604000003,38.61527656000027],[29.952274580000164,38.614595800000075],[29.95344875000012,38.613218340000174],[29.95161918600013,38.612500608999994],[29.95359290000016,38.61070073000002],[29.951190675000078,38.607027026000026],[29.976980350000076,38.59508258000011],[29.97855608000009,38.5958081400006],[29.978429340000105,38.59551598000007],[29.978593090000118,38.59556898000017],[29.978315281000164,38.595253052000146],[29.978081509000162,38.59471416100041],[29.979122615000165,38.59580943399999],[29.979331856000158,38.59591915300064],[29.98064070900017,38.59538441199999],[29.986419360000184,38.59483224300004],[29.987198672000034,38.59394813900008],[29.98909103699998,38.59087811200004],[29.99087281300018,38.58910315100013],[29.99193288900011,38.588468627000395],[29.99344461800007,38.584455902000116],[29.993248142832726,38.58409366322053],[29.99323729480591,38.58395043678945],[29.993405273305825,38.58389206494803],[29.99507778000003,38.5842189100004],[29.995340745000192,38.58441396100011],[29.995609579000075,38.584468345000346],[29.995305450000046,38.58424172100007],[29.99821419000017,38.58490413000061],[29.997200020000093,38.58363306100051],[30.000907910000137,38.581249610000214],[30.001005700000064,38.579551070000036],[30.003883310000106,38.578810180000346],[30.00655430000012,38.57301388100046],[30.009301100000187,38.570948790000216],[30.01717361432509,38.569557188977]]],"type":"Polygon"}},{"type":"Feature","properties":{"area_id":"TR-03-011-2001258","name_tr":"Akçadere Köyü","area_level":"neighbourhood","parent_id":"TR-03-011","endeksa_id":2001258},"geometry":{"coordinates":[[[30.00205559125203,38.65126880432405],[30.000080154000045,38.65134757100043],[29.99500532700017,38.650387586000136],[29.990287213000045,38.64852963300018],[29.990089628000135,38.64862690600012],[29.98924716300013,38.65018587800017],[29.987660571000106,38.651381557000036],[29.98728840200016,38.65264705000021],[29.987528846000146,38.65334432399999],[29.98643348500019,38.65413147700019],[29.985658840000156,38.65443949600001],[29.984351011000058,38.65441091200017],[29.98305009300003,38.65406995100011],[29.982937084000184,38.65307706700003],[29.98286302500003,38.65300102100014],[29.980602320000116,38.65313946700019],[29.97860558600007,38.654415882000194],[29.976227167000047,38.6553086960007],[29.97320790000009,38.653897433000054],[29.96988315300007,38.65129823600034],[29.96717351700005,38.64982292000013],[29.96199876100013,38.64820097900014],[29.95523235200011,38.64435468000016],[29.949626796000132,38.641583403000425],[29.949350607999975,38.641646628000046],[29.949235218000013,38.64156810700058],[29.94902974500019,38.64080438100012],[29.947997817000044,38.638989846000186],[29.947767015000125,38.63896581700038],[29.947030269000095,38.63926895700024],[29.94492159100008,38.63636889000054],[29.94347133000008,38.637627581000174],[29.941098580000073,38.630506290000085],[29.941446009999993,38.62725388100051],[29.944483120000143,38.62708520100006],[29.94210653000016,38.62526287000003],[29.943276090000097,38.624168320000024],[29.948134396000057,38.62571759100041],[29.946796320000033,38.6228987500005],[29.961380320000046,38.615891250000175],[29.962302596000143,38.61571442600007],[29.964247790000172,38.61464567000047],[29.97742467000006,38.61281513000017],[29.97942458000017,38.60953503100012],[29.982471530000055,38.62143774000009],[29.99198121000012,38.623653370000056],[29.995052962000102,38.627441268000155],[30.00252186000006,38.630925910000315],[30.003103217000103,38.632090242000004],[30.00492111000017,38.633752000000015],[30.00612653900015,38.63814530400026],[30.007304946000033,38.640505400000166],[30.010070299119548,38.64203415928819],[30.006920000000207,38.645310000000336],[30.00524000000007,38.64793000000054],[30.00205559125203,38.65126880432405]]],"type":"Polygon"}},{"type":"Feature","properties":{"area_id":"TR-03-011-2001261","name_tr":"Çepni Köyü","area_level":"neighbourhood","parent_id":"TR-03-011","endeksa_id":2001261},"geometry":{"coordinates":[[[30.095460000000116,38.67540000000042],[30.089040000000068,38.68210000000016],[30.082609696596194,38.69095956601734],[30.080240000000117,38.687570000000505],[30.07859000000019,38.68380000000036],[30.075710000000072,38.68203000000028],[30.06831000000011,38.68075000000039],[30.06348000000014,38.678180000000225],[30.06019000000009,38.67569000000026],[30.053820000000087,38.67220000000066],[30.04914000000008,38.6714400000003],[30.045120000000168,38.66947000000005],[30.04282000000012,38.66823000000045],[30.039710000000184,38.667750000000524],[30.036320000000046,38.66751000000056],[30.034780000000126,38.66646000000037],[30.0265500000001,38.66646000000037],[30.024190000000033,38.66526000000056],[30.023880000000133,38.66253000000063],[30.02193000000011,38.65964000000025],[30.018330000000105,38.658760000000086],[30.015240000000063,38.657640000000356],[30.014110000000187,38.65595000000047],[30.011950000000184,38.65426000000008],[30.001940000000047,38.65139000000033],[30.00524000000007,38.64793000000054],[30.006920000000207,38.645310000000336],[30.010070299119548,38.64203415928819],[30.01265000000018,38.63948000000005],[30.016090000000247,38.63758000000041],[30.019190000000037,38.632930000000044],[30.020600000000172,38.62905000000018],[30.020160000000203,38.625340000000165],[30.016170000000102,38.62129000000044],[30.01763000000011,38.61686000000054],[30.01698000000016,38.61057000000022],[30.017460000000085,38.60741000000024],[30.017300000000148,38.60134000000039],[30.01698000000016,38.595390000000464],[30.014200000000187,38.59261000000015],[30.013060000000166,38.592380000000105],[30.011030000000062,38.59165000000013],[30.008420000000115,38.58951000000013],[30.00803000000019,38.58936000000034],[30.00722000000013,38.58927000000017],[30.006810000000144,38.589090000000056],[30.006250000000193,38.58872000000014],[30.00446000000005,38.587200000000166],[30.009470000000135,38.58359000000041],[30.01045000000005,38.581730000000164],[30.01045000000005,38.57663000000008],[30.0106600000002,38.57359000000008],[30.013900000000035,38.57080000000019],[30.017303873214985,38.56978190884922],[30.017355909877267,38.569629444480086],[30.01717361432509,38.569557188977],[30.017723711000144,38.56945995000012],[30.018170000000225,38.567510000000084],[30.01844000000017,38.563160000000266],[30.018980000000056,38.557840000000056],[30.01838000000015,38.55274000000014],[30.018170000000225,38.547900000000425],[30.044570000000135,38.547900000000425],[30.049460000000124,38.54814000000039],[30.053740000000232,38.54909000000015],[30.056180000000097,38.55101000000053],[30.05893000000009,38.5550700000004],[30.05954000000014,38.55889000000025],[30.06168000000008,38.561990000000264],[30.065350000000194,38.56582000000026],[30.082460000000083,38.57609000000019],[30.08460000000008,38.578720000000374],[30.08399000000003,38.58158000000037],[30.082160000000158,38.585410000000365],[30.079100000000096,38.59138000000013],[30.079100000000096,38.59759000000008],[30.082470000000058,38.6073800000006],[30.083390000000122,38.616700000000094],[30.086140000000114,38.622670000000255],[30.08797000000021,38.62769000000009],[30.088280000000054,38.652290000000335],[30.08981000000017,38.6563500000002],[30.091950000000168,38.65970000000027],[30.092560000000162,38.66447000000005],[30.092570000000137,38.67045000000013],[30.093790000000183,38.673790000000054],[30.095460000000116,38.67540000000042]]],"type":"Polygon"}},{"type":"Feature","properties":{"area_id":"TR-03-011-2001271","name_tr":"Yağcı Köyü","area_level":"neighbourhood","parent_id":"TR-03-011","endeksa_id":2001271},"geometry":{"coordinates":[[[30.06339226800003,38.71893422900007],[30.062990498000147,38.71874907200015],[30.0621631300001,38.72009696000026],[30.052237273000117,38.72443688900012],[30.04407871000018,38.72186421000015],[30.039665483000192,38.716915114000074],[30.0383151100001,38.708683120000046],[30.037880684000186,38.707822416000056],[30.03779228999997,38.707322170000054],[30.037605402000167,38.7072770150001],[30.035507606000124,38.70315185600015],[30.03534689000014,38.70241623999999],[30.027675893000037,38.69027833200005],[30.028094308000107,38.68678997800009],[30.02506921500003,38.680641410000135],[30.01284776,38.6747636500005],[30.012830357999974,38.67481530800069],[30.011551704000055,38.674429118000035],[30.00708165500015,38.67222253700015],[30.004862450000132,38.672587922000105],[30.003394352000157,38.67258735700011],[30.002086350000127,38.67234525400005],[30.00197921700004,38.67224699900055],[30.00211791600003,38.670452894000164],[30.001673753000148,38.66912017000038],[30.00201657700012,38.66621707800016],[30.00242936900014,38.65740987500038],[30.002113773946746,38.65143982329977],[30.011950000000184,38.65426000000008],[30.014110000000187,38.65595000000047],[30.015240000000063,38.657640000000356],[30.018330000000105,38.658760000000086],[30.02193000000011,38.65964000000025],[30.023880000000133,38.66253000000063],[30.024190000000033,38.66526000000056],[30.0265500000001,38.66646000000037],[30.034780000000126,38.66646000000037],[30.036320000000046,38.66751000000056],[30.039710000000184,38.667750000000524],[30.04282000000012,38.66823000000045],[30.045120000000168,38.66947000000005],[30.04914000000008,38.6714400000003],[30.053820000000087,38.67220000000066],[30.06019000000009,38.67569000000026],[30.06348000000014,38.678180000000225],[30.06831000000011,38.68075000000039],[30.075710000000072,38.68203000000028],[30.07859000000019,38.68380000000036],[30.080240000000117,38.687570000000505],[30.082609696596194,38.69095956601734],[30.076824778000116,38.70008184300002],[30.07381326000018,38.70676532300058],[30.073863451998136,38.70688122099506],[30.073744656448355,38.70681406883142],[30.073601600406164,38.706853440904126],[30.070845077000172,38.70944919400051],[30.0679595200001,38.70995334000048],[30.06339226800003,38.71893422900007]]],"type":"Polygon"}},{"type":"Feature","properties":{"area_id":"TR-03-011-2001257","name_tr":"Yeşilhisar Köyü","area_level":"neighbourhood","parent_id":"TR-03-011","endeksa_id":2001257},"geometry":{"coordinates":[[[29.945876535000025,38.73045142900003],[29.945775951000087,38.730571762000125],[29.94563683500013,38.73056524000026],[29.938321098000074,38.72626185100012],[29.931438171000025,38.72058154400003],[29.931278521000138,38.720557634000045],[29.93121942500005,38.72042200100009],[29.930230318000156,38.71954197900044],[29.930096657000036,38.7169595860002],[29.922432993000086,38.70891903199998],[29.922207154000148,38.708360676000154],[29.916115887000046,38.69276415200039],[29.91155435999997,38.67934640200025],[29.906777901000112,38.66296980699997],[29.906574752000097,38.66288191900003],[29.90671759800017,38.66276312200006],[29.904859368000075,38.656391794000115],[29.903703620000044,38.65102490200013],[29.903754011000046,38.65093124900011],[29.915010192000125,38.64864269900045],[29.912399181000183,38.64319161800017],[29.917589270000178,38.641981725000164],[29.921863793000057,38.64246285800027],[29.923692479000067,38.64279908500015],[29.929123664000088,38.64015741600048],[29.9269362820001,38.636053637000145],[29.92682338500009,38.63609596900011],[29.926630148000186,38.635761263999996],[29.926727229000164,38.63571554500004],[29.928772833000096,38.63597088600011],[29.929545800000028,38.63835691000054],[29.935213650000037,38.63835827000014],[29.935304558000098,38.63817477400039],[29.935666700000013,38.63816332000033],[29.935983205000184,38.63680494100015],[29.936405626000067,38.635952292000354],[29.93792741700014,38.633489304000136],[29.939594855000053,38.63315456800018],[29.939768700000172,38.634666030000176],[29.941924150000148,38.63399231],[29.941856337000104,38.6330621940005],[29.94193105700009,38.63300479000037],[29.94347133000008,38.637627581000174],[29.94492159100008,38.63636889000054],[29.947030269000095,38.63926895700024],[29.947767015000125,38.63896581700038],[29.947997817000044,38.638989846000186],[29.94902974500019,38.64080438100012],[29.949264314000118,38.6416766530005],[29.949392947000035,38.641687200000035],[29.94944310300008,38.641782160000616],[29.949160952000113,38.64227939],[29.948830531000056,38.64392881100014],[29.95023188100015,38.646420518000525],[29.951357637000058,38.647749208000505],[29.949785523000173,38.650572845000454],[29.947944304000146,38.65546625100018],[29.947991739000088,38.65618901700009],[29.948956255000155,38.6595101980007],[29.950847168000166,38.66289442000004],[29.95094925699999,38.663987226000586],[29.95048812300007,38.66594349700017],[29.953186922000157,38.66668461100039],[29.954995224000186,38.667510746999994],[29.956494113000133,38.670353504000104],[29.957569641000134,38.673078693000264],[29.956598297000085,38.67523299000061],[29.955581254000037,38.67639691300019],[29.955378963000044,38.67704569400013],[29.95586697400006,38.678863887000205],[29.95672121500013,38.67985003500007],[29.958271323000133,38.680586626000036],[29.955536392000056,38.689240686000176],[29.955745559000036,38.69530509100008],[29.953238595000073,38.698070371000085],[29.950196007000045,38.702189293000174],[29.948644392000176,38.703745988000605],[29.95324000800008,38.71039139600049],[29.95728116300006,38.715536499000166],[29.95955571700017,38.72070036100018],[29.959524135000038,38.721252391000064],[29.95859326100009,38.722739640999976],[29.958128520999992,38.723219415000244],[29.956309709000152,38.724294515000054],[29.955159702000117,38.724816291000025],[29.950181655000108,38.726035836000165],[29.94794835500005,38.727245327000105],[29.945876535000025,38.73045142900003]]],"type":"Polygon"}},{"type":"Feature","properties":{"area_id":"TR-03-011-2001260","name_tr":"Çalça Köyü","area_level":"neighbourhood","parent_id":"TR-03-011","endeksa_id":2001260},"geometry":{"coordinates":[[[30.002086350000127,38.67234525400005],[30.001938435000056,38.672407784000086],[30.001131813000086,38.67435103700001],[29.998868735000087,38.67662822300014],[29.999344385000143,38.67762922900005],[29.999445913000045,38.6787709740006],[29.999161842000092,38.679439153000374],[29.997280225000054,38.67991406500005],[29.997377442000015,38.68044641100005],[29.99836462500008,38.68123419900007],[29.99895952500009,38.6822872430003],[29.99733611199997,38.68305194800007],[29.996839815000044,38.683530571000176],[29.995237686999985,38.6841286990001],[29.994782558999987,38.684581885000625],[29.994473793000054,38.6856866830002],[29.994534948000023,38.68653847500019],[29.99475598600003,38.68703677400026],[29.99545964100008,38.687564583000324],[29.995468307000067,38.688839149000444],[29.99353545300005,38.69121145399998],[29.992675666000025,38.69352201000004],[29.988991957000167,38.69475596100011],[29.988908182000046,38.696698272000106],[29.98660206200003,38.6980652260001],[29.985839259000045,38.699005805000354],[29.986180539000088,38.70115333400014],[29.985407752000185,38.704782285000135],[29.987125095000067,38.706111037000085],[29.98893822500014,38.70872562300042],[29.98924557900017,38.7115627340001],[29.989142515000026,38.71482453500005],[29.988090535000026,38.71763051400029],[29.985060037000096,38.719767204000334],[29.98349082100009,38.72137742800015],[29.982981474000155,38.723385918000076],[29.981074338999974,38.724716740000076],[29.97931554200005,38.7272598990001],[29.97726571800007,38.73072643000012],[29.972998671000084,38.73252379000013],[29.96856993800003,38.73320464300042],[29.96744118100014,38.73355933000005],[29.96522423500005,38.7346492890004],[29.963276921000045,38.73689418600043],[29.959804482000038,38.73896125300013],[29.95967676000015,38.73897136400052],[29.959321292000027,38.73884028100042],[29.953844890000084,38.73550616500006],[29.953758160000177,38.73564862200004],[29.95351903800008,38.73553404900042],[29.953157415000135,38.73520940600065],[29.953068804000168,38.73527893500045],[29.94978098000007,38.7316105380001],[29.947021036000137,38.73137183000006],[29.945928479000088,38.73064536200013],[29.945876535000025,38.73045142900003],[29.94794835500005,38.727245327000105],[29.950181655000108,38.726035836000165],[29.955159702000117,38.724816291000025],[29.956309709000152,38.724294515000054],[29.958128520999992,38.723219415000244],[29.95859326100009,38.722739640999976],[29.959524135000038,38.721252391000064],[29.95955571700017,38.72070036100018],[29.95728116300006,38.715536499000166],[29.95324000800008,38.71039139600049],[29.948644392000176,38.703745988000605],[29.950196007000045,38.702189293000174],[29.953238595000073,38.698070371000085],[29.955745559000036,38.69530509100008],[29.955536392000056,38.689240686000176],[29.958271323000133,38.680586626000036],[29.95672121500013,38.67985003500007],[29.95586697400006,38.678863887000205],[29.955378963000044,38.67704569400013],[29.955581254000037,38.67639691300019],[29.956598297000085,38.67523299000061],[29.957569641000134,38.673078693000264],[29.956494113000133,38.670353504000104],[29.954995224000186,38.667510746999994],[29.953186922000157,38.66668461100039],[29.95048812300007,38.66594349700017],[29.95094925699999,38.663987226000586],[29.950847168000166,38.66289442000004],[29.948956255000155,38.6595101980007],[29.947991739000088,38.65618901700009],[29.947944304000146,38.65546625100018],[29.949785523000173,38.650572845000454],[29.951357637000058,38.647749208000505],[29.95023188100015,38.646420518000525],[29.948830531000056,38.64392881100014],[29.949160952000113,38.64227939],[29.94944310300008,38.641782160000616],[29.949392947000035,38.641687200000035],[29.949264314000118,38.6416766530005],[29.949235218000013,38.64156810700058],[29.949350607999975,38.641646628000046],[29.949626796000132,38.641583403000425],[29.95523235200011,38.64435468000016],[29.96199876100013,38.64820097900014],[29.96717351700005,38.64982292000013],[29.96988315300007,38.65129823600034],[29.97320790000009,38.653897433000054],[29.976227167000047,38.6553086960007],[29.97860558600007,38.654415882000194],[29.980602320000116,38.65313946700019],[29.98286302500003,38.65300102100014],[29.982937084000184,38.65307706700003],[29.98305009300003,38.65406995100011],[29.984351011000058,38.65441091200017],[29.985658840000156,38.65443949600001],[29.98643348500019,38.65413147700019],[29.987528846000146,38.65334432399999],[29.98728840200016,38.65264705000021],[29.987660571000106,38.651381557000036],[29.98924716300013,38.65018587800017],[29.990089628000135,38.64862690600012],[29.990287213000045,38.64852963300018],[29.99500532700017,38.650387586000136],[30.000080154000045,38.65134757100043],[30.00205559125203,38.65126880432405],[30.001940000000047,38.65139000000033],[30.002113773946746,38.65143982329977],[30.00242936900014,38.65740987500038],[30.00201657700012,38.66621707800016],[30.001673753000148,38.66912017000038],[30.00211791600003,38.670452894000164],[30.00197921700004,38.67224699900055],[30.002086350000127,38.67234525400005]]],"type":"Polygon"}},{"type":"Feature","properties":{"area_id":"TR-03-011-2001270","name_tr":"Uluköy Köyü","area_level":"neighbourhood","parent_id":"TR-03-011","endeksa_id":2001270},"geometry":{"coordinates":[[[30.035776613999985,38.733838058000515],[30.029046880000067,38.73583327100016],[30.023595380000017,38.734866491000105],[30.01919672000008,38.737028491000615],[30.019505343000105,38.7385279180001],[30.008999050000057,38.73924900000003],[30.004151660000105,38.741535260000205],[30.00071620544054,38.745299338385905],[30.001180464724712,38.74257972357236],[29.995169049000026,38.73770330200023],[29.988213260000123,38.738283293000165],[29.980921327000146,38.74376350300008],[29.979156785000157,38.743864676000385],[29.968971034000162,38.74243865000017],[29.960418379000146,38.7393239270001],[29.95967676000015,38.73897136400052],[29.959804482000038,38.73896125300013],[29.963276921000045,38.73689418600043],[29.96522423500005,38.7346492890004],[29.96744118100014,38.73355933000005],[29.96856993800003,38.73320464300042],[29.972998671000084,38.73252379000013],[29.97726571800007,38.73072643000012],[29.97931554200005,38.7272598990001],[29.981074338999974,38.724716740000076],[29.982981474000155,38.723385918000076],[29.98349082100009,38.72137742800015],[29.985060037000096,38.719767204000334],[29.988090535000026,38.71763051400029],[29.989142515000026,38.71482453500005],[29.98924557900017,38.7115627340001],[29.98893822500014,38.70872562300042],[29.987125095000067,38.706111037000085],[29.985407752000185,38.704782285000135],[29.986180539000088,38.70115333400014],[29.985839259000045,38.699005805000354],[29.98660206200003,38.6980652260001],[29.988908182000046,38.696698272000106],[29.988991957000167,38.69475596100011],[29.992675666000025,38.69352201000004],[29.99353545300005,38.69121145399998],[29.995468307000067,38.688839149000444],[29.99545964100008,38.687564583000324],[29.99475598600003,38.68703677400026],[29.994534948000023,38.68653847500019],[29.994473793000054,38.6856866830002],[29.994782558999987,38.684581885000625],[29.995237686999985,38.6841286990001],[29.996839815000044,38.683530571000176],[29.99733611199997,38.68305194800007],[29.99895952500009,38.6822872430003],[29.99836462500008,38.68123419900007],[29.997377442000015,38.68044641100005],[29.997280225000054,38.67991406500005],[29.999161842000092,38.679439153000374],[29.999445913000045,38.6787709740006],[29.999344385000143,38.67762922900005],[29.998868735000087,38.67662822300014],[30.001131813000086,38.67435103700001],[30.001938435000056,38.672407784000086],[30.002086350000127,38.67234525400005],[30.003394352000157,38.67258735700011],[30.004862450000132,38.672587922000105],[30.00708165500015,38.67222253700015],[30.011551704000055,38.674429118000035],[30.012830357999974,38.67481530800069],[30.01284776,38.6747636500005],[30.02506921500003,38.680641410000135],[30.028094308000107,38.68678997800009],[30.027675893000037,38.69027833200005],[30.03534689000014,38.70241623999999],[30.035507606000124,38.70315185600015],[30.037605402000167,38.7072770150001],[30.03779228999997,38.707322170000054],[30.037880684000186,38.707822416000056],[30.0383151100001,38.708683120000046],[30.039665483000192,38.716915114000074],[30.04407871000018,38.72186421000015],[30.046369406909662,38.72258679862034],[30.046464747380867,38.72273936801639],[30.046279169754484,38.722827806447754],[30.043836700000043,38.72216999],[30.03807194000001,38.726190401000395],[30.03704847000006,38.727968499999974],[30.037412783000093,38.72811705300029],[30.03597465000007,38.733658790000106],[30.035808177000035,38.73369447300013],[30.035776613999985,38.733838058000515]]],"type":"Polygon"}}]}