{"type":"FeatureCollection","source_id":"endeksa","retrieved_at":"2026-08-23","features":[{"type":"Feature","properties":{"area_id":"TR-09-011-144269","name_tr":"Çiftlikköy","area_level":"neighbourhood","parent_id":"TR-09-011","endeksa_id":144269},"geometry":{"coordinates":[[[28.011399258930737,37.84126020412219],[28.011278061939834,37.84136407342788],[28.00697591000005,37.8421013200001],[28.00414636000005,37.84442716100011],[28.002769479999984,37.840301270000055],[28.000541610000028,37.83875670000049],[27.998549177000143,37.83945981300013],[27.998465740000086,37.83924463200003],[27.998520660000167,37.83922423000013],[27.995194974797187,37.837478282604366],[27.99464694000011,37.83376757999997],[27.989427760000126,37.82630610000007],[27.989201450050132,37.82616041358159],[27.9893560423738,37.826180999863425],[27.989458258117395,37.82608437567069],[27.989328740000076,37.825840720000144],[27.98954164000014,37.82471107000026],[27.99272232000004,37.82479827000037],[27.991811240000118,37.822439440000096],[27.994231739000156,37.820642019000104],[27.994887987000084,37.819708745000526],[27.995272709999995,37.81936817000013],[27.995133656000064,37.819359371000075],[27.99538668700012,37.818999528000006],[27.99556689000019,37.818827025000076],[28.004865350000046,37.81804123000012],[28.00468934900016,37.816809926000076],[28.004781314000184,37.81667426100012],[28.007866429000103,37.81832452000015],[28.01888782600014,37.81657150300015],[28.01904124907901,37.81639833456194],[28.01893000000007,37.816580000000044],[28.02060000000006,37.81845000000038],[28.023470000000202,37.81846000000013],[28.023490000000038,37.81749000000053],[28.026090000000067,37.81750000000011],[28.026650000000245,37.81643000000025],[28.028980000000104,37.8151400000001],[28.029110000000173,37.81484000000012],[28.032170000000065,37.81495000000018],[28.032160000000147,37.81560000000047],[28.03284000000008,37.81560000000047],[28.033960000000036,37.81537000000009],[28.033930000000225,37.81635000000017],[28.03692000000018,37.816400000000044],[28.03689000000014,37.817110000000355],[28.037530000000174,37.81715000000014],[28.037550000000067,37.81771000000026],[28.038890000000094,37.8176500000003],[28.03868684462401,37.81714992522791],[28.041035850000185,37.817844200000025],[28.042656709000084,37.81788864800012],[28.04245041000013,37.81945998600065],[28.045009349592988,37.82092364167943],[28.04500493233712,37.82107812216151],[28.044596264000063,37.821514292000074],[28.036248688000057,37.82853590700063],[28.033310955000047,37.835093216000416],[28.02659005000004,37.83490969999997],[28.02529823000009,37.836135140000295],[28.02646022000016,37.838584900000114],[28.023354290000043,37.83917873000041],[28.02354616000008,37.840476920000356],[28.011399258930737,37.84126020412219]]],"type":"Polygon"}},{"type":"Feature","properties":{"area_id":"TR-09-011-10175","name_tr":"Serdaroğlu","area_level":"neighbourhood","parent_id":"TR-09-011","endeksa_id":10175},"geometry":{"coordinates":[[[28.052352361772478,37.85111361772243],[28.052338368999983,37.851367065000034],[28.05220383400018,37.8514511460001],[28.04899601300002,37.85131157100005],[28.045865713000012,37.85216415300005],[28.037296196,37.853539538000064],[28.037147030000085,37.853452216000164],[28.03641191400004,37.84759433100015],[28.036470764000114,37.840741122],[28.03531057400005,37.83892494100064],[28.032170099000155,37.83790730100014],[28.03210528700015,37.837784384000145],[28.036248688000057,37.82853590700063],[28.044596264000063,37.821514292000074],[28.04500493233712,37.82107812216151],[28.045009349592988,37.82092364167943],[28.050783972600698,37.82354631842969],[28.053498794401662,37.82416501365384],[28.054095959000108,37.824479869000584],[28.05415033899999,37.82457367699999],[28.052558958000077,37.8353192620001],[28.052564952000182,37.83887500700024],[28.053087538000113,37.84032446200035],[28.052555993000055,37.84519740400049],[28.051782246000073,37.84905454500017],[28.052389838000067,37.850434821000135],[28.05238580670425,37.850796043473224],[28.05232000000018,37.8507900000003],[28.052352361772478,37.85111361772243]]],"type":"Polygon"}},{"type":"Feature","properties":{"area_id":"TR-09-011-10177","name_tr":"Altıeylül","area_level":"neighbourhood","parent_id":"TR-09-011","endeksa_id":10177},"geometry":{"coordinates":[[[28.07855823642376,37.85399702236498],[28.077710000000252,37.85382000000021],[28.076690000000042,37.85373000000004],[28.063820000000078,37.854000000000156],[28.061990000000037,37.85393000000005],[28.06004000000013,37.85359000000034],[28.05851000000024,37.8531500000002],[28.057950000000062,37.852920000000324],[28.05532000000005,37.85144000000008],[28.054090000000087,37.8510500000005],[28.05238580670425,37.850796043473224],[28.052389838000067,37.850434821000135],[28.051782246000073,37.84905454500017],[28.052555993000055,37.84519740400049],[28.053087538000113,37.84032446200035],[28.052564952000182,37.83887500700024],[28.052558958000077,37.8353192620001],[28.05415033899999,37.82457367699999],[28.054095959000108,37.824479869000584],[28.05478439581276,37.82445422422791],[28.058117781000192,37.82500578600013],[28.065567621000184,37.82527762500018],[28.070040821573514,37.826826409188016],[28.07095225247724,37.82740141833051],[28.071104610043108,37.827390845535604],[28.071175277351358,37.82728835125408],[28.071170000000166,37.827510000000416],[28.074050000000113,37.82930000000016],[28.078840000000127,37.83332000000007],[28.08214000000015,37.83546000000024],[28.08633000000009,37.835690000000056],[28.091430000000173,37.835690000000056],[28.092720000000156,37.83692000000025],[28.09293000000008,37.83711000000034],[28.09293000000008,37.83996000000025],[28.09203000000008,37.843040000000144],[28.092287486000032,37.84520280000004],[28.089397292,37.84893468500036],[28.08038400000015,37.85337618600005],[28.07855823642376,37.85399702236498]]],"type":"Polygon"}},{"type":"Feature","properties":{"area_id":"TR-09-011-144263","name_tr":"Beyköy","area_level":"neighbourhood","parent_id":"TR-09-011","endeksa_id":144263},"geometry":{"coordinates":[[[28.021310109399394,37.859502824043375],[28.021298874324145,37.85961606797474],[28.021172934436663,37.85967653099368],[28.00353005000005,37.86055945000021],[27.998705270000187,37.86039371999999],[27.997107420000134,37.85508202000051],[27.997026430000176,37.85453412000015],[27.99709059000014,37.84775858000012],[27.998050208000166,37.84688618000024],[27.995903330000147,37.840393511000116],[27.996794287000057,37.84007910000048],[27.99687314900018,37.839836266000134],[27.998465740000086,37.83924463200003],[27.998549177000143,37.83945981300013],[28.000541610000028,37.83875670000049],[28.002769479999984,37.840301270000055],[28.00414636000005,37.84442716100011],[28.00697591000005,37.8421013200001],[28.011278061939834,37.84136407342788],[28.011399258930737,37.84126020412219],[28.015613340000073,37.845596540000145],[28.01505716900016,37.847273302000474],[28.0191880000001,37.85481983000017],[28.020373170000084,37.85459600000007],[28.019427100000144,37.85585925000015],[28.021310109399394,37.859502824043375]]],"type":"Polygon"}},{"type":"Feature","properties":{"area_id":"TR-09-011-10176","name_tr":"Soğukkuyu","area_level":"neighbourhood","parent_id":"TR-09-011","endeksa_id":10176},"geometry":{"coordinates":[[[28.052352361772478,37.85111361772243],[28.05245000000008,37.851490000000126],[28.05214000000018,37.853570000000104],[28.051650000000166,37.85562000000061],[28.05117000000007,37.857130000000495],[28.05052000000012,37.8582200000003],[28.049310000000162,37.85917000000018],[28.048780000000193,37.8596500000001],[28.04875000000004,37.85978000000023],[28.04866000000004,37.861750000000484],[28.049170000000117,37.863570000000436],[28.0496196967635,37.86480462202354],[28.049544567000112,37.86467279600038],[28.049420237000163,37.864794797000116],[28.04878331900005,37.864656420000074],[28.04490716600003,37.86292819600027],[28.041191295000147,37.86170507200018],[28.039336837000178,37.860642216000485],[28.038652055,37.86072946000024],[28.038851396000098,37.860003250000375],[28.03718578000013,37.853656619000105],[28.037296196,37.853539538000064],[28.045865713000012,37.85216415300005],[28.04899601300002,37.85131157100005],[28.05220383400018,37.8514511460001],[28.052338368999983,37.851367065000034],[28.052352361772478,37.85111361772243]]],"type":"Polygon"}},{"type":"Feature","properties":{"area_id":"TR-09-011-10174","name_tr":"Çarşı","area_level":"neighbourhood","parent_id":"TR-09-011","endeksa_id":10174},"geometry":{"coordinates":[[[28.066953178721178,37.86052903378169],[28.060690000000136,37.86362000000031],[28.04972000000015,37.86508000000032],[28.049170000000117,37.863570000000436],[28.04866000000004,37.861750000000484],[28.04875000000004,37.85978000000023],[28.048780000000193,37.8596500000001],[28.049310000000162,37.85917000000018],[28.05052000000012,37.8582200000003],[28.05117000000007,37.857130000000495],[28.051650000000166,37.85562000000061],[28.05214000000018,37.853570000000104],[28.05245000000008,37.851490000000126],[28.052352361772478,37.85111361772243],[28.05232000000018,37.8507900000003],[28.054090000000087,37.8510500000005],[28.05532000000005,37.85144000000008],[28.057950000000062,37.852920000000324],[28.05851000000024,37.8531500000002],[28.06004000000013,37.85359000000034],[28.061990000000037,37.85393000000005],[28.063820000000078,37.854000000000156],[28.076690000000042,37.85373000000004],[28.077710000000252,37.85382000000021],[28.07855823642376,37.85399702236498],[28.07868000000019,37.85403000000014],[28.07469000000009,37.855640000000164],[28.066953178721178,37.86052903378169]]],"type":"Polygon"}},{"type":"Feature","properties":{"area_id":"TR-09-011-144297","name_tr":"Ovaköy","area_level":"neighbourhood","parent_id":"TR-09-011","endeksa_id":144297},"geometry":{"coordinates":[[[28.038652055,37.86072946000024],[28.03406562100014,37.86560028700029],[28.029894590000083,37.85911943000008],[28.021310109399394,37.859502824043375],[28.019427100000144,37.85585925000015],[28.020373170000084,37.85459600000007],[28.0191880000001,37.85481983000017],[28.01505716900016,37.847273302000474],[28.015613340000073,37.845596540000145],[28.011399258930737,37.84126020412219],[28.02354616000008,37.840476920000356],[28.023354290000043,37.83917873000041],[28.02646022000016,37.838584900000114],[28.02529823000009,37.836135140000295],[28.02659005000004,37.83490969999997],[28.033310955000047,37.835093216000416],[28.03210528700015,37.837784384000145],[28.032170099000155,37.83790730100014],[28.03531057400005,37.83892494100064],[28.036470764000114,37.840741122],[28.03641191400004,37.84759433100015],[28.037147030000085,37.853452216000164],[28.037296196,37.853539538000064],[28.03718578000013,37.853656619000105],[28.038851396000098,37.860003250000375],[28.038652055,37.86072946000024]]],"type":"Polygon"}},{"type":"Feature","properties":{"area_id":"TR-09-011-144259","name_tr":"Baklaköy","area_level":"neighbourhood","parent_id":"TR-09-011","endeksa_id":144259},"geometry":{"coordinates":[[[28.066953178721178,37.86052903378169],[28.067370521000157,37.860322069000006],[28.067559451000136,37.86038672500007],[28.06796580600013,37.86246572100009],[28.070053048000148,37.88379429500003],[28.068288090000124,37.883467804000134],[28.066331208000065,37.8833411760001],[28.047857967000027,37.88214578500009],[28.046636450000108,37.88110732800055],[28.0433502742693,37.880975907610605],[28.04250000000019,37.88090000000045],[28.041450000000168,37.88035000000042],[28.041340000000105,37.88038000000006],[28.040030872152727,37.87840668228887],[28.040034589000186,37.87839320799998],[28.032631672000093,37.86725368300017],[28.032611718,37.867150396000056],[28.03406562100014,37.86560028700029],[28.038652055,37.86072946000024],[28.039336837000178,37.860642216000485],[28.041191295000147,37.86170507200018],[28.04490716600003,37.86292819600027],[28.04878331900005,37.864656420000074],[28.049420237000163,37.864794797000116],[28.049544567000112,37.86467279600038],[28.0496196967635,37.86480462202354],[28.04972000000015,37.86508000000032],[28.060690000000136,37.86362000000031],[28.066953178721178,37.86052903378169]]],"type":"Polygon"}},{"type":"Feature","properties":{"area_id":"TR-09-011-144303","name_tr":"Yavuzköy","area_level":"neighbourhood","parent_id":"TR-09-011","endeksa_id":144303},"geometry":{"coordinates":[[[28.10955197710274,37.85347806343333],[28.10568098000016,37.862281840000435],[28.10907401000003,37.86396853100064],[28.100736000000097,37.87142424100006],[28.10118713000014,37.875150380000434],[28.09636191000004,37.876016660000346],[28.091048770000043,37.8849913400004],[28.091933520000055,37.88907816000017],[28.087246380000067,37.89221903000032],[28.087233260000005,37.89213678800007],[28.087683120000122,37.89149795999998],[28.086334520000094,37.88937519100011],[28.083587822000027,37.89066083200004],[28.08423088000012,37.888531990000104],[28.082328780000125,37.88750149000043],[28.07986932,37.887178581000626],[28.080050685000174,37.88870420000029],[28.07852982000003,37.88877842000039],[28.07814469000016,37.88630646100023],[28.072072210000044,37.885006621000684],[28.069463170000176,37.888008700000114],[28.069610889000046,37.88860977200011],[28.069420219999984,37.88888882000015],[28.06726099000008,37.8874227110004],[28.065891780000072,37.88404897000004],[28.066331208000065,37.8833411760001],[28.068288090000124,37.883467804000134],[28.070053048000148,37.88379429500003],[28.06796580600013,37.86246572100009],[28.067559451000136,37.86038672500007],[28.067370521000157,37.860322069000006],[28.066953178721178,37.86052903378169],[28.07469000000009,37.855640000000164],[28.07868000000019,37.85403000000014],[28.07855823642376,37.85399702236498],[28.08038400000015,37.85337618600005],[28.089397292,37.84893468500036],[28.09223504912461,37.845270507731016],[28.0924470791187,37.84522595719517],[28.095330000000104,37.846600000000365],[28.1013200000001,37.848490000000425],[28.105820000000108,37.85205000000013],[28.108520000000055,37.850440000000106],[28.10955197710274,37.85347806343333]]],"type":"Polygon"}},{"type":"Feature","properties":{"area_id":"TR-09-011-144277","name_tr":"Güzelköy","area_level":"neighbourhood","parent_id":"TR-09-011","endeksa_id":144277},"geometry":{"coordinates":[[[28.03714294679486,37.89626645893668],[28.03661000000011,37.89629000000053],[28.03553000000005,37.8957400000005],[28.035200000000145,37.89543000000043],[28.034990000000164,37.895570000000134],[28.03472000000022,37.89543000000043],[28.034390000000087,37.89544000000018],[28.034270000000106,37.89555000000041],[28.03379000000018,37.895660000000305],[28.033010000000104,37.89575000000008],[28.032410000000198,37.89564000000007],[28.03222000000011,37.89549000000005],[28.03187000000014,37.895820000000185],[28.031270000000234,37.89593000000059],[28.031090000000063,37.896160000000066],[28.03095000000019,37.89621000000034],[28.02998000000025,37.896000000000186],[28.029705583252223,37.89608725305652],[28.028580000000034,37.89556000000039],[28.02835195380635,37.8953710326258],[28.023930000000064,37.8948800000004],[28.02354000000014,37.89437000000015],[28.023160000000132,37.89414000000028],[28.02366000000012,37.893710000000226],[28.023060000000214,37.89356000000009],[28.0226100000001,37.893590000000245],[28.022220000000118,37.893460000000175],[28.02212000000003,37.893150000000105],[28.02224000000018,37.89314000000013],[28.022410000000036,37.89264000000037],[28.02224000000018,37.89243000000022],[28.02224000000018,37.89190000000042],[28.02233000000018,37.89162000000067],[28.021110000000135,37.89118000000013],[28.020640000000128,37.89109000000019],[28.020050000000197,37.89110000000028],[28.02041000000014,37.890300000000195],[28.02075000000019,37.89001000000036],[28.021520000000123,37.890030000000195],[28.021630000000187,37.88994000000025],[28.021420000000035,37.889560000000074],[28.021230000000116,37.889410000000055],[28.021390000000054,37.88924000000003],[28.021350000000098,37.88855000000035],[28.020550000000185,37.88787000000019],[28.021200000000135,37.887300000000096],[28.021120000000053,37.887140000000215],[28.02032000000014,37.88728000000026],[28.019970000000114,37.88709000000034],[28.019410000000164,37.887140000000215],[28.019350000000202,37.88621000000069],[28.019500000000164,37.885440000000244],[28.018940000000157,37.88514000000026],[28.019650000000127,37.88496000000032],[28.01961000000017,37.884790000000294],[28.01970000000017,37.884670000000085],[28.02011000000016,37.884320000000116],[28.02029354948246,37.884275503155834],[28.020950000000028,37.88421000000005],[28.020860000000084,37.88382000000047],[28.021110000000135,37.883770000000595],[28.021890000000212,37.88316000000003],[28.022150000000238,37.883060000000114],[28.022170000000074,37.88320000000033],[28.02187000000015,37.883550000000184],[28.022320000000093,37.88372000000004],[28.02251000000018,37.88353000000063],[28.02277000000015,37.88360000000006],[28.023190000000113,37.88329000000067],[28.02379000000019,37.883360000000096],[28.024480000000096,37.88301000000024],[28.02463000000006,37.8836500000001],[28.02512000000013,37.88357000000042],[28.025210000000072,37.88362000000029],[28.026040000000194,37.883370000000184],[28.02614000000011,37.8834300000002],[28.02620000000013,37.88366000000019],[28.026320000000112,37.88366000000019],[28.027120000000195,37.88327000000044],[28.027800000000184,37.88307000000026],[28.028570000000116,37.883090000000095],[28.02927000000011,37.88172000000009],[28.029320000000155,37.88121000000052],[28.02810000000011,37.877320000000395],[28.02779000000004,37.876890000000344],[28.028070000000127,37.87626000000023],[28.029040000000066,37.876520000000426],[28.030990000000145,37.87622000000033],[28.03160000000014,37.87641000000042],[28.032270000000153,37.876960000000054],[28.033010000000104,37.877270000000124],[28.03422000000006,37.87746000000004],[28.03618000000023,37.877270000000124],[28.03699000000006,37.87763000000007],[28.037930000000074,37.87951000000055],[28.038180000000125,37.879580000000146],[28.038670000000195,37.87952000000013],[28.039300000000082,37.87920000000048],[28.039440000000127,37.879060000000266],[28.03950000000009,37.8788200000003],[28.03990000000016,37.87888000000032],[28.039980000000185,37.8787100000003],[28.039980000000185,37.87833000000029],[28.041340000000105,37.88038000000006],[28.041450000000168,37.88035000000042],[28.04250000000019,37.88090000000045],[28.0433502742693,37.880975907610605],[28.0433000000001,37.881790000000194],[28.042920000000095,37.88223000000039],[28.042690000000107,37.88286000000062],[28.04194000000018,37.88339000000042],[28.041680000000156,37.884290000000306],[28.04132000000004,37.88456000000008],[28.04139000000015,37.88503000000043],[28.041220000000123,37.88511000000062],[28.040990000000136,37.885440000000244],[28.039980000000185,37.88614000000007],[28.03990000000016,37.88654000000031],[28.040280000000166,37.88679000000036],[28.040280000000166,37.88701000000009],[28.04011000000014,37.887300000000096],[28.040250000000185,37.88774000000012],[28.039980000000185,37.888600000000224],[28.03971000000007,37.88877000000008],[28.039630000000045,37.88921000000022],[28.039480000000253,37.88945000000018],[28.039440000000127,37.890090000000555],[28.039260000000127,37.890340000000094],[28.03950000000009,37.8907200000001],[28.039300000000082,37.89091000000019],[28.039420000000064,37.891920000000084],[28.03950000000009,37.892010000000255],[28.038920000000076,37.89256000000029],[28.039070000000038,37.892850000000124],[28.0390900000001,37.893270000000086],[28.0390000000001,37.89356000000009],[28.039230000000146,37.89363000000071],[28.039410000000146,37.89403000000027],[28.039440000000127,37.8943500000006],[28.039260000000127,37.89555000000041],[28.03919000000019,37.89570000000003],[28.03714294679486,37.89626645893668]]],"type":"Polygon"}},{"type":"Feature","properties":{"area_id":"TR-09-011-144289","name_tr":"Kızılcayer","area_level":"neighbourhood","parent_id":"TR-09-011","endeksa_id":144289},"geometry":{"coordinates":[[[28.069727622000016,37.88908476200015],[28.06918995700005,37.8897545050001],[28.06925241000016,37.88986253100012],[28.06630464000017,37.89335453100057],[28.060245140000063,37.89615913200004],[28.055848029000117,37.8972436170003],[28.05330426000006,37.89557498000016],[28.04210483500009,37.90149259300017],[28.044655841999997,37.90338410600009],[28.04106237300016,37.90494105200008],[28.03671834700009,37.89753002700019],[28.03714294679486,37.89626645893668],[28.03919000000019,37.89570000000003],[28.039260000000127,37.89555000000041],[28.039440000000127,37.8943500000006],[28.039410000000146,37.89403000000027],[28.039230000000146,37.89363000000071],[28.0390000000001,37.89356000000009],[28.0390900000001,37.893270000000086],[28.039070000000038,37.892850000000124],[28.038920000000076,37.89256000000029],[28.03950000000009,37.892010000000255],[28.039420000000064,37.891920000000084],[28.039300000000082,37.89091000000019],[28.03950000000009,37.8907200000001],[28.039260000000127,37.890340000000094],[28.039440000000127,37.890090000000555],[28.039480000000253,37.88945000000018],[28.039630000000045,37.88921000000022],[28.03971000000007,37.88877000000008],[28.039980000000185,37.888600000000224],[28.040250000000185,37.88774000000012],[28.04011000000014,37.887300000000096],[28.040280000000166,37.88701000000009],[28.040280000000166,37.88679000000036],[28.03990000000016,37.88654000000031],[28.039980000000185,37.88614000000007],[28.040990000000136,37.885440000000244],[28.041220000000123,37.88511000000062],[28.04139000000015,37.88503000000043],[28.04132000000004,37.88456000000008],[28.041680000000156,37.884290000000306],[28.04194000000018,37.88339000000042],[28.042690000000107,37.88286000000062],[28.042920000000095,37.88223000000039],[28.0433000000001,37.881790000000194],[28.0433502742693,37.880975907610605],[28.046636450000108,37.88110732800055],[28.047857967000027,37.88214578500009],[28.066331208000065,37.8833411760001],[28.065891780000072,37.88404897000004],[28.06726099000008,37.8874227110004],[28.069420219999984,37.88888882000015],[28.069610889000046,37.88860977200011],[28.069727622000016,37.88908476200015]]],"type":"Polygon"}},{"type":"Feature","properties":{"area_id":"TR-09-011-144295","name_tr":"Mezeköy","area_level":"neighbourhood","parent_id":"TR-09-011","endeksa_id":144295},"geometry":{"coordinates":[[[28.06535956500005,37.914617331000045],[28.065184509999995,37.91463890500006],[28.0613680080001,37.912424592000036],[28.057031213000187,37.91140440900028],[28.052893000000154,37.91183794],[28.051977478000083,37.908715031000156],[28.051831237000158,37.90864027800046],[28.0468530980001,37.91064198999999],[28.0435960640001,37.91076487000004],[28.041403279999997,37.91560843100012],[28.04330201099998,37.917463887],[28.042646745000127,37.91843628900017],[28.0424702090001,37.91846207300017],[28.041582982000136,37.917957158000036],[28.04120083500004,37.91695921899998],[28.040569985000104,37.91673869200031],[28.040517709000028,37.916583218000085],[28.04106237300016,37.90494105200008],[28.044655841999997,37.90338410600009],[28.04210483500009,37.90149259300017],[28.05330426000006,37.89557498000016],[28.055848029000117,37.8972436170003],[28.060245140000063,37.89615913200004],[28.06630464000017,37.89335453100057],[28.06925241000016,37.88986253100012],[28.06918995700005,37.8897545050001],[28.069727622000016,37.88908476200015],[28.070581849999996,37.89256064000034],[28.068813310000053,37.892826442000114],[28.069168572000137,37.894967719000135],[28.067822410000133,37.89565227999998],[28.072688022000193,37.89941919400013],[28.07106723000004,37.900456600000666],[28.073007950000033,37.90337852000016],[28.06716986000015,37.90595778000005],[28.070026980000137,37.90952487900006],[28.06535956500005,37.914617331000045]]],"type":"Polygon"}},{"type":"Feature","properties":{"area_id":"TR-09-011-144265","name_tr":"Cumadere","area_level":"neighbourhood","parent_id":"TR-09-011","endeksa_id":144265},"geometry":{"coordinates":[[[28.035984790000043,37.919337057999996],[28.033070105000036,37.92068472300008],[28.032911644000137,37.92066261000008],[28.02035415100005,37.9087949110002],[28.02034176800015,37.90868177599998],[28.020412957000133,37.908656232],[28.02235659700017,37.909210757000324],[28.02250510700003,37.909166483000035],[28.024232674000075,37.90462703900016],[28.025501350000013,37.90364578500066],[28.028452591000075,37.90025632800007],[28.029705583252223,37.89608725305652],[28.02998000000025,37.896000000000186],[28.03095000000019,37.89621000000034],[28.031090000000063,37.896160000000066],[28.031270000000234,37.89593000000059],[28.03187000000014,37.895820000000185],[28.03222000000011,37.89549000000005],[28.032410000000198,37.89564000000007],[28.033010000000104,37.89575000000008],[28.03379000000018,37.895660000000305],[28.034270000000106,37.89555000000041],[28.034390000000087,37.89544000000018],[28.03472000000022,37.89543000000043],[28.034990000000164,37.895570000000134],[28.035200000000145,37.89543000000043],[28.03553000000005,37.8957400000005],[28.03661000000011,37.89629000000053],[28.03714294679486,37.89626645893668],[28.03671834700009,37.89753002700019],[28.04106237300016,37.90494105200008],[28.040517709000028,37.916583218000085],[28.040352495000036,37.91667336800009],[28.036449212000093,37.91550499800019],[28.036397066000063,37.91561045000003],[28.037376891000008,37.91869339100015],[28.035984790000043,37.919337057999996]]],"type":"Polygon"}},{"type":"Feature","properties":{"area_id":"TR-09-011-144291","name_tr":"Koçak","area_level":"neighbourhood","parent_id":"TR-09-011","endeksa_id":144291},"geometry":{"coordinates":[[[28.034423047000075,37.92413623200025],[28.03383165000008,37.92481100000066],[28.03012783300011,37.92390031900004],[28.02973868800018,37.92433348800023],[28.02956274800016,37.924355899000034],[28.028147255000192,37.92344403200053],[28.026313927000047,37.92449526500002],[28.026273508000145,37.924588259000075],[28.02683423000019,37.92650644000025],[28.019937482000103,37.92630587700012],[28.019765799000027,37.927694078000286],[28.02044040700008,37.92803685000058],[28.020484056000043,37.92814812800037],[28.019635735999998,37.928745742000615],[28.019052977,37.93345783000041],[28.01917164100007,37.93455795500006],[28.019105928000045,37.93464326000026],[28.017619440000146,37.93354864500037],[28.016470126000115,37.93346681400044],[28.016229920000114,37.933604834000164],[28.016026156000123,37.93343489600011],[28.01477954900014,37.929250208999974],[28.01451702000014,37.9285957300001],[28.01085426700007,37.926440883000055],[28.006791370000087,37.92795745100017],[27.990759260000118,37.92732624100017],[27.99791145000006,37.919476991000124],[27.996189860000072,37.916453601000114],[27.999799280000104,37.91379814000004],[28.00127220000013,37.90913613000009],[28.00615092999999,37.9066822100001],[28.010015210000176,37.906084520000206],[28.011677830000053,37.90759626000005],[28.015233280000075,37.90702350000009],[28.020412957000133,37.908656232],[28.02034176800015,37.90868177599998],[28.02035415100005,37.9087949110002],[28.032911644000137,37.92066261000008],[28.033070105000036,37.92068472300008],[28.035984790000043,37.919337057999996],[28.036541260000092,37.92171941000015],[28.034423047000075,37.92413623200025]]],"type":"Polygon"}},{"type":"Feature","properties":{"area_id":"TR-09-011-144275","name_tr":"Gündoğan","area_level":"neighbourhood","parent_id":"TR-09-011","endeksa_id":144275},"geometry":{"coordinates":[[[28.05385445200011,37.936177422000185],[28.053241339000124,37.93608451400013],[28.04472138200009,37.9367385380001],[28.038663962000044,37.937945420999995],[28.036529332000157,37.935371317000545],[28.038061822000145,37.93118345199997],[28.034503249000124,37.93014840700005],[28.035559344000035,37.926095806000205],[28.034423047000075,37.92413623200025],[28.036541260000092,37.92171941000015],[28.035984790000043,37.919337057999996],[28.037376891000008,37.91869339100015],[28.036397066000063,37.91561045000003],[28.036449212000093,37.91550499800019],[28.040352495000036,37.91667336800009],[28.040517709000028,37.916583218000085],[28.040569985000104,37.91673869200031],[28.04120083500004,37.91695921899998],[28.041582982000136,37.917957158000036],[28.0424702090001,37.91846207300017],[28.042538366000144,37.91858218900052],[28.04229309499999,37.91897528400011],[28.04288897900011,37.92154113800029],[28.043494599000155,37.92316929500009],[28.04694505500015,37.92316644200048],[28.04775087500002,37.92412322700051],[28.047569049000117,37.92548675200044],[28.047138224000093,37.92575474200004],[28.047397305999993,37.926730745999976],[28.04709384900002,37.92891962700003],[28.047895144000165,37.92957063500006],[28.04776261100011,37.929658718000155],[28.046989534000033,37.929482632000145],[28.046863797000185,37.929525187000536],[28.046878010000057,37.93078911300012],[28.049467735000178,37.931246949000354],[28.050751862000084,37.93401265800048],[28.05286471100004,37.933693683000115],[28.05289965800017,37.93378896800027],[28.052434884000093,37.935215502000176],[28.05376230000013,37.936044549000144],[28.05385445200011,37.936177422000185]]],"type":"Polygon"}},{"type":"Feature","properties":{"area_id":"TR-09-011-144301","name_tr":"Uzundere","area_level":"neighbourhood","parent_id":"TR-09-011","endeksa_id":144301},"geometry":{"coordinates":[[[28.077165423000054,37.93866018099999],[28.07663558000013,37.93858449800007],[28.06756979200003,37.940616187000046],[28.06399753200003,37.943662681000546],[28.062402871000188,37.94448749200012],[28.06110465488905,37.94543404066695],[28.06069024100003,37.941307173000155],[28.058469758000058,37.941117178000695],[28.05864575900017,37.936959609000155],[28.05385445200011,37.936177422000185],[28.05376230000013,37.936044549000144],[28.052434884000093,37.935215502000176],[28.05289965800017,37.93378896800027],[28.05286471100004,37.933693683000115],[28.050751862000084,37.93401265800048],[28.049467735000178,37.931246949000354],[28.046878010000057,37.93078911300012],[28.046863797000185,37.929525187000536],[28.046989534000033,37.929482632000145],[28.04776261100011,37.929658718000155],[28.047895144000165,37.92957063500006],[28.04709384900002,37.92891962700003],[28.047397305999993,37.926730745999976],[28.047138224000093,37.92575474200004],[28.047569049000117,37.92548675200044],[28.04775087500002,37.92412322700051],[28.04694505500015,37.92316644200048],[28.043494599000155,37.92316929500009],[28.04288897900011,37.92154113800029],[28.04229309499999,37.91897528400011],[28.042538366000144,37.91858218900052],[28.0424702090001,37.91846207300017],[28.042646745000127,37.91843628900017],[28.04330201099998,37.917463887],[28.041403279999997,37.91560843100012],[28.0435960640001,37.91076487000004],[28.0468530980001,37.91064198999999],[28.051831237000158,37.90864027800046],[28.051977478000083,37.908715031000156],[28.052893000000154,37.91183794],[28.057031213000187,37.91140440900028],[28.0613680080001,37.912424592000036],[28.065184509999995,37.91463890500006],[28.06535956500005,37.914617331000045],[28.06528569200003,37.914697658000364],[28.069969842000035,37.91741769600003],[28.073274508000054,37.91616244500017],[28.074980280000148,37.917124437000155],[28.07784728400003,37.92204292499997],[28.077795727000137,37.92557749700006],[28.07596146200018,37.92757441400033],[28.078472680999994,37.92839976400023],[28.077127631999986,37.92924554800004],[28.077206643000068,37.92934867500014],[28.07793195400012,37.92949876800003],[28.077600250000046,37.93028636400004],[28.07812296100019,37.929884703000084],[28.078310641000087,37.929970529000116],[28.076550487000134,37.933130985000275],[28.077207522000037,37.936032774000296],[28.08158519700015,37.937022119000176],[28.08167382400012,37.93711907000011],[28.08105368300005,37.93759420500044],[28.07714807100018,37.93847002200016],[28.07706603200006,37.938569627000675],[28.077165423000054,37.93866018099999]]],"type":"Polygon"}},{"type":"Feature","properties":{"area_id":"TR-09-011-144281","name_tr":"Karatepe","area_level":"neighbourhood","parent_id":"TR-09-011","endeksa_id":144281},"geometry":{"coordinates":[[[28.10351252000015,37.93831857700019],[28.103128805000097,37.938632312000266],[28.103307040000175,37.939246590000096],[28.099917801000174,37.94125770800042],[28.100582190000182,37.944087311000146],[28.100338048000026,37.94434802800032],[28.100897970000176,37.948339180000175],[28.098542368000153,37.94507007700014],[28.094359514000075,37.94512515100007],[28.092116537000038,37.941363570000476],[28.091619901474417,37.9420205483371],[28.09147722184116,37.9420575628111],[28.09136206860171,37.94198912077485],[28.09166292200007,37.94078800800014],[28.09010479000011,37.941026190000116],[28.08955568000016,37.93885179700004],[28.08281328600009,37.93958691300014],[28.077165423000054,37.93866018099999],[28.07706603200006,37.938569627000675],[28.07714807100018,37.93847002200016],[28.08105368300005,37.93759420500044],[28.08167382400012,37.93711907000011],[28.08158519700015,37.937022119000176],[28.077207522000037,37.936032774000296],[28.076550487000134,37.933130985000275],[28.078310641000087,37.929970529000116],[28.07812296100019,37.929884703000084],[28.077600250000046,37.93028636400004],[28.07793195400012,37.92949876800003],[28.077206643000068,37.92934867500014],[28.077127631999986,37.92924554800004],[28.078472680999994,37.92839976400023],[28.07596146200018,37.92757441400033],[28.077795727000137,37.92557749700006],[28.07784728400003,37.92204292499997],[28.074980280000148,37.917124437000155],[28.073274508000054,37.91616244500017],[28.069969842000035,37.91741769600003],[28.06528569200003,37.914697658000364],[28.070026980000137,37.90952487900006],[28.06716986000015,37.90595778000005],[28.073007950000033,37.90337852000016],[28.07106723000004,37.900456600000666],[28.072688022000193,37.89941919400013],[28.067822410000133,37.89565227999998],[28.069168572000137,37.894967719000135],[28.068813310000053,37.892826442000114],[28.070581849999996,37.89256064000034],[28.069463170000176,37.888008700000114],[28.072072210000044,37.885006621000684],[28.07814469000016,37.88630646100023],[28.07852982000003,37.88877842000039],[28.080050685000174,37.88870420000029],[28.07986932,37.887178581000626],[28.082328780000125,37.88750149000043],[28.08423088000012,37.888531990000104],[28.083587822000027,37.89066083200004],[28.086334520000094,37.88937519100011],[28.087683120000122,37.89149795999998],[28.086069150000185,37.89382257900007],[28.08797186000004,37.89478962000038],[28.085527318000118,37.90066116700012],[28.087626020000187,37.9056808000002],[28.083511649000002,37.90854107300015],[28.083450298000173,37.90901822100005],[28.082813200000032,37.91001989100016],[28.08469405700015,37.91520491400041],[28.0866596030001,37.91918868800019],[28.087220253000112,37.92215358700025],[28.088154994999968,37.92454817200007],[28.08871886300011,37.925070789000074],[28.08930262700011,37.92747332800013],[28.09971326700014,37.935594388000084],[28.099920168000097,37.93558881200033],[28.10005605100008,37.93560395200052],[28.103508307000084,37.9381773880001],[28.10351252000015,37.93831857700019]]],"type":"Polygon"}},{"type":"Feature","properties":{"area_id":"TR-09-011-144279","name_tr":"Ilıdağ","area_level":"neighbourhood","parent_id":"TR-09-011","endeksa_id":144279},"geometry":{"coordinates":[[[28.06110465488905,37.94543404066695],[28.056013271000154,37.9484260750005],[28.054403256000057,37.94999523200039],[28.051823340000112,37.95085719400015],[28.044860997000058,37.954896121000615],[28.04429964800005,37.954840019000414],[28.04315018800014,37.955674191000185],[28.04301113600019,37.955674191000185],[28.042957350000165,37.95557483500011],[28.043061439000155,37.95509228600008],[28.042971293000164,37.95499716500012],[28.037294432000067,37.954278028000545],[28.032242183000108,37.95007491500013],[28.028952213000025,37.95055391800025],[28.02844749100018,37.947572611000226],[28.02670412000009,37.946517643000334],[28.02744753000013,37.943922732000146],[28.02326804400019,37.943630893000034],[28.023886657000105,37.938383846000136],[28.019262013000116,37.9352321650004],[28.019105928000045,37.93464326000026],[28.01917164100007,37.93455795500006],[28.019052977,37.93345783000041],[28.019635735999998,37.928745742000615],[28.020484056000043,37.92814812800037],[28.02044040700008,37.92803685000058],[28.019765799000027,37.927694078000286],[28.019937482000103,37.92630587700012],[28.02683423000019,37.92650644000025],[28.026273508000145,37.924588259000075],[28.026313927000047,37.92449526500002],[28.028147255000192,37.92344403200053],[28.02956274800016,37.924355899000034],[28.02973868800018,37.92433348800023],[28.03012783300011,37.92390031900004],[28.03383165000008,37.92481100000066],[28.034423047000075,37.92413623200025],[28.035559344000035,37.926095806000205],[28.034503249000124,37.93014840700005],[28.038061822000145,37.93118345199997],[28.036529332000157,37.935371317000545],[28.038663962000044,37.937945420999995],[28.04472138200009,37.9367385380001],[28.053241339000124,37.93608451400013],[28.05385445200011,37.936177422000185],[28.05864575900017,37.936959609000155],[28.058469758000058,37.941117178000695],[28.06069024100003,37.941307173000155],[28.06110465488905,37.94543404066695]]],"type":"Polygon"}},{"type":"Feature","properties":{"area_id":"TR-09-011-144287","name_tr":"Kızılcaköy","area_level":"neighbourhood","parent_id":"TR-09-011","endeksa_id":144287},"geometry":{"coordinates":[[[28.129535814000178,37.97640362200019],[28.12364851200016,37.97688029000034],[28.123314133999997,37.976896299000146],[28.123001730000112,37.976786806000064],[28.12300089700011,37.9766502690004],[28.115829700000177,37.9710176990003],[28.10738628400003,37.97024712800004],[28.104144807000125,37.96826038200015],[28.104196320000028,37.968235280000386],[28.098985312000025,37.96640126300025],[28.09853287800007,37.965611588],[28.09602832500002,37.96534815600006],[28.093928651000056,37.96304494900005],[28.093803248000086,37.96312194400008],[28.093605360000026,37.96292247200063],[28.091070123000122,37.964800028000184],[28.087851459000092,37.9643800310007],[28.087006710000082,37.962810578000074],[28.087738948000094,37.96210925600013],[28.08764571200004,37.961961331000055],[28.087921227000038,37.961949246000074],[28.089971625000032,37.96010108000024],[28.08932430100009,37.95684108200015],[28.100649109000074,37.94871464900007],[28.100482154000076,37.948481970000046],[28.10054170000018,37.94831477500003],[28.100985913000102,37.94847298000002],[28.100659089000033,37.94800733400007],[28.100897970000176,37.948339180000175],[28.100338048000026,37.94434802800032],[28.100582190000182,37.944087311000146],[28.099917801000174,37.94125770800042],[28.103307040000175,37.939246590000096],[28.103128805000097,37.938632312000266],[28.10351252000015,37.93831857700019],[28.10366998100011,37.93830063400003],[28.10406647500008,37.93859254500012],[28.105119275000106,37.93791691200005],[28.10526616100003,37.937917525000046],[28.10728946400019,37.940603970000154],[28.108682284000167,37.93987154600012],[28.10934816600019,37.93920713700015],[28.112426997000114,37.941406918000155],[28.11569509000003,37.944663804000186],[28.118338908000112,37.950011889999985],[28.12386124600016,37.95351094100005],[28.12817703900015,37.9535304530001],[28.12846069900013,37.95354430500032],[28.128670961000125,37.95374754300008],[28.12932880800014,37.95926926100043],[28.131533042000058,37.961716675000105],[28.130856236,37.965727303999984],[28.126978740000027,37.966958405000696],[28.126443832000177,37.97175435600059],[28.129599338000105,37.97608865600006],[28.129646368000124,37.97632223900007],[28.129535814000178,37.97640362200019]]],"type":"Polygon"}},{"type":"Feature","properties":{"area_id":"TR-09-011-144293","name_tr":"Menteşeler","area_level":"neighbourhood","parent_id":"TR-09-011","endeksa_id":144293},"geometry":{"coordinates":[[[28.104144807000125,37.96826038200015],[28.097879618000036,37.97132021100009],[28.095741520000047,37.97578651000043],[28.093795588000148,37.975542319000056],[28.093668729000058,37.975601024000184],[28.094105326000033,37.976310434000084],[28.094020109000155,37.97657522900005],[28.094585560000155,37.97785779000003],[28.094141296000146,37.97786123200018],[28.094071756000062,37.97794361600006],[28.094130186000086,37.978034076000085],[28.093717632000107,37.97784274300011],[28.08941813100006,37.97777837700016],[28.089344778583097,37.9778400000007],[28.08909000000017,37.97798000000023],[28.088700000000074,37.97777000000008],[28.088600000000156,37.97742000000005],[28.088670000000036,37.97705000000019],[28.08794000000006,37.97721000000007],[28.087400000000116,37.97749000000016],[28.086600000000033,37.97772000000003],[28.08661000000012,37.977410000000646],[28.086430000000178,37.97721000000007],[28.086710000000096,37.97695000000027],[28.086340000000177,37.97663000000006],[28.086750000000166,37.97640000000024],[28.086690000000033,37.97621000000015],[28.0868783158744,37.97592257050803],[28.08639000000005,37.97603000000015],[28.08605000000017,37.97598000000028],[28.087150000000065,37.97535000000005],[28.086260000000152,37.975340000000074],[28.086030000000108,37.97506000000021],[28.086220000000196,37.97489000000036],[28.086190000000045,37.9746100000001],[28.085750000000246,37.974370000000135],[28.085780000000057,37.974280000000306],[28.08552000000003,37.97410000000036],[28.085150000000112,37.97449000000063],[28.084450000000118,37.97429000000005],[28.084800000000143,37.974030000000255],[28.084740000000124,37.97381000000013],[28.08500000000015,37.97327000000007],[28.08499000000006,37.97316000000018],[28.08472000000006,37.972920000000045],[28.085260000000176,37.97286000000008],[28.086010000000044,37.97263000000021],[28.0856100000002,37.97243000000071],[28.085410000000138,37.97179000000034],[28.085080000000232,37.971710000000144],[28.085070000000087,37.97141000000016],[28.084450000000118,37.97144000000037],[28.084590000000162,37.97120000000041],[28.084580000000244,37.97102000000007],[28.08447000000018,37.970810000000256],[28.08444000000003,37.970440000000224],[28.084210000000155,37.97043000000008],[28.084330000000136,37.969790000000046],[28.084520000000055,37.969510000000696],[28.084580000000244,37.968680000000234],[28.084020000000066,37.96810000000005],[28.083310000000154,37.96777000000026],[28.08321000000018,37.968150000000435],[28.082790000000102,37.968060000000094],[28.082160000000215,37.96807000000024],[28.082260000000133,37.96781000000004],[28.08221000000009,37.967620000000124],[28.082400000000177,37.96747000000033],[28.082160000000215,37.967370000000415],[28.082280000000196,37.96667000000019],[28.08221990253128,37.96622995986593],[28.08222927186148,37.96610232942351],[28.08236397400003,37.966037332999974],[28.083097062000093,37.96515302300003],[28.084868863000054,37.961724651000054],[28.08764571200004,37.961961331000055],[28.087738948000094,37.96210925600013],[28.087006710000082,37.962810578000074],[28.087851459000092,37.9643800310007],[28.091070123000122,37.964800028000184],[28.093605360000026,37.96292247200063],[28.093803248000086,37.96312194400008],[28.093928651000056,37.96304494900005],[28.09602832500002,37.96534815600006],[28.09853287800007,37.965611588],[28.098985312000025,37.96640126300025],[28.104196320000028,37.968235280000386],[28.104144807000125,37.96826038200015]]],"type":"Polygon"}},{"type":"Feature","properties":{"area_id":"TR-09-011-144283","name_tr":"Ketenyeri","area_level":"neighbourhood","parent_id":"TR-09-011","endeksa_id":144283},"geometry":{"coordinates":[[[28.123001730000112,37.976786806000064],[28.122930958000097,37.97693838600003],[28.112131306000038,37.979569814000115],[28.10520779100017,37.97827552400014],[28.097533632000136,37.98104532399998],[28.09739489500015,37.981015900000216],[28.09713965300017,37.98068125500015],[28.096950685000138,37.98075240600008],[28.096987405000164,37.980436967],[28.095937828000103,37.97893618000012],[28.094130186000086,37.978034076000085],[28.094071756000062,37.97794361600006],[28.094141296000146,37.97786123200018],[28.094585560000155,37.97785779000003],[28.094020109000155,37.97657522900005],[28.094105326000033,37.976310434000084],[28.093668729000058,37.975601024000184],[28.093795588000148,37.975542319000056],[28.095741520000047,37.97578651000043],[28.097879618000036,37.97132021100009],[28.104144807000125,37.96826038200015],[28.10738628400003,37.97024712800004],[28.115829700000177,37.9710176990003],[28.12300089700011,37.9766502690004],[28.123001730000112,37.976786806000064]]],"type":"Polygon"}},{"type":"Feature","properties":{"area_id":"TR-09-011-144257","name_tr":"Akçaköy","area_level":"neighbourhood","parent_id":"TR-09-011","endeksa_id":144257},"geometry":{"coordinates":[[[28.042957350000165,37.95557483500011],[28.042878689000133,37.95587262300023],[28.042213047000132,37.95636353800012],[28.04237712000014,37.95821719200069],[28.050136938000037,37.96093226800008],[28.0487088430001,37.96352906000004],[28.050029144000177,37.96464153000022],[28.041508413000088,37.96862027300017],[28.03395645700016,37.991748077000466],[28.03476927100013,37.99517046100016],[28.034891988000027,37.99520947600007],[28.036835848000123,37.99487140200034],[28.03696968800017,37.994942171000105],[28.035508591000166,37.99635293500012],[28.037543654000046,38.00216081500031],[28.034209115000124,38.00553273500009],[28.03407813000001,38.00556415400007],[28.03398337300007,38.00548267300036],[28.033117400000094,38.001961700000265],[28.02907230300019,38.00078151900004],[28.028534080000156,38.00149853500022],[28.026983114000075,38.00132310900045],[28.026597400000128,38.00099980000061],[28.025916500000108,38.00077330000016],[28.02457250000009,37.99998060000013],[28.023645963000092,37.999652351000236],[28.02211150000005,37.998464500000125],[28.02187768100015,37.998536225000066],[28.021233603000155,37.99843453200009],[28.02100505900006,37.998325599000054],[28.020772400000112,37.99801140000011],[28.02025676700015,37.99795017100007],[28.019177659000036,37.997403814999984],[28.017640736000146,37.99502530600029],[28.018233000000123,37.994082500000104],[28.01798712700014,37.99362815100005],[28.01907682200016,37.98939012500006],[28.01829260000011,37.98205070000006],[28.01186600000017,37.981176500000174],[28.01100754600003,37.98124183700003],[28.010295077000137,37.98117745200011],[28.010043916000086,37.98089360100016],[28.009982000000093,37.98049550000013],[28.009397600000057,37.98069720000012],[28.008795400000167,37.981256500000086],[28.007117522000044,37.98114705000023],[28.007669400000054,37.980257300000176],[28.007637300000056,37.9796738],[28.007927400000085,37.97891150000004],[28.008002000000033,37.978067000000294],[28.008205900000064,37.977711800000066],[28.008409700000186,37.977018300000054],[28.009386099999972,37.976071100000354],[28.009640500000103,37.975349800000174],[28.009654300000136,37.97503090000026],[28.009332400000176,37.974557300000185],[28.00937530000016,37.97406250000006],[28.009552400000075,37.973720000000185],[28.00947730000007,37.97347470000011],[28.009530900000073,37.97313220000001],[28.009799100000066,37.97274319999997],[28.009992200000056,37.97212570000005],[28.01003015300006,37.971579866000184],[28.009929732000046,37.97084069700003],[28.010067513000138,37.96980042800021],[28.010051200000134,37.969524999999976],[28.009768301000065,37.96943620000013],[28.008658526000033,37.968066993000036],[28.008538500000043,37.96779950000007],[28.007862248000038,37.96708456800002],[28.00780110000011,37.96635540000045],[28.007372294000163,37.96578476600013],[28.005990683000164,37.96454566700004],[28.00490493700005,37.95937704000005],[28.009952687000066,37.957076237000024],[28.01142383700011,37.95432387699998],[28.01132815400007,37.953771380000035],[28.012118444000123,37.95324372900018],[28.013544111000044,37.95094199400006],[28.016276870000127,37.94836032000012],[28.014724057000137,37.94087516000002],[28.016186029000153,37.937977122000234],[28.013570169000047,37.9351903200004],[28.016026156000123,37.93343489600011],[28.016229920000114,37.933604834000164],[28.016470126000115,37.93346681400044],[28.017619440000146,37.93354864500037],[28.019105928000045,37.93464326000026],[28.019262013000116,37.9352321650004],[28.023886657000105,37.938383846000136],[28.02326804400019,37.943630893000034],[28.02744753000013,37.943922732000146],[28.02670412000009,37.946517643000334],[28.02844749100018,37.947572611000226],[28.028952213000025,37.95055391800025],[28.032242183000108,37.95007491500013],[28.037294432000067,37.954278028000545],[28.042971293000164,37.95499716500012],[28.043061439000155,37.95509228600008],[28.042957350000165,37.95557483500011]]],"type":"Polygon"}},{"type":"Feature","properties":{"area_id":"TR-09-011-144267","name_tr":"Cumayanı","area_level":"neighbourhood","parent_id":"TR-09-011","endeksa_id":144267},"geometry":{"coordinates":[[[28.129535814000178,37.97640362200019],[28.12967268000017,37.97639254100039],[28.13315265700004,37.99394046800023],[28.134964522000132,37.99737778300033],[28.139623690000178,38.00518137000006],[28.138401707000014,38.00962288500011],[28.13834210100009,38.00948579700014],[28.123909010000034,38.0064103200001],[28.12294461000016,38.00439093000017],[28.116338370000165,38.00183981000066],[28.11220466000009,37.997213821000116],[28.108657650000055,37.99604994000015],[28.105192394000028,37.99054863900017],[28.105429220000076,37.98927027200017],[28.10120519000003,37.98479001000038],[28.098587053000188,37.987017527000035],[28.097592445000146,37.987075382000114],[28.097162158000174,37.98758067700027],[28.096856549000165,37.988289586000064],[28.096824557000048,37.988186120000535],[28.096695163000163,37.98816456800017],[28.096183370000176,37.988734390000104],[28.09591215100005,37.98653358500013],[28.096950685000138,37.98075240600008],[28.09713965300017,37.98068125500015],[28.09739489500015,37.981015900000216],[28.097533632000136,37.98104532399998],[28.10520779100017,37.97827552400014],[28.112131306000038,37.979569814000115],[28.122930958000097,37.97693838600003],[28.123001730000112,37.976786806000064],[28.123314133999997,37.976896299000146],[28.12364851200016,37.97688029000034],[28.129535814000178,37.97640362200019]]],"type":"Polygon"}},{"type":"Feature","properties":{"area_id":"TR-09-011-144273","name_tr":"Gökkiriş","area_level":"neighbourhood","parent_id":"TR-09-011","endeksa_id":144273},"geometry":{"coordinates":[[[28.073522266632153,38.02659924651164],[28.072878800000183,38.0266692000007],[28.07133576800004,38.02726681700017],[28.067685039000082,38.02806646300007],[28.06607700000012,38.02828640000007],[28.059818155000187,38.030859024999984],[28.05508010000011,38.03210400000006],[28.05387800000011,38.03338410000015],[28.053854696000144,38.0343217260006],[28.053526489999967,38.035337733000006],[28.053204092000158,38.035730688000115],[28.051746744000184,38.03564994000004],[28.05043580800009,38.035312920000365],[28.044105724000133,38.032483921000505],[28.045327968000038,38.03199111800018],[28.04638463200007,38.03127396100058],[28.047071245000097,38.030550254000104],[28.047690242999977,38.029544628000224],[28.048070690000145,38.029085443000156],[28.043110852999973,38.026853998000036],[28.043032207000067,38.02675060400014],[28.048047490000158,38.017877990000045],[28.047688617000063,38.01462852600008],[28.05051854700008,38.00708862800013],[28.050788618000126,37.997078985000144],[28.05234438800005,37.99544522500048],[28.051947290000044,37.98464521500057],[28.05324756900012,37.979892006000114],[28.064944623000144,37.97186905200016],[28.06535009100014,37.96984477500024],[28.067216551,37.96705652100013],[28.078831752048302,37.965994477346726],[28.079440000000034,37.96653000000015],[28.079530000000204,37.966760000000534],[28.079490000000078,37.967220000000225],[28.080180000000155,37.968180000000075],[28.080210000000136,37.968270000000416],[28.079970000000174,37.96841000000063],[28.080090000000155,37.96864000000011],[28.080370000000073,37.96906000000041],[28.080590000000143,37.969140000000095],[28.08078000000006,37.96937000000048],[28.080860000000087,37.9697000000001],[28.080810000000042,37.969940000000065],[28.080740000000105,37.97008000000028],[28.080420000000117,37.96999000000062],[28.079810000000066,37.969330000000184],[28.079310000000078,37.969760000000065],[28.078840000000127,37.96999000000062],[28.078970000000197,37.970070000000135],[28.079100000000153,37.97033000000033],[28.079440000000034,37.97133000000065],[28.079760000000192,37.97173000000038],[28.080090000000155,37.97193000000004],[28.079030000000046,37.97175000000004],[28.078540000000146,37.97136000000029],[28.078450000000203,37.970990000000256],[28.07816000000014,37.971120000000326],[28.07763000000017,37.97092000000015],[28.077680000000043,37.97127000000012],[28.07790000000017,37.97180000000009],[28.07856000000004,37.972260000000176],[28.078410000000076,37.97252000000037],[28.078600000000165,37.97277000000042],[28.078520000000083,37.972920000000045],[28.07856000000004,37.97305000000017],[28.07908000000009,37.97343000000035],[28.07905000000011,37.973530000000096],[28.07920000000007,37.97389000000004],[28.07939000000016,37.97413000000017],[28.079460000000097,37.974370000000135],[28.07887000000011,37.974930000000086],[28.079340000000116,37.975420000000156],[28.07979000000023,37.97567000000021],[28.079810000000066,37.97588000000053],[28.0802300000002,37.9761100000004],[28.080410000000143,37.97633000000013],[28.080330000000117,37.97678000000042],[28.080120000000136,37.97683000000029],[28.080120000000136,37.97709000000032],[28.080510000000118,37.97721000000007],[28.081070000000068,37.976980000000594],[28.081460000000163,37.9778400000007],[28.081450000000075,37.977970000000084],[28.08110000000005,37.97813000000053],[28.081170000000157,37.97826000000009],[28.08128000000005,37.97836000000041],[28.081610000000182,37.978370000000496],[28.081910000000107,37.97852000000012],[28.08190000000019,37.97875000000067],[28.08202000000017,37.97888000000006],[28.082390000000032,37.978890000000206],[28.082420000000184,37.97928000000047],[28.082560000000058,37.97959000000054],[28.08156000000008,37.979390000000365],[28.08085000000017,37.980140000000574],[28.080870000000232,37.98040000000009],[28.08122000000003,37.98100000000068],[28.080890000000068,37.980940000000146],[28.080860000000087,37.98146000000037],[28.080700000000206,37.98161000000016],[28.0804500000001,37.98152000000039],[28.0802300000002,37.98164000000037],[28.08007000000009,37.981870000000185],[28.079900000000066,37.981840000000034],[28.079460000000097,37.98230000000024],[28.079310000000078,37.98273000000029],[28.079140000000052,37.982700000000136],[28.07889000000017,37.982830000000035],[28.07868000000019,37.98279000000031],[28.078100000000177,37.983330000000194],[28.07806000000005,37.98356000000007],[28.077870000000132,37.98378000000048],[28.07785000000007,37.98409000000004],[28.07818000000003,37.98459000000071],[28.07815000000005,37.98559000000034],[28.07825000000014,37.98577000000029],[28.079030000000046,37.98611000000017],[28.079130000000134,37.98624000000012],[28.079240000000198,37.98616000000004],[28.07930000000016,37.98678000000018],[28.07890000000009,37.98685000000012],[28.07871000000017,37.986800000000244],[28.078190000000177,37.98694000000046],[28.077870000000132,37.98736000000042],[28.07682000000011,37.98812000000004],[28.074890000000153,37.98867000000007],[28.074850000000197,37.98919000000046],[28.07512000000014,37.98941000000019],[28.075340000000097,37.98997000000037],[28.07570000000021,37.99032000000017],[28.07496000000009,37.99108000000052],[28.07475000000011,37.99151000000006],[28.075060000000178,37.992280000000335],[28.075060000000178,37.992530000000045],[28.074700000000064,37.99320000000006],[28.074580000000083,37.99387000000007],[28.074210000000164,37.9949500000003],[28.072510000000193,37.99590000000018],[28.072510000000193,37.9964200000004],[28.072720000000174,37.99688000000009],[28.072280000000035,37.998440000000414],[28.07214000000016,38.000580000000696],[28.071320000000185,38.00375000000008],[28.07174000000009,38.00757000000067],[28.071690000000046,38.00890000000004],[28.07224000000008,38.01051000000024],[28.073060000000055,38.012510000000134],[28.072940000000074,38.01285000000041],[28.072560000000067,38.013410000000704],[28.07150000000013,38.01355000000024],[28.07130000000012,38.01371000000012],[28.07131000000004,38.014330000000086],[28.071510000000103,38.01491000000033],[28.071360000000084,38.015010000000245],[28.069900000000075,38.014710000000264],[28.06960000000015,38.015320000000315],[28.069670000000087,38.015640000000474],[28.070360000000164,38.016410000000235],[28.070580000000064,38.01702000000029],[28.07159000000013,38.0176900000003],[28.072130000000243,38.018700000000194],[28.07224000000008,38.01968000000011],[28.071970000000135,38.02066000000019],[28.074140000000057,38.022950000000094],[28.073950000000195,38.02395000000024],[28.073140000000137,38.02529000000027],[28.072810000000175,38.02626000000026],[28.07331274708963,38.02619646006639],[28.073210539633124,38.02631532862159],[28.07321939081544,38.026457594348756],[28.073522266632153,38.02659924651164]]],"type":"Polygon"}},{"type":"Feature","properties":{"area_id":"TR-09-011-144255","name_tr":"Ahatlar","area_level":"neighbourhood","parent_id":"TR-09-011","endeksa_id":144255},"geometry":{"coordinates":[[[28.096856549000165,37.988289586000064],[28.096712110000055,37.98861537200003],[28.09609644000011,37.989141690000054],[28.096930818000033,37.99241652600011],[28.101216199000135,37.99549897100013],[28.10011624300006,37.99861955400013],[28.099897559000112,38.00118882100003],[28.099353133000136,38.00353956700019],[28.099533378000046,38.00549128400013],[28.09980272100006,38.0060094330006],[28.105484897000167,38.00946439100011],[28.103268383000113,38.01190624100036],[28.10482013800015,38.019386635000046],[28.102811664000058,38.0278373810001],[28.100229430000127,38.03054885500012],[28.099830100000077,38.03038010000006],[28.099604000000056,38.03049830000026],[28.09485905400004,38.02864922500015],[28.09542205200006,38.02790746500057],[28.093004688000065,38.026546306000114],[28.092562848000114,38.027413362999994],[28.090197100000125,38.02559820000005],[28.08734634400014,38.025351361000105],[28.08680785700011,38.02517319900011],[28.08675740100017,38.02530036600024],[28.086478203000183,38.025186804999976],[28.08673392600008,38.02125035400019],[28.086548749808912,38.02083126791223],[28.086508399707725,38.02096382056317],[28.086333972682326,38.020988151215704],[28.085881458983806,38.020603522281306],[28.0857102241838,38.01978879608333],[28.085670000000164,38.0188100000002],[28.085240000000113,38.018520000000194],[28.084740000000124,38.018480000000295],[28.08487000000008,38.018050000000244],[28.085380000000157,38.01793000000026],[28.085580000000164,38.017960000000585],[28.08553000000012,38.01744000000019],[28.084890000000144,38.01711000000006],[28.084510000000137,38.01621000000006],[28.085070000000087,38.015360000000044],[28.085390000000075,38.01462000000009],[28.085560000000157,38.01342000000011],[28.085970000000145,38.01277000000033],[28.08552000000003,38.011890000000164],[28.085150000000112,38.01020000000017],[28.084800000000143,38.00688000000042],[28.084320000000048,38.00549000000052],[28.08314000000007,38.00359000000037],[28.082600000000184,38.00326000000007],[28.082880000000102,38.00218000000024],[28.083310000000154,38.00204000000019],[28.083890000000167,38.00152000000031],[28.08426000000003,38.000610000000336],[28.083680000000186,38.00008000000054],[28.084580000000244,37.99904000000009],[28.084710000000143,37.99762000000021],[28.084080000000085,37.997630000000356],[28.084400000000073,37.99643000000037],[28.084370000000092,37.99597000000011],[28.084550000000206,37.99600000000032],[28.084580000000244,37.995530000000144],[28.085010000000125,37.99360000000013],[28.085240000000113,37.99365000000017],[28.085790000000145,37.993510000000356],[28.08559000000014,37.99313000000035],[28.08534000000003,37.99288000000024],[28.085420000000113,37.99264000000028],[28.08496000000025,37.99255000000011],[28.084890000000144,37.99249000000066],[28.08500000000015,37.99241000000029],[28.084890000000144,37.992310000000145],[28.08518000000015,37.99220000000014],[28.085150000000112,37.99212000000006],[28.085600000000056,37.99204000000037],[28.08596000000017,37.99235000000044],[28.086200000000133,37.99238000000008],[28.086070000000063,37.99213000000003],[28.085760000000164,37.99196000000018],[28.0857400000001,37.99161000000032],[28.085540000000094,37.99100000000033],[28.085320000000195,37.99062000000015],[28.08540000000005,37.990450000000294],[28.085240000000113,37.99043000000006],[28.085080000000232,37.99004000000008],[28.084860000000106,37.989860000000476],[28.084540000000118,37.98975000000007],[28.085980000000063,37.98928000000012],[28.085880000000145,37.988900000000626],[28.085580000000164,37.988680000000215],[28.085420000000113,37.98808000000031],[28.085670000000164,37.988060000000075],[28.085890000000063,37.98753000000028],[28.08596000000017,37.98728000000017],[28.085690000000056,37.98722000000021],[28.086080000000152,37.986490000000174],[28.08646000000016,37.98551000000009],[28.08664000000016,37.98528000000027],[28.08657000000005,37.98495000000014],[28.08698000000004,37.98464000000058],[28.08723000000009,37.98498000000029],[28.087140000000147,37.98516000000029],[28.087340000000154,37.985310000000595],[28.087450000000217,37.98507000000063],[28.087700000000098,37.98486000000031],[28.087960000000123,37.9841100000001],[28.08785000000006,37.98375000000016],[28.087890000000186,37.98365000000041],[28.087710000000186,37.98359000000039],[28.088180000000193,37.98297000000025],[28.088230000000067,37.9827200000002],[28.08807000000013,37.98214000000013],[28.08791000000008,37.98208000000051],[28.087710000000186,37.981830000000286],[28.08763000000016,37.98114000000021],[28.08828000000011,37.98100000000068],[28.088320000000067,37.98055000000039],[28.08819000000011,37.98020000000042],[28.088610000000074,37.97971000000052],[28.088880000000188,37.97926000000024],[28.08881000000008,37.9792300000006],[28.089070000000106,37.978990000000636],[28.089930000000038,37.97863000000018],[28.08980000000014,37.97816000000017],[28.089630000000113,37.97795000000042],[28.089344778583097,37.9778400000007],[28.08941813100006,37.97777837700016],[28.093717632000107,37.97784274300011],[28.094130186000086,37.978034076000085],[28.095937828000103,37.97893618000012],[28.096987405000164,37.980436967],[28.096950685000138,37.98075240600008],[28.09591215100005,37.98653358500013],[28.096183370000176,37.988734390000104],[28.096695163000163,37.98816456800017],[28.096824557000048,37.988186120000535],[28.096856549000165,37.988289586000064]]],"type":"Polygon"}},{"type":"Feature","properties":{"area_id":"TR-09-011-144299","name_tr":"Sarıçam","area_level":"neighbourhood","parent_id":"TR-09-011","endeksa_id":144299},"geometry":{"coordinates":[[[28.141413350999983,38.022459143000106],[28.141140235000137,38.022554522000064],[28.14038150000016,38.02257170000024],[28.139283616000114,38.022990674000084],[28.13595088400001,38.023756748000096],[28.136213597000165,38.02431187000019],[28.134195900000122,38.023966299999984],[28.13349530000005,38.023472500000025],[28.13241360000012,38.023542900000166],[28.131169100000136,38.023813400000165],[28.12801480000013,38.025562900000466],[28.127542700000106,38.025622000000055],[28.127242300000148,38.02554600000013],[28.126845300000184,38.025275500000134],[28.125574000000142,38.024680900000135],[28.124639700000102,38.02466599999997],[28.123054036000156,38.02519686300013],[28.120806307000066,38.024965127000655],[28.119839400000103,38.02448950000047],[28.119388800000138,38.024607800000126],[28.118745100000183,38.02461630000016],[28.118122800000037,38.02451490000044],[28.11761783800017,38.0246364030001],[28.11466050000007,38.02430810000038],[28.108687639000152,38.028040160000444],[28.1079304000001,38.02825880000006],[28.107469100000117,38.02849550000013],[28.10722230000016,38.02870680000018],[28.10725713500011,38.02892054900019],[28.107154878000074,38.02899571600028],[28.10522670000006,38.03012650000005],[28.100450914000135,38.03064245300004],[28.100229430000127,38.03054885500012],[28.102811664000058,38.0278373810001],[28.10482013800015,38.019386635000046],[28.103268383000113,38.01190624100036],[28.105484897000167,38.00946439100011],[28.09980272100006,38.0060094330006],[28.099533378000046,38.00549128400013],[28.099353133000136,38.00353956700019],[28.099897559000112,38.00118882100003],[28.10011624300006,37.99861955400013],[28.101216199000135,37.99549897100013],[28.096930818000033,37.99241652600011],[28.09609644000011,37.989141690000054],[28.096712110000055,37.98861537200003],[28.097162158000174,37.98758067700027],[28.097592445000146,37.987075382000114],[28.098587053000188,37.987017527000035],[28.10120519000003,37.98479001000038],[28.105429220000076,37.98927027200017],[28.105192394000028,37.99054863900017],[28.108657650000055,37.99604994000015],[28.11220466000009,37.997213821000116],[28.116338370000165,38.00183981000066],[28.12294461000016,38.00439093000017],[28.123909010000034,38.0064103200001],[28.13834210100009,38.00948579700014],[28.138401707000014,38.00962288500011],[28.141413350999983,38.022459143000106]]],"type":"Polygon"}},{"type":"Feature","properties":{"area_id":"TR-09-011-144261","name_tr":"Başçayır","area_level":"neighbourhood","parent_id":"TR-09-011","endeksa_id":144261},"geometry":{"coordinates":[[[28.078831752048302,37.965994477346726],[28.067216551,37.96705652100013],[28.06535009100014,37.96984477500024],[28.064944623000144,37.97186905200016],[28.05324756900012,37.979892006000114],[28.051947290000044,37.98464521500057],[28.05234438800005,37.99544522500048],[28.050788618000126,37.997078985000144],[28.05051854700008,38.00708862800013],[28.047688617000063,38.01462852600008],[28.048047490000158,38.017877990000045],[28.043032207000067,38.02675060400014],[28.043110852999973,38.026853998000036],[28.048070690000145,38.029085443000156],[28.047690242999977,38.029544628000224],[28.047071245000097,38.030550254000104],[28.04638463200007,38.03127396100058],[28.045327968000038,38.03199111800018],[28.044105724000133,38.032483921000505],[28.043501533000153,38.03221208900004],[28.043735800000093,38.03063210000016],[28.04260440000013,38.028943900000115],[28.041802137000047,38.02877520900006],[28.039487713000085,38.02524715400045],[28.039708926000174,38.02513929700018],[28.038563124000063,38.02358122700019],[28.038487540000176,38.023714609000024],[28.036475500000165,38.020631600000115],[28.034016480000105,38.011234597000566],[28.03405190000018,38.005761300000586],[28.03398337300007,38.00548267300036],[28.03407813000001,38.00556415400007],[28.034209115000124,38.00553273500009],[28.037543654000046,38.00216081500031],[28.035508591000166,37.99635293500012],[28.03696968800017,37.994942171000105],[28.036835848000123,37.99487140200034],[28.034891988000027,37.99520947600007],[28.03476927100013,37.99517046100016],[28.03395645700016,37.991748077000466],[28.041508413000088,37.96862027300017],[28.050029144000177,37.96464153000022],[28.0487088430001,37.96352906000004],[28.050136938000037,37.96093226800008],[28.04237712000014,37.95821719200069],[28.042213047000132,37.95636353800012],[28.042878689000133,37.95587262300023],[28.042957350000165,37.95557483500011],[28.04301113600019,37.955674191000185],[28.04315018800014,37.955674191000185],[28.04429964800005,37.954840019000414],[28.044860997000058,37.954896121000615],[28.051823340000112,37.95085719400015],[28.054403256000057,37.94999523200039],[28.056013271000154,37.9484260750005],[28.06110465488905,37.94543404066695],[28.062402871000188,37.94448749200012],[28.06399753200003,37.943662681000546],[28.06756979200003,37.940616187000046],[28.07663558000013,37.93858449800007],[28.077165423000054,37.93866018099999],[28.08281328600009,37.93958691300014],[28.08955568000016,37.93885179700004],[28.09010479000011,37.941026190000116],[28.09166292200007,37.94078800800014],[28.09136206860171,37.94198912077485],[28.09147722184116,37.9420575628111],[28.091619901474417,37.9420205483371],[28.092116537000038,37.941363570000476],[28.094359514000075,37.94512515100007],[28.098542368000153,37.94507007700014],[28.100659089000033,37.94800733400007],[28.100985913000102,37.94847298000002],[28.10054170000018,37.94831477500003],[28.100482154000076,37.948481970000046],[28.100649109000074,37.94871464900007],[28.08932430100009,37.95684108200015],[28.089971625000032,37.96010108000024],[28.087921227000038,37.961949246000074],[28.08764571200004,37.961961331000055],[28.084868863000054,37.961724651000054],[28.083097062000093,37.96515302300003],[28.08236397400003,37.966037332999974],[28.08222927186148,37.96610232942351],[28.08221990253128,37.96622995986593],[28.08205000000015,37.96616000000063],[28.081760000000145,37.9662100000005],[28.08156000000008,37.965980000000116],[28.081300000000113,37.96591000000018],[28.081150000000093,37.965760000000216],[28.080740000000105,37.965860000000134],[28.080550000000187,37.96603000000039],[28.08057000000008,37.96565000000038],[28.07930000000016,37.965170000000285],[28.078940000000046,37.964860000000385],[28.078660000000127,37.96478000000013],[28.078520000000083,37.9650900000002],[28.078520000000083,37.96532000000008],[28.07843000000014,37.96529000000004],[28.07843000000014,37.965490000000614],[28.078520000000083,37.96572000000009],[28.078831752048302,37.965994477346726]]],"type":"Polygon"}},{"type":"Feature","properties":{"area_id":"TR-09-011-144285","name_tr":"Kıran","area_level":"neighbourhood","parent_id":"TR-09-011","endeksa_id":144285},"geometry":{"coordinates":[[[28.086478203000183,38.025186804999976],[28.086383261000492,38.02526797000007],[28.083295447521948,38.02500068703148],[28.080533432000266,38.02704568600058],[28.07848912300011,38.02699004100015],[28.077007899470686,38.02622035187704],[28.073522266632153,38.02659924651164],[28.07321939081544,38.026457594348756],[28.073210539633124,38.02631532862159],[28.07331274708963,38.02619646006639],[28.072810000000175,38.02626000000026],[28.073140000000137,38.02529000000027],[28.073950000000195,38.02395000000024],[28.074140000000057,38.022950000000094],[28.071970000000135,38.02066000000019],[28.07224000000008,38.01968000000011],[28.072130000000243,38.018700000000194],[28.07159000000013,38.0176900000003],[28.070580000000064,38.01702000000029],[28.070360000000164,38.016410000000235],[28.069670000000087,38.015640000000474],[28.06960000000015,38.015320000000315],[28.069900000000075,38.014710000000264],[28.071360000000084,38.015010000000245],[28.071510000000103,38.01491000000033],[28.07131000000004,38.014330000000086],[28.07130000000012,38.01371000000012],[28.07150000000013,38.01355000000024],[28.072560000000067,38.013410000000704],[28.072940000000074,38.01285000000041],[28.073060000000055,38.012510000000134],[28.07224000000008,38.01051000000024],[28.071690000000046,38.00890000000004],[28.07174000000009,38.00757000000067],[28.071320000000185,38.00375000000008],[28.07214000000016,38.000580000000696],[28.072280000000035,37.998440000000414],[28.072720000000174,37.99688000000009],[28.072510000000193,37.9964200000004],[28.072510000000193,37.99590000000018],[28.074210000000164,37.9949500000003],[28.074580000000083,37.99387000000007],[28.074700000000064,37.99320000000006],[28.075060000000178,37.992530000000045],[28.075060000000178,37.992280000000335],[28.07475000000011,37.99151000000006],[28.07496000000009,37.99108000000052],[28.07570000000021,37.99032000000017],[28.075340000000097,37.98997000000037],[28.07512000000014,37.98941000000019],[28.074850000000197,37.98919000000046],[28.074890000000153,37.98867000000007],[28.07682000000011,37.98812000000004],[28.077870000000132,37.98736000000042],[28.078190000000177,37.98694000000046],[28.07871000000017,37.986800000000244],[28.07890000000009,37.98685000000012],[28.07930000000016,37.98678000000018],[28.079240000000198,37.98616000000004],[28.079130000000134,37.98624000000012],[28.079030000000046,37.98611000000017],[28.07825000000014,37.98577000000029],[28.07815000000005,37.98559000000034],[28.07818000000003,37.98459000000071],[28.07785000000007,37.98409000000004],[28.077870000000132,37.98378000000048],[28.07806000000005,37.98356000000007],[28.078100000000177,37.983330000000194],[28.07868000000019,37.98279000000031],[28.07889000000017,37.982830000000035],[28.079140000000052,37.982700000000136],[28.079310000000078,37.98273000000029],[28.079460000000097,37.98230000000024],[28.079900000000066,37.981840000000034],[28.08007000000009,37.981870000000185],[28.0802300000002,37.98164000000037],[28.0804500000001,37.98152000000039],[28.080700000000206,37.98161000000016],[28.080860000000087,37.98146000000037],[28.080890000000068,37.980940000000146],[28.08122000000003,37.98100000000068],[28.080870000000232,37.98040000000009],[28.08085000000017,37.980140000000574],[28.08156000000008,37.979390000000365],[28.082560000000058,37.97959000000054],[28.082420000000184,37.97928000000047],[28.082390000000032,37.978890000000206],[28.08202000000017,37.97888000000006],[28.08190000000019,37.97875000000067],[28.081910000000107,37.97852000000012],[28.081610000000182,37.978370000000496],[28.08128000000005,37.97836000000041],[28.081170000000157,37.97826000000009],[28.08110000000005,37.97813000000053],[28.081450000000075,37.977970000000084],[28.081460000000163,37.9778400000007],[28.081070000000068,37.976980000000594],[28.080510000000118,37.97721000000007],[28.080120000000136,37.97709000000032],[28.080120000000136,37.97683000000029],[28.080330000000117,37.97678000000042],[28.080410000000143,37.97633000000013],[28.0802300000002,37.9761100000004],[28.079810000000066,37.97588000000053],[28.07979000000023,37.97567000000021],[28.079340000000116,37.975420000000156],[28.07887000000011,37.974930000000086],[28.079460000000097,37.974370000000135],[28.07939000000016,37.97413000000017],[28.07920000000007,37.97389000000004],[28.07905000000011,37.973530000000096],[28.07908000000009,37.97343000000035],[28.07856000000004,37.97305000000017],[28.078520000000083,37.972920000000045],[28.078600000000165,37.97277000000042],[28.078410000000076,37.97252000000037],[28.07856000000004,37.972260000000176],[28.07790000000017,37.97180000000009],[28.077680000000043,37.97127000000012],[28.07763000000017,37.97092000000015],[28.07816000000014,37.971120000000326],[28.078450000000203,37.970990000000256],[28.078540000000146,37.97136000000029],[28.079030000000046,37.97175000000004],[28.080090000000155,37.97193000000004],[28.079760000000192,37.97173000000038],[28.079440000000034,37.97133000000065],[28.079100000000153,37.97033000000033],[28.078970000000197,37.970070000000135],[28.078840000000127,37.96999000000062],[28.079310000000078,37.969760000000065],[28.079810000000066,37.969330000000184],[28.080420000000117,37.96999000000062],[28.080740000000105,37.97008000000028],[28.080810000000042,37.969940000000065],[28.080860000000087,37.9697000000001],[28.08078000000006,37.96937000000048],[28.080590000000143,37.969140000000095],[28.080370000000073,37.96906000000041],[28.080090000000155,37.96864000000011],[28.079970000000174,37.96841000000063],[28.080210000000136,37.968270000000416],[28.080180000000155,37.968180000000075],[28.079490000000078,37.967220000000225],[28.079530000000204,37.966760000000534],[28.079440000000034,37.96653000000015],[28.078520000000083,37.96572000000009],[28.07843000000014,37.965490000000614],[28.07843000000014,37.96529000000004],[28.078520000000083,37.96532000000008],[28.078520000000083,37.9650900000002],[28.078660000000127,37.96478000000013],[28.078940000000046,37.964860000000385],[28.07930000000016,37.965170000000285],[28.08057000000008,37.96565000000038],[28.080550000000187,37.96603000000039],[28.080740000000105,37.965860000000134],[28.081150000000093,37.965760000000216],[28.081300000000113,37.96591000000018],[28.08156000000008,37.965980000000116],[28.081760000000145,37.9662100000005],[28.08205000000015,37.96616000000063],[28.08221990253128,37.96622995986593],[28.082280000000196,37.96667000000019],[28.082160000000215,37.967370000000415],[28.082400000000177,37.96747000000033],[28.08221000000009,37.967620000000124],[28.082260000000133,37.96781000000004],[28.082160000000215,37.96807000000024],[28.082790000000102,37.968060000000094],[28.08321000000018,37.968150000000435],[28.083310000000154,37.96777000000026],[28.084020000000066,37.96810000000005],[28.084580000000244,37.968680000000234],[28.084520000000055,37.969510000000696],[28.084330000000136,37.969790000000046],[28.084210000000155,37.97043000000008],[28.08444000000003,37.970440000000224],[28.08447000000018,37.970810000000256],[28.084580000000244,37.97102000000007],[28.084590000000162,37.97120000000041],[28.084450000000118,37.97144000000037],[28.085070000000087,37.97141000000016],[28.085080000000232,37.971710000000144],[28.085410000000138,37.97179000000034],[28.0856100000002,37.97243000000071],[28.086010000000044,37.97263000000021],[28.085260000000176,37.97286000000008],[28.08472000000006,37.972920000000045],[28.08499000000006,37.97316000000018],[28.08500000000015,37.97327000000007],[28.084740000000124,37.97381000000013],[28.084800000000143,37.974030000000255],[28.084450000000118,37.97429000000005],[28.085150000000112,37.97449000000063],[28.08552000000003,37.97410000000036],[28.085780000000057,37.974280000000306],[28.085750000000246,37.974370000000135],[28.086190000000045,37.9746100000001],[28.086220000000196,37.97489000000036],[28.086030000000108,37.97506000000021],[28.086260000000152,37.975340000000074],[28.087150000000065,37.97535000000005],[28.08605000000017,37.97598000000028],[28.08639000000005,37.97603000000015],[28.0868783158744,37.97592257050803],[28.086690000000033,37.97621000000015],[28.086750000000166,37.97640000000024],[28.086340000000177,37.97663000000006],[28.086710000000096,37.97695000000027],[28.086430000000178,37.97721000000007],[28.08661000000012,37.977410000000646],[28.086600000000033,37.97772000000003],[28.087400000000116,37.97749000000016],[28.08794000000006,37.97721000000007],[28.088670000000036,37.97705000000019],[28.088600000000156,37.97742000000005],[28.088700000000074,37.97777000000008],[28.08909000000017,37.97798000000023],[28.089344778583097,37.9778400000007],[28.089630000000113,37.97795000000042],[28.08980000000014,37.97816000000017],[28.089930000000038,37.97863000000018],[28.089070000000106,37.978990000000636],[28.08881000000008,37.9792300000006],[28.088880000000188,37.97926000000024],[28.088610000000074,37.97971000000052],[28.08819000000011,37.98020000000042],[28.088320000000067,37.98055000000039],[28.08828000000011,37.98100000000068],[28.08763000000016,37.98114000000021],[28.087710000000186,37.981830000000286],[28.08791000000008,37.98208000000051],[28.08807000000013,37.98214000000013],[28.088230000000067,37.9827200000002],[28.088180000000193,37.98297000000025],[28.087710000000186,37.98359000000039],[28.087890000000186,37.98365000000041],[28.08785000000006,37.98375000000016],[28.087960000000123,37.9841100000001],[28.087700000000098,37.98486000000031],[28.087450000000217,37.98507000000063],[28.087340000000154,37.985310000000595],[28.087140000000147,37.98516000000029],[28.08723000000009,37.98498000000029],[28.08698000000004,37.98464000000058],[28.08657000000005,37.98495000000014],[28.08664000000016,37.98528000000027],[28.08646000000016,37.98551000000009],[28.086080000000152,37.986490000000174],[28.085690000000056,37.98722000000021],[28.08596000000017,37.98728000000017],[28.085890000000063,37.98753000000028],[28.085670000000164,37.988060000000075],[28.085420000000113,37.98808000000031],[28.085580000000164,37.988680000000215],[28.085880000000145,37.988900000000626],[28.085980000000063,37.98928000000012],[28.084540000000118,37.98975000000007],[28.084860000000106,37.989860000000476],[28.085080000000232,37.99004000000008],[28.085240000000113,37.99043000000006],[28.08540000000005,37.990450000000294],[28.085320000000195,37.99062000000015],[28.085540000000094,37.99100000000033],[28.0857400000001,37.99161000000032],[28.085760000000164,37.99196000000018],[28.086070000000063,37.99213000000003],[28.086200000000133,37.99238000000008],[28.08596000000017,37.99235000000044],[28.085600000000056,37.99204000000037],[28.085150000000112,37.99212000000006],[28.08518000000015,37.99220000000014],[28.084890000000144,37.992310000000145],[28.08500000000015,37.99241000000029],[28.084890000000144,37.99249000000066],[28.08496000000025,37.99255000000011],[28.085420000000113,37.99264000000028],[28.08534000000003,37.99288000000024],[28.08559000000014,37.99313000000035],[28.085790000000145,37.993510000000356],[28.085240000000113,37.99365000000017],[28.085010000000125,37.99360000000013],[28.084580000000244,37.995530000000144],[28.084550000000206,37.99600000000032],[28.084370000000092,37.99597000000011],[28.084400000000073,37.99643000000037],[28.084080000000085,37.997630000000356],[28.084710000000143,37.99762000000021],[28.084580000000244,37.99904000000009],[28.083680000000186,38.00008000000054],[28.08426000000003,38.000610000000336],[28.083890000000167,38.00152000000031],[28.083310000000154,38.00204000000019],[28.082880000000102,38.00218000000024],[28.082600000000184,38.00326000000007],[28.08314000000007,38.00359000000037],[28.084320000000048,38.00549000000052],[28.084800000000143,38.00688000000042],[28.085150000000112,38.01020000000017],[28.08552000000003,38.011890000000164],[28.085970000000145,38.01277000000033],[28.085560000000157,38.01342000000011],[28.085390000000075,38.01462000000009],[28.085070000000087,38.015360000000044],[28.084510000000137,38.01621000000006],[28.084890000000144,38.01711000000006],[28.08553000000012,38.01744000000019],[28.085580000000164,38.017960000000585],[28.085380000000157,38.01793000000026],[28.08487000000008,38.018050000000244],[28.084740000000124,38.018480000000295],[28.085240000000113,38.018520000000194],[28.085670000000164,38.0188100000002],[28.0857102241838,38.01978879608333],[28.085881458983806,38.020603522281306],[28.086333972682326,38.020988151215704],[28.086508399707725,38.02096382056317],[28.086548749808912,38.02083126791223],[28.08673392600008,38.02125035400019],[28.086478203000183,38.025186804999976]]],"type":"Polygon"}}]}