{"type":"FeatureCollection","source_id":"endeksa","retrieved_at":"2026-08-23","features":[{"type":"Feature","properties":{"area_id":"TR-07-018-2370","name_tr":"Fener","area_level":"neighbourhood","parent_id":"TR-07-018","endeksa_id":2370},"geometry":{"coordinates":[[[30.764289206000115,36.86134905600005],[30.763773720000074,36.8614860510001],[30.762362177000114,36.861571160000096],[30.761286185000074,36.86155792800042],[30.760283288000153,36.86138941100006],[30.757178449000037,36.86224847],[30.755593357000123,36.862197114000196],[30.755285963999995,36.86205427500005],[30.755285792000166,36.861768353000514],[30.751717375000055,36.86093601300007],[30.7504508990001,36.86033664000013],[30.74925074800018,36.860048530000086],[30.745843975000128,36.86010633400008],[30.74574162100015,36.858366890000184],[30.745868999000038,36.85725086500048],[30.74593523800013,36.85706047800045],[30.747819706000087,36.855229305000194],[30.746864911000046,36.85404360800004],[30.74769138100004,36.85283135100002],[30.748328987872014,36.85057769871071],[30.74955655000008,36.85016933700007],[30.749584453000182,36.850071623000304],[30.749988981000058,36.850002964000396],[30.74999981200017,36.849894194000456],[30.75012202700003,36.849894324000104],[30.75006742800008,36.849972782000066],[30.750808751000193,36.8496872530003],[30.75077625900019,36.84960815500017],[30.750982669000052,36.849422811000125],[30.751009719000137,36.84917506300019],[30.751464088000148,36.84868682000007],[30.752332437000177,36.84837989600004],[30.752490623000085,36.84794180000006],[30.754234636000092,36.84792904900013],[30.755158349,36.84748358600012],[30.75532952800006,36.84749733500047],[30.75638753000004,36.84708008900009],[30.756921777000116,36.84671129900045],[30.757058038000082,36.84627486900007],[30.756876862000183,36.846093102],[30.757011278000107,36.845966997000176],[30.756914273000177,36.84579370600011],[30.7572750220001,36.8457025970003],[30.757792962000167,36.845423170000174],[30.75824705200006,36.84553921700012],[30.75891759900003,36.84554935500023],[30.759663253999975,36.8457851820001],[30.760230437000132,36.84565991000005],[30.760602410000047,36.845861175000095],[30.7603837260001,36.846081536000156],[30.76063237200009,36.846746318000044],[30.761828616999992,36.8471833170006],[30.762383312000168,36.847246081000094],[30.761559316000046,36.84880038500046],[30.761668921000137,36.85176167000043],[30.762408956000172,36.8531656840006],[30.763424173000033,36.85701583100007],[30.763452836,36.85884146200004],[30.764289206000115,36.86134905600005]]],"type":"Polygon"}},{"type":"Feature","properties":{"area_id":"TR-07-018-2361","name_tr":"Çağlayan","area_level":"neighbourhood","parent_id":"TR-07-018","endeksa_id":2361},"geometry":{"coordinates":[[[30.783194714000103,36.850625690000584],[30.783179598999993,36.85075070100004],[30.78361774900003,36.850836120000054],[30.78379643400018,36.85076645800018],[30.78384596600017,36.85086331500008],[30.78328426700017,36.85216706400007],[30.781701617000124,36.859096485000066],[30.78117841300019,36.86089900500019],[30.77981483600007,36.86471886100003],[30.778832437000062,36.8646550090001],[30.77831772800016,36.86448885500005],[30.77586815300009,36.86336740700011],[30.77356433000017,36.86135499300042],[30.77259878000001,36.8603798110002],[30.76856395600015,36.86061367800028],[30.76472542500005,36.862117107000415],[30.764289206000115,36.86134905600005],[30.763452836,36.85884146200004],[30.763424173000033,36.85701583100007],[30.762408956000172,36.8531656840006],[30.761668921000137,36.85176167000043],[30.761559316000046,36.84880038500046],[30.762383312000168,36.847246081000094],[30.763389853000035,36.84712734500005],[30.76339992600009,36.84701284400012],[30.763672864000114,36.847062453000035],[30.763631132,36.84712791700014],[30.764168857000186,36.847137700000644],[30.764587554000116,36.84704395800003],[30.7647303010001,36.84707998400012],[30.76483120400019,36.847251482000104],[30.765106625000158,36.847265888000095],[30.76574624100016,36.847516313000085],[30.76755399800004,36.84747537900006],[30.769034511000086,36.84775505900012],[30.76946054300015,36.847641469000166],[30.770085993000066,36.84762480300003],[30.770298705000073,36.84770542300009],[30.770300414000133,36.84787571700019],[30.77049436400017,36.84799021600048],[30.77151711600004,36.848152772000105],[30.7716786040001,36.848124486000074],[30.771645266000178,36.84804270400002],[30.771754867000084,36.84812669500013],[30.772015947000057,36.84799975000038],[30.772109671000123,36.848177553000085],[30.772362283000064,36.848100223000074],[30.772454684000024,36.84830178900006],[30.772663538000074,36.848334984000076],[30.772766665000177,36.84828682200015],[30.77280433400017,36.848353936000194],[30.773551529000088,36.84840922600051],[30.77382439400003,36.84833130200013],[30.773992520000036,36.84843743500045],[30.774096860000157,36.848333131000345],[30.774301082000193,36.84846065600033],[30.774721159000023,36.84831284600017],[30.77488351800008,36.848402795000425],[30.774889184000187,36.84850820900044],[30.776027807000162,36.848636261000024],[30.776275313000042,36.8485532060007],[30.776403238000057,36.84867491700038],[30.7765679150001,36.84866122700049],[30.776928147000035,36.84901614400013],[30.777464313000166,36.849159971000006],[30.77756011400004,36.84928279200017],[30.777961140000173,36.849283772000035],[30.777890637000098,36.84940768200016],[30.778354121000064,36.84975613800003],[30.778521324000167,36.849795522000136],[30.77858689800007,36.84995999000057],[30.77870051800005,36.849997091000034],[30.778673104000063,36.8500710830001],[30.778926275000174,36.85023078300014],[30.780755142000032,36.850192685000195],[30.78082160700012,36.850083197000004],[30.781275525000012,36.849870482000085],[30.78129055300019,36.8497800560001],[30.78139537800007,36.84983433300039],[30.781365687000005,36.849781365000126],[30.781552082000076,36.84969814200008],[30.781669386000033,36.84976675200039],[30.781657606000124,36.84971096300012],[30.782078675000037,36.849661338000374],[30.783053017000043,36.85059778800007],[30.783194714000103,36.850625690000584]]],"type":"Polygon"}},{"type":"Feature","properties":{"area_id":"TR-07-018-2395","name_tr":"Şirinyalı","area_level":"neighbourhood","parent_id":"TR-07-018","endeksa_id":2395},"geometry":{"coordinates":[[[30.745843975000128,36.86010633400008],[30.745763969000052,36.860490581000306],[30.743549599000175,36.862672935000035],[30.74310031600004,36.86371706300014],[30.739865763000182,36.86563568200012],[30.736375258000123,36.86824898000003],[30.735310815000048,36.86774090000006],[30.730591409000056,36.86602495400018],[30.728257714000108,36.865607276000446],[30.72717994300001,36.86563701900019],[30.72666930000014,36.865398045999996],[30.725825017000034,36.865352943999994],[30.72454258100015,36.865640621000125],[30.72432045300002,36.86551914600011],[30.724391452000134,36.86559018500054],[30.7242352990001,36.86561389200028],[30.724126272000035,36.865264609000064],[30.72401896200006,36.865220457000135],[30.724092682000105,36.86516674800009],[30.72392054300019,36.865130048000026],[30.72403684200009,36.86503562700017],[30.72381298300013,36.8649027300001],[30.724209786000017,36.864764249000416],[30.724632323000094,36.864382320000345],[30.724591393000082,36.86432309900033],[30.724872134000123,36.86425348500006],[30.725375027000098,36.86307121900012],[30.72559726900016,36.86287608000009],[30.725728163000156,36.86248139600008],[30.725952561999975,36.86250371000034],[30.72619769500011,36.86210670100007],[30.726465309000048,36.86195533699998],[30.726486985000065,36.86200849000022],[30.727231241000027,36.8617553900001],[30.72753119400005,36.86122473200021],[30.727494983000156,36.86115248499999],[30.727621984999985,36.861064302000614],[30.72765842100017,36.86115126400017],[30.727867047000018,36.86103079200018],[30.727844255000093,36.860971031000076],[30.728462673000138,36.86067349100034],[30.728436251000062,36.860606972000255],[30.728550847000122,36.86051165800018],[30.72843418200017,36.86027088200069],[30.72852142300019,36.860128878000125],[30.728652263000185,36.860209174000204],[30.728776902000106,36.86013267499999],[30.72884834300004,36.860003295000126],[30.7287145520001,36.85991954600007],[30.728900903000124,36.85990810900006],[30.72922705800005,36.85931743900005],[30.729338708000057,36.858929035000244],[30.729414492000103,36.85897799300005],[30.729468921000034,36.858825512000294],[30.72999523599998,36.858318634000454],[30.730007975999968,36.858203162000166],[30.730110737000075,36.85819102500011],[30.73008304000018,36.85807835100002],[30.73022410499999,36.85806577000017],[30.73048632400014,36.85777605700059],[30.730741745000046,36.85765800500042],[30.73065329600007,36.8576720640001],[30.730658164000147,36.85759454100014],[30.730887114000097,36.857596880000244],[30.732814533000123,36.85677840400001],[30.734733600000027,36.85641999600057],[30.73477863200003,36.856380618000685],[30.734683913000083,36.856325336000054],[30.734829546000128,36.85619377900059],[30.735034789000167,36.85622755500003],[30.735527389000026,36.85591260800015],[30.735552560000087,36.85581896300016],[30.735603641000125,36.85586385600038],[30.73585415399998,36.85569815399998],[30.735846475000187,36.85559908300041],[30.73600648100006,36.85560629700012],[30.736250766000126,36.85545011099998],[30.736252338999975,36.85536048600011],[30.73631697200011,36.855407781000395],[30.73659080900012,36.855226832000255],[30.73659449800016,36.85514391000032],[30.73676248999999,36.85512293500045],[30.736860723000063,36.8549602420004],[30.736957471000096,36.85499827300026],[30.737856876000137,36.85459127400043],[30.737846415000092,36.854501785000025],[30.739314280000144,36.85434815200006],[30.740014021000036,36.85392229600018],[30.74002970000015,36.85381961100012],[30.740131996000116,36.853850483000144],[30.74040906700003,36.85372536800037],[30.740451454000038,36.85360342700017],[30.740533894000123,36.85366418900037],[30.74066823000004,36.853525486000194],[30.74084308200014,36.8535189910001],[30.740914746000044,36.853624871000136],[30.741212176000147,36.85353921600006],[30.741272096000102,36.853590206000376],[30.741149485000165,36.8536656640004],[30.741407509000055,36.85367946800011],[30.741676963000145,36.85382797900024],[30.74198728500005,36.85380380400011],[30.74235977900014,36.85405951300004],[30.74282121100009,36.85412028000036],[30.743278703000158,36.854468842000244],[30.743236082000067,36.85457760400004],[30.743408548000104,36.854742935000274],[30.744253984000068,36.85484722300038],[30.744707674000153,36.85460516600051],[30.74491415199998,36.85401870600015],[30.745349338000153,36.85397746900003],[30.74569964300008,36.853571167000155],[30.74570587900007,36.85344647200003],[30.745592648000184,36.853391076000094],[30.745543756000075,36.85320576100008],[30.745574293000175,36.85288658700051],[30.745732780000083,36.85276274700021],[30.745720498000082,36.85247027200012],[30.74604470500003,36.852183862000004],[30.746571207000045,36.85142526900006],[30.74658591400015,36.85118260300021],[30.746822426000165,36.85106037300022],[30.746740958000146,36.85098429200059],[30.74688359900017,36.850894189000144],[30.747079064000047,36.85106652100001],[30.747463349000157,36.85078692100069],[30.748056209000026,36.85052908800009],[30.748228558000164,36.850496465000106],[30.748328987872014,36.85057769871071],[30.74769138100004,36.85283135100002],[30.746864911000046,36.85404360800004],[30.747819706000087,36.855229305000194],[30.74593523800013,36.85706047800045],[30.745868999000038,36.85725086500048],[30.74574162100015,36.858366890000184],[30.745843975000128,36.86010633400008]]],"type":"Polygon"}},{"type":"Feature","properties":{"area_id":"TR-07-018-2410","name_tr":"Zümrütova","area_level":"neighbourhood","parent_id":"TR-07-018","endeksa_id":2410},"geometry":{"coordinates":[[[30.751707100000033,36.86773455300033],[30.75032353600011,36.86800456500015],[30.743532593000168,36.86816463000048],[30.74059208800014,36.868510565000236],[30.739303689000053,36.86902857800055],[30.73872545000006,36.86898890200047],[30.737519326000097,36.8686839020001],[30.736375258000123,36.86824898000003],[30.739865763000182,36.86563568200012],[30.74310031600004,36.86371706300014],[30.743549599000175,36.862672935000035],[30.745763969000052,36.860490581000306],[30.745843975000128,36.86010633400008],[30.74925074800018,36.860048530000086],[30.7504508990001,36.86033664000013],[30.751717375000055,36.86093601300007],[30.755285792000166,36.861768353000514],[30.755285963999995,36.86205427500005],[30.755593357000123,36.862197114000196],[30.757178449000037,36.86224847],[30.760283288000153,36.86138941100006],[30.761286185000074,36.86155792800042],[30.762362177000114,36.861571160000096],[30.763773720000074,36.8614860510001],[30.764289206000115,36.86134905600005],[30.76472542500005,36.862117107000415],[30.76342453200016,36.86266777000009],[30.759114919000183,36.86491006700004],[30.75384577900013,36.86728398200012],[30.751707100000033,36.86773455300033]]],"type":"Polygon"}},{"type":"Feature","properties":{"area_id":"TR-07-018-2403","name_tr":"Yeşilbahçe","area_level":"neighbourhood","parent_id":"TR-07-018","endeksa_id":2403},"geometry":{"coordinates":[[[30.73044598900009,36.873792091999974],[30.72816686400006,36.87544997100014],[30.72776519000007,36.87507819200016],[30.72599546800018,36.87487613400015],[30.724470765000035,36.87455918100011],[30.723370999000167,36.874585447000186],[30.722148039000047,36.87486811700046],[30.72103534500019,36.87478379400068],[30.719786820000024,36.87443077000006],[30.7189525820001,36.87396152600013],[30.71843531200011,36.87348878900019],[30.71675436400011,36.87375064000014],[30.716863908000107,36.87281958000034],[30.716639085000054,36.87202855600026],[30.716533932000175,36.87199755900008],[30.71671397200015,36.871829337000065],[30.716923634000068,36.87131244900007],[30.71686664000015,36.87124517600046],[30.716995276000148,36.87113582700056],[30.717226292000078,36.870566295000685],[30.717167417999974,36.870547728000304],[30.717250794000165,36.87046883100044],[30.717167234000158,36.87040806200014],[30.717307978000065,36.87036491000009],[30.7175801570001,36.86969389800004],[30.717495065000037,36.86960592600036],[30.717628230000116,36.869575382000676],[30.71786666700001,36.86898755400017],[30.718243145000088,36.86843609700014],[30.718170514000008,36.868320510000046],[30.718215093000083,36.868170662000125],[30.718460706000087,36.868117417000065],[30.7188189310001,36.86750381800016],[30.71892554600015,36.86757165500018],[30.718999623000173,36.86751804300036],[30.718963036000048,36.86744347400014],[30.719151724000028,36.867457335000154],[30.719607027000166,36.86721997500007],[30.719632839000155,36.867115034000676],[30.71988287100004,36.867076171000065],[30.71993090900014,36.86696995600022],[30.721478577000084,36.86662592800053],[30.721542355000054,36.86660155500056],[30.721501262999993,36.8665252130001],[30.721724835000032,36.866568007000126],[30.72193021600009,36.866464938000036],[30.722087606000116,36.86648563000011],[30.722119920000125,36.86636466600004],[30.72242307800019,36.86628443100011],[30.722361869000167,36.866215420000174],[30.722419936999984,36.866188935000025],[30.722624248000102,36.86633006500011],[30.72278434500015,36.86632512600033],[30.723731103000148,36.86610700400058],[30.7242352990001,36.86561389200028],[30.724391452000134,36.86559018500054],[30.72432045300002,36.86551914600011],[30.72454258100015,36.865640621000125],[30.725825017000034,36.865352943999994],[30.72666930000014,36.865398045999996],[30.72717994300001,36.86563701900019],[30.728257714000108,36.865607276000446],[30.730591409000056,36.86602495400018],[30.735310815000048,36.86774090000006],[30.736375258000123,36.86824898000003],[30.73449956600018,36.86995143600035],[30.733410080999988,36.870751171000165],[30.73044598900009,36.873792091999974]]],"type":"Polygon"}},{"type":"Feature","properties":{"area_id":"TR-07-018-2375","name_tr":"Güzeloba","area_level":"neighbourhood","parent_id":"TR-07-018","endeksa_id":2375},"geometry":{"coordinates":[[[30.851330573641576,36.87707806601588],[30.85126465980011,36.8772108604374],[30.851080837000097,36.87721740800009],[30.849796943000115,36.87628346700018],[30.849051545000066,36.875916075000305],[30.84823701900018,36.87571048200061],[30.845509665000122,36.87614970200036],[30.84482457100006,36.87643737000036],[30.84351184899998,36.87721917700014],[30.842769325000006,36.87734624500018],[30.84231211900004,36.87727790500003],[30.838337845000183,36.87526267200019],[30.83704249400006,36.8747244570003],[30.836383925000177,36.87437275000042],[30.83617229500004,36.87392567900014],[30.835942627000065,36.871565440000154],[30.835209270000064,36.86950600099999],[30.834806877000062,36.86891827800031],[30.8325151840001,36.86817443400008],[30.831239831000175,36.868023970000024],[30.829838166000116,36.868181466000124],[30.828772847000153,36.86818255100013],[30.826641893000044,36.86797346600065],[30.826226615000166,36.86782936400027],[30.826032617000067,36.86762946200025],[30.82599096600012,36.8673207440001],[30.826294313000062,36.866862182000034],[30.82681881800005,36.86640635000015],[30.82670793000011,36.865908721000096],[30.82616636000006,36.86459753600002],[30.82249445200017,36.862202851000404],[30.821029931000055,36.86173696600014],[30.818523417000108,36.86177152300024],[30.815174442000057,36.86162954000031],[30.814227472000027,36.865586669000095],[30.809487200000035,36.862349125000605],[30.808492507999972,36.86177054299998],[30.807576350000033,36.861630361000095],[30.80673860600018,36.861850297000046],[30.806193329999985,36.862179602000026],[30.805104027000027,36.86384046000012],[30.80408487809717,36.866140122566605],[30.798271022000165,36.866336403000105],[30.796886930000028,36.86608263100061],[30.79579349700009,36.8679133900003],[30.794437903000187,36.86738159999999],[30.790516810000042,36.867129551000005],[30.785270621000166,36.86792061100027],[30.782473818000142,36.867598075000046],[30.781003002000148,36.86706620300009],[30.779294501000095,36.86613150000011],[30.77981483600007,36.86471886100003],[30.78117841300019,36.86089900500019],[30.781701617000124,36.859096485000066],[30.78328426700017,36.85216706400007],[30.78384596600017,36.85086331500008],[30.78379643400018,36.85076645800018],[30.78361774900003,36.850836120000054],[30.783179598999993,36.85075070100004],[30.783194714000103,36.850625690000584],[30.78423094500016,36.85082221300041],[30.785436544000163,36.85144011900002],[30.786569933000067,36.85167412800047],[30.786582597000006,36.85152503000006],[30.786667150000028,36.8516794570001],[30.786975711000025,36.85175789300001],[30.787158542000157,36.851707741000496],[30.787197613000103,36.8518002940001],[30.787375260000147,36.851840371000094],[30.787362165000047,36.85177397300015],[30.788544562000084,36.85261013500019],[30.790303970000025,36.85258557800006],[30.79040361200009,36.85248997000065],[30.79095737100016,36.852575748000106],[30.791846695000174,36.85225908500013],[30.79189039199997,36.85216469700015],[30.792062229000067,36.85218233900014],[30.794278380000037,36.85139323100009],[30.794295712000064,36.85132235900005],[30.79432893000012,36.851375232000066],[30.79463765899999,36.85126530300016],[30.795125506000147,36.85100594100015],[30.79553740900019,36.85039585800007],[30.79567409700013,36.85038683800036],[30.795757815000172,36.850242102000095],[30.796036813000114,36.85013109199997],[30.796438374000047,36.84970050100014],[30.796451991000026,36.84960759900014],[30.79604925800004,36.84926248300013],[30.79604698000003,36.84914986300009],[30.795800522000036,36.84884604700051],[30.795717337000156,36.84839246400037],[30.795942453000123,36.84890998100013],[30.79663106800018,36.84882065900018],[30.79666101600003,36.84889705900014],[30.796824806000075,36.84890676500038],[30.797656887000073,36.84868906000003],[30.798067723000145,36.84838483800013],[30.798035822000088,36.84816427200013],[30.798546373000136,36.847987829000374],[30.798933948000126,36.84773833200006],[30.799099668000167,36.84755539400021],[30.799096860000134,36.84706532399997],[30.79883780200015,36.84690187400014],[30.79907874400004,36.84678401999997],[30.799090368000122,36.84593231600002],[30.798964339000065,36.84591795600011],[30.798822483000038,36.84575400500029],[30.798878055000046,36.84570678000006],[30.798783815000036,36.845700201000454],[30.798996484000156,36.84545188300069],[30.798908551000068,36.84540561000017],[30.79920140400003,36.84531894200012],[30.799764764000145,36.84548832500019],[30.800119175000077,36.8460300240003],[30.800123091000046,36.84619039000006],[30.799838269000077,36.84628332000011],[30.799713516000168,36.846471375000135],[30.79984183900018,36.84692061900017],[30.801938155000073,36.84761962700014],[30.804284873000086,36.84736077500054],[30.80493934400016,36.84712539100025],[30.80521552900018,36.84666603700043],[30.805077958000084,36.846557915000005],[30.80517122300006,36.846364455000526],[30.80708689000005,36.84643346200011],[30.80740402300006,36.84663134600049],[30.80755167200016,36.846598806000145],[30.807626764000133,36.846676198000296],[30.808815541000172,36.84688557400057],[30.814059480000026,36.84696614700022],[30.826480362000098,36.848032689000036],[30.8316752770001,36.84858320799998],[30.83358092600014,36.84900304000007],[30.850059644000055,36.85037342600032],[30.859633292000126,36.851544074],[30.86666637100018,36.85198947000009],[30.86673678545634,36.8522139474195],[30.86779663900012,36.85231007300024],[30.868122379000056,36.852894259000436],[30.868201178999982,36.85337458300006],[30.868085238000106,36.85403026400019],[30.86791572300018,36.85425114500026],[30.866910422000046,36.85496697600007],[30.86653543717142,36.85586549520701],[30.866380920000097,36.856498656000326],[30.864886938823815,36.85612860511651],[30.863743545000148,36.856437106000385],[30.863274460000127,36.85641490100005],[30.862750182540992,36.85650580120671],[30.861602008000148,36.85712421700066],[30.860708348565822,36.85776353442827],[30.8599533933276,36.85863278883295],[30.85968542100011,36.85916749199998],[30.8598271410562,36.859870477427194],[30.860318202146118,36.860372832384996],[30.86061482081942,36.86054326806891],[30.861162416000184,36.86065132300064],[30.861631428000067,36.86095964800012],[30.862098733855248,36.86141660846198],[30.863237050000066,36.861941598000044],[30.863809435168093,36.86202565201444],[30.864540182885207,36.8619201583457],[30.864930098000173,36.86157710100014],[30.865884800999993,36.861066071000494],[30.867008101000067,36.860814291999986],[30.867170120000026,36.860816773000295],[30.867195818000027,36.86089029300069],[30.86718750300014,36.86124693800008],[30.86686980400009,36.861919353000076],[30.866570974000012,36.86232137100012],[30.86546259866259,36.86313186158691],[30.863189041000055,36.865342188],[30.862312111810525,36.8659965887972],[30.86116005600013,36.8674109490002],[30.860784583000054,36.867311049000136],[30.86047810200006,36.867472510000084],[30.86038195200007,36.86790937900008],[30.860648326000103,36.86815964300018],[30.859653247334734,36.869193436740034],[30.859157217000075,36.870167947000084],[30.858691824000005,36.870532622000155],[30.858620835000124,36.87087356000012],[30.85924568400003,36.87171777800012],[30.859358935000046,36.87266558100015],[30.859799325000097,36.87304124800005],[30.85999014000015,36.873041002000036],[30.860057732000087,36.87316717500005],[30.8599273640001,36.87403521400006],[30.859201207000183,36.874947562000045],[30.85908282400004,36.87490307700051],[30.859001212714702,36.874640702110014],[30.858589291000158,36.87467903600003],[30.85797261300013,36.874402034000354],[30.857596317693208,36.874062940417446],[30.85723899124497,36.87399510517588],[30.856436890000168,36.87453495500006],[30.855797141024027,36.87460171529051],[30.85532993000004,36.87483449299998],[30.85429923659086,36.875091720692296],[30.85304949077664,36.87572572233603],[30.85285002100011,36.87595828999997],[30.852394830000037,36.87612327400012],[30.851840895000123,36.87617084000016],[30.851219441000183,36.87602752900011],[30.850820390285946,36.87577744070745],[30.850336063468546,36.87560852034267],[30.849953442000185,36.875613509000175],[30.850005455000144,36.87582368600039],[30.850500491000048,36.87629871299998],[30.85105997800008,36.87648302800005],[30.850975715000118,36.876667177000456],[30.851264731000015,36.8768450390001],[30.851330573641576,36.87707806601588]]],"type":"Polygon"}},{"type":"Feature","properties":{"area_id":"TR-07-018-2379","name_tr":"Kırcami","area_level":"neighbourhood","parent_id":"TR-07-018","endeksa_id":2379},"geometry":{"coordinates":[[[30.751707100000033,36.86773455300033],[30.751856150000094,36.869583332000445],[30.751636735000147,36.871261329000106],[30.751352204000113,36.875496616000135],[30.751640025000086,36.879169558000115],[30.74815851400001,36.878844472000026],[30.74659199600012,36.879012785000555],[30.743095331000063,36.878876176000176],[30.741256642000053,36.87863866500015],[30.739871439000126,36.87823703100014],[30.739076164000153,36.878251594000005],[30.736843883000063,36.87861030300047],[30.73365462900017,36.875386418999994],[30.73044598900009,36.873792091999974],[30.733410080999988,36.870751171000165],[30.73449956600018,36.86995143600035],[30.736375258000123,36.86824898000003],[30.737519326000097,36.8686839020001],[30.73872545000006,36.86898890200047],[30.739303689000053,36.86902857800055],[30.74059208800014,36.868510565000236],[30.743532593000168,36.86816463000048],[30.75032353600011,36.86800456500015],[30.751707100000033,36.86773455300033]]],"type":"Polygon"}},{"type":"Feature","properties":{"area_id":"TR-07-018-2372","name_tr":"Gençlik","area_level":"neighbourhood","parent_id":"TR-07-018","endeksa_id":2372},"geometry":{"coordinates":[[[30.712876292000033,36.87818747500012],[30.712100473000078,36.87858832100011],[30.71139780300018,36.879711052000175],[30.7110038510001,36.87995307900019],[30.710688658000038,36.88028142400009],[30.709000461000073,36.879843953000034],[30.705243428000188,36.87782531400012],[30.705366943000172,36.87775849900015],[30.705285627000023,36.87769770800037],[30.705565879999995,36.87756793400047],[30.705697921000024,36.87728166700032],[30.705779601000188,36.87729520700037],[30.705987784000115,36.87702954700006],[30.70599342900016,36.87685099700002],[30.706105152000077,36.87687977600001],[30.706370148000133,36.876561679000076],[30.706331176000106,36.876501175000044],[30.70643420900018,36.87648434199997],[30.70712769800008,36.87566924800058],[30.70749361700007,36.875467107000134],[30.707670905000043,36.874735199000156],[30.7078224010001,36.87473333000008],[30.70917652800017,36.8740576240001],[30.70953628400008,36.87419275900004],[30.709650320000094,36.874110663000124],[30.709654788000137,36.87422818600004],[30.710549700000115,36.87421882600012],[30.710637714000086,36.874155223000116],[30.711135332000026,36.874219496000705],[30.711402383000006,36.87412902200015],[30.711559834000184,36.87421700500005],[30.712671332000127,36.87420996000009],[30.713756081999975,36.87383682400031],[30.71444332900012,36.87320519600013],[30.714490989000126,36.87324850200048],[30.71562158100005,36.872768771000665],[30.71564729700009,36.87266181000007],[30.71585344500005,36.87267038699997],[30.715800469000158,36.87261042800009],[30.715862101000084,36.872484808000024],[30.716072798000027,36.872468219000666],[30.71643888200009,36.87208584700011],[30.716436068000064,36.87197584300043],[30.716639085000054,36.87202855600026],[30.716863908000107,36.87281958000034],[30.71675436400011,36.87375064000014],[30.71843531200011,36.87348878900019],[30.717945997000186,36.87500027700003],[30.717341164000175,36.875053063000166],[30.716158866000058,36.87553562700009],[30.71577487700017,36.87603410400021],[30.714433374000066,36.875744595000185],[30.71302359100008,36.87808037500014],[30.712876292000033,36.87818747500012]]],"type":"Polygon"}},{"type":"Feature","properties":{"area_id":"TR-07-018-2376","name_tr":"Güzeloluk","area_level":"neighbourhood","parent_id":"TR-07-018","endeksa_id":2376},"geometry":{"coordinates":[[[30.777806739000084,36.88241345900019],[30.774522637000132,36.88271003600016],[30.77331693100001,36.88238791500004],[30.77148260700011,36.882416967000154],[30.770259952000117,36.882726354000056],[30.769438618000038,36.88241802800013],[30.767009881999968,36.88188595300011],[30.765322896000043,36.881726706000165],[30.76408049900016,36.881867380000074],[30.76161678800014,36.88113303500012],[30.75908712800009,36.880088349000005],[30.758351341000093,36.879860712000095],[30.754914618000043,36.879439973000046],[30.75379025900014,36.87962613800005],[30.752661413,36.87950479400013],[30.751640025000086,36.879169558000115],[30.751352204000113,36.875496616000135],[30.751636735000147,36.871261329000106],[30.751856150000094,36.869583332000445],[30.751707100000033,36.86773455300033],[30.75384577900013,36.86728398200012],[30.759114919000183,36.86491006700004],[30.76342453200016,36.86266777000009],[30.76472542500005,36.862117107000415],[30.76856395600015,36.86061367800028],[30.77259878000001,36.8603798110002],[30.77356433000017,36.86135499300042],[30.77586815300009,36.86336740700011],[30.77831772800016,36.86448885500005],[30.778832437000062,36.8646550090001],[30.77981483600007,36.86471886100003],[30.779293518000088,36.86613096200011],[30.778557912000167,36.86857166800007],[30.777942866000046,36.87035035400049],[30.77788284700017,36.87313846400008],[30.777487916999974,36.87359832500056],[30.776666189000025,36.8737840080002],[30.77637571200006,36.874001596000085],[30.776215541000056,36.874227162000125],[30.77619598900003,36.87479085900014],[30.776286630000186,36.87528202100009],[30.77700918300019,36.87842063200014],[30.77673605500013,36.879924133000145],[30.77699794300014,36.88119321200003],[30.777806739000084,36.88241345900019]]],"type":"Polygon"}},{"type":"Feature","properties":{"area_id":"TR-07-018-2378","name_tr":"Kılınçarslan","area_level":"neighbourhood","parent_id":"TR-07-018","endeksa_id":2378},"geometry":{"coordinates":[[[30.705794590000096,36.88395950300003],[30.705548271000055,36.884111670000095],[30.702782869000032,36.88316207400004],[30.702798905000122,36.88304667700004],[30.702714369999967,36.88302930200007],[30.702811388000043,36.88291709100048],[30.702711281000177,36.8828148660001],[30.702789216000156,36.88275132700062],[30.702625424000075,36.88262614600012],[30.702625123000132,36.88247026200037],[30.70271985800008,36.88240392600005],[30.702651772000138,36.882318725000175],[30.70285247300012,36.88230942500047],[30.70281149700014,36.882244791999995],[30.70290869700017,36.88216767600005],[30.70289377000006,36.881919915000026],[30.703081842000188,36.88140641400008],[30.702985060000174,36.881355302000486],[30.703136302000075,36.88127704200008],[30.703082646000098,36.88123307700005],[30.703231765000055,36.881050267000205],[30.70310475400015,36.88095271500015],[30.70324429300007,36.88087979900013],[30.703165461000083,36.88072347800011],[30.703307266000024,36.88077490500018],[30.703372578000085,36.88068080300019],[30.703266556000187,36.88061655700005],[30.703303902000073,36.880530734000104],[30.703406662000077,36.88060581600047],[30.703491506000148,36.88055191400008],[30.703585733000068,36.88061088900008],[30.70648355600008,36.880621191000046],[30.70803413600015,36.88162181600069],[30.709139906000132,36.88286746900013],[30.709229171000175,36.88333838699998],[30.708953662,36.883359136000195],[30.708531795,36.883545872000184],[30.708350994000057,36.8837602720007],[30.708092704000023,36.8838778460003],[30.707998001000078,36.88369110900004],[30.70806687700008,36.883642695000106],[30.70769667400009,36.882978744000184],[30.707386733000135,36.8829856590001],[30.706973471000026,36.88309631100003],[30.705794590000096,36.88395950300003]]],"type":"Polygon"}},{"type":"Feature","properties":{"area_id":"TR-07-018-2363","name_tr":"Demircikara","area_level":"neighbourhood","parent_id":"TR-07-018","endeksa_id":2363},"geometry":{"coordinates":[[[30.722040098000093,36.883645521000176],[30.721577528000182,36.883553483000014],[30.71867764600006,36.884228286000166],[30.718264563000105,36.882164624000154],[30.717658519000054,36.879980594000074],[30.71761328900004,36.87591916600047],[30.717945997000186,36.87500027700003],[30.71843531200011,36.87348878900019],[30.7189525820001,36.87396152600013],[30.719786820000024,36.87443077000006],[30.72103534500019,36.87478379400068],[30.722148039000047,36.87486811700046],[30.723370999000167,36.874585447000186],[30.724470765000035,36.87455918100011],[30.72599546800018,36.87487613400015],[30.72776519000007,36.87507819200016],[30.72816686400006,36.87544997100014],[30.726699148000137,36.87666152900016],[30.72499511500007,36.877906499000176],[30.72440095900015,36.879581792000295],[30.72269891400009,36.880775467000205],[30.723141862000148,36.88281236100016],[30.721589886000174,36.883547627999974],[30.722040098000093,36.883645521000176]]],"type":"Polygon"}},{"type":"Feature","properties":{"area_id":"TR-07-018-2377","name_tr":"Haşimişcan","area_level":"neighbourhood","parent_id":"TR-07-018","endeksa_id":2377},"geometry":{"coordinates":[[[30.710688658000038,36.88028142400009],[30.710159515000043,36.88215240900013],[30.71031705900009,36.882567214000574],[30.71068465100018,36.88298904900057],[30.711122289000116,36.88412097100007],[30.711157306000075,36.884444380000105],[30.710798497000155,36.885576318000176],[30.71029086300007,36.88561147900066],[30.709013938000055,36.88517808000006],[30.709211959000186,36.88474236400009],[30.709229171000175,36.88333838699998],[30.709139906000132,36.88286746900013],[30.70803413600015,36.88162181600069],[30.70648355600008,36.880621191000046],[30.703585733000068,36.88061088900008],[30.703491506000148,36.88055191400008],[30.703423180000186,36.88057237300063],[30.703496453000128,36.880489943000384],[30.703370921000044,36.880378050000274],[30.70346821200019,36.880345937000186],[30.703266720000045,36.880267835000154],[30.703421095000124,36.880222767000305],[30.703453726000077,36.88011174200062],[30.703593951000187,36.88011361499997],[30.70351119000003,36.88001769000016],[30.70369408100015,36.87985769000056],[30.703751538000176,36.87971186200008],[30.70367389600017,36.87965809700012],[30.703768870000033,36.879673292000405],[30.704081007000184,36.879075230000126],[30.704049005000172,36.878854817000274],[30.704195095000046,36.87888503800019],[30.704150853999977,36.87883078500005],[30.704284407000102,36.87877107100013],[30.70458184900002,36.87834460300019],[30.704499007000095,36.87832050500015],[30.70456581600007,36.87821559200023],[30.704656216000046,36.87823797800013],[30.70480157000003,36.87802957300005],[30.705170371000065,36.87795165700015],[30.705243428000188,36.87782531400012],[30.709000461000073,36.879843953000034],[30.710688658000038,36.88028142400009]]],"type":"Polygon"}},{"type":"Feature","properties":{"area_id":"TR-07-018-2409","name_tr":"Zerdalilik","area_level":"neighbourhood","parent_id":"TR-07-018","endeksa_id":2409},"geometry":{"coordinates":[[[30.71867764600006,36.884228286000166],[30.717834256999993,36.88438540000004],[30.716964247000135,36.884956998000064],[30.715905765000116,36.88583213200053],[30.71520622900016,36.88616630500002],[30.714340846000084,36.88624190999997],[30.71335329500016,36.885786698000175],[30.71352874400003,36.88533167800051],[30.714100303000123,36.87863217000006],[30.713407877000066,36.878473807000546],[30.712876292000033,36.87818747500012],[30.71302359100008,36.87808037500014],[30.714433374000066,36.875744595000185],[30.71577487700017,36.87603410400021],[30.716158866000058,36.87553562700009],[30.717341164000175,36.875053063000166],[30.717945997000186,36.87500027700003],[30.71761328900004,36.87591916600047],[30.717658519000054,36.879980594000074],[30.718264563000105,36.882164624000154],[30.71867764600006,36.884228286000166]]],"type":"Polygon"}},{"type":"Feature","properties":{"area_id":"TR-07-018-2359","name_tr":"Barbaros","area_level":"neighbourhood","parent_id":"TR-07-018","endeksa_id":2359},"geometry":{"coordinates":[[[30.709013938000055,36.88517808000006],[30.708046854000145,36.88657292400018],[30.707081563000088,36.88620675499999],[30.706849181000052,36.88597700500003],[30.70655424299997,36.88553904100053],[30.706438067000136,36.88502928500009],[30.705794590000096,36.88395950300003],[30.706973471000026,36.88309631100003],[30.707386733000135,36.8829856590001],[30.70769667400009,36.882978744000184],[30.70806687700008,36.883642695000106],[30.707998001000078,36.88369110900004],[30.708092704000023,36.8838778460003],[30.708350994000057,36.8837602720007],[30.708531795,36.883545872000184],[30.708953662,36.883359136000195],[30.709229171000175,36.88333838699998],[30.709211959000186,36.88474236400009],[30.709013938000055,36.88517808000006]]],"type":"Polygon"}},{"type":"Feature","properties":{"area_id":"TR-07-018-2392","name_tr":"Selçuk","area_level":"neighbourhood","parent_id":"TR-07-018","endeksa_id":2392},"geometry":{"coordinates":[[[30.70558576600007,36.887083008000104],[30.704502109000032,36.887291886000185],[30.701650129000143,36.88650455800007],[30.70133535600013,36.88639746600023],[30.701179490000186,36.88522319400005],[30.70106310800014,36.885041991000435],[30.700770483000156,36.88493574900019],[30.700669003000144,36.88500032300004],[30.70057963400012,36.88486094400014],[30.701126017000092,36.88489482900019],[30.70113190600017,36.88440648500011],[30.70136446400005,36.88432401600045],[30.701442895000014,36.88443618900004],[30.701604260000124,36.88441901800013],[30.701906049000172,36.884546090000526],[30.70161646500003,36.884527072000196],[30.701452331000098,36.884915067000236],[30.702150026000027,36.88514045900041],[30.702692743000057,36.88503587600019],[30.703120565999996,36.884650103000695],[30.703029228000105,36.88398999100008],[30.702744891000123,36.88373991499998],[30.702368226000146,36.88356929100007],[30.70217976800018,36.88356860600015],[30.701536742000087,36.88390489800008],[30.70131854500005,36.88384130900039],[30.701414370000066,36.883647913000004],[30.701840959000094,36.88343995200012],[30.702062217000105,36.88334853400056],[30.702542907000122,36.88341417700008],[30.702723525000124,36.883313863000126],[30.702782869000032,36.88316207400004],[30.705548271000055,36.884111670000095],[30.705642620000162,36.88417230600015],[30.705416157000172,36.88466873700014],[30.705279678000124,36.88544318700008],[30.70575329900015,36.88680088100011],[30.70558576600007,36.887083008000104]]],"type":"Polygon"}},{"type":"Feature","properties":{"area_id":"TR-07-018-2399","name_tr":"Tuzcular","area_level":"neighbourhood","parent_id":"TR-07-018","endeksa_id":2399},"geometry":{"coordinates":[[[30.708046854000145,36.88657292400018],[30.70749391300012,36.88736501300008],[30.705905564000034,36.88704235300003],[30.70558576600007,36.887083008000104],[30.70575329900015,36.88680088100011],[30.705279678000124,36.88544318700008],[30.705416157000172,36.88466873700014],[30.705642620000162,36.88417230600015],[30.705548271000055,36.884111670000095],[30.705794590000096,36.88395950300003],[30.706438067000136,36.88502928500009],[30.70655424299997,36.88553904100053],[30.706849181000052,36.88597700500003],[30.707081563000088,36.88620675499999],[30.708046854000145,36.88657292400018]]],"type":"Polygon"}},{"type":"Feature","properties":{"area_id":"TR-07-018-2368","name_tr":"Ermenek","area_level":"neighbourhood","parent_id":"TR-07-018","endeksa_id":2368},"geometry":{"coordinates":[[[30.842816834000132,36.887152192000144],[30.83343652100018,36.88830093399997],[30.83281209300003,36.8874304490007],[30.83125994600016,36.88092642300012],[30.83107089500004,36.87740433200025],[30.831253683000057,36.87616699400019],[30.831006709000064,36.875911384000176],[30.829944036000143,36.875599226000645],[30.825552321000146,36.87503547300008],[30.81490974799999,36.87421584000003],[30.8141194910001,36.8742644670001],[30.813418742000124,36.87459255300007],[30.81347486100003,36.86889531600036],[30.803699235000124,36.867415056000084],[30.80408487809717,36.866140122566605],[30.805104027000027,36.86384046000012],[30.806193329999985,36.862179602000026],[30.80673860600018,36.861850297000046],[30.807576350000033,36.861630361000095],[30.808492507999972,36.86177054299998],[30.809487200000035,36.862349125000605],[30.814227472000027,36.865586669000095],[30.815174442000057,36.86162954000031],[30.818523417000108,36.86177152300024],[30.821029931000055,36.86173696600014],[30.82249445200017,36.862202851000404],[30.82616636000006,36.86459753600002],[30.82670793000011,36.865908721000096],[30.82681881800005,36.86640635000015],[30.826294313000062,36.866862182000034],[30.82599096600012,36.8673207440001],[30.826032617000067,36.86762946200025],[30.826226615000166,36.86782936400027],[30.826641893000044,36.86797346600065],[30.828772847000153,36.86818255100013],[30.829838166000116,36.868181466000124],[30.831239831000175,36.868023970000024],[30.8325151840001,36.86817443400008],[30.834806877000062,36.86891827800031],[30.835209270000064,36.86950600099999],[30.835942627000065,36.871565440000154],[30.83617229500004,36.87392567900014],[30.836383925000177,36.87437275000042],[30.83704249400006,36.8747244570003],[30.838337845000183,36.87526267200019],[30.84231211900004,36.87727790500003],[30.842769325000006,36.87734624500018],[30.84351184899998,36.87721917700014],[30.84482457100006,36.87643737000036],[30.845509665000122,36.87614970200036],[30.84823701900018,36.87571048200061],[30.849051545000066,36.875916075000305],[30.849796943000115,36.87628346700018],[30.851080837000097,36.87721740800009],[30.85126465980011,36.8772108604374],[30.851330573641576,36.87707806601588],[30.85199025925209,36.87723898202671],[30.85209216123883,36.8832339299035],[30.85224881991229,36.88352741867652],[30.85313656800008,36.88429042399997],[30.851789205999978,36.88529659000045],[30.851493253000115,36.88542031100047],[30.851175151000064,36.885429506000435],[30.850812990000065,36.8853418220001],[30.847780913094255,36.883200701393605],[30.8476740226443,36.88329660356408],[30.847547539000118,36.88383333300044],[30.845011964716264,36.88552071786199],[30.843407522000177,36.88707932900007],[30.842816834000132,36.887152192000144]]],"type":"Polygon"}},{"type":"Feature","properties":{"area_id":"TR-07-018-2357","name_tr":"Bahçelievler","area_level":"neighbourhood","parent_id":"TR-07-018","endeksa_id":2357},"geometry":{"coordinates":[[[30.691551708000077,36.883739199000104],[30.691229528000065,36.88687728700023],[30.690562375000013,36.886829820000116],[30.690331089999972,36.888352501999975],[30.68929638700007,36.88822097100007],[30.68265118100004,36.88715093400003],[30.677874039000187,36.88621292000005],[30.678374133266118,36.88514648963667],[30.678354470000045,36.88379621500002],[30.678829228000097,36.88392289500007],[30.679542527000024,36.88382092200021],[30.680921997000155,36.88379411500057],[30.681103760000155,36.88364946200005],[30.681421760000035,36.883735374000594],[30.681552105000037,36.8836307750002],[30.682177286000183,36.88367787800013],[30.682428367000057,36.88359376700015],[30.682483080000054,36.88362926700006],[30.682356269000138,36.883622787000604],[30.682563907000088,36.88369307900001],[30.683388413000102,36.883642343000076],[30.683570221000082,36.88354394000021],[30.68431461600011,36.883585348999986],[30.685810618000062,36.88348148900013],[30.687666927000066,36.88362257000017],[30.6877687220001,36.88351950900005],[30.688423404000048,36.883475170000054],[30.688690505000068,36.88361509200041],[30.689118467000128,36.883555844000114],[30.68947342000007,36.88361055400003],[30.68965302300012,36.88375143700006],[30.690077198000097,36.88376834300021],[30.690165127,36.8836921430003],[30.690197354000134,36.88377564800055],[30.69095013700013,36.883795711000346],[30.69107159500004,36.88370579900004],[30.691167958000108,36.88381877400002],[30.691400795000106,36.883858868000175],[30.691551708000077,36.883739199000104]]],"type":"Polygon"}},{"type":"Feature","properties":{"area_id":"TR-07-018-2388","name_tr":"Meydankavağı","area_level":"neighbourhood","parent_id":"TR-07-018","endeksa_id":2388},"geometry":{"coordinates":[[[30.736843883000063,36.87861030300047],[30.73965529300017,36.88152531400016],[30.739719498000056,36.881808479000085],[30.73967439800009,36.8850048380001],[30.738674229000026,36.88849551100054],[30.734172169000033,36.887435770000025],[30.728677957000173,36.886285480000026],[30.725186707000148,36.885657642000126],[30.72439486700017,36.88481373100001],[30.723871160999977,36.884563503000095],[30.723549689000038,36.88427497400011],[30.72339836900011,36.8839408610001],[30.721589886000174,36.883547627999974],[30.723141862000148,36.88281236100016],[30.72269891400009,36.880775467000205],[30.72440095900015,36.879581792000295],[30.72499511500007,36.877906499000176],[30.726699148000137,36.87666152900016],[30.72816686400006,36.87544997100014],[30.73044598900009,36.873792091999974],[30.73365462900017,36.875386418999994],[30.736843883000063,36.87861030300047]]],"type":"Polygon"}},{"type":"Feature","properties":{"area_id":"TR-07-018-2393","name_tr":"Sinan","area_level":"neighbourhood","parent_id":"TR-07-018","endeksa_id":2393},"geometry":{"coordinates":[[[30.71335329500016,36.885786698000175],[30.712937386000135,36.886697982000044],[30.71141983200016,36.888891614000045],[30.71057055300014,36.88871050300003],[30.70749391300012,36.88736501300008],[30.709013938000055,36.88517808000006],[30.71029086300007,36.88561147900066],[30.710798497000155,36.885576318000176],[30.711157306000075,36.884444380000105],[30.711122289000116,36.88412097100007],[30.71068465100018,36.88298904900057],[30.71031705900009,36.882567214000574],[30.710159515000043,36.88215240900013],[30.710688658000038,36.88028142400009],[30.7110038510001,36.87995307900019],[30.71139780300018,36.879711052000175],[30.712100473000078,36.87858832100011],[30.712876292000033,36.87818747500012],[30.713407877000066,36.878473807000546],[30.714100303000123,36.87863217000006],[30.71352874400003,36.88533167800051],[30.71335329500016,36.885786698000175]]],"type":"Polygon"}},{"type":"Feature","properties":{"area_id":"TR-07-018-2362","name_tr":"Çaybaşı","area_level":"neighbourhood","parent_id":"TR-07-018","endeksa_id":2362},"geometry":{"coordinates":[[[30.71785149200008,36.88876144300019],[30.71141983200016,36.888891614000045],[30.712937386000135,36.886697982000044],[30.71335329500016,36.885786698000175],[30.714340846000084,36.88624190999997],[30.71520622900016,36.88616630500002],[30.715905765000116,36.88583213200053],[30.716964247000135,36.884956998000064],[30.717834256999993,36.88438540000004],[30.71867764600006,36.884228286000166],[30.721577528000182,36.883553483000014],[30.722040098000093,36.883645521000176],[30.72339836900011,36.8839408610001],[30.723549689000038,36.88427497400011],[30.723871160999977,36.884563503000095],[30.72439486700017,36.88481373100001],[30.725186707000148,36.885657642000126],[30.728677957000173,36.886285480000026],[30.721297774000163,36.888675606000106],[30.71785149200008,36.88876144300019]]],"type":"Polygon"}},{"type":"Feature","properties":{"area_id":"TR-07-018-2364","name_tr":"Deniz","area_level":"neighbourhood","parent_id":"TR-07-018","endeksa_id":2364},"geometry":{"coordinates":[[[30.69575158000015,36.88931215399998],[30.695648677000065,36.88938178100051],[30.695694579000133,36.88929969800006],[30.690331089999972,36.888352501999975],[30.690562375000013,36.886829820000116],[30.691229528000065,36.88687728700023],[30.691551708000077,36.883739199000104],[30.692342401000076,36.883571353000434],[30.692774591000102,36.88371226600009],[30.692937699000083,36.88365889200048],[30.693051630000184,36.88372941300037],[30.692985298000053,36.88376064800019],[30.693432540999993,36.88386334300026],[30.693426376000104,36.88373984200007],[30.693494650000105,36.88372322500021],[30.69394555000008,36.88384404100026],[30.694048842000086,36.88400485500006],[30.69452535400012,36.88409949400017],[30.69474199100017,36.88411290400006],[30.694826455000054,36.884007396000186],[30.69497610100018,36.88405788300037],[30.695034951000082,36.88399176000013],[30.695262196000158,36.88406432000028],[30.69568366900012,36.88403211800028],[30.695817030000057,36.88414217000013],[30.696051269000122,36.88412007300036],[30.697281703000158,36.884493419000194],[30.697456676000172,36.884478573000024],[30.698364299000048,36.88479888000012],[30.69575158000015,36.88931215399998]]],"type":"Polygon"}},{"type":"Feature","properties":{"area_id":"TR-07-018-2380","name_tr":"Kışla","area_level":"neighbourhood","parent_id":"TR-07-018","endeksa_id":2380},"geometry":{"coordinates":[[[30.701650129000143,36.88650455800007],[30.70118147700009,36.88729716900019],[30.70209391900005,36.88773697600004],[30.702270867000152,36.88805995100006],[30.702088475000153,36.88867916100014],[30.702575614000068,36.88922532700053],[30.701718987000163,36.88959510800066],[30.701520872000174,36.88987892000034],[30.701110953000125,36.8901229600001],[30.70103964400016,36.8905808990001],[30.698428783000054,36.889797461000114],[30.69575158000015,36.88931215399998],[30.698364299000048,36.88479888000012],[30.698978634000127,36.8852920920001],[30.699401077000005,36.88513613600014],[30.699529974000143,36.88494936300009],[30.7000051010001,36.884896111000444],[30.70011177700019,36.88478464800005],[30.700161661000095,36.88485369800003],[30.70035605900017,36.88475707900017],[30.70057963400012,36.88486094400014],[30.700669003000144,36.88500032300004],[30.700770483000156,36.88493574900019],[30.70106310800014,36.885041991000435],[30.701179490000186,36.88522319400005],[30.70133535600013,36.88639746600023],[30.701650129000143,36.88650455800007]]],"type":"Polygon"}},{"type":"Feature","properties":{"area_id":"TR-07-018-2397","name_tr":"Tarım","area_level":"neighbourhood","parent_id":"TR-07-018","endeksa_id":2397},"geometry":{"coordinates":[[[30.752661413,36.87950479400013],[30.752801176000105,36.88039038200009],[30.75335787199998,36.88151601300001],[30.75357778600005,36.882271536000076],[30.75276101700007,36.88351882699999],[30.751456109000117,36.88589772700004],[30.750891174000174,36.88792658000045],[30.750739797000165,36.88979788900048],[30.74992785200004,36.89122296900007],[30.73867190800007,36.888503608000235],[30.73967439800009,36.8850048380001],[30.739719498000056,36.881808479000085],[30.73965529300017,36.88152531400016],[30.736843883000063,36.87861030300047],[30.739076164000153,36.878251594000005],[30.739871439000126,36.87823703100014],[30.741256642000053,36.87863866500015],[30.743095331000063,36.878876176000176],[30.74659199600012,36.879012785000555],[30.74815851400001,36.878844472000026],[30.751640025000086,36.879169558000115],[30.752661413,36.87950479400013]]],"type":"Polygon"}},{"type":"Feature","properties":{"area_id":"TR-07-018-2367","name_tr":"Elmalı","area_level":"neighbourhood","parent_id":"TR-07-018","endeksa_id":2367},"geometry":{"coordinates":[[[30.705035982000027,36.88874695900006],[30.703987008000126,36.890061668000044],[30.7033686580001,36.89132418300011],[30.70103964400016,36.8905808990001],[30.701110953000125,36.8901229600001],[30.701520872000174,36.88987892000034],[30.701718987000163,36.88959510800066],[30.702575614000068,36.88922532700053],[30.702088475000153,36.88867916100014],[30.702270867000152,36.88805995100006],[30.70209391900005,36.88773697600004],[30.70118147700009,36.88729716900019],[30.701650129000143,36.88650455800007],[30.704502109000032,36.887291886000185],[30.70558576600007,36.887083008000104],[30.705419970000037,36.8880276320001],[30.705035982000027,36.88874695900006]]],"type":"Polygon"}},{"type":"Feature","properties":{"area_id":"TR-07-018-2358","name_tr":"Balbey","area_level":"neighbourhood","parent_id":"TR-07-018","endeksa_id":2358},"geometry":{"coordinates":[[[30.71141983200016,36.888891614000045],[30.71083265500016,36.88953266500005],[30.71051884800005,36.89034376100017],[30.710418081000114,36.89154807400007],[30.708031943000037,36.89237893800009],[30.707428802000152,36.89135506500003],[30.707304453000063,36.890690800000186],[30.705847062000032,36.89077132800014],[30.705596322000076,36.89068500600007],[30.706385098000112,36.88929159800006],[30.705035982000027,36.88874695900006],[30.705419970000037,36.8880276320001],[30.70558576600007,36.887083008000104],[30.705905564000034,36.88704235300003],[30.70749391300012,36.88736501300008],[30.71057055300014,36.88871050300003],[30.71141983200016,36.888891614000045]]],"type":"Polygon"}},{"type":"Feature","properties":{"area_id":"TR-07-018-2401","name_tr":"Varlık","area_level":"neighbourhood","parent_id":"TR-07-018","endeksa_id":2401},"geometry":{"coordinates":[[[30.68007346799999,36.89225309300008],[30.675559620000115,36.892412119000596],[30.677874039000187,36.88621292000005],[30.68265118100004,36.88715093400003],[30.68929638700007,36.88822097100007],[30.688954766000165,36.89139891700006],[30.687782767999977,36.891176914000084],[30.687015711000015,36.8912014200007],[30.685434796000038,36.891632593000224],[30.682566786000052,36.89152091000017],[30.68256670500017,36.891760952000084],[30.681127506000166,36.89173535600014],[30.679979337000134,36.89160242800011],[30.68007346799999,36.89225309300008]]],"type":"Polygon"}},{"type":"Feature","properties":{"area_id":"TR-07-018-2382","name_tr":"Kızılsaray","area_level":"neighbourhood","parent_id":"TR-07-018","endeksa_id":2382},"geometry":{"coordinates":[[[30.7033686580001,36.89132418300011],[30.70302258400011,36.892312306000065],[30.701135345000182,36.894016008000165],[30.697197000000187,36.89273761000044],[30.696688781000148,36.89289526600015],[30.69633074700016,36.89282101500032],[30.69442324500011,36.89157309000018],[30.695648677000065,36.88938178100051],[30.69575158000015,36.88931215399998],[30.698428783000054,36.889797461000114],[30.70103964400016,36.8905808990001],[30.7033686580001,36.89132418300011]]],"type":"Polygon"}},{"type":"Feature","properties":{"area_id":"TR-07-018-2355","name_tr":"Altındağ","area_level":"neighbourhood","parent_id":"TR-07-018","endeksa_id":2355},"geometry":{"coordinates":[[[30.69442324500011,36.89157309000018],[30.692652323000118,36.894676242000116],[30.68814975000015,36.89319447900016],[30.68888290400008,36.89190821700015],[30.688954766000165,36.89139891700006],[30.68929638700007,36.88822097100007],[30.690331089999972,36.888352501999975],[30.695694579000133,36.88929969800006],[30.69442324500011,36.89157309000018]]],"type":"Polygon"}},{"type":"Feature","properties":{"area_id":"TR-07-018-2396","name_tr":"Tahılpazarı","area_level":"neighbourhood","parent_id":"TR-07-018","endeksa_id":2396},"geometry":{"coordinates":[[[30.707068689000096,36.89517323500007],[30.706731265000087,36.895618314000046],[30.70481738899997,36.89509084600013],[30.70217772500007,36.89419159300007],[30.701135345000182,36.894016008000165],[30.70302258400011,36.892312306000065],[30.7033686580001,36.89132418300011],[30.703987008000126,36.890061668000044],[30.705035982000027,36.88874695900006],[30.706385098000112,36.88929159800006],[30.705596322000076,36.89068500600007],[30.705847062000032,36.89077132800014],[30.707304453000063,36.890690800000186],[30.707428802000152,36.89135506500003],[30.708031943000037,36.89237893800009],[30.706722326000147,36.892896438000435],[30.705683967000084,36.89309860100019],[30.705400771000143,36.89325865400002],[30.704938807000076,36.893986220000045],[30.707068689000096,36.89517323500007]]],"type":"Polygon"}},{"type":"Feature","properties":{"area_id":"TR-07-018-2408","name_tr":"Yüksekalan","area_level":"neighbourhood","parent_id":"TR-07-018","endeksa_id":2408},"geometry":{"coordinates":[[[30.71764900000005,36.890589753000086],[30.715964863000067,36.892382001000044],[30.715155673000083,36.89442015800006],[30.71460887100011,36.895421671000065],[30.713343921000103,36.89689400100019],[30.710873097000103,36.896148750000236],[30.707675963999975,36.89552666100019],[30.707068689000096,36.89517323500007],[30.704938807000076,36.893986220000045],[30.705400771000143,36.89325865400002],[30.705683967000084,36.89309860100019],[30.706722326000147,36.892896438000435],[30.708031943000037,36.89237893800009],[30.710418081000114,36.89154807400007],[30.71051884800005,36.89034376100017],[30.71083265500016,36.88953266500005],[30.71141983200016,36.888891614000045],[30.71785149200008,36.88876144300019],[30.71792769800004,36.88959981600016],[30.718186941000056,36.89007528900015],[30.71764900000005,36.890589753000086]]],"type":"Polygon"}},{"type":"Feature","properties":{"area_id":"TR-07-018-2407","name_tr":"Yıldız","area_level":"neighbourhood","parent_id":"TR-07-018","endeksa_id":2407},"geometry":{"coordinates":[[[30.68814975000015,36.89319447900016],[30.685901114000103,36.89711555800011],[30.685358054999995,36.89695314400018],[30.682263612000042,36.89692206000012],[30.680353032000028,36.896795337000356],[30.68007346799999,36.89225309300008],[30.679979337000134,36.89160242800011],[30.681127506000166,36.89173535600014],[30.68256670500017,36.891760952000084],[30.682566786000052,36.89152091000017],[30.685434796000038,36.891632593000224],[30.687015711000015,36.8912014200007],[30.687782767999977,36.891176914000084],[30.688954766000165,36.89139891700006],[30.68888290400008,36.89190821700015],[30.68814975000015,36.89319447900016]]],"type":"Polygon"}},{"type":"Feature","properties":{"area_id":"TR-07-018-2383","name_tr":"Kızıltoprak","area_level":"neighbourhood","parent_id":"TR-07-018","endeksa_id":2383},"geometry":{"coordinates":[[[30.72991025100015,36.89714884600005],[30.729178957000045,36.896510223000064],[30.728561107000075,36.89670558500006],[30.72590719600015,36.89681990500026],[30.724641088,36.897235003000674],[30.72251837100015,36.89712063400003],[30.722427389000075,36.89610385300034],[30.7222298530001,36.89540315800036],[30.721440122000047,36.89488154600019],[30.721382639000126,36.89384837500006],[30.721164847000068,36.89253473500008],[30.719982435000134,36.892126582000174],[30.71872266700018,36.891540913000085],[30.71764900000005,36.890589753000086],[30.718186941000056,36.89007528900015],[30.71792769800004,36.88959981600016],[30.71785149200008,36.88876144300019],[30.721297774000163,36.888675606000106],[30.728677957000173,36.886285480000026],[30.734172169000033,36.887435770000025],[30.738674229000026,36.88849551100054],[30.738027127000123,36.89039478400002],[30.737171687000057,36.89128944700008],[30.736443462000068,36.89181762100026],[30.736656719000052,36.89198881500039],[30.735715477000156,36.893059301000676],[30.734471825000128,36.893102391000184],[30.73436529900016,36.89333073900008],[30.733725935000052,36.89405865900005],[30.73313969100019,36.89425856600019],[30.72991025100015,36.89714884600005]]],"type":"Polygon"}},{"type":"Feature","properties":{"area_id":"TR-07-018-2386","name_tr":"Meltem","area_level":"neighbourhood","parent_id":"TR-07-018","endeksa_id":2386},"geometry":{"coordinates":[[[30.673322750000125,36.89663163800003],[30.669635653000114,36.89713217499997],[30.667974605957284,36.89763733338856],[30.665569222000045,36.89779677100012],[30.665339943000163,36.89587619800005],[30.663678457000174,36.888520069000265],[30.66302259100007,36.88508863900006],[30.662510448999967,36.882685532000096],[30.662048432595498,36.88115447921098],[30.66135255200004,36.87817037800022],[30.66095178120071,36.87746970177051],[30.661011313496942,36.877002668380555],[30.661196544000063,36.876892792000206],[30.66205556941975,36.87583533316291],[30.66219290269197,36.87583106072469],[30.665077339000106,36.87748786000009],[30.670178645000135,36.88009855200005],[30.678354470000045,36.88379621500002],[30.678374133266118,36.88514648963667],[30.677874039000187,36.88621292000005],[30.675559620000115,36.892412119000596],[30.67487614383981,36.89437180683876],[30.673322750000125,36.89663163800003]]],"type":"Polygon"}},{"type":"Feature","properties":{"area_id":"TR-07-018-2387","name_tr":"Memurevleri","area_level":"neighbourhood","parent_id":"TR-07-018","endeksa_id":2387},"geometry":{"coordinates":[[[30.692652323000118,36.894676242000116],[30.690199330000098,36.898653148000506],[30.685901114000103,36.89711555800011],[30.68814975000015,36.89319447900016],[30.692652323000118,36.894676242000116]]],"type":"Polygon"}},{"type":"Feature","properties":{"area_id":"TR-07-018-2385","name_tr":"Mehmetçik","area_level":"neighbourhood","parent_id":"TR-07-018","endeksa_id":2385},"geometry":{"coordinates":[[[30.74992785200004,36.89122296900007],[30.74981111799997,36.89158880499997],[30.749203060000127,36.89686221900001],[30.748669816000074,36.89771968700063],[30.74676397200011,36.8995333520005],[30.744023970000057,36.89744369000044],[30.73872746700016,36.89534935900008],[30.73635677900012,36.8948585980001],[30.733725935000052,36.89405865900005],[30.73436529900016,36.89333073900008],[30.734471825000128,36.893102391000184],[30.735715477000156,36.893059301000676],[30.736656719000052,36.89198881500039],[30.736443462000068,36.89181762100026],[30.737171687000057,36.89128944700008],[30.738027127000123,36.89039478400002],[30.73867190800007,36.888503608000235],[30.74992785200004,36.89122296900007]]],"type":"Polygon"}},{"type":"Feature","properties":{"area_id":"TR-07-018-2400","name_tr":"Üçgen","area_level":"neighbourhood","parent_id":"TR-07-018","endeksa_id":2400},"geometry":{"coordinates":[[[30.68937199000004,36.90065740100016],[30.68882189599998,36.90094966700036],[30.690199330000098,36.898653148000506],[30.692652323000118,36.894676242000116],[30.69442324500011,36.89157309000018],[30.69633074700016,36.89282101500032],[30.696688781000148,36.89289526600015],[30.697197000000187,36.89273761000044],[30.701135345000182,36.894016008000165],[30.697776218000115,36.896968440000194],[30.69392636000009,36.89926357800039],[30.69148945700016,36.899535176000654],[30.68937199000004,36.90065740100016]]],"type":"Polygon"}},{"type":"Feature","properties":{"area_id":"TR-07-018-2406","name_tr":"Yeşilova","area_level":"neighbourhood","parent_id":"TR-07-018","endeksa_id":2406},"geometry":{"coordinates":[[[30.777806739000084,36.88241345900019],[30.7786122870001,36.884532118000436],[30.77821124100018,36.885388425000144],[30.77439561,36.889449015000025],[30.77402276900017,36.89038490000064],[30.773628834000192,36.892380060000164],[30.774135994000005,36.89428645000015],[30.77374109900012,36.89516938400038],[30.77264118400018,36.89633996000009],[30.771776189000093,36.896826965000116],[30.770565696000006,36.89814821600015],[30.76980931500009,36.89922595300038],[30.7691175060001,36.89990399200008],[30.76758202600007,36.90077359100036],[30.767041706000157,36.90153842400014],[30.765436362000173,36.902691571000105],[30.76400543200009,36.90090236100053],[30.763250989000085,36.90008681000029],[30.76308653100017,36.90012990500003],[30.76301943200002,36.89998348800009],[30.763353051000024,36.8998596400005],[30.761178846000178,36.897166234000224],[30.75292665900014,36.89215761300068],[30.752217529000063,36.89180544400023],[30.74992785200004,36.89122296900007],[30.750739797000165,36.88979788900048],[30.750891174000174,36.88792658000045],[30.751456109000117,36.88589772700004],[30.75276101700007,36.88351882699999],[30.75357778600005,36.882271536000076],[30.75335787199998,36.88151601300001],[30.752801176000105,36.88039038200009],[30.752661413,36.87950479400013],[30.75379025900014,36.87962613800005],[30.754914618000043,36.879439973000046],[30.758351341000093,36.879860712000095],[30.75908712800009,36.880088349000005],[30.76161678800014,36.88113303500012],[30.76408049900016,36.881867380000074],[30.765322896000043,36.881726706000165],[30.767009881999968,36.88188595300011],[30.769438618000038,36.88241802800013],[30.770259952000117,36.882726354000056],[30.77148260700011,36.882416967000154],[30.77331693100001,36.88238791500004],[30.774522637000132,36.88271003600016],[30.777806739000084,36.88241345900019]]],"type":"Polygon"}},{"type":"Feature","properties":{"area_id":"TR-07-018-2394","name_tr":"Soğuksu","area_level":"neighbourhood","parent_id":"TR-07-018","endeksa_id":2394},"geometry":{"coordinates":[[[30.680353032000028,36.896795337000356],[30.680784974000062,36.903411757000185],[30.68055593000014,36.90365067500005],[30.679572463000056,36.90333247400025],[30.675725885000077,36.89951375700002],[30.673467033000065,36.89840937800005],[30.673322750000125,36.89663163800003],[30.67487614383981,36.89437180683876],[30.675559620000115,36.892412119000596],[30.68007346799999,36.89225309300008],[30.680353032000028,36.896795337000356]]],"type":"Polygon"}},{"type":"Feature","properties":{"area_id":"TR-07-018-2389","name_tr":"Muratpaşa","area_level":"neighbourhood","parent_id":"TR-07-018","endeksa_id":2389},"geometry":{"coordinates":[[[30.706731265000087,36.895618314000046],[30.707147493000036,36.89575481400033],[30.707645799999966,36.89900976500007],[30.706052417000024,36.89955398100017],[30.706278096000176,36.90401515900015],[30.70261578400016,36.90354891300012],[30.702321513000072,36.90340404800031],[30.702065232999985,36.9030533400001],[30.701391868000144,36.90142861300001],[30.700450010000054,36.89960379400014],[30.697679493000066,36.89705536800011],[30.701135345000182,36.894016008000165],[30.70217772500007,36.89419159300007],[30.70481738899997,36.89509084600013],[30.706731265000087,36.895618314000046]]],"type":"Polygon"}},{"type":"Feature","properties":{"area_id":"TR-07-018-2402","name_tr":"Yenigün","area_level":"neighbourhood","parent_id":"TR-07-018","endeksa_id":2402},"geometry":{"coordinates":[[[30.72789818600006,36.90317857300022],[30.723387637000144,36.90428174800013],[30.71633576400012,36.9044478190001],[30.71623575000018,36.901404883],[30.714839560000144,36.89809509300011],[30.713343921000103,36.89689400100019],[30.71460887100011,36.895421671000065],[30.715155673000083,36.89442015800006],[30.715964863000067,36.892382001000044],[30.71764900000005,36.890589753000086],[30.71872266700018,36.891540913000085],[30.719982435000134,36.892126582000174],[30.721164847000068,36.89253473500008],[30.721382639000126,36.89384837500006],[30.721440122000047,36.89488154600019],[30.7222298530001,36.89540315800036],[30.722427389000075,36.89610385300034],[30.72251837100015,36.89712063400003],[30.722736364000184,36.89810200700015],[30.72268937200016,36.89881478800038],[30.72281509400011,36.89915539300023],[30.72479744700007,36.9002331640005],[30.726361146000045,36.90201082500005],[30.72789818600006,36.90317857300022]]],"type":"Polygon"}},{"type":"Feature","properties":{"area_id":"TR-07-018-2398","name_tr":"Topçular","area_level":"neighbourhood","parent_id":"TR-07-018","endeksa_id":2398},"geometry":{"coordinates":[[[30.76308653100017,36.90012990500003],[30.761746324000057,36.90048109900067],[30.761289332000047,36.90067940100005],[30.7536133750001,36.90468036000004],[30.750577345000067,36.90304918400011],[30.746236310000143,36.90039456599999],[30.74676397200011,36.8995333520005],[30.748669816000074,36.89771968700063],[30.749203060000127,36.89686221900001],[30.74981111799997,36.89158880499997],[30.74992785200004,36.89122296900007],[30.752217529000063,36.89180544400023],[30.75292665900014,36.89215761300068],[30.761178846000178,36.897166234000224],[30.763353051000024,36.8998596400005],[30.76301943200002,36.89998348800009],[30.76308653100017,36.90012990500003]]],"type":"Polygon"}},{"type":"Feature","properties":{"area_id":"TR-07-018-2369","name_tr":"Etiler","area_level":"neighbourhood","parent_id":"TR-07-018","endeksa_id":2369},"geometry":{"coordinates":[[[30.71633576400012,36.9044478190001],[30.712014897000074,36.90474164600016],[30.706278096000176,36.90401515900015],[30.706052417000024,36.89955398100017],[30.707645799999966,36.89900976500007],[30.707147493000036,36.89575481400033],[30.706731265000087,36.895618314000046],[30.707068689000096,36.89517323500007],[30.707675963999975,36.89552666100019],[30.710873097000103,36.896148750000236],[30.713343921000103,36.89689400100019],[30.714839560000144,36.89809509300011],[30.71623575000018,36.901404883],[30.71633576400012,36.9044478190001]]],"type":"Polygon"}},{"type":"Feature","properties":{"area_id":"TR-07-018-2360","name_tr":"Bayındır","area_level":"neighbourhood","parent_id":"TR-07-018","endeksa_id":2360},"geometry":{"coordinates":[[[30.68055593000014,36.90365067500005],[30.67930895100011,36.905437583000435],[30.665348009000127,36.901294041000256],[30.66554102100008,36.90007256000035],[30.665569222000045,36.89779677100012],[30.667974605957284,36.89763733338856],[30.669635653000114,36.89713217499997],[30.673322750000125,36.89663163800003],[30.673467033000065,36.89840937800005],[30.675725885000077,36.89951375700002],[30.679572463000056,36.90333247400025],[30.68055593000014,36.90365067500005]]],"type":"Polygon"}},{"type":"Feature","properties":{"area_id":"TR-07-018-2373","name_tr":"Güvenlik","area_level":"neighbourhood","parent_id":"TR-07-018","endeksa_id":2373},"geometry":{"coordinates":[[[30.68937199000004,36.90065740100016],[30.685683806000043,36.902675047000116],[30.68494589800008,36.90318471600028],[30.684156454000174,36.90387349499997],[30.682277703000068,36.90631677099998],[30.67930895100011,36.905437583000435],[30.68055593000014,36.90365067500005],[30.680784974000062,36.903411757000185],[30.680353032000028,36.896795337000356],[30.682263612000042,36.89692206000012],[30.685358054999995,36.89695314400018],[30.685901114000103,36.89711555800011],[30.690199330000098,36.898653148000506],[30.68882189599998,36.90094966700036],[30.68937199000004,36.90065740100016]]],"type":"Polygon"}},{"type":"Feature","properties":{"area_id":"TR-07-018-2371","name_tr":"Gebizli","area_level":"neighbourhood","parent_id":"TR-07-018","endeksa_id":2371},"geometry":{"coordinates":[[[30.72991025100015,36.89714884600005],[30.72900850800005,36.898038705000204],[30.72773839300004,36.89865076900003],[30.727443658000084,36.89928845700058],[30.727495735000048,36.89969722800021],[30.728246748000117,36.90037107200004],[30.729265876000056,36.90083920100028],[30.73216419500011,36.90075379300032],[30.73438335200018,36.9011049130001],[30.736012916000163,36.90123908300018],[30.73508242200012,36.90412359800018],[30.73542336900016,36.904333026000074],[30.7355486940001,36.90463188900003],[30.73672923700019,36.90501316700016],[30.736901121000187,36.906701969000096],[30.736223284000175,36.90740275600041],[30.733523894000086,36.90519049600033],[30.73039203500008,36.904154887000175],[30.72855874700008,36.90363364000012],[30.72789818600006,36.90317857300022],[30.726361146000045,36.90201082500005],[30.72479744700007,36.9002331640005],[30.72281509400011,36.89915539300023],[30.72268937200016,36.89881478800038],[30.722736364000184,36.89810200700015],[30.72251837100015,36.89712063400003],[30.724641088,36.897235003000674],[30.72590719600015,36.89681990500026],[30.728561107000075,36.89670558500006],[30.729178957000045,36.896510223000064],[30.72991025100015,36.89714884600005]]],"type":"Polygon"}},{"type":"Feature","properties":{"area_id":"TR-07-018-2391","name_tr":"Sedir","area_level":"neighbourhood","parent_id":"TR-07-018","endeksa_id":2391},"geometry":{"coordinates":[[[30.69392636000009,36.89926357800039],[30.695573575000083,36.90101526900014],[30.693517041000064,36.902437250000105],[30.689472022000132,36.90835685400066],[30.682277703000068,36.90631677099998],[30.684156454000174,36.90387349499997],[30.68494589800008,36.90318471600028],[30.685683806000043,36.902675047000116],[30.68937199000004,36.90065740100016],[30.69148945700016,36.899535176000654],[30.69392636000009,36.89926357800039]]],"type":"Polygon"}},{"type":"Feature","properties":{"area_id":"TR-07-018-2365","name_tr":"Doğuyaka","area_level":"neighbourhood","parent_id":"TR-07-018","endeksa_id":2365},"geometry":{"coordinates":[[[30.73857768400012,36.910733516000164],[30.73856361000003,36.91073803300009],[30.737504715000057,36.90852529000006],[30.736223284000175,36.90740275600041],[30.736901121000187,36.906701969000096],[30.73672923700019,36.90501316700016],[30.7355486940001,36.90463188900003],[30.73542336900016,36.904333026000074],[30.73508242200012,36.90412359800018],[30.736012916000163,36.90123908300018],[30.73438335200018,36.9011049130001],[30.73216419500011,36.90075379300032],[30.729265876000056,36.90083920100028],[30.728246748000117,36.90037107200004],[30.727495735000048,36.89969722800021],[30.727443658000084,36.89928845700058],[30.72773839300004,36.89865076900003],[30.72900850800005,36.898038705000204],[30.72991025100015,36.89714884600005],[30.73313969100019,36.89425856600019],[30.733725935000052,36.89405865900005],[30.73635677900012,36.8948585980001],[30.73872746700016,36.89534935900008],[30.744023970000057,36.89744369000044],[30.74676397200011,36.8995333520005],[30.746236310000143,36.90039456599999],[30.750577345000067,36.90304918400011],[30.7536133750001,36.90468036000004],[30.749095716000113,36.907096922000505],[30.748221401000023,36.907483858000546],[30.73857768400012,36.910733516000164]]],"type":"Polygon"}},{"type":"Feature","properties":{"area_id":"TR-07-018-2390","name_tr":"Cumhuriyet","area_level":"neighbourhood","parent_id":"TR-07-018","endeksa_id":2390},"geometry":{"coordinates":[[[30.701391868000144,36.90142861300001],[30.70069912400004,36.904053525000165],[30.697955279000098,36.91081681500003],[30.69788828700007,36.91081626300013],[30.689472022000132,36.90835685400066],[30.693517041000064,36.902437250000105],[30.695573575000083,36.90101526900014],[30.69392636000009,36.89926357800039],[30.697776218000115,36.896968440000194],[30.697679493000066,36.89705536800011],[30.700450010000054,36.89960379400014],[30.701391868000144,36.90142861300001]]],"type":"Polygon"}},{"type":"Feature","properties":{"area_id":"TR-07-018-2366","name_tr":"Dutlubahçe","area_level":"neighbourhood","parent_id":"TR-07-018","endeksa_id":2366},"geometry":{"coordinates":[[[30.706278096000176,36.90401515900015],[30.704208406000134,36.90968972200045],[30.704245404000176,36.91230445000008],[30.701117950000082,36.9117622290006],[30.697955279000098,36.91081681500003],[30.70069912400004,36.904053525000165],[30.701391868000144,36.90142861300001],[30.702065232999985,36.9030533400001],[30.702321513000072,36.90340404800031],[30.70261578400016,36.90354891300012],[30.706278096000176,36.90401515900015]]],"type":"Polygon"}},{"type":"Feature","properties":{"area_id":"TR-07-018-2404","name_tr":"Yeşildere","area_level":"neighbourhood","parent_id":"TR-07-018","endeksa_id":2404},"geometry":{"coordinates":[[[30.728481549000094,36.91266780400048],[30.725676963000183,36.91304922400042],[30.725752150999995,36.91251705800062],[30.726503936000142,36.91051467500023],[30.726900677000174,36.90988971500002],[30.727694804000066,36.907583355000156],[30.72825517299998,36.90763455800004],[30.728862933000187,36.90643376999998],[30.728976660000114,36.90587982400052],[30.73010450700008,36.90591342200014],[30.73039203500008,36.904154887000175],[30.733523894000086,36.90519049600033],[30.736223284000175,36.90740275600041],[30.737504715000057,36.90852529000006],[30.73856361000003,36.91073803300009],[30.73636626600012,36.91141700200001],[30.73503067200005,36.91171702000014],[30.728481549000094,36.91266780400048]]],"type":"Polygon"}},{"type":"Feature","properties":{"area_id":"TR-07-018-2384","name_tr":"Konuksever","area_level":"neighbourhood","parent_id":"TR-07-018","endeksa_id":2384},"geometry":{"coordinates":[[[30.71633576400012,36.9044478190001],[30.715449727000077,36.913142926000035],[30.704245404000176,36.91230445000008],[30.704208406000134,36.90968972200045],[30.706278096000176,36.90401515900015],[30.712014897000074,36.90474164600016],[30.71633576400012,36.9044478190001]]],"type":"Polygon"}},{"type":"Feature","properties":{"area_id":"TR-07-018-2381","name_tr":"Kızılarık","area_level":"neighbourhood","parent_id":"TR-07-018","endeksa_id":2381},"geometry":{"coordinates":[[[30.725676963000183,36.91304922400042],[30.7228643520001,36.913410333],[30.721515970000098,36.91349545600002],[30.715449727000077,36.913142926000035],[30.71633576400012,36.9044478190001],[30.723387637000144,36.90428174800013],[30.72789818600006,36.90317857300022],[30.72855874700008,36.90363364000012],[30.73039203500008,36.904154887000175],[30.73010450700008,36.90591342200014],[30.728976660000114,36.90587982400052],[30.728862933000187,36.90643376999998],[30.72825517299998,36.90763455800004],[30.727694804000066,36.907583355000156],[30.726900677000174,36.90988971500002],[30.726503936000142,36.91051467500023],[30.725752150999995,36.91251705800062],[30.725676963000183,36.91304922400042]]],"type":"Polygon"}},{"type":"Feature","properties":{"area_id":"TR-07-018-2356","name_tr":"Yenigöl","area_level":"neighbourhood","parent_id":"TR-07-018","endeksa_id":2356},"geometry":{"coordinates":[[[30.788325146000034,36.920395115000076],[30.788144469000088,36.92042967600037],[30.781170961999976,36.91651905700019],[30.77376660100009,36.912217987000474],[30.77259697700015,36.911417874999984],[30.771935331999998,36.910720225000034],[30.76643025700008,36.90393431900003],[30.765436362000173,36.902691571000105],[30.767041706000157,36.90153842400014],[30.76758202600007,36.90077359100036],[30.7691175060001,36.89990399200008],[30.76980931500009,36.89922595300038],[30.770565696000006,36.89814821600015],[30.771776189000093,36.896826965000116],[30.77264118400018,36.89633996000009],[30.77374109900012,36.89516938400038],[30.774135994000005,36.89428645000015],[30.773628834000192,36.892380060000164],[30.77402276900017,36.89038490000064],[30.77439561,36.889449015000025],[30.77821124100018,36.885388425000144],[30.7786122870001,36.884532118000436],[30.777806739000084,36.88241345900019],[30.77699794300014,36.88119321200003],[30.77673605500013,36.879924133000145],[30.77700918300019,36.87842063200014],[30.776286630000186,36.87528202100009],[30.788828388000127,36.875305596000146],[30.78865748700008,36.875319929],[30.78894720599999,36.87686842700009],[30.789455756000166,36.88071531100002],[30.788467339000192,36.88078910400003],[30.78844057100008,36.88063489600006],[30.78708374900009,36.880705881000154],[30.787688370000126,36.88429046199997],[30.787363375000155,36.88438326800019],[30.78690335300007,36.88475391700058],[30.786802923000153,36.88541188300013],[30.786674432000098,36.885422117000076],[30.78665667200005,36.88607103300012],[30.786805186000038,36.886152761000176],[30.78676086500019,36.8867405540002],[30.787069747000032,36.88864631600018],[30.791956272000107,36.91683915700003],[30.791833061000148,36.91737642000015],[30.788325146000034,36.920395115000076]]],"type":"Polygon"}},{"type":"Feature","properties":{"area_id":"TR-07-018-2374","name_tr":"Güzelbağ","area_level":"neighbourhood","parent_id":"TR-07-018","endeksa_id":2374},"geometry":{"coordinates":[[[30.806247730000052,36.930832970000495],[30.805916403000083,36.930853439000145],[30.788342664000083,36.92054282500004],[30.788325146000034,36.920395115000076],[30.791833061000148,36.91737642000015],[30.791956272000107,36.91683915700003],[30.787069747000032,36.88864631600018],[30.78676086500019,36.8867405540002],[30.786805186000038,36.886152761000176],[30.78665667200005,36.88607103300012],[30.786674432000098,36.885422117000076],[30.786802923000153,36.88541188300013],[30.78690335300007,36.88475391700058],[30.787363375000155,36.88438326800019],[30.787688370000126,36.88429046199997],[30.78708374900009,36.880705881000154],[30.78844057100008,36.88063489600006],[30.788467339000192,36.88078910400003],[30.789455756000166,36.88071531100002],[30.78894720599999,36.87686842700009],[30.78865748700008,36.875319929],[30.788828388000127,36.875305596000146],[30.776286630000186,36.87528202100009],[30.77619598900003,36.87479085900014],[30.776215541000056,36.874227162000125],[30.77637571200006,36.874001596000085],[30.776666189000025,36.8737840080002],[30.777487916999974,36.87359832500056],[30.77788284700017,36.87313846400008],[30.777942866000046,36.87035035400049],[30.778557912000167,36.86857166800007],[30.779293518000088,36.86613096200011],[30.77951677200008,36.86552623100005],[30.779294501000095,36.86613150000011],[30.781003002000148,36.86706620300009],[30.782473818000142,36.867598075000046],[30.785270621000166,36.86792061100027],[30.790516810000042,36.867129551000005],[30.794437903000187,36.86738159999999],[30.79579349700009,36.8679133900003],[30.796886930000028,36.86608263100061],[30.798271022000165,36.866336403000105],[30.80408487809717,36.866140122566605],[30.803699235000124,36.867415056000084],[30.81347486100003,36.86889531600036],[30.813418742000124,36.87459255300007],[30.811523208000096,36.87521621100012],[30.81477903000001,36.90113885300002],[30.81522664900001,36.90527124900035],[30.8153841030001,36.90595509799999],[30.816152272000124,36.91206954900008],[30.81623094700018,36.91207693100017],[30.81615321000004,36.91207017900018],[30.816910280000172,36.919422748000045],[30.81630947399998,36.92063140300013],[30.814719214000036,36.921778422000045],[30.809255597000174,36.92240019700006],[30.808948374000067,36.92257077500051],[30.80882441700004,36.92273314800053],[30.808952791000138,36.92379208800003],[30.808904584000175,36.927289979000534],[30.808389323000085,36.92817488200012],[30.806317294000166,36.930629857000156],[30.806247730000052,36.930832970000495]]],"type":"Polygon"}}]}