{"type":"FeatureCollection","source_id":"endeksa","retrieved_at":"2026-08-23","features":[{"type":"Feature","properties":{"area_id":"TR-02-003-2049539","name_tr":"Yeşilova Köyü","area_level":"neighbourhood","parent_id":"TR-02-003","endeksa_id":2049539},"geometry":{"coordinates":[[[38.41311835297398,37.956657849375176],[38.41530819999997,37.95874457000008],[38.409330930000124,37.961175150000145],[38.40247631000017,37.96017250000011],[38.395704510000144,37.96348635000021],[38.39292171000011,37.96816572000017],[38.391352422000125,37.96857524800009],[38.384516777000044,37.96356710900005],[38.381521440000085,37.95372307000014],[38.38911682000008,37.95499756000004],[38.39288200000004,37.951993560000176],[38.40499877000019,37.94901485000008],[38.40512013570981,37.94904257252091],[38.40788000000015,37.95197000000036],[38.41241000000019,37.95651000000015],[38.41311835297398,37.956657849375176]]],"type":"Polygon"}},{"type":"Feature","properties":{"area_id":"TR-02-003-2000737","name_tr":"Yeşiltepe Köyü","area_level":"neighbourhood","parent_id":"TR-02-003","endeksa_id":2000737},"geometry":{"coordinates":[[[38.428750604000015,37.966748403000054],[38.42810566000014,37.9677836300005],[38.42953132000014,37.972065430000214],[38.42870166000006,37.9762975000001],[38.43108510900004,37.97804769000015],[38.43102234900016,37.978168245000234],[38.43070478500016,37.978263693000315],[38.43113264000016,37.97868366000051],[38.422538560000135,37.985249640000575],[38.420902174000105,37.98583495800051],[38.42068356100003,37.98581048699998],[38.420702499000186,37.98564130200015],[38.41989895700016,37.98572266300005],[38.41816842100013,37.98625989700008],[38.41796765800012,37.986510619],[38.41787049300018,37.98636597400002],[38.417575588000034,37.98643637999999],[38.41371637300017,37.98621158200041],[38.4136070240001,37.98614459100014],[38.41364564700018,37.98603646000015],[38.42471645200004,37.97904202800032],[38.423038965000046,37.9769580410001],[38.41766888700016,37.97699258300048],[38.41090437800011,37.98033492799999],[38.40280721500011,37.980706164000026],[38.40267594500011,37.98054155100067],[38.402545674000066,37.98065151899999],[38.402396358000146,37.980415922000134],[38.40267734600013,37.9804548030001],[38.40267051600006,37.98032226800001],[38.40777098586591,37.97857989446197],[38.401390818000095,37.977602539000145],[38.39973601700018,37.970389568000144],[38.39241096500001,37.969350787000224],[38.391352422000125,37.96857524800009],[38.39292171000011,37.96816572000017],[38.395704510000144,37.96348635000021],[38.40247631000017,37.96017250000011],[38.409330930000124,37.961175150000145],[38.41530819999997,37.95874457000008],[38.41311835297398,37.956657849375176],[38.422040000000095,37.95852000000019],[38.429240066328646,37.95822993249311],[38.4309003300001,37.963280401000134],[38.428750604000015,37.966748403000054]]],"type":"Polygon"}},{"type":"Feature","properties":{"area_id":"TR-02-003-519","name_tr":"Balıkburun","area_level":"neighbourhood","parent_id":"TR-02-003","endeksa_id":519},"geometry":{"coordinates":[[[38.20078097700008,37.99480294599999],[38.19026716500002,37.997397585000044],[38.18483831500009,37.99714517000018],[38.18327144700015,37.996708591000015],[38.17943030399999,37.99265905800007],[38.1795215140001,37.988770051000074],[38.17966576200013,37.988674137000146],[38.181714170000134,37.98900454600022],[38.18374505300005,37.98986750400002],[38.19033279000007,37.991139891000046],[38.19185979000008,37.99115546500013],[38.198015867474,37.99055709417024],[38.19742000000008,37.99158000000068],[38.1984700000001,37.9919100000003],[38.19841000000008,37.99279000000007],[38.1992444356311,37.993212933128234],[38.20016884952855,37.994042619434026],[38.20078097700008,37.99480294599999]]],"type":"Polygon"}},{"type":"Feature","properties":{"area_id":"TR-02-003-2049517","name_tr":"İncirli Köyü","area_level":"neighbourhood","parent_id":"TR-02-003","endeksa_id":2049517},"geometry":{"coordinates":[[[38.40258518329722,38.03375867339588],[38.398930000000405,38.03561000000025],[38.39439000000027,38.03468000000004],[38.3928200000002,38.03367000000014],[38.3929100000002,38.033290000000136],[38.38879000000003,38.030000000000086],[38.38788000000005,38.027470000000164],[38.38771000000003,38.02671000000015],[38.38179000000008,38.028240000000096],[38.380000000000166,38.02909000000011],[38.37661000000014,38.03009000000026],[38.37500000000017,38.03070000000025],[38.37069000000008,38.03201000000013],[38.36930000000018,38.03194000000053],[38.36829000000006,38.0327800000004],[38.36674000000011,38.03320000000036],[38.36264000000011,38.03464000000014],[38.359340000000145,38.035490000000095],[38.35974000000016,38.0332200000002],[38.3601900000001,38.0321400000002],[38.361490000000174,38.02950000000044],[38.3619700000001,38.02834000000041],[38.36286000000024,38.026940000000366],[38.36340000000013,38.025880000000086],[38.365290000000186,38.022700000000555],[38.369080000000054,38.018520000000194],[38.37331000000012,38.01419000000004],[38.376100000000065,38.010430000000156],[38.37817000000007,38.00802000000027],[38.381680000000074,38.00744000000003],[38.38495000000006,38.00704000000019],[38.38849000000005,38.00687000000033],[38.39347000000015,38.00565000000029],[38.398780000000045,38.00539000000009],[38.40166000000016,38.00486000000029],[38.40622000000013,38.005750000000035],[38.40753000000018,38.00567000000035],[38.40926000000013,38.00672000000014],[38.41104000000013,38.00800000000004],[38.41395034523822,38.00922435213471],[38.4175596820001,38.009226609000336],[38.41871698000011,38.01024060800012],[38.41871712384682,38.01125908609612],[38.4190900000001,38.011850000000265],[38.41871728143349,38.012374848594334],[38.418717873327694,38.01656564365038],[38.42075221852576,38.017169076637515],[38.42429000000027,38.0183200000007],[38.42228596922979,38.0206217742043],[38.421300000000315,38.0222600000011],[38.41970000000026,38.023970000000645],[38.41387000000037,38.026630000000466],[38.40670000000023,38.03164000000004],[38.40258518329722,38.03375867339588]]],"type":"Polygon"}},{"type":"Feature","properties":{"area_id":"TR-02-003-523","name_tr":"İnönü","area_level":"neighbourhood","parent_id":"TR-02-003","endeksa_id":523},"geometry":{"coordinates":[[[38.177204542000084,38.01918207600045],[38.17538477600016,38.016061575000094],[38.16864985800015,38.01981558200009],[38.164413280000076,38.017125080000426],[38.155888118000064,38.01714585800022],[38.155245889339255,38.02016267040773],[38.150397731672626,38.01862675459097],[38.15368000000035,38.01283000000103],[38.15274000000039,38.0126200000002],[38.15257000000037,38.01268000000016],[38.1528354000003,38.01252950000014],[38.152695201759,38.01202895085561],[38.152564608318585,38.01052737347851],[38.15393415819335,38.00934481355921],[38.15462000000031,38.0088700000004],[38.1546807000002,38.00870020000025],[38.15444470000023,38.00708560000055],[38.15426620335501,38.006798995246754],[38.15421000000032,38.006470000000604],[38.15641000000028,38.00540000000035],[38.15639548755729,38.00458334525706],[38.1605507890003,38.001793327000314],[38.15975012200022,37.996166992999974],[38.169240000000286,37.994510000000275],[38.16897000000034,37.9880500000001],[38.16888767604678,37.988003723576526],[38.174224583000125,37.98796962600056],[38.17443662300013,37.98812532000011],[38.174791294000045,37.98844184600006],[38.176410864000104,37.988592786000254],[38.17852915200007,37.98849111100009],[38.17944007700004,37.98863869900009],[38.1795215140001,37.988770051000074],[38.17943030399999,37.99265905800007],[38.18327144700015,37.996708591000015],[38.18483831500009,37.99714517000018],[38.19026716500002,37.997397585000044],[38.20078097700008,37.99480294599999],[38.20218000000011,37.99623000000031],[38.203393594090755,37.99685659580416],[38.20746186897662,37.99953050481912],[38.207690000000184,37.99975000000023],[38.20543000000009,38.000150000000644],[38.201490000000035,38.00143000000014],[38.199140000000114,38.00208000000032],[38.19837000000018,38.00308000000007],[38.20042000000012,38.006530000000055],[38.20223000000016,38.009380000000135],[38.20296000000019,38.0097100000001],[38.20344709474142,38.01187245820836],[38.20318918200013,38.012494901000025],[38.20043061400014,38.009748351000155],[38.19872267200003,38.00759937400011],[38.19770234599997,38.00528279700052],[38.196324099000094,38.00437814300045],[38.195634915000085,38.00414003800006],[38.19099006400006,38.00316086900045],[38.18871020900019,38.00398321600005],[38.18641149500007,38.00569073400061],[38.18666037800011,38.006050933000154],[38.18566998000006,38.00697006000041],[38.18666103000004,38.011530700000094],[38.18414085000006,38.0135746200001],[38.182801656000095,38.01810810900014],[38.18202404700014,38.01741950800027],[38.18173937700004,38.01788548400009],[38.18076497100003,38.018498243000124],[38.17886013000009,38.01905263800006],[38.17763949700009,38.0189371430007],[38.177204542000084,38.01918207600045]]],"type":"Polygon"}},{"type":"Feature","properties":{"area_id":"TR-02-003-2000721","name_tr":"Aksu Köyü","area_level":"neighbourhood","parent_id":"TR-02-003","endeksa_id":2000721},"geometry":{"coordinates":[[[38.274256748587106,38.01810003526646],[38.272330000000125,38.019140000000164],[38.270160000000146,38.01828000000006],[38.267750000000035,38.01924000000008],[38.26582000000025,38.021420000000376],[38.265210000000195,38.022850000000176],[38.26501000000019,38.02546000000012],[38.26088000000004,38.0252000000001],[38.26027000000005,38.02456000000029],[38.25909000000007,38.02358000000021],[38.258450000000096,38.023600000000044],[38.25755000000004,38.024400000000526],[38.25429000000014,38.02358000000021],[38.252040000000136,38.024650000000065],[38.25085000000007,38.02382000000017],[38.25039000000021,38.02339000000012],[38.24943000000019,38.02302000000003],[38.24846000000019,38.02281000000028],[38.25181000000009,38.020000000000266],[38.2543500000001,38.01943000000017],[38.25447000000008,38.01828000000006],[38.25483000000003,38.01695000000018],[38.25580000000019,38.01600000000042],[38.256880000000194,38.01476000000014],[38.25712000000016,38.01372000000009],[38.25761000000023,38.01286000000016],[38.25894000000011,38.012290000000405],[38.25990000000013,38.01144000000005],[38.260870000000125,38.01011000000051],[38.26195000000013,38.00906000000032],[38.26244000000014,38.00782000000004],[38.26244000000014,38.00687000000033],[38.26116000000013,38.00562000000008],[38.25713000000013,38.007300000000384],[38.254520000000184,37.99741000000006],[38.25151000000017,37.993980000000306],[38.2521900000001,37.99232000000012],[38.25559000000004,37.98771000000022],[38.25661000000008,37.986730000000136],[38.25704000000013,37.98656000000028],[38.25891000000013,37.98642000000007],[38.260040000000174,37.98620000000034],[38.260690000000125,37.985780000000034],[38.26083000000017,37.98486000000031],[38.26074000000017,37.984560000000386],[38.26091000000025,37.98442000000017],[38.26401000000004,37.98396000000008],[38.26547000000005,37.98303000000027],[38.265860000000146,37.9829400000001],[38.266320000000235,37.983140000000105],[38.26760000000007,37.98402000000044],[38.26882000000012,37.98432000000042],[38.26984000000016,37.98424000000017],[38.27089000000012,37.9850100000001],[38.271530000000155,37.98494000000039],[38.272270000000105,37.984630000000095],[38.2729700000001,37.985030000000165],[38.27498000000014,37.985030000000165],[38.27581000000009,37.98559000000034],[38.27637000000004,37.98570000000018],[38.27717000000018,37.98538000000019],[38.27875000000017,37.98507000000063],[38.27906000000007,37.98484000000008],[38.27953000000019,37.98430000000019],[38.27997000000005,37.984130000000334],[38.28073000000023,37.98414000000042],[38.28125000000006,37.98388000000023],[38.28170000000017,37.98347000000041],[38.28191000000015,37.983050000000105],[38.282180000000096,37.98284000000018],[38.28266000000019,37.98200000000031],[38.28301000000005,37.981740000000116],[38.28341000000006,37.98182000000031],[38.283760000000086,37.98157000000026],[38.28458000000006,37.981430000000046],[38.28492000000017,37.9810700000001],[38.28523000000024,37.9810700000001],[38.2856900000001,37.98090000000025],[38.286580000000185,37.98085000000037],[38.287420000000054,37.98061000000041],[38.288410000000056,37.9799400000004],[38.289740000000165,37.97948000000014],[38.29096000000004,37.978930000000105],[38.29134000000005,37.97900000000004],[38.29213000000004,37.979460000000074],[38.29340000000013,37.9797200000001],[38.29570000000018,37.97965000000016],[38.29682000000014,37.98015000000015],[38.297580000000096,37.98002000000008],[38.29876000000007,37.98000000000036],[38.299000000000035,37.9802500000003],[38.29905000000008,37.980660000000285],[38.299780000000055,37.98068000000035],[38.30056000000013,37.979820000000416],[38.302100000000166,37.98059000000018],[38.30289000000016,37.980660000000285],[38.30397000000016,37.97997000000004],[38.305200000000184,37.979830000000504],[38.307250000000124,37.980170000000214],[38.30809000000022,37.979860000000144],[38.30906000000016,37.979890000000125],[38.31197000000009,37.98022000000009],[38.31253000000021,37.979550000000074],[38.31249000000008,37.979080000000295],[38.31488000000013,37.977470000000096],[38.32538000000011,37.975400000000604],[38.330940000000055,37.97411000000045],[38.33702000000005,37.97309000000007],[38.3403600000002,37.971990000000176],[38.34221657868562,37.97201023519045],[38.34697420113491,37.971061429164706],[38.347159425485586,37.9711552346742],[38.34704997305323,37.97130614048007],[38.34855687756942,37.971005334989854],[38.35270000000014,37.97036000000014],[38.351790000000165,37.97272000000055],[38.35127000000011,37.97440000000029],[38.35140000000007,37.97501000000034],[38.35134000000005,37.976390000000094],[38.351790000000165,37.9769000000004],[38.35289000000006,37.9771600000002],[38.35457000000014,37.97709000000032],[38.354540000000156,37.97737000000018],[38.35419000000013,37.97814000000011],[38.35409000000004,37.98000000000036],[38.35500000000019,37.981250000000045],[38.35555000000005,37.98278000000016],[38.35506000000004,37.983140000000105],[38.35483000000016,37.983600000000365],[38.35496000000012,37.9850500000004],[38.355130000000145,37.98510000000027],[38.35539000000017,37.98546000000022],[38.35539000000017,37.98597000000012],[38.357300000000066,37.98669000000041],[38.35778000000016,37.987320000000636],[38.358010000000206,37.988220000000126],[38.35765000000009,37.98896000000008],[38.356870000000185,37.99151000000006],[38.345160000000135,37.99926000000022],[38.34075000000013,38.00313000000011],[38.33894000000009,38.005790000000104],[38.336480000000165,38.00905000000023],[38.334280000000206,38.013030000000526],[38.3332400000001,38.015270000000044],[38.332210000000146,38.01823000000019],[38.33133000000015,38.022260000000415],[38.318400000000054,38.01943000000017],[38.31245000000018,38.01785000000018],[38.306590000000085,38.01649000000032],[38.30000000000018,38.01451000000009],[38.29350000000005,38.01376000000039],[38.28549000000004,38.01163000000014],[38.274256748587106,38.01810003526646]]],"type":"Polygon"}},{"type":"Feature","properties":{"area_id":"TR-02-003-518","name_tr":"Aktaş","area_level":"neighbourhood","parent_id":"TR-02-003","endeksa_id":518},"geometry":{"coordinates":[[[38.20318918200013,38.012494901000025],[38.2018903500001,38.015629480000314],[38.20293721000007,38.0198427400004],[38.19557104900014,38.02405260200038],[38.192655995000166,38.02320712500068],[38.191734373000145,38.02246055800009],[38.19123088000009,38.021624799000165],[38.19009705400009,38.021142491000205],[38.18501574700002,38.020068767],[38.182801656000095,38.01810810900014],[38.18414085000006,38.0135746200001],[38.18666103000004,38.011530700000094],[38.18566998000006,38.00697006000041],[38.18666037800011,38.006050933000154],[38.18641149500007,38.00569073400061],[38.18871020900019,38.00398321600005],[38.19099006400006,38.00316086900045],[38.195634915000085,38.00414003800006],[38.196324099000094,38.00437814300045],[38.19770234599997,38.00528279700052],[38.19872267200003,38.00759937400011],[38.20043061400014,38.009748351000155],[38.20318918200013,38.012494901000025]]],"type":"Polygon"}},{"type":"Feature","properties":{"area_id":"TR-02-003-2000734","name_tr":"Recep Köyü","area_level":"neighbourhood","parent_id":"TR-02-003","endeksa_id":2000734},"geometry":{"coordinates":[[[38.37817000000007,38.00802000000027],[38.376100000000065,38.010430000000156],[38.37331000000012,38.01419000000004],[38.369080000000054,38.018520000000194],[38.365290000000186,38.022700000000555],[38.36340000000013,38.025880000000086],[38.36132000000015,38.02469000000036],[38.35879000000011,38.02519000000052],[38.356120000000146,38.024030000000096],[38.35238000000015,38.02444000000031],[38.344200000000114,38.0237700000003],[38.343950000000234,38.02363000000008],[38.34025000000014,38.02314000000018],[38.33739000000014,38.02312000000012],[38.334850000000074,38.02240000000006],[38.3315083670559,38.022275882205804],[38.331358731704995,38.022128421852756],[38.332210000000146,38.01823000000019],[38.3332400000001,38.015270000000044],[38.334280000000206,38.013030000000526],[38.336480000000165,38.00905000000023],[38.33894000000009,38.005790000000104],[38.34075000000013,38.00313000000011],[38.345160000000135,37.99926000000022],[38.356870000000185,37.99151000000006],[38.35765000000009,37.98896000000008],[38.358010000000206,37.988220000000126],[38.35778000000016,37.987320000000636],[38.357300000000066,37.98669000000041],[38.35539000000017,37.98597000000012],[38.35539000000017,37.98546000000022],[38.355130000000145,37.98510000000027],[38.35496000000012,37.9850500000004],[38.35483000000016,37.983600000000365],[38.35506000000004,37.983140000000105],[38.35555000000005,37.98278000000016],[38.35500000000019,37.981250000000045],[38.35409000000004,37.98000000000036],[38.35419000000013,37.97814000000011],[38.354540000000156,37.97737000000018],[38.35457000000014,37.97709000000032],[38.35524000000015,37.9768600000001],[38.357240000000104,37.97724000000011],[38.35932000000008,37.977500000000305],[38.360830000000135,37.978250000000514],[38.3610700000001,37.97901000000019],[38.36035000000004,37.97996000000006],[38.36035000000004,37.98053000000016],[38.36075000000005,37.981100000000424],[38.361230000000205,37.98154000000005],[38.36531000000008,37.98243000000036],[38.36602000000022,37.9828700000005],[38.367060000000095,37.98312000000004],[38.36818000000005,37.98306000000059],[38.3692200000001,37.98338000000007],[38.37098000000009,37.984130000000334],[38.37169000000023,37.98470000000003],[38.372970000000066,37.9849700000002],[38.373290000000054,37.984470000000044],[38.37433000000016,37.98352000000028],[38.37521000000015,37.98257000000018],[38.37689000000006,37.98282000000063],[38.37776000000008,37.98308000000014],[38.37896000000006,37.98377000000039],[38.380880000000104,37.98453000000018],[38.3817600000001,37.98415000000017],[38.38655000000011,37.98573000000016],[38.38703000000004,37.98592000000008],[38.38791000000003,37.98668000000026],[38.388310000000104,37.98712000000006],[38.388550000000066,37.98782000000011],[38.389020000000244,37.98845000000034],[38.389580000000194,37.9889500000005],[38.39022000000023,37.98933000000068],[38.39366000000007,37.99063000000024],[38.39033000000006,37.99319000000031],[38.386630000000196,37.996670000000336],[38.38051000000007,38.005250000000046],[38.37817000000007,38.00802000000027]]],"type":"Polygon"}},{"type":"Feature","properties":{"area_id":"TR-02-003-514","name_tr":"Zafer","area_level":"neighbourhood","parent_id":"TR-02-003","endeksa_id":514},"geometry":{"coordinates":[[[38.2424300000003,38.03331000000037],[38.24211000000008,38.03337000000022],[38.24206000000004,38.0343900000002],[38.24180000000018,38.03447000000028],[38.24150000000009,38.03483000000023],[38.24149000000011,38.0349600000003],[38.24128000000013,38.03517000000011],[38.24110000000019,38.03573000000006],[38.24087000000014,38.03557000000035],[38.23932000000019,38.03654000000029],[38.238220000000126,38.035980000000166],[38.2376900000001,38.03540000000032],[38.238290000000234,38.03328000000056],[38.23803000000021,38.03181000000029],[38.237730000000056,38.031550000000266],[38.23743000000013,38.03021000000024],[38.23741000000024,38.02971000000025],[38.239900000000375,38.03084000000064],[38.24166000000031,38.03148000000033],[38.241820000000246,38.031710000000146],[38.24186000000037,38.03203000000087],[38.242570000000285,38.03278000000057],[38.242570000000285,38.033220000000426],[38.2424300000003,38.03331000000037]]],"type":"Polygon"}},{"type":"Feature","properties":{"area_id":"TR-02-003-520","name_tr":"Cami Pınarbaşı","area_level":"neighbourhood","parent_id":"TR-02-003","endeksa_id":520},"geometry":{"coordinates":[[[38.18916873100011,38.03237546800017],[38.188755666000134,38.03258366200032],[38.1863463040001,38.032188115],[38.183644561999984,38.03112435300028],[38.18107719600005,38.02879822800014],[38.17955654300005,38.02787123900009],[38.17833206900019,38.02762680900008],[38.17418293800017,38.027270591000274],[38.17408135300019,38.027155604000086],[38.17459378700016,38.02491391300015],[38.175482218000184,38.02410841400001],[38.17635800599999,38.02035407200043],[38.177035363000186,38.01927734500009],[38.17763949700009,38.0189371430007],[38.17886013000009,38.01905263800006],[38.18076497100003,38.018498243000124],[38.18173937700004,38.01788548400009],[38.18202404700014,38.01741950800027],[38.18501574700002,38.020068767],[38.19009705400009,38.021142491000205],[38.19123088000009,38.021624799000165],[38.191734373000145,38.02246055800009],[38.192655995000166,38.02320712500068],[38.19557104900014,38.02405260200038],[38.19608608600004,38.025771657000064],[38.196923352,38.02581033000018],[38.19702631500013,38.02589854600035],[38.197059390000106,38.02627518300034],[38.19648704200017,38.02704893500004],[38.195036409000124,38.02837402200004],[38.19287210300013,38.03000458700018],[38.18916873100011,38.03237546800017]]],"type":"Polygon"}},{"type":"Feature","properties":{"area_id":"TR-02-003-510","name_tr":"Cami","area_level":"neighbourhood","parent_id":"TR-02-003","endeksa_id":510},"geometry":{"coordinates":[[[38.244950000000244,38.03377000000006],[38.24482000000029,38.033880000000636],[38.24440000000021,38.03387000000055],[38.24344000000036,38.03349000000037],[38.2424300000003,38.03331000000037],[38.242570000000285,38.033220000000426],[38.242570000000285,38.03278000000057],[38.24186000000037,38.03203000000087],[38.241820000000246,38.031710000000146],[38.24166000000031,38.03148000000033],[38.239900000000375,38.03084000000064],[38.23741000000024,38.02971000000025],[38.23729000000026,38.028460000000564],[38.23576000000031,38.02768000000066],[38.23567000000031,38.0274500000001],[38.23405000000042,38.027040000000284],[38.23276000000027,38.02709000000016],[38.23369000000025,38.026420000000144],[38.23675000000031,38.02281000000045],[38.23790000000025,38.02262000000053],[38.23997000000031,38.02260000000081],[38.242780000000266,38.02293000000026],[38.24425000000042,38.023440000000676],[38.244670000000326,38.02460000000019],[38.24457000000024,38.025860000000705],[38.24506000000025,38.028090000000475],[38.24479000000031,38.029450000000566],[38.24503000000027,38.030100000000516],[38.24499000000037,38.03114000000045],[38.245200000000295,38.03179000000091],[38.245070000000226,38.03235000000052],[38.24519000000021,38.032670000000564],[38.24488623768622,38.03318848326148],[38.244950000000244,38.03377000000006]]],"type":"Polygon"}},{"type":"Feature","properties":{"area_id":"TR-02-003-2000736","name_tr":"Yağızatlı Köyü","area_level":"neighbourhood","parent_id":"TR-02-003","endeksa_id":2000736},"geometry":{"coordinates":[[[38.43381548080032,38.013442220800414],[38.434653872000354,38.01785610600069],[38.43401264100032,38.018910361999986],[38.43388385600019,38.01888931500065],[38.43355016900023,38.01857183300035],[38.43219592800034,38.01324609300019],[38.43213663800026,38.01335105300035],[38.42487381400025,38.016730058000064],[38.42075221852576,38.017169076637515],[38.418717873327694,38.01656564365038],[38.41871728143349,38.012374848594334],[38.4190900000001,38.011850000000265],[38.41871712384682,38.01125908609612],[38.41871698000011,38.01024060800012],[38.4175596820001,38.009226609000336],[38.41395034523822,38.00922435213471],[38.41104000000013,38.00800000000004],[38.40926000000013,38.00672000000014],[38.40753000000018,38.00567000000035],[38.40622000000013,38.005750000000035],[38.40166000000016,38.00486000000029],[38.398780000000045,38.00539000000009],[38.39347000000015,38.00565000000029],[38.38849000000005,38.00687000000033],[38.38495000000006,38.00704000000019],[38.381680000000074,38.00744000000003],[38.37817000000007,38.00802000000027],[38.38051000000007,38.005250000000046],[38.386630000000196,37.996670000000336],[38.39033000000006,37.99319000000031],[38.39366000000007,37.99063000000024],[38.39637000000016,37.989890000000116],[38.398530000000164,37.989950000000135],[38.40021000000007,37.990580000000364],[38.401720000000125,37.990580000000364],[38.40236000000016,37.990200000000186],[38.404360000000054,37.988310000000126],[38.40727000000015,37.988380000000234],[38.412677190890236,37.986649698915414],[38.41336130600018,37.98621612200043],[38.41371637300017,37.98621158200041],[38.417575588000034,37.98643637999999],[38.41787049300018,37.98636597400002],[38.41796765800012,37.986510619],[38.417639958000166,37.987065358000166],[38.42496043600016,38.0047818650001],[38.43183202100016,38.01186274400004],[38.43195484200015,38.01229783399998],[38.43201741000013,38.01219142600024],[38.432168103000095,38.0122097790001],[38.43350283000012,38.0135832050002],[38.433628393000106,38.01336801300016],[38.43381548080032,38.013442220800414]]],"type":"Polygon"}},{"type":"Feature","properties":{"area_id":"TR-02-003-522","name_tr":"Hacılar","area_level":"neighbourhood","parent_id":"TR-02-003","endeksa_id":522},"geometry":{"coordinates":[[[38.211742625000056,38.02952620200011],[38.203792930000134,38.03148677100006],[38.20190756000011,38.0306790300001],[38.19732158000011,38.03463042000038],[38.19485893000012,38.03469965000011],[38.1952590950001,38.032522430000085],[38.18916873100011,38.03237546800017],[38.19287210300013,38.03000458700018],[38.195036409000124,38.02837402200004],[38.19648704200017,38.02704893500004],[38.197059390000106,38.02627518300034],[38.19702631500013,38.02589854600035],[38.196923352,38.02581033000018],[38.19608608600004,38.025771657000064],[38.19557104900014,38.02405260200038],[38.20293721000007,38.0198427400004],[38.2018903500001,38.015629480000314],[38.20344709474142,38.01187245820836],[38.20529000000005,38.01340000000005],[38.2065800000002,38.014830000000245],[38.20775629365238,38.01517487594532],[38.20970162000003,38.0167456100001],[38.20903000000004,38.01713000000012],[38.209165809528315,38.01896342862824],[38.20840708100013,38.022103947000176],[38.206926698000075,38.02229956300005],[38.206463560000145,38.02260571200003],[38.20646134600014,38.02275622900032],[38.207979472169825,38.02368439553027],[38.20968373000011,38.0252104540001],[38.20985974400014,38.025946543000146],[38.211356902000034,38.02835177900056],[38.211742625000056,38.02952620200011]]],"type":"Polygon"}},{"type":"Feature","properties":{"area_id":"TR-02-003-517","name_tr":"Fatih","area_level":"neighbourhood","parent_id":"TR-02-003","endeksa_id":517},"geometry":{"coordinates":[[[38.24703812491782,38.0344562537918],[38.24703000000022,38.03483000000023],[38.24722000000014,38.03508000000028],[38.24716000000012,38.035330000000386],[38.247520000000065,38.03601000000049],[38.247800000000154,38.03623000000022],[38.24791000000016,38.03670000000005],[38.24778000000009,38.03740000000039],[38.24750000000017,38.03786000000008],[38.247080000000096,38.03928000000036],[38.24595000000022,38.03895000000006],[38.245420000000195,38.03895000000006],[38.24552000000017,38.03815000000009],[38.24578000000014,38.03715000000034],[38.24597000000006,38.03667000000041],[38.246160000000145,38.03643000000005],[38.2460700000002,38.03601000000049],[38.2461100000001,38.03579000000008],[38.24637000000013,38.03554000000014],[38.24619000000018,38.03542000000016],[38.24592000000018,38.03548000000069],[38.246040000000164,38.03511000000009],[38.24579000000011,38.03494000000006],[38.245540000000176,38.03432000000009],[38.245320000000106,38.034130000000175],[38.24533000000025,38.03399000000036],[38.244950000000244,38.03377000000006],[38.24488623768622,38.03318848326148],[38.24519000000021,38.032670000000564],[38.245070000000226,38.03235000000052],[38.245200000000295,38.03179000000091],[38.24499000000037,38.03114000000045],[38.24503000000027,38.030100000000516],[38.24479000000031,38.029450000000566],[38.24506000000025,38.028090000000475],[38.24457000000024,38.025860000000705],[38.244670000000326,38.02460000000019],[38.24425000000042,38.023440000000676],[38.24438000000015,38.02329000000037],[38.245540000000176,38.02283000000011],[38.24734000000012,38.02268000000032],[38.24846000000019,38.02281000000028],[38.24943000000019,38.02302000000003],[38.24999643773816,38.02323831454498],[38.249435841000036,38.02597596999999],[38.249189476000026,38.02616109200022],[38.249367161000066,38.0263722900001],[38.250711948,38.03061018000028],[38.247526700000094,38.029764600000306],[38.24685420000003,38.029814800000054],[38.24621010000004,38.030425300000616],[38.24612870000004,38.03059540000015],[38.24641530000014,38.030957800000124],[38.24667190000008,38.03173190000018],[38.246677200000136,38.032223900000076],[38.246473700000024,38.03287490000008],[38.24655340000004,38.03353140000007],[38.24703812491782,38.0344562537918]]],"type":"Polygon"}},{"type":"Feature","properties":{"area_id":"TR-02-003-509","name_tr":"Başpınar","area_level":"neighbourhood","parent_id":"TR-02-003","endeksa_id":509},"geometry":{"coordinates":[[[38.274256748587106,38.01810003526646],[38.27417039800014,38.018717113000434],[38.27413373700006,38.02131555100016],[38.27427612700012,38.02141597799999],[38.274130856000056,38.02151270200005],[38.27398319900004,38.03352292200009],[38.28196806800014,38.03480492100016],[38.28853860000004,38.03758237000005],[38.28860301800006,38.03767115200009],[38.28763935000006,38.03856416800011],[38.28525714500006,38.03887802900056],[38.27635832300007,38.0363442040001],[38.276230346000034,38.036379126000156],[38.27555169400006,38.03720433100045],[38.275442868000084,38.037175441000045],[38.27549850544159,38.03720029545025],[38.27359000000007,38.03647000000018],[38.2718500000002,38.03623000000022],[38.27126000000004,38.03626000000003],[38.27050000000003,38.03649000000041],[38.26996000000014,38.03654000000029],[38.26919000000015,38.0363500000002],[38.2688100000002,38.036480000000324],[38.26841000000013,38.036420000000305],[38.26789000000008,38.036200000000576],[38.267710000000136,38.03643000000005],[38.267540000000054,38.036450000000116],[38.26740000000024,38.036320000000046],[38.26694000000015,38.036170000000254],[38.26615000000015,38.03565000000003],[38.264240000000086,38.036200000000576],[38.264030000000105,38.03652000000005],[38.26340000000022,38.03663000000063],[38.26331000000005,38.03698000000031],[38.26314000000019,38.037100000000066],[38.26296000000019,38.037100000000066],[38.26269000000008,38.03689000000014],[38.26231000000007,38.0367500000001],[38.26212000000015,38.03684000000027],[38.262050000000045,38.03711000000055],[38.261710000000164,38.03746000000041],[38.2615600000002,38.03749000000005],[38.261300000000176,38.0373900000003],[38.26094000000006,38.03745000000026],[38.260780000000125,38.03737000000007],[38.260340000000156,38.03658000000007],[38.2593100000002,38.03666000000027],[38.25893000000019,38.036610000000394],[38.25851000000006,38.03677000000016],[38.25773000000021,38.0363100000003],[38.256750000000125,38.0365700000001],[38.25630000000018,38.036020000000065],[38.2551400000001,38.03566000000012],[38.25432000000012,38.03491000000042],[38.253720000000044,38.034740000000056],[38.25311000000022,38.034250000000384],[38.252260000000035,38.03414000000066],[38.25169000000011,38.0338200000005],[38.25123000000008,38.03368000000029],[38.2490600000001,38.03340000000054],[38.24851000000007,38.03385000000014],[38.24779000000018,38.03426000000013],[38.247390000000166,38.03442000000041],[38.24704000000014,38.03437000000014],[38.24703812491782,38.0344562537918],[38.24655340000004,38.03353140000007],[38.246473700000024,38.03287490000008],[38.246677200000136,38.032223900000076],[38.24667190000008,38.03173190000018],[38.24641530000014,38.030957800000124],[38.24612870000004,38.03059540000015],[38.24621010000004,38.030425300000616],[38.24685420000003,38.029814800000054],[38.247526700000094,38.029764600000306],[38.250711948,38.03061018000028],[38.249367161000066,38.0263722900001],[38.249189476000026,38.02616109200022],[38.249435841000036,38.02597596999999],[38.24999643773816,38.02323831454498],[38.25039000000021,38.02339000000012],[38.25085000000007,38.02382000000017],[38.252040000000136,38.024650000000065],[38.25429000000014,38.02358000000021],[38.25755000000004,38.024400000000526],[38.258450000000096,38.023600000000044],[38.25909000000007,38.02358000000021],[38.26027000000005,38.02456000000029],[38.26088000000004,38.0252000000001],[38.26501000000019,38.02546000000012],[38.265210000000195,38.022850000000176],[38.26582000000025,38.021420000000376],[38.267750000000035,38.01924000000008],[38.270160000000146,38.01828000000006],[38.272330000000125,38.019140000000164],[38.274256748587106,38.01810003526646]]],"type":"Polygon"}},{"type":"Feature","properties":{"area_id":"TR-02-003-513","name_tr":"Merkez","area_level":"neighbourhood","parent_id":"TR-02-003","endeksa_id":513},"geometry":{"coordinates":[[[38.245420000000195,38.03895000000006],[38.24332000000021,38.039270000000215],[38.24249000000009,38.03845000000058],[38.242410000000234,38.038060000000314],[38.2438200000002,38.03693000000004],[38.244420000000105,38.03627000000017],[38.24462000000011,38.03623000000022],[38.24466000000024,38.03605000000027],[38.24450000000013,38.035990000000254],[38.24460000000005,38.03543000000013],[38.244450000000086,38.035360000000026],[38.244420000000105,38.03507000000019],[38.24422000000004,38.034840000000315],[38.24440000000004,38.03436000000039],[38.244330000000105,38.03400000000045],[38.24440000000021,38.03387000000055],[38.24482000000029,38.033880000000636],[38.244950000000244,38.03377000000006],[38.24533000000025,38.03399000000036],[38.245320000000106,38.034130000000175],[38.245540000000176,38.03432000000009],[38.24579000000011,38.03494000000006],[38.246040000000164,38.03511000000009],[38.24592000000018,38.03548000000069],[38.24619000000018,38.03542000000016],[38.24637000000013,38.03554000000014],[38.2461100000001,38.03579000000008],[38.2460700000002,38.03601000000049],[38.246160000000145,38.03643000000005],[38.24597000000006,38.03667000000041],[38.24578000000014,38.03715000000034],[38.24552000000017,38.03815000000009],[38.245420000000195,38.03895000000006]]],"type":"Polygon"}},{"type":"Feature","properties":{"area_id":"TR-02-003-515","name_tr":"Bahçeli Evler","area_level":"neighbourhood","parent_id":"TR-02-003","endeksa_id":515},"geometry":{"coordinates":[[[38.27549850544159,38.03720029545025],[38.278470000000084,38.037900000000036],[38.27811000000014,38.03898000000038],[38.27631000000008,38.04257000000041],[38.27643000000006,38.04391000000044],[38.278070000000184,38.04487000000029],[38.278770000000236,38.045740000000364],[38.27665000000013,38.04687000000024],[38.27451000000019,38.047040000000095],[38.2743200000001,38.04631000000006],[38.27331000000021,38.04636000000011],[38.27228000000025,38.04600000000016],[38.2697100000002,38.04530000000034],[38.26779000000016,38.04523000000023],[38.26693000000006,38.04511000000025],[38.266010000000165,38.04538000000019],[38.26501000000019,38.045810000000074],[38.264060000000086,38.046020000000226],[38.26290000000023,38.04600000000016],[38.262170000000026,38.04586000000012],[38.25945000000024,38.046020000000226],[38.257220000000075,38.04487000000029],[38.25661000000008,38.0446800000002],[38.25505000000015,38.04364000000015],[38.252850000000194,38.04266000000007],[38.25160000000017,38.04174000000012],[38.25044000000008,38.04133000000013],[38.24995000000024,38.040850000000205],[38.248140000000205,38.04013000000032],[38.24747000000019,38.03951000000018],[38.247080000000096,38.03928000000036],[38.24750000000017,38.03786000000008],[38.24778000000009,38.03740000000039],[38.24791000000016,38.03670000000005],[38.247800000000154,38.03623000000022],[38.247520000000065,38.03601000000049],[38.24716000000012,38.035330000000386],[38.24722000000014,38.03508000000028],[38.24703000000022,38.03483000000023],[38.24704000000014,38.03437000000014],[38.247390000000166,38.03442000000041],[38.24779000000018,38.03426000000013],[38.24851000000007,38.03385000000014],[38.2490600000001,38.03340000000054],[38.25123000000008,38.03368000000029],[38.25169000000011,38.0338200000005],[38.252260000000035,38.03414000000066],[38.25311000000022,38.034250000000384],[38.253720000000044,38.034740000000056],[38.25432000000012,38.03491000000042],[38.2551400000001,38.03566000000012],[38.25630000000018,38.036020000000065],[38.256750000000125,38.0365700000001],[38.25773000000021,38.0363100000003],[38.25851000000006,38.03677000000016],[38.25893000000019,38.036610000000394],[38.2593100000002,38.03666000000027],[38.260340000000156,38.03658000000007],[38.260780000000125,38.03737000000007],[38.26094000000006,38.03745000000026],[38.261300000000176,38.0373900000003],[38.2615600000002,38.03749000000005],[38.261710000000164,38.03746000000041],[38.262050000000045,38.03711000000055],[38.26212000000015,38.03684000000027],[38.26231000000007,38.0367500000001],[38.26269000000008,38.03689000000014],[38.26296000000019,38.037100000000066],[38.26314000000019,38.037100000000066],[38.26331000000005,38.03698000000031],[38.26340000000022,38.03663000000063],[38.264030000000105,38.03652000000005],[38.264240000000086,38.036200000000576],[38.26615000000015,38.03565000000003],[38.26694000000015,38.036170000000254],[38.26740000000024,38.036320000000046],[38.267540000000054,38.036450000000116],[38.267710000000136,38.03643000000005],[38.26789000000008,38.036200000000576],[38.26841000000013,38.036420000000305],[38.2688100000002,38.036480000000324],[38.26919000000015,38.0363500000002],[38.26996000000014,38.03654000000029],[38.27050000000003,38.03649000000041],[38.27126000000004,38.03626000000003],[38.2718500000002,38.03623000000022],[38.27359000000007,38.03647000000018],[38.27549850544159,38.03720029545025]]],"type":"Polygon"}},{"type":"Feature","properties":{"area_id":"TR-02-003-2000739","name_tr":"Fatih Köyü","area_level":"neighbourhood","parent_id":"TR-02-003","endeksa_id":2000739},"geometry":{"coordinates":[[[38.39439000000027,38.03468000000004],[38.39512000000025,38.0365700000001],[38.39512000000025,38.03696000000093],[38.39482000000032,38.03858000000014],[38.39487632379911,38.042189706497766],[38.38248000000033,38.04120000000023],[38.37792000000036,38.0405800000006],[38.37584000000004,38.04095000000012],[38.369470000000035,38.04084000000012],[38.36059000000017,38.039490000000114],[38.359340000000145,38.035490000000095],[38.36264000000011,38.03464000000014],[38.36674000000011,38.03320000000036],[38.36829000000006,38.0327800000004],[38.36930000000018,38.03194000000053],[38.37069000000008,38.03201000000013],[38.37500000000017,38.03070000000025],[38.37661000000014,38.03009000000026],[38.380000000000166,38.02909000000011],[38.38179000000008,38.028240000000096],[38.38771000000003,38.02671000000015],[38.38788000000005,38.027470000000164],[38.38879000000003,38.030000000000086],[38.3929100000002,38.033290000000136],[38.3928200000002,38.03367000000014],[38.39439000000027,38.03468000000004]]],"type":"Polygon"}},{"type":"Feature","properties":{"area_id":"TR-02-003-512","name_tr":"Mahmut Nedim Ökmen","area_level":"neighbourhood","parent_id":"TR-02-003","endeksa_id":512},"geometry":{"coordinates":[[[38.23061000000018,38.03671000000014],[38.22957000000008,38.036450000000116],[38.22845000000012,38.03813000000042],[38.22323000000006,38.03814000000051],[38.22117069600006,38.03715276100013],[38.213731808171985,38.040739269949654],[38.21117172190776,38.04072023585127],[38.210108840000146,38.039705766000566],[38.21012066000003,38.03840694700011],[38.20891721000015,38.03780154400022],[38.207715559000064,38.03749663700012],[38.20764519200003,38.0373526890001],[38.20952373200004,38.03494771599998],[38.21049863200005,38.032894691000024],[38.211613057000136,38.03133322800005],[38.21192361100009,38.03007725300017],[38.211356902000034,38.02835177900056],[38.20985974400014,38.025946543000146],[38.20968373000011,38.0252104540001],[38.207979472169825,38.02368439553027],[38.20646134600014,38.02275622900032],[38.206463560000145,38.02260571200003],[38.206926698000075,38.02229956300005],[38.20840708100013,38.022103947000176],[38.209165809528315,38.01896342862824],[38.20903000000004,38.01713000000012],[38.20970162000003,38.0167456100001],[38.20775629365238,38.01517487594532],[38.2065800000002,38.014830000000245],[38.20529000000005,38.01340000000005],[38.20344709474142,38.01187245820836],[38.20296000000019,38.0097100000001],[38.20223000000016,38.009380000000135],[38.20042000000012,38.006530000000055],[38.19837000000018,38.00308000000007],[38.199140000000114,38.00208000000032],[38.201490000000035,38.00143000000014],[38.20543000000009,38.000150000000644],[38.207690000000184,37.99975000000023],[38.208730000000116,37.99933000000033],[38.210010000000125,37.99868000000038],[38.2136500000002,37.997890000000154],[38.21517000000023,37.99731000000014],[38.21557000000007,37.99707000000018],[38.21578000000005,37.99661000000049],[38.21627000000012,37.9961600000002],[38.216550000000154,37.99603000000013],[38.21652000000017,37.99620000000016],[38.21674000000007,37.9963800000001],[38.21668000000011,37.99659000000025],[38.21646000000021,37.99679000000009],[38.21714000000014,37.99703000000005],[38.21727000000004,37.997200000000305],[38.21832000000006,37.99792000000019],[38.223080000000095,37.999210000000346],[38.22575000000023,38.0013800000001],[38.226680000000044,38.004300000000114],[38.22762000000006,38.009000000000356],[38.23092000000008,38.01178000000016],[38.23521000000011,38.01168000000041],[38.23613000000017,38.01261000000005],[38.23729000000009,38.012750000000096],[38.238750000000095,38.012510000000134],[38.2399200000001,38.01184000000012],[38.241690000000176,38.011450000000536],[38.24291000000022,38.01150000000041],[38.24407000000008,38.01381000000026],[38.24670000000009,38.01713000000012],[38.245290000000125,38.01752000000005],[38.243400000000065,38.018670000000384],[38.24233000000015,38.01900000000012],[38.24357000000009,38.01959000000045],[38.24081000000018,38.021670000000086],[38.23790000000025,38.02262000000053],[38.23675000000031,38.02281000000045],[38.23369000000025,38.026420000000144],[38.23276000000027,38.02709000000016],[38.23269000000016,38.027770000000146],[38.23209000000003,38.02942000000024],[38.23209000000003,38.030190000000175],[38.232350000000054,38.03074000000004],[38.23236000000003,38.03136000000018],[38.23217000000011,38.03195000000011],[38.2316100000001,38.03195000000011],[38.23192000000017,38.032520000000204],[38.231850000000065,38.03336000000007],[38.231410000000096,38.033750000000396],[38.23118000000005,38.03412000000043],[38.23114000000015,38.034490000000346],[38.230360000000076,38.03543000000013],[38.230670000000146,38.035800000000165],[38.23079000000013,38.036330000000135],[38.23061000000018,38.03671000000014]]],"type":"Polygon"}},{"type":"Feature","properties":{"area_id":"TR-02-003-516","name_tr":"Cumhuriyet","area_level":"neighbourhood","parent_id":"TR-02-003","endeksa_id":516},"geometry":{"coordinates":[[[38.242410000000234,38.038060000000314],[38.24094000000008,38.03925000000015],[38.24047000000013,38.037810000000206],[38.23932000000019,38.03654000000029],[38.24087000000014,38.03557000000035],[38.24110000000019,38.03573000000006],[38.24128000000013,38.03517000000011],[38.24149000000011,38.0349600000003],[38.24150000000009,38.03483000000023],[38.24180000000018,38.03447000000028],[38.24206000000004,38.0343900000002],[38.24211000000008,38.03337000000022],[38.2424300000003,38.03331000000037],[38.24344000000036,38.03349000000037],[38.24440000000021,38.03387000000055],[38.244330000000105,38.03400000000045],[38.24440000000004,38.03436000000039],[38.24422000000004,38.034840000000315],[38.244420000000105,38.03507000000019],[38.244450000000086,38.035360000000026],[38.24460000000005,38.03543000000013],[38.24450000000013,38.035990000000254],[38.24466000000024,38.03605000000027],[38.24462000000011,38.03623000000022],[38.244420000000105,38.03627000000017],[38.2438200000002,38.03693000000004],[38.242410000000234,38.038060000000314]]],"type":"Polygon"}},{"type":"Feature","properties":{"area_id":"TR-02-003-525","name_tr":"Kurudere","area_level":"neighbourhood","parent_id":"TR-02-003","endeksa_id":525},"geometry":{"coordinates":[[[38.21117172190776,38.04072023585127],[38.204960000000085,38.0426800000003],[38.20249852000018,38.04334172000017],[38.19344468700007,38.04287755600012],[38.193023122000056,38.041541548000225],[38.19291780300017,38.04147406600015],[38.18803142797003,38.04208785749813],[38.18785732751104,38.04200064728968],[38.186422430000164,38.03837734100034],[38.19046118,38.03433304000015],[38.188609909000036,38.03359921900005],[38.1888152140001,38.03264346600065],[38.188755666000134,38.03258366200032],[38.18916873100011,38.03237546800017],[38.1952590950001,38.032522430000085],[38.19485893000012,38.03469965000011],[38.19732158000011,38.03463042000038],[38.20190756000011,38.0306790300001],[38.203792930000134,38.03148677100006],[38.211742625000056,38.02952620200011],[38.21192361100009,38.03007725300017],[38.211613057000136,38.03133322800005],[38.21049863200005,38.032894691000024],[38.20952373200004,38.03494771599998],[38.20764519200003,38.0373526890001],[38.207715559000064,38.03749663700012],[38.20891721000015,38.03780154400022],[38.21012066000003,38.03840694700011],[38.210108840000146,38.039705766000566],[38.21117172190776,38.04072023585127]]],"type":"Polygon"}},{"type":"Feature","properties":{"area_id":"TR-02-003-524","name_tr":"Kaya","area_level":"neighbourhood","parent_id":"TR-02-003","endeksa_id":524},"geometry":{"coordinates":[[[38.18785732751104,38.04200064728968],[38.18755032473172,38.04310303917197],[38.18726000000021,38.04288000000048],[38.18604000000016,38.04313000000019],[38.18549000000013,38.04313000000019],[38.18317000000019,38.04279000000014],[38.18079000000006,38.04226000000034],[38.17914000000013,38.04284000000018],[38.176030000000026,38.043610000000115],[38.17483000000004,38.04284000000018],[38.17316730380122,38.04327122499279],[38.168164530000126,38.038879060000056],[38.16499568000012,38.033120994],[38.16497969700015,38.03231906900004],[38.163841212000136,38.03103057699997],[38.16065657500019,38.025264096000114],[38.16031463000007,38.02362239000013],[38.158389180000086,38.021158480000054],[38.155245889339255,38.02016267040773],[38.155888118000064,38.01714585800022],[38.164413280000076,38.017125080000426],[38.16864985800015,38.01981558200009],[38.17538477600016,38.016061575000094],[38.177204542000084,38.01918207600045],[38.177035363000186,38.01927734500009],[38.17635800599999,38.02035407200043],[38.175482218000184,38.02410841400001],[38.17459378700016,38.02491391300015],[38.17408135300019,38.027155604000086],[38.17418293800017,38.027270591000274],[38.17833206900019,38.02762680900008],[38.17955654300005,38.02787123900009],[38.18107719600005,38.02879822800014],[38.183644561999984,38.03112435300028],[38.1863463040001,38.032188115],[38.188755666000134,38.03258366200032],[38.1888152140001,38.03264346600065],[38.188609909000036,38.03359921900005],[38.19046118,38.03433304000015],[38.186422430000164,38.03837734100034],[38.18785732751104,38.04200064728968]]],"type":"Polygon"}},{"type":"Feature","properties":{"area_id":"TR-02-003-511","name_tr":"Yunus Emre","area_level":"neighbourhood","parent_id":"TR-02-003","endeksa_id":511},"geometry":{"coordinates":[[[38.2376900000001,38.03540000000032],[38.23658000000012,38.03705000000019],[38.23259000000019,38.03705000000019],[38.23189000000019,38.036860000000104],[38.23061000000018,38.03671000000014],[38.23079000000013,38.036330000000135],[38.230670000000146,38.035800000000165],[38.230360000000076,38.03543000000013],[38.23114000000015,38.034490000000346],[38.23118000000005,38.03412000000043],[38.231410000000096,38.033750000000396],[38.231850000000065,38.03336000000007],[38.23192000000017,38.032520000000204],[38.2316100000001,38.03195000000011],[38.23217000000011,38.03195000000011],[38.23236000000003,38.03136000000018],[38.232350000000054,38.03074000000004],[38.23209000000003,38.030190000000175],[38.23209000000003,38.02942000000024],[38.23269000000016,38.027770000000146],[38.23276000000027,38.02709000000016],[38.23405000000042,38.027040000000284],[38.23567000000031,38.0274500000001],[38.23576000000031,38.02768000000066],[38.23729000000026,38.028460000000564],[38.23741000000024,38.02971000000025],[38.23743000000013,38.03021000000024],[38.237730000000056,38.031550000000266],[38.23803000000021,38.03181000000029],[38.238290000000234,38.03328000000056],[38.2376900000001,38.03540000000032]]],"type":"Polygon"}},{"type":"Feature","properties":{"area_id":"TR-02-003-2000728","name_tr":"Karaçayır Köyü","area_level":"neighbourhood","parent_id":"TR-02-003","endeksa_id":2000728},"geometry":{"coordinates":[[[38.41819722916949,38.05448867952214],[38.41664153754044,38.054908469326335],[38.41055011736563,38.05348079272272],[38.40717128273735,38.05286213286104],[38.404553875630825,38.05152963469857],[38.40236477150546,38.04967365511379],[38.39793897403473,38.0466279450261],[38.395315475612335,38.04455886140522],[38.39520884012717,38.04231172038283],[38.39487632379911,38.042189706497766],[38.39482000000032,38.03858000000014],[38.39512000000025,38.03696000000093],[38.39512000000025,38.0365700000001],[38.39439000000027,38.03468000000004],[38.398930000000405,38.03561000000025],[38.40258518329722,38.03375867339588],[38.402514134043656,38.03388679333915],[38.40267127400034,38.034177416000375],[38.40458471100027,38.03359662500037],[38.414019520000295,38.03659673000021],[38.42544161000035,38.03517245000046],[38.43319433000016,38.035956655000234],[38.43031739900027,38.04532322100039],[38.42979000000025,38.04540000000026],[38.4288300000004,38.04583000000031],[38.42843000000033,38.045810000000074],[38.42659000000032,38.045250000000635],[38.42603000000037,38.044910000000755],[38.42487000000028,38.04504000000031],[38.4217100000003,38.045930000000055],[38.41998000000035,38.04631000000023],[38.41870000000034,38.046400000000574],[38.41810000000021,38.04709000000065],[38.41658000000024,38.04927000000055],[38.41671000000031,38.05136000000027],[38.418050000000335,38.054020000000264],[38.41819722916949,38.05448867952214]]],"type":"Polygon"}},{"type":"Feature","properties":{"area_id":"TR-02-003-2000726","name_tr":"Askerhan Köyü","area_level":"neighbourhood","parent_id":"TR-02-003","endeksa_id":2000726},"geometry":{"coordinates":[[[38.43476291424258,38.07155442768146],[38.43338000000011,38.0720300000001],[38.43137000000007,38.07209000000006],[38.42835000000014,38.071980000000224],[38.427710000000104,38.07181000000037],[38.425480000000164,38.07090000000039],[38.422750000000235,38.07039000000009],[38.41952000000015,38.068980000000124],[38.41779000000014,38.068360000000155],[38.414850000000285,38.066440000000284],[38.41515000000021,38.06598000000059],[38.41865000000024,38.063090000000216],[38.41833000000025,38.06194000000028],[38.41818000000029,38.060120000000325],[38.41833000000025,38.05895000000015],[38.41862000000026,38.05781000000036],[38.41865000000024,38.05593000000039],[38.418050000000335,38.054020000000264],[38.41671000000031,38.05136000000027],[38.41658000000024,38.04927000000055],[38.41810000000021,38.04709000000065],[38.41870000000034,38.046400000000574],[38.41998000000035,38.04631000000023],[38.4217100000003,38.045930000000055],[38.42487000000028,38.04504000000031],[38.42603000000037,38.044910000000755],[38.42659000000032,38.045250000000635],[38.42843000000033,38.045810000000074],[38.4288300000004,38.04583000000031],[38.42979000000025,38.04540000000026],[38.43031739900027,38.04532322100039],[38.43316048700029,38.03606731300016],[38.4333242000003,38.035997235000764],[38.437544447000334,38.0373144510005],[38.437632492000205,38.03749506000025],[38.43793659000016,38.040740066000524],[38.43457413600015,38.044496525000056],[38.43438496096803,38.046203010417],[38.43352000000016,38.046210000000315],[38.43364000000014,38.04863000000017],[38.433620000000076,38.05013000000065],[38.43280000000004,38.050390000000164],[38.432140000000174,38.050420000000486],[38.43175000000025,38.050610000000574],[38.43182000000019,38.05087000000009],[38.432450000000074,38.05133000000046],[38.43162000000012,38.052650000000256],[38.432700000000125,38.05324000000007],[38.437220000000195,38.05217000000033],[38.44374000000022,38.05164000000053],[38.439200000000085,38.05686000000043],[38.43741000000011,38.05983000000032],[38.43645000000009,38.06642000000005],[38.436040000000105,38.06816000000032],[38.43559000000016,38.071270000000425],[38.43476291424258,38.07155442768146]]],"type":"Polygon"}},{"type":"Feature","properties":{"area_id":"TR-02-003-2000738","name_tr":"Yeşilyayla Köyü","area_level":"neighbourhood","parent_id":"TR-02-003","endeksa_id":2000738},"geometry":{"coordinates":[[[38.356400000000065,38.059490000000096],[38.354550000000074,38.05862000000042],[38.3528300000001,38.05974000000015],[38.350610000000074,38.06072000000006],[38.346730000000036,38.06164000000018],[38.345780000000104,38.06302000000011],[38.34425000000016,38.06254000000018],[38.342220000000054,38.06255000000016],[38.339150000000075,38.063190000000134],[38.33731000000006,38.063090000000045],[38.336600000000146,38.06215000000043],[38.334720000000175,38.06168000000008],[38.334070000000054,38.06115000000011],[38.33390000000003,38.06070000000017],[38.331960000000095,38.05860000000018],[38.330910000000074,38.04932000000042],[38.33019000000019,38.045890000000156],[38.330100000000186,38.0448600000002],[38.330320000000086,38.043570000000045],[38.33053000000007,38.04320000000013],[38.33024000000006,38.04263000000043],[38.331470000000195,38.038340000000176],[38.33135000000004,38.0222700000005],[38.334850000000074,38.02240000000006],[38.33739000000014,38.02312000000012],[38.34025000000014,38.02314000000018],[38.343950000000234,38.02363000000008],[38.344200000000114,38.0237700000003],[38.35238000000015,38.02444000000031],[38.356120000000146,38.024030000000096],[38.35879000000011,38.02519000000052],[38.36132000000015,38.02469000000036],[38.36340000000013,38.025880000000086],[38.36286000000024,38.026940000000366],[38.3619700000001,38.02834000000041],[38.361490000000174,38.02950000000044],[38.3601900000001,38.0321400000002],[38.35974000000016,38.0332200000002],[38.359340000000145,38.035490000000095],[38.36059000000017,38.039490000000114],[38.369470000000035,38.04084000000012],[38.37584000000004,38.04095000000012],[38.37792000000036,38.0405800000006],[38.37613000000022,38.04224000000028],[38.37476000000021,38.04509000000019],[38.37454000000031,38.045780000000434],[38.374490000000435,38.04684000000003],[38.373440000000414,38.04731000000055],[38.372070000000406,38.04821000000095],[38.37003000000033,38.04898000000071],[38.36879000000022,38.04935000000023],[38.36849000000029,38.049740000001066],[38.367160000000354,38.050270000000864],[38.36649000000034,38.0520200000002],[38.36660994687185,38.05347935360311],[38.366190000000074,38.05456000000004],[38.36475000000013,38.054850000000386],[38.36417000000006,38.055810000000236],[38.36273000000011,38.05663000000004],[38.36274000000026,38.057480000000055],[38.36181000000005,38.05843000000033],[38.35881000000012,38.05769000000021],[38.35796000000016,38.05834000000016],[38.35698000000008,38.05926000000005],[38.356400000000065,38.059490000000096]]],"type":"Polygon"}},{"type":"Feature","properties":{"area_id":"TR-02-003-2000731","name_tr":"Köseuşağı Köyü","area_level":"neighbourhood","parent_id":"TR-02-003","endeksa_id":2000731},"geometry":{"coordinates":[[[38.334720000000175,38.06168000000008],[38.33457000000004,38.06164000000018],[38.32721000000015,38.06260000000003],[38.32631000000015,38.06209000000007],[38.32507000000004,38.0622000000003],[38.32367000000016,38.06307000000038],[38.32294000000019,38.063060000000405],[38.321990000000085,38.062660000000164],[38.32039000000003,38.06268000000023],[38.317460000000096,38.062440000000265],[38.31587000000019,38.06378000000029],[38.31172000000015,38.068170000000066],[38.31082000000015,38.06858000000028],[38.3082500000001,38.06733000000003],[38.306870000000174,38.0679300000001],[38.30590000000018,38.06818000000055],[38.304790000000196,38.067400000000134],[38.303370000000086,38.06784000000016],[38.30234000000013,38.06735000000009],[38.29728000000017,38.06827000000021],[38.28984000000008,38.066620000000114],[38.289370000000076,38.0654600000002],[38.28737000000018,38.06394000000006],[38.28493000000009,38.06320000000062],[38.28106000000014,38.06290000000013],[38.27889000000022,38.061070000000086],[38.27751000000006,38.06031000000024],[38.2759700000002,38.060460000000035],[38.27455000000009,38.06088000000051],[38.27412000000021,38.06070000000017],[38.27389000000005,38.05914000000007],[38.272920000000056,38.055810000000236],[38.27220000000017,38.0541300000005],[38.27362000000005,38.05108000000041],[38.27392000000003,38.04925000000031],[38.27412000000021,38.04900000000026],[38.27451000000019,38.047040000000095],[38.27665000000013,38.04687000000024],[38.278770000000236,38.045740000000364],[38.278070000000184,38.04487000000029],[38.27643000000006,38.04391000000044],[38.27631000000008,38.04257000000041],[38.27811000000014,38.03898000000038],[38.278470000000084,38.037900000000036],[38.27549850544159,38.03720029545025],[38.275442868000084,38.037175441000045],[38.27555169400006,38.03720433100045],[38.276230346000034,38.036379126000156],[38.27635832300007,38.0363442040001],[38.28525714500006,38.03887802900056],[38.28763935000006,38.03856416800011],[38.28860301800006,38.03767115200009],[38.28853860000004,38.03758237000005],[38.28196806800014,38.03480492100016],[38.27398319900004,38.03352292200009],[38.274130856000056,38.02151270200005],[38.27427612700012,38.02141597799999],[38.27413373700006,38.02131555100016],[38.27417039800014,38.018717113000434],[38.274256748587106,38.01810003526646],[38.28549000000004,38.01163000000014],[38.29350000000005,38.01376000000039],[38.30000000000018,38.01451000000009],[38.306590000000085,38.01649000000032],[38.31245000000018,38.01785000000018],[38.318400000000054,38.01943000000017],[38.33133000000015,38.022260000000415],[38.331358731704995,38.022128421852756],[38.3315083670559,38.022275882205804],[38.33135000000004,38.0222700000005],[38.331470000000195,38.038340000000176],[38.33024000000006,38.04263000000043],[38.33053000000007,38.04320000000013],[38.330320000000086,38.043570000000045],[38.330100000000186,38.0448600000002],[38.33019000000019,38.045890000000156],[38.330910000000074,38.04932000000042],[38.331960000000095,38.05860000000018],[38.33390000000003,38.06070000000017],[38.334070000000054,38.06115000000011],[38.334720000000175,38.06168000000008]]],"type":"Polygon"}},{"type":"Feature","properties":{"area_id":"TR-02-003-2000732","name_tr":"Mutlu Köyü","area_level":"neighbourhood","parent_id":"TR-02-003","endeksa_id":2000732},"geometry":{"coordinates":[[[38.41172293433749,38.10287872727548],[38.410010235023776,38.10297998625623],[38.41011902130293,38.1028464140166],[38.409980015222345,38.10273498958884],[38.39331770700028,38.101330249000625],[38.385085943000206,38.09819538100078],[38.383531421000214,38.09202138400019],[38.38992435600028,38.082264440000074],[38.3879660310003,38.07912397000047],[38.38834088800036,38.07595857700085],[38.3820188710003,38.06548149200023],[38.38173884200029,38.0610639500008],[38.37696236500028,38.05677512100027],[38.36660994687185,38.05347935360311],[38.36649000000034,38.0520200000002],[38.367160000000354,38.050270000000864],[38.36849000000029,38.049740000001066],[38.36879000000022,38.04935000000023],[38.37003000000033,38.04898000000071],[38.372070000000406,38.04821000000095],[38.373440000000414,38.04731000000055],[38.374490000000435,38.04684000000003],[38.37454000000031,38.045780000000434],[38.37476000000021,38.04509000000019],[38.37613000000022,38.04224000000028],[38.37792000000036,38.0405800000006],[38.38248000000033,38.04120000000023],[38.39487632379911,38.042189706497766],[38.39520884012717,38.04231172038283],[38.395315475612335,38.04455886140522],[38.39793897403473,38.0466279450261],[38.40236477150546,38.04967365511379],[38.404553875630825,38.05152963469857],[38.40717128273735,38.05286213286104],[38.41055011736563,38.05348079272272],[38.41664153754044,38.054908469326335],[38.41819722916949,38.05448867952214],[38.41865000000024,38.05593000000039],[38.41862000000026,38.05781000000036],[38.41833000000025,38.05895000000015],[38.41818000000029,38.060120000000325],[38.41833000000025,38.06194000000028],[38.41865000000024,38.063090000000216],[38.41515000000021,38.06598000000059],[38.414850000000285,38.066440000000284],[38.415213189146755,38.066677184748926],[38.41052372800027,38.0715816640008],[38.41132101900024,38.07662985500025],[38.40844820400031,38.07936155100032],[38.40869162200033,38.080209438000395],[38.407592892000196,38.08398672300024],[38.405525512000224,38.08847956500068],[38.40538555000035,38.091572660000224],[38.4115249540003,38.10252552500026],[38.41159045900014,38.10276818500006],[38.41172293433749,38.10287872727548]]],"type":"Polygon"}},{"type":"Feature","properties":{"area_id":"TR-02-003-2000729","name_tr":"Karagöl Köyü","area_level":"neighbourhood","parent_id":"TR-02-003","endeksa_id":2000729},"geometry":{"coordinates":[[[38.44439009464975,38.077310709740345],[38.442728327238285,38.079388590661324],[38.440780000000075,38.08085000000011],[38.44181000000003,38.08225000000016],[38.44213000000019,38.084650000000465],[38.44211000000013,38.08568000000042],[38.441370000000234,38.08684000000011],[38.44021000000015,38.087690000000464],[38.4407300000002,38.08875000000006],[38.44023000000004,38.08966000000004],[38.44022000000007,38.091310000000135],[38.4396900000001,38.09179000000006],[38.43909000000019,38.092550000000415],[38.43795000000023,38.09299000000004],[38.43789000000021,38.093700000000354],[38.43799000000013,38.09513000000004],[38.43739000000005,38.095800000000054],[38.43729000000013,38.09686000000033],[38.4369200000001,38.09708000000006],[38.43636000000009,38.09875000000039],[38.43676000000016,38.099820000000136],[38.4369200000001,38.10059000000058],[38.43602000000004,38.10243000000008],[38.43585000000019,38.10320000000053],[38.435510000000136,38.10394000000065],[38.435330000000135,38.10476000000028],[38.43503000000021,38.1053900000004],[38.434460000000115,38.1060300000002],[38.43153000000012,38.10484000000014],[38.42693000000003,38.10595000000069],[38.42373000000015,38.10526000000044],[38.42022000000014,38.10405000000037],[38.41778000000005,38.10335000000015],[38.41527000000019,38.10200000000003],[38.41421000000008,38.10180000000037],[38.41172293433749,38.10287872727548],[38.41159045900014,38.10276818500006],[38.4115249540003,38.10252552500026],[38.40538555000035,38.091572660000224],[38.405525512000224,38.08847956500068],[38.407592892000196,38.08398672300024],[38.40869162200033,38.080209438000395],[38.40844820400031,38.07936155100032],[38.41132101900024,38.07662985500025],[38.41052372800027,38.0715816640008],[38.415213189146755,38.066677184748926],[38.41779000000014,38.068360000000155],[38.41952000000015,38.068980000000124],[38.422750000000235,38.07039000000009],[38.425480000000164,38.07090000000039],[38.427710000000104,38.07181000000037],[38.42835000000014,38.071980000000224],[38.43137000000007,38.07209000000006],[38.43338000000011,38.0720300000001],[38.43476291424258,38.07155442768146],[38.44439009464975,38.077310709740345]]],"type":"Polygon"}},{"type":"Feature","properties":{"area_id":"TR-02-003-2000723","name_tr":"Bozgedik Köyü","area_level":"neighbourhood","parent_id":"TR-02-003","endeksa_id":2000723},"geometry":{"coordinates":[[[38.300240000000144,38.10102000000063],[38.27854000000019,38.101560000000404],[38.271190000000104,38.10243000000008],[38.267970000000105,38.10371000000009],[38.264740000000245,38.10372000000024],[38.26336000000009,38.10471000000041],[38.26294000000013,38.10657000000015],[38.260070000000155,38.108040000000244],[38.25655000000006,38.106920000000116],[38.25324000000012,38.10607000000016],[38.25234000000006,38.10365000000013],[38.253010000000074,38.10112000000038],[38.254680000000064,38.09863000000041],[38.25586000000021,38.09612000000021],[38.25668000000019,38.093540000000075],[38.25526000000008,38.092890000000125],[38.252200000000244,38.092050000000256],[38.24443000000019,38.091500000000224],[38.245040000000245,38.08892000000009],[38.24595000000022,38.086720000000355],[38.24860000000007,38.08199000000013],[38.25027000000006,38.07972000000041],[38.25113000000016,38.07876000000056],[38.25404000000026,38.0761500000001],[38.25594000000007,38.07416000000012],[38.25729000000018,38.07164000000034],[38.25847000000016,38.071170000000166],[38.26250000000016,38.07060000000041],[38.26513000000017,38.067990000000464],[38.26519000000013,38.067860000000394],[38.2649100000001,38.06215000000043],[38.269080000000145,38.062620000000265],[38.26937000000015,38.06258000000048],[38.269330000000025,38.0627300000001],[38.27053000000018,38.062320000000284],[38.27204000000006,38.06158000000016],[38.27251000000007,38.06159000000031],[38.27350000000007,38.061390000000074],[38.27412000000021,38.06070000000017],[38.27455000000009,38.06088000000051],[38.2759700000002,38.060460000000035],[38.27751000000006,38.06031000000024],[38.27889000000022,38.061070000000086],[38.28106000000014,38.06290000000013],[38.28493000000009,38.06320000000062],[38.28737000000018,38.06394000000006],[38.289370000000076,38.0654600000002],[38.28984000000008,38.066620000000114],[38.29728000000017,38.06827000000021],[38.2940200000001,38.07494000000014],[38.29329000000007,38.07668000000041],[38.2940200000001,38.08107000000041],[38.29503000000017,38.08290000000011],[38.296680000000094,38.08492000000007],[38.29960000000011,38.08693000000011],[38.30143000000015,38.08949000000018],[38.302900000000136,38.09334000000041],[38.30299000000008,38.096080000000086],[38.300240000000144,38.10102000000063]]],"type":"Polygon"}},{"type":"Feature","properties":{"area_id":"TR-02-003-521","name_tr":"Çamlıyayla","area_level":"neighbourhood","parent_id":"TR-02-003","endeksa_id":521},"geometry":{"coordinates":[[[38.17316730380122,38.04327122499279],[38.172680000000184,38.04530000000034],[38.173297006438816,38.0470287297519],[38.17352652900013,38.05367799500016],[38.172806765000075,38.05653405600009],[38.16698170000012,38.0649435910002],[38.1565846831237,38.078111845035835],[38.14051000000012,38.083690000000615],[38.135200000000225,38.08901000000043],[38.13406888871236,38.08880262959798],[38.15033550000021,38.07312090000062],[38.13706400000024,38.066511600000524],[38.13487530000015,38.04770240000033],[38.13429590000021,38.046181600000295],[38.133255200000235,38.04520150000053],[38.134274500000174,38.042607500000486],[38.13424230000021,38.03870380000029],[38.13156010000034,38.03568710000059],[38.133587800000214,38.033320900000206],[38.13337875000036,38.03077444600018],[38.133995083000286,38.029384270000264],[38.13792230000024,38.02784470000029],[38.1398535000003,38.02549530000073],[38.14221380000021,38.025385400000516],[38.144756500000256,38.02203010000022],[38.14532268246563,38.01994738716013],[38.150260000000344,38.01887000000056],[38.150397731672626,38.01862675459097],[38.158389180000086,38.021158480000054],[38.16031463000007,38.02362239000013],[38.16065657500019,38.025264096000114],[38.163841212000136,38.03103057699997],[38.16497969700015,38.03231906900004],[38.16499568000012,38.033120994],[38.168164530000126,38.038879060000056],[38.17316730380122,38.04327122499279]]],"type":"Polygon"}},{"type":"Feature","properties":{"area_id":"TR-02-003-2000730","name_tr":"Korucak Köyü","area_level":"neighbourhood","parent_id":"TR-02-003","endeksa_id":2000730},"geometry":{"coordinates":[[[38.410010235023776,38.10297998625623],[38.4055800000001,38.104750000000195],[38.40260000000012,38.10604000000035],[38.39955000000015,38.10532000000006],[38.39650000000006,38.10632000000004],[38.39492000000007,38.107510000000445],[38.39130000000006,38.109090000000435],[38.38994000000014,38.11077000000017],[38.38776000000007,38.112990000000536],[38.38504000000006,38.113730000000146],[38.3835900000002,38.11578000000031],[38.38065000000012,38.11697000000015],[38.37867000000006,38.11846000000037],[38.37593000000021,38.11763000000008],[38.37578000000019,38.114170000000115],[38.374830000000145,38.108350000000314],[38.37429000000003,38.10558000000009],[38.37475000000006,38.10253000000051],[38.361350000000186,38.08671000000038],[38.35952000000009,38.084710000000314],[38.35850000000005,38.08199000000013],[38.35856000000007,38.07713000000069],[38.36069000000009,38.07405000000023],[38.36164000000019,38.07070000000016],[38.361170000000186,38.06647000000032],[38.35777000000007,38.06276000000008],[38.356400000000065,38.059490000000096],[38.35698000000008,38.05926000000005],[38.35796000000016,38.05834000000016],[38.35881000000012,38.05769000000021],[38.36181000000005,38.05843000000033],[38.36274000000026,38.057480000000055],[38.36273000000011,38.05663000000004],[38.36417000000006,38.055810000000236],[38.36475000000013,38.054850000000386],[38.366190000000074,38.05456000000004],[38.36660994687185,38.05347935360311],[38.37696236500028,38.05677512100027],[38.38173884200029,38.0610639500008],[38.3820188710003,38.06548149200023],[38.38834088800036,38.07595857700085],[38.3879660310003,38.07912397000047],[38.38992435600028,38.082264440000074],[38.383531421000214,38.09202138400019],[38.385085943000206,38.09819538100078],[38.39331770700028,38.101330249000625],[38.409980015222345,38.10273498958884],[38.41011902130293,38.1028464140166],[38.410010235023776,38.10297998625623]]],"type":"Polygon"}},{"type":"Feature","properties":{"area_id":"TR-02-003-2000725","name_tr":"Gölbağı Köyü","area_level":"neighbourhood","parent_id":"TR-02-003","endeksa_id":2000725},"geometry":{"coordinates":[[[38.18968000000007,38.10463000000021],[38.173110000000236,38.115220000000306],[38.15886000000012,38.11978000000033],[38.1566900000002,38.11294000000066],[38.14553000000012,38.10777000000064],[38.132790000000114,38.10516000000018],[38.129410000000235,38.09832000000051],[38.135200000000225,38.08901000000043],[38.14051000000012,38.083690000000615],[38.1565846831237,38.078111845035835],[38.16698170000012,38.0649435910002],[38.172806765000075,38.05653405600009],[38.17352652900013,38.05367799500016],[38.173297006438816,38.0470287297519],[38.172680000000184,38.04530000000034],[38.17316730380122,38.04327122499279],[38.17483000000004,38.04284000000018],[38.176030000000026,38.043610000000115],[38.17914000000013,38.04284000000018],[38.18079000000006,38.04226000000034],[38.18317000000019,38.04279000000014],[38.18549000000013,38.04313000000019],[38.18604000000016,38.04313000000019],[38.18726000000021,38.04288000000048],[38.18755032473172,38.04310303917197],[38.18785732751104,38.04200064728968],[38.18803142797003,38.04208785749813],[38.19291780300017,38.04147406600015],[38.193023122000056,38.041541548000225],[38.19344468700007,38.04287755600012],[38.20249852000018,38.04334172000017],[38.204960000000085,38.0426800000003],[38.21117172190776,38.04072023585127],[38.213731808171985,38.040739269949654],[38.22117069600006,38.03715276100013],[38.22323000000006,38.03814000000051],[38.22845000000012,38.03813000000042],[38.22957000000008,38.036450000000116],[38.23061000000018,38.03671000000014],[38.23189000000019,38.036860000000104],[38.23259000000019,38.03705000000019],[38.23658000000012,38.03705000000019],[38.2376900000001,38.03540000000032],[38.238220000000126,38.035980000000166],[38.23932000000019,38.03654000000029],[38.24047000000013,38.037810000000206],[38.24094000000008,38.03925000000015],[38.242410000000234,38.038060000000314],[38.24249000000009,38.03845000000058],[38.24332000000021,38.039270000000215],[38.245420000000195,38.03895000000006],[38.24595000000022,38.03895000000006],[38.247080000000096,38.03928000000036],[38.24747000000019,38.03951000000018],[38.248140000000205,38.04013000000032],[38.24995000000024,38.040850000000205],[38.25044000000008,38.04133000000013],[38.25160000000017,38.04174000000012],[38.252850000000194,38.04266000000007],[38.25505000000015,38.04364000000015],[38.25661000000008,38.0446800000002],[38.257220000000075,38.04487000000029],[38.25945000000024,38.046020000000226],[38.262170000000026,38.04586000000012],[38.26290000000023,38.04600000000016],[38.264060000000086,38.046020000000226],[38.26501000000019,38.045810000000074],[38.266010000000165,38.04538000000019],[38.26693000000006,38.04511000000025],[38.26779000000016,38.04523000000023],[38.2697100000002,38.04530000000034],[38.27228000000025,38.04600000000016],[38.27331000000021,38.04636000000011],[38.2743200000001,38.04631000000006],[38.27451000000019,38.047040000000095],[38.27412000000021,38.04900000000026],[38.27392000000003,38.04925000000031],[38.27362000000005,38.05108000000041],[38.27220000000017,38.0541300000005],[38.272920000000056,38.055810000000236],[38.27389000000005,38.05914000000007],[38.27412000000021,38.06070000000017],[38.27350000000007,38.061390000000074],[38.27251000000007,38.06159000000031],[38.27204000000006,38.06158000000016],[38.27053000000018,38.062320000000284],[38.269330000000025,38.0627300000001],[38.26937000000015,38.06258000000048],[38.269080000000145,38.062620000000265],[38.2649100000001,38.06215000000043],[38.26519000000013,38.067860000000394],[38.26513000000017,38.067990000000464],[38.26250000000016,38.07060000000041],[38.25847000000016,38.071170000000166],[38.25729000000018,38.07164000000034],[38.25594000000007,38.07416000000012],[38.25404000000026,38.0761500000001],[38.25113000000016,38.07876000000056],[38.25027000000006,38.07972000000041],[38.24860000000007,38.08199000000013],[38.24595000000022,38.086720000000355],[38.245040000000245,38.08892000000009],[38.24443000000019,38.091500000000224],[38.235250000000235,38.09025000000054],[38.22595000000007,38.09021000000007],[38.222120000000075,38.0896300000004],[38.217070000000206,38.09014000000013],[38.212730000000136,38.09393000000023],[38.20469000000014,38.09840000000003],[38.18968000000007,38.10463000000021]]],"type":"Polygon"}},{"type":"Feature","properties":{"area_id":"TR-02-003-2000722","name_tr":"Altıntaş Köyü","area_level":"neighbourhood","parent_id":"TR-02-003","endeksa_id":2000722},"geometry":{"coordinates":[[[38.297210000000064,38.11210000000011],[38.29605000000021,38.11223000000018],[38.29495000000014,38.112160000000074],[38.29347000000007,38.111910000000194],[38.29258000000016,38.11198000000013],[38.292680000000075,38.11240000000004],[38.29063000000008,38.112340000000074],[38.29024000000015,38.11326000000014],[38.289710000000184,38.11334000000039],[38.2852900000002,38.11245000000008],[38.282270000000096,38.11264000000017],[38.281620000000146,38.11282000000017],[38.28112000000016,38.11325000000005],[38.28034000000008,38.11310000000043],[38.279860000000156,38.11332000000016],[38.27854000000019,38.113210000000265],[38.27700000000016,38.11251000000061],[38.274900000000116,38.11217000000022],[38.2740500000001,38.11222000000009],[38.27242000000007,38.11274000000009],[38.27130000000017,38.11326000000014],[38.27031000000011,38.113980000000026],[38.26909000000006,38.115530000000376],[38.268180000000086,38.11738000000014],[38.26668000000018,38.11812000000009],[38.26294000000013,38.12317000000013],[38.26260000000008,38.12403000000023],[38.26158000000004,38.12484000000046],[38.258580000000165,38.12475000000012],[38.25512000000026,38.12621000000013],[38.25251000000014,38.12793000000033],[38.2519700000002,38.12635000000034],[38.25160000000017,38.123740000000396],[38.251790000000256,38.121910000000355],[38.251790000000256,38.118560000000286],[38.25115000000005,38.114080000000115],[38.25132000000008,38.11170000000038],[38.25316000000009,38.10898000000003],[38.25324000000012,38.10607000000016],[38.25655000000006,38.106920000000116],[38.260070000000155,38.108040000000244],[38.26294000000013,38.10657000000015],[38.26336000000009,38.10471000000041],[38.264740000000245,38.10372000000024],[38.267970000000105,38.10371000000009],[38.271190000000104,38.10243000000008],[38.27854000000019,38.101560000000404],[38.300240000000144,38.10102000000063],[38.29924000000017,38.10368000000045],[38.298600000000135,38.105960000000096],[38.29756000000009,38.11006000000003],[38.297210000000064,38.11210000000011]]],"type":"Polygon"}},{"type":"Feature","properties":{"area_id":"TR-02-003-2000735","name_tr":"Şerefhan Köyü","area_level":"neighbourhood","parent_id":"TR-02-003","endeksa_id":2000735},"geometry":{"coordinates":[[[38.309014363194706,38.12763039000521],[38.30869000000013,38.127920000000245],[38.307550000000106,38.12794000000031],[38.30627000000004,38.12660000000028],[38.30546000000021,38.12499000000008],[38.30116000000004,38.11904000000021],[38.300240000000144,38.11744000000067],[38.29818000000023,38.11432000000008],[38.297210000000064,38.11210000000011],[38.29756000000009,38.11006000000003],[38.298600000000135,38.105960000000096],[38.29924000000017,38.10368000000045],[38.300240000000144,38.10102000000063],[38.30299000000008,38.096080000000086],[38.302900000000136,38.09334000000041],[38.30143000000015,38.08949000000018],[38.29960000000011,38.08693000000011],[38.296680000000094,38.08492000000007],[38.29503000000017,38.08290000000011],[38.2940200000001,38.08107000000041],[38.29329000000007,38.07668000000041],[38.2940200000001,38.07494000000014],[38.29728000000017,38.06827000000021],[38.30234000000013,38.06735000000009],[38.303370000000086,38.06784000000016],[38.304790000000196,38.067400000000134],[38.30590000000018,38.06818000000055],[38.306870000000174,38.0679300000001],[38.3082500000001,38.06733000000003],[38.31082000000015,38.06858000000028],[38.31172000000015,38.068170000000066],[38.31587000000019,38.06378000000029],[38.317460000000096,38.062440000000265],[38.32039000000003,38.06268000000023],[38.321990000000085,38.062660000000164],[38.32294000000019,38.063060000000405],[38.32367000000016,38.06307000000038],[38.32507000000004,38.0622000000003],[38.32631000000015,38.06209000000007],[38.32721000000015,38.06260000000003],[38.33457000000004,38.06164000000018],[38.336600000000146,38.06215000000043],[38.33731000000006,38.063090000000045],[38.339150000000075,38.063190000000134],[38.342220000000054,38.06255000000016],[38.34425000000016,38.06254000000018],[38.345780000000104,38.06302000000011],[38.346730000000036,38.06164000000018],[38.350610000000074,38.06072000000006],[38.3528300000001,38.05974000000015],[38.354550000000074,38.05862000000042],[38.356400000000065,38.059490000000096],[38.35777000000007,38.06276000000008],[38.361170000000186,38.06647000000032],[38.36164000000019,38.07070000000016],[38.36069000000009,38.07405000000023],[38.35856000000007,38.07713000000069],[38.35850000000005,38.08199000000013],[38.35952000000009,38.084710000000314],[38.361350000000186,38.08671000000038],[38.37475000000006,38.10253000000051],[38.37429000000003,38.10558000000009],[38.374830000000145,38.108350000000314],[38.37578000000019,38.114170000000115],[38.37593000000021,38.11763000000008],[38.37473000000023,38.11725000000058],[38.37224000000026,38.11729000000037],[38.36934000000008,38.11669000000029],[38.3662700000001,38.11713000000009],[38.363870000000134,38.11800000000011],[38.36109000000016,38.11818000000011],[38.35703000000012,38.11790000000036],[38.353460000000155,38.11803000000032],[38.34978000000012,38.11892000000023],[38.34725000000026,38.11823000000015],[38.34418000000005,38.11617000000007],[38.339890000000025,38.11537852440529],[38.33106730374965,38.11285219725073],[38.327690000000075,38.11595000000034],[38.326690000000156,38.118010000000254],[38.324190000000044,38.12012000000004],[38.320930000000146,38.125070000000335],[38.318360000000155,38.12614000000019],[38.31624000000005,38.126250000000596],[38.31404000000009,38.1265200000002],[38.310854757813445,38.12711847974293],[38.309014363194706,38.12763039000521]]],"type":"Polygon"}},{"type":"Feature","properties":{"area_id":"TR-02-003-2000727","name_tr":"Kalecik Köyü","area_level":"neighbourhood","parent_id":"TR-02-003","endeksa_id":2000727},"geometry":{"coordinates":[[[38.30627000000004,38.12660000000028],[38.306160000000034,38.12679000000037],[38.305140000000165,38.12758000000014],[38.304920000000095,38.12797000000012],[38.304360000000145,38.12855000000047],[38.30095000000006,38.12939000000034],[38.293830000000185,38.13014000000004],[38.28305000000012,38.1336800000002],[38.28038000000004,38.134400000000085],[38.2757000000002,38.134830000000136],[38.27197000000018,38.136100000000056],[38.26865000000009,38.13689000000005],[38.26472000000018,38.13745000000006],[38.26158000000004,38.13844000000023],[38.258330000000115,38.13569000000007],[38.25487000000015,38.131390000000295],[38.25251000000014,38.12793000000033],[38.25512000000026,38.12621000000013],[38.258580000000165,38.12475000000012],[38.26158000000004,38.12484000000046],[38.26260000000008,38.12403000000023],[38.26294000000013,38.12317000000013],[38.26668000000018,38.11812000000009],[38.268180000000086,38.11738000000014],[38.26909000000006,38.115530000000376],[38.27031000000011,38.113980000000026],[38.27130000000017,38.11326000000014],[38.27242000000007,38.11274000000009],[38.2740500000001,38.11222000000009],[38.274900000000116,38.11217000000022],[38.27700000000016,38.11251000000061],[38.27854000000019,38.113210000000265],[38.279860000000156,38.11332000000016],[38.28034000000008,38.11310000000043],[38.28112000000016,38.11325000000005],[38.281620000000146,38.11282000000017],[38.282270000000096,38.11264000000017],[38.2852900000002,38.11245000000008],[38.289710000000184,38.11334000000039],[38.29024000000015,38.11326000000014],[38.29063000000008,38.112340000000074],[38.292680000000075,38.11240000000004],[38.29258000000016,38.11198000000013],[38.29347000000007,38.111910000000194],[38.29495000000014,38.112160000000074],[38.29605000000021,38.11223000000018],[38.297210000000064,38.11210000000011],[38.29818000000023,38.11432000000008],[38.300240000000144,38.11744000000067],[38.30116000000004,38.11904000000021],[38.30546000000021,38.12499000000008],[38.30627000000004,38.12660000000028]]],"type":"Polygon"}},{"type":"Feature","properties":{"area_id":"TR-02-003-2000724","name_tr":"Çampınar Köyü","area_level":"neighbourhood","parent_id":"TR-02-003","endeksa_id":2000724},"geometry":{"coordinates":[[[38.28975000000008,38.20625000000041],[38.28752000000014,38.20897000000025],[38.28134000000006,38.20960000000048],[38.2762800000001,38.20902000000012],[38.27641000000017,38.20938000000007],[38.2687600000001,38.20621000000011],[38.26516000000015,38.20753000000008],[38.263320000000135,38.20915000000019],[38.262420000000134,38.21064000000018],[38.26083000000017,38.20631000000043],[38.25896904750692,38.20206853974929],[38.25842611525326,38.201549097340944],[38.25492000000003,38.19936000000018],[38.2514900000001,38.195880000000045],[38.238100000000145,38.18748000000062],[38.224220000000116,38.17318000000034],[38.222830000000215,38.1677500000003],[38.21985000000018,38.16331000000025],[38.2159200000001,38.16040000000038],[38.216850000000136,38.15584000000035],[38.214560000000176,38.14885000000038],[38.21307000000019,38.14758000000046],[38.20732000000015,38.14575000000042],[38.20083000000017,38.14539000000008],[38.198550000000125,38.143960000000106],[38.195890000000134,38.14200000000062],[38.19478000000015,38.141800000000046],[38.19406000000009,38.13857000000036],[38.1922100000001,38.13481000000007],[38.191890000000114,38.133750000000134],[38.19033000000019,38.13240000000019],[38.19089000000014,38.13122000000004],[38.190090000000055,38.12826000000064],[38.19004000000018,38.12000000000006],[38.19069000000013,38.115660000000105],[38.189470000000085,38.11034000000012],[38.18968000000007,38.10463000000021],[38.20469000000014,38.09840000000003],[38.212730000000136,38.09393000000023],[38.217070000000206,38.09014000000013],[38.222120000000075,38.0896300000004],[38.22595000000007,38.09021000000007],[38.235250000000235,38.09025000000054],[38.24443000000019,38.091500000000224],[38.252200000000244,38.092050000000256],[38.25526000000008,38.092890000000125],[38.25668000000019,38.093540000000075],[38.25586000000021,38.09612000000021],[38.254680000000064,38.09863000000041],[38.253010000000074,38.10112000000038],[38.25234000000006,38.10365000000013],[38.25324000000012,38.10607000000016],[38.25316000000009,38.10898000000003],[38.25132000000008,38.11170000000038],[38.25115000000005,38.114080000000115],[38.251790000000256,38.118560000000286],[38.251790000000256,38.121910000000355],[38.25160000000017,38.123740000000396],[38.2519700000002,38.12635000000034],[38.25251000000014,38.12793000000033],[38.25487000000015,38.131390000000295],[38.258330000000115,38.13569000000007],[38.26158000000004,38.13844000000023],[38.26105000000007,38.14097000000015],[38.26634000000007,38.14597000000015],[38.270570000000134,38.150970000000314],[38.267130000000066,38.15527000000009],[38.27094000000022,38.15872000000007],[38.27517000000006,38.16362000000032],[38.276920000000075,38.164470000000335],[38.27960000000013,38.16643000000033],[38.28322169830744,38.17762118143696],[38.285740000000146,38.185290000000066],[38.28781000000015,38.19262000000032],[38.28975000000008,38.20625000000041]]],"type":"Polygon"}}]}