{"type":"FeatureCollection","source_id":"endeksa","retrieved_at":"2026-08-23","features":[{"type":"Feature","properties":{"area_id":"TR-12-008-2006190","name_tr":"Elmalı Köyü","area_level":"neighbourhood","parent_id":"TR-12-008","endeksa_id":2006190},"geometry":{"coordinates":[[[40.67966000000007,39.41367000000048],[40.670690000000036,39.415940000000035],[40.6649300000002,39.415450000000135],[40.65197000000012,39.415760000000034],[40.64922000000013,39.41791000000029],[40.64922000000013,39.420960000000264],[40.64790000000016,39.423810000000344],[40.64395000000019,39.428090000000054],[40.6429973034364,39.42948825427243],[40.63493508500011,39.39742650900007],[40.634810599000105,39.39728909300021],[40.62613633700005,39.396590632000084],[40.61786996900014,39.397901160000174],[40.616456079000045,39.398368797000046],[40.616292817000044,39.39830368700012],[40.614948981000055,39.394861877000096],[40.613170229000104,39.39319903800009],[40.607505742000114,39.39111444600064],[40.60671030500015,39.390636624000365],[40.60102371400012,39.38690692400013],[40.59855627400003,39.38432745000006],[40.59684465900011,39.381792370000085],[40.592822338000076,39.37460362900009],[40.590934968000056,39.371498727000244],[40.58819494599999,39.367181497000615],[40.58760626900005,39.366566929000214],[40.58470587400018,39.36441164400014],[40.57878672200013,39.36194544300014],[40.57734629000015,39.36104791300045],[40.577452298000026,39.35847554700024],[40.57686735900006,39.35704669500018],[40.57578511200012,39.35560069700023],[40.57582199000018,39.35546191800006],[40.58555247100014,39.35058890500051],[40.586001278000026,39.3502152210005],[40.58597936100011,39.350076913000066],[40.58611705300012,39.350122020000185],[40.58689448100017,39.34991501899998],[40.59017804300004,39.34660430000042],[40.59490785100007,39.343775670000184],[40.60138770399999,39.34255262500011],[40.60567003800014,39.34080889900008],[40.609762639999985,39.34011624800041],[40.61700069600005,39.33566895400014],[40.62029278400013,39.33235329000007],[40.624864418000016,39.33153161300004],[40.63044574700007,39.33127618400016],[40.63056372900007,39.33132555200012],[40.631468077000136,39.33259250300006],[40.63540454900004,39.33491347199998],[40.636791934000144,39.33633856700004],[40.63963970000009,39.33974844700009],[40.64210019100017,39.344935504000546],[40.64234870600001,39.34560840099999],[40.64130268800017,39.350675709000086],[40.64687712900019,39.360168452000096],[40.64717030999998,39.3650596610002],[40.64696455600006,39.3719714130001],[40.647845099000165,39.374422717000414],[40.64870593900014,39.3763690560001],[40.651614271000085,39.37945858200044],[40.65416947500012,39.3830269660001],[40.656613683000046,39.38994539100014],[40.65912532800007,39.39458128000007],[40.66556038400017,39.402526400000056],[40.66624085200016,39.404071114000146],[40.668055997000124,39.404652902000294],[40.67504219700015,39.4044449860005],[40.67516198559855,39.404369602787256],[40.67502000000019,39.40474000000006],[40.67768000000018,39.410990000000425],[40.67966000000007,39.41367000000048]]],"type":"Polygon"}},{"type":"Feature","properties":{"area_id":"TR-12-008-2006189","name_tr":"Dinarbey Köyü","area_level":"neighbourhood","parent_id":"TR-12-008","endeksa_id":2006189},"geometry":{"coordinates":[[[40.67516198559855,39.404369602787256],[40.67504219700015,39.4044449860005],[40.668055997000124,39.404652902000294],[40.66624085200016,39.404071114000146],[40.66556038400017,39.402526400000056],[40.65912532800007,39.39458128000007],[40.656613683000046,39.38994539100014],[40.65416947500012,39.3830269660001],[40.651614271000085,39.37945858200044],[40.64870593900014,39.3763690560001],[40.647845099000165,39.374422717000414],[40.64696455600006,39.3719714130001],[40.64717030999998,39.3650596610002],[40.64687712900019,39.360168452000096],[40.64130268800017,39.350675709000086],[40.64234870600001,39.34560840099999],[40.64210019100017,39.344935504000546],[40.63963970000009,39.33974844700009],[40.636791934000144,39.33633856700004],[40.63540454900004,39.33491347199998],[40.631468077000136,39.33259250300006],[40.63056372900007,39.33132555200012],[40.63044574700007,39.33127618400016],[40.63123172400003,39.330833067000185],[40.63205091600008,39.32917272200035],[40.636962238000024,39.326695979000135],[40.641695317000085,39.324992029000384],[40.6457769750001,39.32425384800018],[40.64733390600003,39.3236082630001],[40.64926271400009,39.32105202700035],[40.65174564200004,39.31957396700011],[40.656080995000025,39.31982947000017],[40.6598090010001,39.321600679000085],[40.66704897400007,39.32292378600005],[40.667568125000116,39.32286614600008],[40.67254361700003,39.32089394600018],[40.67689697300017,39.319885494000005],[40.68308477000011,39.31987612400013],[40.68673618900016,39.31837426700048],[40.689429295000025,39.316925608000076],[40.69036453160891,39.31670899526273],[40.6903200000001,39.3175700000001],[40.692130000000134,39.31960000000038],[40.69232000000022,39.32352000000071],[40.691670000000045,39.33057000000014],[40.691760000000045,39.33427000000006],[40.69416000000024,39.33814000000035],[40.69384000000019,39.34202000000022],[40.69153000000023,39.34677000000028],[40.69103000000007,39.34926000000024],[40.69153000000023,39.35198000000008],[40.689000000000135,39.35871000000054],[40.68812000000014,39.36185000000029],[40.68623000000008,39.363560000000405],[40.68614000000008,39.366970000000435],[40.68255000000005,39.37240000000065],[40.68029000000013,39.374470000000144],[40.67608000000013,39.384130000000596],[40.67580000000004,39.38607000000053],[40.67525000000023,39.39608000000027],[40.67557000000005,39.399220000000184],[40.67525000000023,39.404140000000666],[40.67516198559855,39.404369602787256]]],"type":"Polygon"}},{"type":"Feature","properties":{"area_id":"TR-12-008-2006197","name_tr":"Şenköy Köyü","area_level":"neighbourhood","parent_id":"TR-12-008","endeksa_id":2006197},"geometry":{"coordinates":[[[40.56573380553266,39.41637218802833],[40.56301000000025,39.41367000000048],[40.56245000000007,39.41295000000059],[40.56151000000011,39.41126000000003],[40.560170000000085,39.40841000000012],[40.55790000000019,39.41060000000016],[40.55677000000014,39.412170000000174],[40.55580000000015,39.41373000000033],[40.55434000000014,39.415230000000236],[40.5503700000001,39.41786000000042],[40.54900000000009,39.41900000000027],[40.541680000000156,39.42249000000038],[40.540990000000136,39.42315000000042],[40.53981000000016,39.42396000000065],[40.53916000000021,39.424620000000175],[40.536250000000166,39.4262700000001],[40.53386000000012,39.427430000000186],[40.531020000000126,39.42812000000026],[40.53038000000009,39.428370000000314],[40.52722000000011,39.42997000000054],[40.52653000000004,39.42683000000011],[40.52680000000004,39.4263100000004],[40.526680000000056,39.42399000000029],[40.52691000000004,39.42275000000018],[40.52704000000017,39.422660000000405],[40.526990000000126,39.42225000000042],[40.52653000000004,39.42191000000014],[40.52632000000011,39.42149000000023],[40.526070000000175,39.42137000000025],[40.525970000000086,39.42088000000018],[40.52577000000008,39.42064000000022],[40.52631000000014,39.42017000000004],[40.52612000000005,39.41940000000011],[40.52595000000019,39.41934000000015],[40.525850000000105,39.41879000000063],[40.52643000000012,39.4184700000003],[40.525110000000154,39.41457000000037],[40.52577000000008,39.410930000000064],[40.52521000000007,39.40769000000023],[40.52593000000013,39.40477000000021],[40.52440000000024,39.40016000000037],[40.522870000000125,39.39817000000039],[40.52062000000012,39.396490000000085],[40.5172300000001,39.39562000000058],[40.516030000000114,39.395060000000285],[40.51530000000008,39.393200000000036],[40.51433000000014,39.39189000000033],[40.51350000000019,39.39158000000026],[40.51136000000008,39.38564000000048],[40.51144926915566,39.378805950214655],[40.5115551309799,39.37868902981597],[40.51770124500007,39.376915768],[40.52374454799997,39.37421423300003],[40.533966262000035,39.37187392600015],[40.54287630900012,39.37075495400006],[40.548663161000036,39.368621070000074],[40.555990809000036,39.366727783000556],[40.55954118500017,39.364696208000055],[40.56487166700015,39.36204825100026],[40.57027678800017,39.36018031900011],[40.572509560000185,39.35818692300052],[40.57441221900012,39.35613662700018],[40.57561836200017,39.355561664000106],[40.57578511200012,39.35560069700023],[40.57686735900006,39.35704669500018],[40.577452298000026,39.35847554700024],[40.577301305000105,39.362098050000384],[40.57761059300009,39.364749038000525],[40.57729974500012,39.36760528400009],[40.574754393000035,39.37228684900026],[40.57246541400008,39.378239963000055],[40.570179011000164,39.381578687000115],[40.56952734599997,39.38502911500029],[40.5690593970001,39.39681098300008],[40.57192093700007,39.40250132699998],[40.57391856900017,39.40600074700035],[40.57409488900015,39.406751814000586],[40.573965965000184,39.409552496000174],[40.57219233600006,39.41220720100068],[40.56849192600009,39.412976541000035],[40.565803655000025,39.415445105000174],[40.56573380553266,39.41637218802833]]],"type":"Polygon"}},{"type":"Feature","properties":{"area_id":"TR-12-008-10743","name_tr":"Kabaoluk","area_level":"neighbourhood","parent_id":"TR-12-008","endeksa_id":10743},"geometry":{"coordinates":[[[40.50836000000015,39.434680000000185],[40.503730000000076,39.43581000000006],[40.49950886978155,39.43725528036333],[40.49885000000006,39.43520000000018],[40.49898000000019,39.434960000000046],[40.499000000000194,39.434590000000526],[40.49934000000013,39.43383000000017],[40.49919000000011,39.43351000000018],[40.498500000000035,39.43336000000039],[40.49771000000004,39.43296000000066],[40.49778000000015,39.43284000000017],[40.497720000000186,39.43269000000038],[40.4968300000001,39.43218000000007],[40.49662000000012,39.431490000000395],[40.49647000000016,39.431340000000205],[40.49635000000018,39.430560000000355],[40.49586000000011,39.429980000000114],[40.49578000000008,39.429820000000234],[40.49581000000006,39.429540000000486],[40.495530000000144,39.429320000000075],[40.49539000000016,39.42895000000016],[40.49550000000016,39.42835000000008],[40.49603000000013,39.42817000000014],[40.496420000000114,39.42733000000027],[40.496760000000165,39.4270200000002],[40.49687000000017,39.4268000000003],[40.496800000000064,39.42654000000027],[40.49660000000006,39.426290000000165],[40.496640000000184,39.42594000000037],[40.49700000000013,39.42529000000019],[40.497010000000046,39.424770000000194],[40.496760000000165,39.424060000000395],[40.4968300000001,39.42364000000032],[40.496980000000065,39.42342000000019],[40.49693000000019,39.422820000000115],[40.4966100000002,39.42246000000017],[40.49608000000018,39.422480000000405],[40.49589000000009,39.42219000000057],[40.49514000000005,39.42172000000005],[40.49125000000009,39.42022000000031],[40.48893000000015,39.41815000000025],[40.48839000000004,39.41779000000031],[40.487320000000125,39.417340000000195],[40.484900000000096,39.4170400000001],[40.484780000000114,39.41429000000062],[40.48696000000018,39.41143000000005],[40.48776000000015,39.409750000000145],[40.48897000000005,39.40881000000053],[40.49146000000019,39.4065700000001],[40.491710000000126,39.40483000000023],[40.49074000000013,39.404270000000054],[40.48969000000011,39.40440000000018],[40.48816000000022,39.4049600000003],[40.48631000000006,39.40452000000016],[40.48454000000015,39.40471000000025],[40.48253000000011,39.40471000000025],[40.47996000000012,39.404550000000484],[40.480380000000025,39.40364000000051],[40.4799500000002,39.401660000000106],[40.479070000000036,39.400150000000224],[40.47712121715006,39.39622245302564],[40.483350000000144,39.39341000000036],[40.48556000000019,39.3910800000001],[40.4890900000002,39.39012000000025],[40.493070000000216,39.3888300000001],[40.496730000000184,39.3868300000002],[40.499180000000194,39.38492000000008],[40.50133000000011,39.384030000000166],[40.506060000000105,39.380840000000376],[40.51145000000025,39.37875000000025],[40.51136000000008,39.38564000000048],[40.51350000000019,39.39158000000026],[40.51433000000014,39.39189000000033],[40.51530000000008,39.393200000000036],[40.516030000000114,39.395060000000285],[40.5172300000001,39.39562000000058],[40.52062000000012,39.396490000000085],[40.522870000000125,39.39817000000039],[40.52440000000024,39.40016000000037],[40.52593000000013,39.40477000000021],[40.52521000000007,39.40769000000023],[40.52577000000008,39.410930000000064],[40.525110000000154,39.41457000000037],[40.52643000000012,39.4184700000003],[40.525850000000105,39.41879000000063],[40.52595000000019,39.41934000000015],[40.52612000000005,39.41940000000011],[40.52631000000014,39.42017000000004],[40.52577000000008,39.42064000000022],[40.525970000000086,39.42088000000018],[40.526070000000175,39.42137000000025],[40.52632000000011,39.42149000000023],[40.52653000000004,39.42191000000014],[40.526990000000126,39.42225000000042],[40.52704000000017,39.422660000000405],[40.52691000000004,39.42275000000018],[40.526680000000056,39.42399000000029],[40.52680000000004,39.4263100000004],[40.52653000000004,39.42683000000011],[40.52722000000011,39.42997000000054],[40.520980000000236,39.430500000000336],[40.51565000000011,39.4320400000002],[40.514110000000244,39.43222000000054],[40.51187000000016,39.432950000000176],[40.50836000000015,39.434680000000185]]],"type":"Polygon"}},{"type":"Feature","properties":{"area_id":"TR-12-008-139957","name_tr":"Yeni","area_level":"neighbourhood","parent_id":"TR-12-008","endeksa_id":139957},"geometry":{"coordinates":[[[40.52722000000011,39.42997000000054],[40.526990000000126,39.43635000000012],[40.527030000000195,39.43798000000038],[40.527740000000165,39.440260000000194],[40.52852000000024,39.44083000000029],[40.529220000000066,39.441530000000625],[40.529850000000124,39.44180000000023],[40.5298600000001,39.44248000000039],[40.531300000000044,39.443980000000124],[40.53575000000018,39.45006000000012],[40.537990000000036,39.45440000000042],[40.53959000000009,39.45982000000049],[40.53977000000009,39.46094000000011],[40.54116000000016,39.46168000000023],[40.54126000000008,39.46183000000053],[40.54126000000008,39.461970000000065],[40.54115000000019,39.46205000000026],[40.54113000000012,39.46297000000038],[40.54782000000017,39.46994000000012],[40.53631000000013,39.46810000000062],[40.526290000000074,39.46785000000017],[40.526470000000074,39.46420000000052],[40.52760000000012,39.4619900000003],[40.5274100000002,39.46134000000012],[40.52212000000003,39.45682000000028],[40.51968000000011,39.45422000000042],[40.513550000000066,39.44510000000042],[40.5128900000002,39.44265000000024],[40.50836000000015,39.434680000000185],[40.51187000000016,39.432950000000176],[40.514110000000244,39.43222000000054],[40.51565000000011,39.4320400000002],[40.520980000000236,39.430500000000336],[40.52722000000011,39.42997000000054]]],"type":"Polygon"}},{"type":"Feature","properties":{"area_id":"TR-12-008-2006199","name_tr":"Yeşilgöl Köyü","area_level":"neighbourhood","parent_id":"TR-12-008","endeksa_id":2006199},"geometry":{"coordinates":[[[40.63626000000022,39.4373800000003],[40.635820000000194,39.437690000000146],[40.634670000000085,39.43728000000016],[40.633830000000046,39.43736000000024],[40.633270000000095,39.43649000000016],[40.63270000000017,39.43635000000012],[40.6323000000001,39.436480000000074],[40.63181000000009,39.43641000000048],[40.63121000000018,39.43678000000017],[40.630770000000155,39.43692000000004],[40.63004000000018,39.43750000000006],[40.627820000000156,39.438490000000115],[40.62606000000022,39.43802000000011],[40.62417000000016,39.43841000000003],[40.61890000000017,39.438060000000064],[40.61530000000005,39.438270000000216],[40.61188000000004,39.43798000000038],[40.60656000000006,39.43803000000025],[40.60372000000007,39.43780000000038],[40.60030000000006,39.43864000000025],[40.59599000000014,39.43582000000015],[40.58407000000011,39.42912000000018],[40.576100000000054,39.424400000000105],[40.575530000000185,39.4225900000003],[40.56805000000014,39.418670000000134],[40.56573380553266,39.41637218802833],[40.565803655000025,39.415445105000174],[40.56849192600009,39.412976541000035],[40.57219233600006,39.41220720100068],[40.573965965000184,39.409552496000174],[40.57409488900015,39.406751814000586],[40.57391856900017,39.40600074700035],[40.57192093700007,39.40250132699998],[40.5690593970001,39.39681098300008],[40.56952734599997,39.38502911500029],[40.570179011000164,39.381578687000115],[40.57246541400008,39.378239963000055],[40.574754393000035,39.37228684900026],[40.57729974500012,39.36760528400009],[40.57761059300009,39.364749038000525],[40.577301305000105,39.362098050000384],[40.57734629000015,39.36104791300045],[40.57878672200013,39.36194544300014],[40.58470587400018,39.36441164400014],[40.58760626900005,39.366566929000214],[40.58819494599999,39.367181497000615],[40.590934968000056,39.371498727000244],[40.592822338000076,39.37460362900009],[40.59684465900011,39.381792370000085],[40.59855627400003,39.38432745000006],[40.60102371400012,39.38690692400013],[40.60671030500015,39.390636624000365],[40.607505742000114,39.39111444600064],[40.613170229000104,39.39319903800009],[40.614948981000055,39.394861877000096],[40.616292817000044,39.39830368700012],[40.616456079000045,39.398368797000046],[40.61786996900014,39.397901160000174],[40.62613633700005,39.396590632000084],[40.634810599000105,39.39728909300021],[40.63493508500011,39.39742650900007],[40.6429973034364,39.42948825427243],[40.64132000000018,39.431950000000256],[40.63626000000022,39.4373800000003]]],"type":"Polygon"}},{"type":"Feature","properties":{"area_id":"TR-12-008-2006193","name_tr":"Güzgülü Köyü","area_level":"neighbourhood","parent_id":"TR-12-008","endeksa_id":2006193},"geometry":{"coordinates":[[[40.491998261350545,39.44264582430753],[40.491990000000214,39.442580000000135],[40.490790000000175,39.44337000000013],[40.4894900000001,39.44370000000026],[40.48851000000019,39.444130000000314],[40.487310000000036,39.44415000000015],[40.48622000000006,39.44465000000014],[40.483500000000106,39.44519000000008],[40.482140000000186,39.44566000000003],[40.48014000000006,39.445590000000095],[40.47940000000017,39.44529000000051],[40.478860000000054,39.44523000000038],[40.47834000000017,39.44563000000022],[40.477500000000134,39.445860000000096],[40.47620000000006,39.44561000000016],[40.472980000000064,39.44542000000007],[40.47250000000014,39.44592000000006],[40.472230000000195,39.446820000000116],[40.47145000000012,39.44761000000062],[40.47008311266245,39.44861175989877],[40.469641775000184,39.442379748000235],[40.46824100700013,39.438982634000354],[40.46631314700011,39.43595233299999],[40.46632232800005,39.43581452100068],[40.463139746000024,39.433255416000236],[40.45890629900009,39.4311723350001],[40.45587344700016,39.427966432000176],[40.449158584000145,39.42668738700013],[40.44349148600003,39.42285057000015],[40.43683323100004,39.416433796000035],[40.431645410000044,39.41101804500016],[40.425666279000154,39.407526017000066],[40.42114880500014,39.40560228400051],[40.42115514902338,39.40549929698375],[40.422080000000165,39.405310000000156],[40.423040000000185,39.40446000000014],[40.426730000000134,39.4029300000002],[40.434320000000184,39.40133000000037],[40.43790000000013,39.399440000000084],[40.44272000000012,39.398870000000215],[40.44666000000018,39.398070000000075],[40.45071000000007,39.397110000000225],[40.45593000000014,39.39546000000013],[40.45943000000017,39.39514000000065],[40.46178000000009,39.395250000000374],[40.463138765405745,39.3947478712534],[40.46436217700017,39.39469628100062],[40.471481205000146,39.396874598000466],[40.476945335277094,39.39614309117593],[40.47712121715006,39.39622245302564],[40.479070000000036,39.400150000000224],[40.4799500000002,39.401660000000106],[40.480380000000025,39.40364000000051],[40.47996000000012,39.404550000000484],[40.48253000000011,39.40471000000025],[40.48454000000015,39.40471000000025],[40.48631000000006,39.40452000000016],[40.48816000000022,39.4049600000003],[40.48969000000011,39.40440000000018],[40.49074000000013,39.404270000000054],[40.491710000000126,39.40483000000023],[40.49146000000019,39.4065700000001],[40.48897000000005,39.40881000000053],[40.48776000000015,39.409750000000145],[40.48696000000018,39.41143000000005],[40.484780000000114,39.41429000000062],[40.484900000000096,39.4170400000001],[40.487320000000125,39.417340000000195],[40.48839000000004,39.41779000000031],[40.48893000000015,39.41815000000025],[40.49125000000009,39.42022000000031],[40.49514000000005,39.42172000000005],[40.49589000000009,39.42219000000057],[40.49608000000018,39.422480000000405],[40.4966100000002,39.42246000000017],[40.49693000000019,39.422820000000115],[40.496980000000065,39.42342000000019],[40.4968300000001,39.42364000000032],[40.496760000000165,39.424060000000395],[40.497010000000046,39.424770000000194],[40.49700000000013,39.42529000000019],[40.496640000000184,39.42594000000037],[40.49660000000006,39.426290000000165],[40.496800000000064,39.42654000000027],[40.49687000000017,39.4268000000003],[40.496760000000165,39.4270200000002],[40.496420000000114,39.42733000000027],[40.49603000000013,39.42817000000014],[40.49550000000016,39.42835000000008],[40.49539000000016,39.42895000000016],[40.495530000000144,39.429320000000075],[40.49581000000006,39.429540000000486],[40.49578000000008,39.429820000000234],[40.49586000000011,39.429980000000114],[40.49635000000018,39.430560000000355],[40.49647000000016,39.431340000000205],[40.49662000000012,39.431490000000395],[40.4968300000001,39.43218000000007],[40.497720000000186,39.43269000000038],[40.49778000000015,39.43284000000017],[40.49771000000004,39.43296000000066],[40.498500000000035,39.43336000000039],[40.49919000000011,39.43351000000018],[40.49934000000013,39.43383000000017],[40.499000000000194,39.434590000000526],[40.49898000000019,39.434960000000046],[40.49885000000006,39.43520000000018],[40.49950886978155,39.43725528036333],[40.4994528168026,39.43738402045659],[40.496572475000164,39.439039341000694],[40.496394918000135,39.4405287190001],[40.49759161100013,39.44412871700007],[40.49755210700005,39.444227927000156],[40.491998261350545,39.44264582430753]]],"type":"Polygon"}},{"type":"Feature","properties":{"area_id":"TR-12-008-2006187","name_tr":"Akımlı Köyü","area_level":"neighbourhood","parent_id":"TR-12-008","endeksa_id":2006187},"geometry":{"coordinates":[[[40.357210000000066,39.4126100000002],[40.357090000000085,39.41370000000012],[40.35588000000013,39.41522000000015],[40.35475000000008,39.41900000000027],[40.35419000000013,39.42390000000012],[40.354670000000056,39.427750000000174],[40.35451000000012,39.43209000000007],[40.3531500000002,39.4376400000001],[40.35365000000019,39.44277000000022],[40.35352000000012,39.443940000000396],[40.35202000000015,39.44321000000036],[40.35162000000008,39.4426400000001],[40.350560000000144,39.442830000000185],[40.34983000000017,39.443330000000344],[40.34894000000003,39.443020000000274],[40.3475600000001,39.442270000000065],[40.34570000000019,39.44220000000064],[40.34367000000009,39.44139000000041],[40.34230000000008,39.44139000000041],[40.34157000000005,39.4417600000001],[40.34043000000008,39.442080000000146],[40.33816000000019,39.44214000000011],[40.33719000000025,39.44170000000048],[40.336460000000045,39.44095000000027],[40.33565000000016,39.44039000000009],[40.33403000000004,39.43983000000014],[40.33257000000003,39.439200000000426],[40.331190000000106,39.43845000000016],[40.32868000000008,39.43826000000007],[40.326490000000035,39.43832000000009],[40.324790000000064,39.43757000000039],[40.32358000000016,39.43576000000019],[40.32350000000014,39.43457000000029],[40.323170000000175,39.43382000000008],[40.32187000000005,39.43256000000025],[40.32058000000012,39.43181000000004],[40.31871000000007,39.430940000000135],[40.316360000000145,39.42950000000019],[40.31458000000015,39.428180000000225],[40.3109300000001,39.42167000000018],[40.31045000000017,39.42005000000029],[40.30818000000016,39.41829000000047],[40.30761000000007,39.41716000000008],[40.307590000000175,39.41263000000026],[40.34099000000003,39.41113000000064],[40.357210000000066,39.4126100000002]]],"type":"Polygon"}},{"type":"Feature","properties":{"area_id":"TR-12-008-10742","name_tr":"Döşengi","area_level":"neighbourhood","parent_id":"TR-12-008","endeksa_id":10742},"geometry":{"coordinates":[[[40.526410000000055,39.46543000000014],[40.52526000000012,39.4654500000002],[40.52177000000023,39.464140000000384],[40.52062000000012,39.46423000000016],[40.51876000000004,39.46407000000005],[40.517430000000104,39.464170000000195],[40.51582000000013,39.46463000000006],[40.51482000000016,39.464730000000316],[40.514540000000125,39.464170000000195],[40.513730000000066,39.46382000000034],[40.51345000000015,39.46345000000031],[40.51198000000022,39.46381000000025],[40.51012000000014,39.463520000000415],[40.50855000000007,39.46339000000029],[40.507020000000125,39.46298000000047],[40.50629000000015,39.46261000000027],[40.50512000000015,39.46177000000017],[40.50436000000013,39.4615500000001],[40.50331000000011,39.46255000000042],[40.5025100000002,39.46280000000036],[40.50166000000024,39.46280000000036],[40.50082000000015,39.46230000000037],[40.499890000000164,39.46193000000028],[40.49953000000022,39.46131000000014],[40.4996900000001,39.46081000000015],[40.49892000000017,39.46103000000028],[40.49836000000022,39.46103000000028],[40.49796000000015,39.46078000000034],[40.497720000000186,39.46053000000029],[40.4973500000001,39.45984000000004],[40.49768000000006,39.459250000000225],[40.498040000000174,39.4591000000006],[40.49860000000018,39.458630000000085],[40.49840000000012,39.457760000000576],[40.49884000000014,39.456890000000385],[40.49884000000014,39.45664000000028],[40.49792000000019,39.45568000000043],[40.49796000000015,39.45453000000049],[40.498160000000155,39.4543000000001],[40.49706000000009,39.453460000000064],[40.49597000000017,39.45307000000048],[40.49474000000015,39.45245000000034],[40.49203000000011,39.45217000000008],[40.491530000000125,39.451530000000275],[40.49092000000013,39.450520000000154],[40.49065000000019,39.45024000000012],[40.489390000000185,39.44967000000054],[40.488340000000164,39.44960000000043],[40.488240000000076,39.44948000000045],[40.487710000000106,39.44857000000047],[40.48767000000015,39.44833000000051],[40.48792000000026,39.44798000000014],[40.48904000000016,39.44705000000033],[40.4903700000001,39.44644000000045],[40.49230000000006,39.44505000000004],[40.491998261350545,39.44264582430753],[40.49755210700005,39.444227927000156],[40.49759161100013,39.44412871700007],[40.496394918000135,39.4405287190001],[40.496572475000164,39.439039341000694],[40.4994528168026,39.43738402045659],[40.49950886978155,39.43725528036333],[40.503730000000076,39.43581000000006],[40.50836000000015,39.434680000000185],[40.5128900000002,39.44265000000024],[40.513550000000066,39.44510000000042],[40.51968000000011,39.45422000000042],[40.52212000000003,39.45682000000028],[40.5274100000002,39.46134000000012],[40.52760000000012,39.4619900000003],[40.526470000000074,39.46420000000052],[40.526410000000055,39.46543000000014]]],"type":"Polygon"}},{"type":"Feature","properties":{"area_id":"TR-12-008-10744","name_tr":"Koşan","area_level":"neighbourhood","parent_id":"TR-12-008","endeksa_id":10744},"geometry":{"coordinates":[[[40.5185079487851,39.526989402853076],[40.518510000000106,39.527300000000366],[40.514260000000036,39.52657000000039],[40.51707000000016,39.52150000000012],[40.51468000000011,39.51617000000033],[40.50346000000013,39.51449000000059],[40.49767000000014,39.5148300000003],[40.49300000000011,39.51549000000023],[40.49287000000015,39.51512000000014],[40.4913600000001,39.51372000000015],[40.48851000000019,39.50950000000017],[40.487590000000125,39.50504000000029],[40.48718000000014,39.50223000000017],[40.486140000000034,39.50018000000034],[40.48377000000005,39.49210000000028],[40.48389000000003,39.48893000000032],[40.48357000000004,39.484830000000045],[40.48200000000014,39.47736000000015],[40.48634000000004,39.47577000000018],[40.490850000000194,39.471670000000415],[40.49327000000005,39.47055000000012],[40.49375000000015,39.469310000000405],[40.49375000000015,39.46819000000028],[40.49166000000008,39.46471000000008],[40.49975000000012,39.464210000000094],[40.503820000000076,39.46462000000031],[40.50679000000014,39.46440000000018],[40.50855000000007,39.46339000000029],[40.51012000000014,39.463520000000415],[40.51198000000022,39.46381000000025],[40.51345000000015,39.46345000000031],[40.513730000000066,39.46382000000034],[40.514540000000125,39.464170000000195],[40.51482000000016,39.464730000000316],[40.51582000000013,39.46463000000006],[40.517430000000104,39.464170000000195],[40.51876000000004,39.46407000000005],[40.52062000000012,39.46423000000016],[40.52177000000023,39.464140000000384],[40.52526000000012,39.4654500000002],[40.526410000000055,39.46543000000014],[40.526290000000074,39.46785000000017],[40.52509000000009,39.471670000000415],[40.521170000000154,39.47719000000029],[40.52849000000003,39.477640000000406],[40.53368000000012,39.47620000000006],[40.53565000000003,39.47645000000017],[40.536390000000154,39.47710000000063],[40.5369300000001,39.47778000000005],[40.537710000000175,39.480960000000266],[40.53465000000011,39.48258000000004],[40.53010000000023,39.4830800000002],[40.51898000000011,39.49162000000035],[40.5184900000001,39.49191000000036],[40.518320000000244,39.498530000000244],[40.5185079487851,39.526989402853076]]],"type":"Polygon"}},{"type":"Feature","properties":{"area_id":"TR-12-008-10745","name_tr":"Merkez","area_level":"neighbourhood","parent_id":"TR-12-008","endeksa_id":10745},"geometry":{"coordinates":[[[40.55803000000009,39.465750000000185],[40.553330000000074,39.46574000000004],[40.55339000000009,39.466000000000236],[40.551000000000045,39.46654000000018],[40.550390000000164,39.46694000000019],[40.54782000000017,39.46994000000012],[40.54113000000012,39.46297000000038],[40.54115000000019,39.46205000000026],[40.54126000000008,39.461970000000065],[40.54126000000008,39.46183000000053],[40.54116000000016,39.46168000000023],[40.53977000000009,39.46094000000011],[40.53959000000009,39.45982000000049],[40.537990000000036,39.45440000000042],[40.53575000000018,39.45006000000012],[40.531300000000044,39.443980000000124],[40.5298600000001,39.44248000000039],[40.529850000000124,39.44180000000023],[40.529220000000066,39.441530000000625],[40.52852000000024,39.44083000000029],[40.527740000000165,39.440260000000194],[40.527030000000195,39.43798000000038],[40.526990000000126,39.43635000000012],[40.52722000000011,39.42997000000054],[40.53038000000009,39.428370000000314],[40.531020000000126,39.42812000000026],[40.53386000000012,39.427430000000186],[40.536250000000166,39.4262700000001],[40.53916000000021,39.424620000000175],[40.53981000000016,39.42396000000065],[40.540990000000136,39.42315000000042],[40.541680000000156,39.42249000000038],[40.54900000000009,39.41900000000027],[40.5503700000001,39.41786000000042],[40.55434000000014,39.415230000000236],[40.55580000000015,39.41373000000033],[40.55677000000014,39.412170000000174],[40.55790000000019,39.41060000000016],[40.560170000000085,39.40841000000012],[40.56151000000011,39.41126000000003],[40.56245000000007,39.41295000000059],[40.56301000000025,39.41367000000048],[40.56805000000014,39.418670000000134],[40.575530000000185,39.4225900000003],[40.576100000000054,39.424400000000105],[40.5764200000001,39.426070000000436],[40.576370000000225,39.428610000000276],[40.576840000000175,39.43031000000025],[40.57806000000005,39.43223000000012],[40.57970000000006,39.433530000000246],[40.57974000000013,39.434650000000374],[40.578940000000046,39.437000000000296],[40.571360000000084,39.441560000000266],[40.56864000000013,39.44250000000005],[40.566490000000044,39.44384000000008],[40.56546000000009,39.445430000000044],[40.56368000000003,39.44948000000045],[40.56176000000016,39.454690000000255],[40.55699000000004,39.45994000000047],[40.5565400000001,39.46077000000025],[40.555650000000185,39.46165000000042],[40.55607000000015,39.46239000000014],[40.556610000000035,39.46382000000034],[40.55774000000008,39.46512000000007],[40.55803000000009,39.465750000000185]]],"type":"Polygon"}},{"type":"Feature","properties":{"area_id":"TR-12-008-2006192","name_tr":"Gelinpertek Köyü","area_level":"neighbourhood","parent_id":"TR-12-008","endeksa_id":2006192},"geometry":{"coordinates":[[[40.40115440545446,39.512477430047056],[40.39603000000022,39.51162000000045],[40.387940000000185,39.51136000000025],[40.38536000000005,39.511900000000196],[40.38223000000005,39.512900000000116],[40.37910000000005,39.51412000000039],[40.378030000000194,39.5141500000002],[40.37703000000005,39.51130000000029],[40.37808000000007,39.50955000000005],[40.37816000000009,39.50817000000063],[40.37760000000014,39.504230000000064],[40.37760000000014,39.50254000000024],[40.37711000000007,39.49935000000005],[40.37646000000012,39.497470000000135],[40.376140000000134,39.4956600000001],[40.376700000000085,39.49421000000024],[40.37646000000012,39.49077000000051],[40.37687000000011,39.485580000000255],[40.37395000000009,39.484830000000045],[40.37111000000016,39.48445000000055],[40.36389000000014,39.48439000000042],[40.35890000000006,39.485050000000456],[40.359230000000196,39.48882000000009],[40.35971000000012,39.49058000000042],[40.359630000000095,39.491770000000145],[40.35971000000012,39.493780000000186],[40.36004000000008,39.49510000000066],[40.36020000000019,39.496790000000374],[40.359880000000146,39.49849000000012],[40.358980000000145,39.50056000000052],[40.35826000000009,39.501310000000046],[40.35583000000008,39.50294000000008],[40.351640000000145,39.50492000000031],[40.351480000000265,39.49878000000035],[40.35010000000011,39.49234000000041],[40.35119000000003,39.48485000000028],[40.35107000000005,39.4756900000005],[40.35039000000012,39.47166000000033],[40.34851000000015,39.46391000000017],[40.348390000000165,39.46150000000023],[40.34911000000005,39.45579000000032],[40.35352000000012,39.44467000000037],[40.35352000000012,39.443940000000396],[40.35365000000019,39.44277000000022],[40.3531500000002,39.4376400000001],[40.35451000000012,39.43209000000007],[40.354670000000056,39.427750000000174],[40.35419000000013,39.42390000000012],[40.35475000000008,39.41900000000027],[40.35588000000013,39.41522000000015],[40.357090000000085,39.41370000000012],[40.357210000000066,39.4126100000002],[40.3575800000001,39.41255000000018],[40.35912000000019,39.41267000000016],[40.36111000000017,39.4126500000001],[40.366230000000144,39.4117500000001],[40.36916000000008,39.41089000000068],[40.375150000000076,39.4101400000003],[40.378060000000175,39.410460000000626],[40.38200000000023,39.4113700000006],[40.38615000000004,39.411550000000034],[40.388500000000136,39.41121000000015],[40.39093000000014,39.410580000000095],[40.39710000000008,39.41038000000043],[40.39945000000023,39.41081000000031],[40.4025400000001,39.41022000000066],[40.4071400000002,39.40864000000067],[40.40963000000016,39.407170000000406],[40.41132000000016,39.40685000000036],[40.41295000000025,39.406810000000064],[40.41475000000014,39.406590000000165],[40.41519000000011,39.406710000000146],[40.41551478025167,39.40662147024079],[40.41546810400001,39.407261844000686],[40.415399693000154,39.40725214200006],[40.41544472100014,39.40736311500012],[40.41528719600018,39.40804536600018],[40.41334251100011,39.410288496000135],[40.413020252000194,39.41095145400061],[40.41160075100004,39.41544651800007],[40.41031855700004,39.42592605400006],[40.41025560400004,39.4267776690001],[40.41281110000011,39.43102181199998],[40.41358657000012,39.434463055000094],[40.41247058000016,39.43896894300019],[40.41200427400014,39.44206975200052],[40.41167227900013,39.44279620500032],[40.40971290400006,39.44550418200015],[40.40864937700013,39.44864441200059],[40.40828817400018,39.45129164800005],[40.40828808100008,39.45298324200007],[40.40870037000013,39.456385207000096],[40.409663259000126,39.460857566000186],[40.40966461000016,39.46179204400005],[40.409457604000124,39.46571951600015],[40.40742725500007,39.477217355000164],[40.40722067600012,39.49204816100013],[40.407425280000155,39.49519637900005],[40.40376051600015,39.50336054500019],[40.40136977800006,39.51128931500017],[40.40115440545446,39.512477430047056]]],"type":"Polygon"}},{"type":"Feature","properties":{"area_id":"TR-12-008-2006194","name_tr":"Kabayel Köyü","area_level":"neighbourhood","parent_id":"TR-12-008","endeksa_id":2006194},"geometry":{"coordinates":[[[40.378030000000194,39.5141500000002],[40.37562000000008,39.51394000000005],[40.37350000000015,39.5132900000001],[40.37014000000016,39.51322000000016],[40.35926000000023,39.513400000000104],[40.35482000000019,39.51378000000011],[40.35158000000018,39.51471000000032],[40.348540000000185,39.51526000000035],[40.34525000000008,39.51517000000018],[40.34276000000011,39.51464000000021],[40.33974000000018,39.513300000000186],[40.33199000000019,39.5139300000003],[40.330080000000066,39.51239000000021],[40.32798000000008,39.51143000000036],[40.32486000000017,39.51022000000006],[40.31947000000008,39.50891000000007],[40.31641000000019,39.50973000000039],[40.3132700000001,39.51023000000055],[40.30980000000005,39.51044000000019],[40.30975000000018,39.50587000000007],[40.30766000000011,39.50206000000031],[40.297280000000114,39.493510000000185],[40.28302000000008,39.480440000000044],[40.27653000000009,39.4698800000001],[40.27719000000019,39.46032000000014],[40.27914000000004,39.452780000000644],[40.284330000000125,39.44523000000038],[40.285630000000026,39.44071000000031],[40.287580000000105,39.43467000000004],[40.28564000000017,39.429140000000075],[40.28110000000021,39.42009000000019],[40.27576000000016,39.410400000000095],[40.275440000000174,39.4021400000002],[40.28273000000007,39.40164000000004],[40.28492000000011,39.40164000000004],[40.28897000000018,39.40183000000013],[40.29197000000005,39.401390000000504],[40.295290000000136,39.40176000000042],[40.29643000000016,39.40264000000019],[40.29699000000011,39.40320000000037],[40.297240000000215,39.40471000000025],[40.29813000000013,39.40802000000053],[40.299350000000175,39.410400000000095],[40.30194000000006,39.412600000000054],[40.307590000000175,39.41263000000026],[40.30761000000007,39.41716000000008],[40.30818000000016,39.41829000000047],[40.31045000000017,39.42005000000029],[40.3109300000001,39.42167000000018],[40.31458000000015,39.428180000000225],[40.316360000000145,39.42950000000019],[40.31871000000007,39.430940000000135],[40.32058000000012,39.43181000000004],[40.32187000000005,39.43256000000025],[40.323170000000175,39.43382000000008],[40.32350000000014,39.43457000000029],[40.32358000000016,39.43576000000019],[40.324790000000064,39.43757000000039],[40.326490000000035,39.43832000000009],[40.32868000000008,39.43826000000007],[40.331190000000106,39.43845000000016],[40.33257000000003,39.439200000000426],[40.33403000000004,39.43983000000014],[40.33565000000016,39.44039000000009],[40.336460000000045,39.44095000000027],[40.33719000000025,39.44170000000048],[40.33816000000019,39.44214000000011],[40.34043000000008,39.442080000000146],[40.34157000000005,39.4417600000001],[40.34230000000008,39.44139000000041],[40.34367000000009,39.44139000000041],[40.34570000000019,39.44220000000064],[40.3475600000001,39.442270000000065],[40.34894000000003,39.443020000000274],[40.34983000000017,39.443330000000344],[40.350560000000144,39.442830000000185],[40.35162000000008,39.4426400000001],[40.35202000000015,39.44321000000036],[40.35352000000012,39.443940000000396],[40.35352000000012,39.44467000000037],[40.34911000000005,39.45579000000032],[40.348390000000165,39.46150000000023],[40.34851000000015,39.46391000000017],[40.35039000000012,39.47166000000033],[40.35107000000005,39.4756900000005],[40.35119000000003,39.48485000000028],[40.35010000000011,39.49234000000041],[40.351480000000265,39.49878000000035],[40.351640000000145,39.50492000000031],[40.35583000000008,39.50294000000008],[40.35826000000009,39.501310000000046],[40.358980000000145,39.50056000000052],[40.359880000000146,39.49849000000012],[40.36020000000019,39.496790000000374],[40.36004000000008,39.49510000000066],[40.35971000000012,39.493780000000186],[40.359630000000095,39.491770000000145],[40.35971000000012,39.49058000000042],[40.359230000000196,39.48882000000009],[40.35890000000006,39.485050000000456],[40.36389000000014,39.48439000000042],[40.37111000000016,39.48445000000055],[40.37395000000009,39.484830000000045],[40.37687000000011,39.485580000000255],[40.37646000000012,39.49077000000051],[40.376700000000085,39.49421000000024],[40.376140000000134,39.4956600000001],[40.37646000000012,39.497470000000135],[40.37711000000007,39.49935000000005],[40.37760000000014,39.50254000000024],[40.37760000000014,39.504230000000064],[40.37816000000009,39.50817000000063],[40.37808000000007,39.50955000000005],[40.37703000000005,39.51130000000029],[40.378030000000194,39.5141500000002]]],"type":"Polygon"}},{"type":"Feature","properties":{"area_id":"TR-12-008-2006195","name_tr":"Karapolat Köyü","area_level":"neighbourhood","parent_id":"TR-12-008","endeksa_id":2006195},"geometry":{"coordinates":[[[40.50855000000007,39.46339000000029],[40.50679000000014,39.46440000000018],[40.503820000000076,39.46462000000031],[40.49975000000012,39.464210000000094],[40.49166000000008,39.46471000000008],[40.49375000000015,39.46819000000028],[40.49375000000015,39.469310000000405],[40.49327000000005,39.47055000000012],[40.490850000000194,39.471670000000415],[40.48634000000004,39.47577000000018],[40.48200000000014,39.47736000000015],[40.48076000000003,39.474270000000274],[40.477710000000116,39.46857000000006],[40.477100000000064,39.4656700000001],[40.47457000000003,39.46214000000009],[40.47369000000003,39.45945000000029],[40.47023000000007,39.45238000000023],[40.46999000000011,39.448680000000365],[40.47145000000012,39.44761000000062],[40.472230000000195,39.446820000000116],[40.47250000000014,39.44592000000006],[40.472980000000064,39.44542000000007],[40.47620000000006,39.44561000000016],[40.477500000000134,39.445860000000096],[40.47834000000017,39.44563000000022],[40.478860000000054,39.44523000000038],[40.47940000000017,39.44529000000051],[40.48014000000006,39.445590000000095],[40.482140000000186,39.44566000000003],[40.483500000000106,39.44519000000008],[40.48622000000006,39.44465000000014],[40.487310000000036,39.44415000000015],[40.48851000000019,39.444130000000314],[40.4894900000001,39.44370000000026],[40.490790000000175,39.44337000000013],[40.491990000000214,39.442580000000135],[40.49230000000006,39.44505000000004],[40.4903700000001,39.44644000000045],[40.48904000000016,39.44705000000033],[40.48792000000026,39.44798000000014],[40.48767000000015,39.44833000000051],[40.487710000000106,39.44857000000047],[40.488240000000076,39.44948000000045],[40.488340000000164,39.44960000000043],[40.489390000000185,39.44967000000054],[40.49065000000019,39.45024000000012],[40.49092000000013,39.450520000000154],[40.491530000000125,39.451530000000275],[40.49203000000011,39.45217000000008],[40.49474000000015,39.45245000000034],[40.49597000000017,39.45307000000048],[40.49706000000009,39.453460000000064],[40.498160000000155,39.4543000000001],[40.49796000000015,39.45453000000049],[40.49792000000019,39.45568000000043],[40.49884000000014,39.45664000000028],[40.49884000000014,39.456890000000385],[40.49840000000012,39.457760000000576],[40.49860000000018,39.458630000000085],[40.498040000000174,39.4591000000006],[40.49768000000006,39.459250000000225],[40.4973500000001,39.45984000000004],[40.497720000000186,39.46053000000029],[40.49796000000015,39.46078000000034],[40.49836000000022,39.46103000000028],[40.49892000000017,39.46103000000028],[40.4996900000001,39.46081000000015],[40.49953000000022,39.46131000000014],[40.499890000000164,39.46193000000028],[40.50082000000015,39.46230000000037],[40.50166000000024,39.46280000000036],[40.5025100000002,39.46280000000036],[40.50331000000011,39.46255000000042],[40.50436000000013,39.4615500000001],[40.50512000000015,39.46177000000017],[40.50629000000015,39.46261000000027],[40.507020000000125,39.46298000000047],[40.50855000000007,39.46339000000029]]],"type":"Polygon"}},{"type":"Feature","properties":{"area_id":"TR-12-008-2006191","name_tr":"Eskibalta Köyü","area_level":"neighbourhood","parent_id":"TR-12-008","endeksa_id":2006191},"geometry":{"coordinates":[[[40.493059369043124,39.51548160951455],[40.493336174000035,39.51576264000005],[40.49304835200019,39.51622474700014],[40.485530800000106,39.51709988800053],[40.47654346200005,39.516158897000025],[40.472349883000106,39.51799537300013],[40.46013674400007,39.51313770700017],[40.459968435000064,39.51287515200056],[40.45890622100012,39.51082697100014],[40.452865981,39.505072349000216],[40.44976713900013,39.49927853700012],[40.44767494400014,39.49107814700034],[40.44703878200005,39.48749624300012],[40.44689980600009,39.48563385000011],[40.44718800800018,39.48220603300007],[40.447494804000144,39.47986343100007],[40.44780405200015,39.47487911000019],[40.446892463000154,39.470504525000706],[40.443382460000066,39.463516446000085],[40.44171970600013,39.45898617100033],[40.43891492600005,39.45282593600018],[40.438335058000064,39.451651059000085],[40.43594829400013,39.44831679600048],[40.43441549300019,39.44451566100048],[40.43303723300005,39.437489717000005],[40.431712348000076,39.427614936],[40.43028463200011,39.42369053400006],[40.43005281500018,39.42325554500036],[40.425071666000065,39.41966660000014],[40.42267890200014,39.41618403500007],[40.42055593400016,39.40612411300043],[40.420644565051134,39.40560380247513],[40.42115514902338,39.40549929698375],[40.42114880500014,39.40560228400051],[40.425666279000154,39.407526017000066],[40.431645410000044,39.41101804500016],[40.43683323100004,39.416433796000035],[40.44349148600003,39.42285057000015],[40.449158584000145,39.42668738700013],[40.45587344700016,39.427966432000176],[40.45890629900009,39.4311723350001],[40.463139746000024,39.433255416000236],[40.46632232800005,39.43581452100068],[40.46631314700011,39.43595233299999],[40.46824100700013,39.438982634000354],[40.469641775000184,39.442379748000235],[40.47008311266245,39.44861175989877],[40.46999000000011,39.448680000000365],[40.47023000000007,39.45238000000023],[40.47369000000003,39.45945000000029],[40.47457000000003,39.46214000000009],[40.477100000000064,39.4656700000001],[40.477710000000116,39.46857000000006],[40.48076000000003,39.474270000000274],[40.48200000000014,39.47736000000015],[40.48357000000004,39.484830000000045],[40.48389000000003,39.48893000000032],[40.48377000000005,39.49210000000028],[40.486140000000034,39.50018000000034],[40.48718000000014,39.50223000000017],[40.487590000000125,39.50504000000029],[40.48851000000019,39.50950000000017],[40.4913600000001,39.51372000000015],[40.49287000000015,39.51512000000014],[40.49300000000011,39.51549000000023],[40.493059369043124,39.51548160951455]]],"type":"Polygon"}},{"type":"Feature","properties":{"area_id":"TR-12-008-2006188","name_tr":"Ayanoğlu Köyü","area_level":"neighbourhood","parent_id":"TR-12-008","endeksa_id":2006188},"geometry":{"coordinates":[[[40.459968435000064,39.51287515200056],[40.45995281300003,39.512970528000096],[40.45983576000003,39.513010427000154],[40.458921457000145,39.51266079600009],[40.44824619800016,39.51188423600013],[40.43315627800018,39.52087037800004],[40.42996798700011,39.52160443400038],[40.42877124099999,39.52097848000028],[40.42265186000003,39.519432207000136],[40.422535450741464,39.51949811055778],[40.42249000000015,39.519340000000284],[40.421120000000144,39.51786000000021],[40.41623000000021,39.51374000000038],[40.40840000000014,39.5143700000001],[40.406190000000095,39.51332000000042],[40.40115440545446,39.512477430047056],[40.40136977800006,39.51128931500017],[40.40376051600015,39.50336054500019],[40.407425280000155,39.49519637900005],[40.40722067600012,39.49204816100013],[40.40742725500007,39.477217355000164],[40.409457604000124,39.46571951600015],[40.40966461000016,39.46179204400005],[40.409663259000126,39.460857566000186],[40.40870037000013,39.456385207000096],[40.40828808100008,39.45298324200007],[40.40828817400018,39.45129164800005],[40.40864937700013,39.44864441200059],[40.40971290400006,39.44550418200015],[40.41167227900013,39.44279620500032],[40.41200427400014,39.44206975200052],[40.41247058000016,39.43896894300019],[40.41358657000012,39.434463055000094],[40.41281110000011,39.43102181199998],[40.41025560400004,39.4267776690001],[40.41031855700004,39.42592605400006],[40.41160075100004,39.41544651800007],[40.413020252000194,39.41095145400061],[40.41334251100011,39.410288496000135],[40.41528719600018,39.40804536600018],[40.41544472100014,39.40736311500012],[40.415399693000154,39.40725214200006],[40.41546810400001,39.407261844000686],[40.41551478025167,39.40662147024079],[40.41800582532164,39.405678326935686],[40.420644565051134,39.40560380247513],[40.42055593400016,39.40612411300043],[40.42267890200014,39.41618403500007],[40.425071666000065,39.41966660000014],[40.43005281500018,39.42325554500036],[40.43028463200011,39.42369053400006],[40.431712348000076,39.427614936],[40.43303723300005,39.437489717000005],[40.43441549300019,39.44451566100048],[40.43594829400013,39.44831679600048],[40.438335058000064,39.451651059000085],[40.43891492600005,39.45282593600018],[40.44171970600013,39.45898617100033],[40.443382460000066,39.463516446000085],[40.446892463000154,39.470504525000706],[40.44780405200015,39.47487911000019],[40.447494804000144,39.47986343100007],[40.44718800800018,39.48220603300007],[40.44689980600009,39.48563385000011],[40.44703878200005,39.48749624300012],[40.44767494400014,39.49107814700034],[40.44976713900013,39.49927853700012],[40.452865981,39.505072349000216],[40.45890622100012,39.51082697100014],[40.459968435000064,39.51287515200056]]],"type":"Polygon"}},{"type":"Feature","properties":{"area_id":"TR-12-008-2006196","name_tr":"Kaşıklı Köyü","area_level":"neighbourhood","parent_id":"TR-12-008","endeksa_id":2006196},"geometry":{"coordinates":[[[40.64474000000018,39.52381000000008],[40.6445300000002,39.52384000000029],[40.62384000000003,39.521170000000495],[40.616460000000075,39.52249000000029],[40.6125600000002,39.52186000000006],[40.59503000000012,39.52618000000007],[40.579340000000116,39.52601000000021],[40.56756000000013,39.525730000000124],[40.56539000000015,39.525170000000344],[40.56027000000017,39.52524000000045],[40.55589000000015,39.525940000000105],[40.54841000000016,39.52900000000034],[40.547100000000114,39.52936000000028],[40.5463400000001,39.52639000000039],[40.54699000000005,39.51972000000006],[40.54891000000009,39.51390000000009],[40.549760000000106,39.507790000000455],[40.5502400000002,39.50229000000013],[40.551930000000084,39.49972000000014],[40.55317000000014,39.49550000000039],[40.55393000000015,39.4908800000004],[40.55337000000003,39.48606000000018],[40.55337000000003,39.48257000000007],[40.55285000000015,39.475820000000056],[40.55792000000008,39.46641000000005],[40.55803000000009,39.465750000000185],[40.55774000000008,39.46512000000007],[40.556610000000035,39.46382000000034],[40.55607000000015,39.46239000000014],[40.555650000000185,39.46165000000042],[40.5565400000001,39.46077000000025],[40.55699000000004,39.45994000000047],[40.56176000000016,39.454690000000255],[40.56368000000003,39.44948000000045],[40.56546000000009,39.445430000000044],[40.566490000000044,39.44384000000008],[40.56864000000013,39.44250000000005],[40.571360000000084,39.441560000000266],[40.578940000000046,39.437000000000296],[40.57974000000013,39.434650000000374],[40.57970000000006,39.433530000000246],[40.57806000000005,39.43223000000012],[40.576840000000175,39.43031000000025],[40.576370000000225,39.428610000000276],[40.5764200000001,39.426070000000436],[40.576100000000054,39.424400000000105],[40.58407000000011,39.42912000000018],[40.59599000000014,39.43582000000015],[40.60030000000006,39.43864000000025],[40.596070000000225,39.439670000000206],[40.59311000000008,39.44198000000023],[40.590500000000134,39.4429300000001],[40.58695000000023,39.44450000000052],[40.58543000000003,39.44532000000015],[40.58286000000004,39.446950000000186],[40.58110000000005,39.448810000000435],[40.582810000000165,39.451220000000205],[40.58477000000016,39.45297000000005],[40.586500000000115,39.453580000000045],[40.5897300000002,39.45585000000028],[40.5941600000001,39.45661000000064],[40.59665000000007,39.457540000000165],[40.59811000000008,39.459590000000105],[40.5988900000001,39.46110000000016],[40.59981000000005,39.465530000000285],[40.599050000000034,39.46766000000008],[40.59933000000012,39.46925000000056],[40.59844000000021,39.470770000000186],[40.59801000000016,39.473130000000424],[40.59668000000005,39.475270000000194],[40.596410000000105,39.47701000000029],[40.59713000000016,39.47857000000005],[40.596110000000124,39.480400000000145],[40.59718000000004,39.48310000000026],[40.599140000000205,39.485330000000204],[40.597500000000025,39.48922000000016],[40.59789000000018,39.49068000000017],[40.59866000000011,39.49259000000046],[40.60266000000013,39.493870000000356],[40.604740000000106,39.494750000000124],[40.60794000000021,39.49463000000014],[40.61328000000026,39.49573000000021],[40.61592000000019,39.49480000000017],[40.61734000000007,39.493940000000066],[40.617970000000184,39.49511000000007],[40.61745000000013,39.49643000000003],[40.618220000000065,39.498740000000566],[40.6194500000002,39.499800000000164],[40.6208400000001,39.500540000000285],[40.6219700000002,39.50099000000057],[40.62422000000021,39.50208000000015],[40.625720000000115,39.502640000000156],[40.62650000000019,39.502800000000036],[40.62867000000017,39.505590000000325],[40.63041000000004,39.50865000000056],[40.63311000000016,39.51134000000019],[40.63561000000004,39.515370000000246],[40.637580000000185,39.51991000000015],[40.64474000000018,39.52381000000008]]],"type":"Polygon"}},{"type":"Feature","properties":{"area_id":"TR-12-008-2006198","name_tr":"Yağmurpınar Köyü","area_level":"neighbourhood","parent_id":"TR-12-008","endeksa_id":2006198},"geometry":{"coordinates":[[[40.547100000000114,39.52936000000028],[40.54614000000009,39.529630000000054],[40.545330000000035,39.529220000000066],[40.54429596787554,39.52936123365612],[40.54323604800015,39.52947261100013],[40.53626448000011,39.526659304000646],[40.524347627000054,39.528259995000155],[40.5238814220001,39.52788586300011],[40.5185079487851,39.526989402853076],[40.518320000000244,39.498530000000244],[40.5184900000001,39.49191000000036],[40.51898000000011,39.49162000000035],[40.53010000000023,39.4830800000002],[40.53465000000011,39.48258000000004],[40.537710000000175,39.480960000000266],[40.5369300000001,39.47778000000005],[40.536390000000154,39.47710000000063],[40.53565000000003,39.47645000000017],[40.53368000000012,39.47620000000006],[40.52849000000003,39.477640000000406],[40.521170000000154,39.47719000000029],[40.52509000000009,39.471670000000415],[40.526290000000074,39.46785000000017],[40.53631000000013,39.46810000000062],[40.54782000000017,39.46994000000012],[40.550390000000164,39.46694000000019],[40.551000000000045,39.46654000000018],[40.55339000000009,39.466000000000236],[40.553330000000074,39.46574000000004],[40.55803000000009,39.465750000000185],[40.55792000000008,39.46641000000005],[40.55285000000015,39.475820000000056],[40.55337000000003,39.48257000000007],[40.55337000000003,39.48606000000018],[40.55393000000015,39.4908800000004],[40.55317000000014,39.49550000000039],[40.551930000000084,39.49972000000014],[40.5502400000002,39.50229000000013],[40.549760000000106,39.507790000000455],[40.54891000000009,39.51390000000009],[40.54699000000005,39.51972000000006],[40.5463400000001,39.52639000000039],[40.547100000000114,39.52936000000028]]],"type":"Polygon"}}]}