{"type":"FeatureCollection","source_id":"endeksa","retrieved_at":"2026-08-23","features":[{"type":"Feature","properties":{"area_id":"TR-12-006-2006150","name_tr":"Arslanbeyli Köyü","area_level":"neighbourhood","parent_id":"TR-12-006","endeksa_id":2006150},"geometry":{"coordinates":[[[41.121361184000136,38.76522787100009],[41.11769620700005,38.76549601100004],[41.11521838800013,38.764794339000105],[41.11165913400015,38.76278394100018],[41.109433560000014,38.76199559100013],[41.105692317000035,38.7615738570006],[41.10381730800003,38.76188621900019],[41.10318155300013,38.76217044900022],[41.09994781400013,38.76535151000007],[41.09770957700016,38.76661548800007],[41.09667682000003,38.76687872700023],[41.093723505000185,38.76708475500004],[41.08893561899998,38.7668810090006],[41.08335774600005,38.76850962800012],[41.082474786000034,38.768564244000515],[41.07840627600018,38.767773198999976],[41.07478504700015,38.76632603900015],[41.06608963800005,38.763616405000164],[41.06596202100002,38.76363477500041],[41.065923249000036,38.76373504400027],[41.065841929000044,38.76352918300006],[41.062297352000144,38.76012962100015],[41.06228178200007,38.75999942800013],[41.063174395000146,38.755928121000295],[41.063485065000066,38.75500040300045],[41.06444434400015,38.753592766000054],[41.06470299400007,38.752429170000426],[41.064498560000175,38.74788160900016],[41.06485985500012,38.745537029000104],[41.06582570200004,38.74238275000016],[41.068577833999996,38.73682263400019],[41.06979960900014,38.7292882170002],[41.07141629400002,38.72227227700057],[41.07273764400014,38.71988155100047],[41.07514475400018,38.71804557100012],[41.075805735000074,38.71639615300006],[41.07623614300013,38.71245862800015],[41.076717766000115,38.71007605799997],[41.07661438000008,38.70825479600012],[41.075756057000035,38.70372217600004],[41.07582747300006,38.70281796500029],[41.07571191599999,38.702721396000015],[41.087419861736635,38.70345945522621],[41.092060447999984,38.71570132700009],[41.09623604900008,38.72083795300006],[41.10090819000004,38.72319650900016],[41.113500157000146,38.724288595000246],[41.11722420300009,38.72679481800003],[41.117263654000055,38.72689594100018],[41.116287516000114,38.729701529000295],[41.1161328340001,38.731629996000606],[41.11836906500014,38.74054831400008],[41.118419507000056,38.74227724100058],[41.11789683600006,38.74336151500023],[41.11797402100012,38.74561783300004],[41.11862549700004,38.74665620600007],[41.11878186500019,38.74777172700027],[41.11888618800003,38.7555210380001],[41.11924814000014,38.75720702300009],[41.12020959900019,38.75913539600003],[41.120400146000065,38.76192138800013],[41.121472100999995,38.76510597900028],[41.121361184000136,38.76522787100009]]],"type":"Polygon"}},{"type":"Feature","properties":{"area_id":"TR-12-006-2006154","name_tr":"Doğuyeli Köyü","area_level":"neighbourhood","parent_id":"TR-12-006","endeksa_id":2006154},"geometry":{"coordinates":[[[41.06228178200007,38.75999942800013],[41.058491624,38.76100096500045],[41.05440888100014,38.76271952400009],[41.049847775000046,38.763674388000084],[41.04728444799997,38.76367663500014],[41.04351018000017,38.76316354800008],[41.03572620500012,38.76469178800005],[41.032947155000045,38.76555462800019],[41.02891448700018,38.76723631500033],[41.02538423700008,38.76963296100007],[41.02468154300004,38.7698865160005],[41.023396147000085,38.770203430000606],[41.018358705000026,38.770597752000185],[41.014781787000004,38.77131072000003],[41.01468948000013,38.77140608900004],[41.011827148000066,38.76821759400008],[41.008042931000034,38.76519750000011],[41.00555466900005,38.76030482400017],[41.003932799000154,38.75579046199999],[41.003592891000096,38.755105062000496],[41.00286934500008,38.75401379900018],[41.00192318400002,38.753122341000164],[41.00003787200018,38.75196217600069],[40.997060728000065,38.75119812300011],[40.99352684500013,38.74932056600011],[40.992649357000005,38.748028421000186],[40.99182699300019,38.74526535700005],[40.988941766000096,38.74261945900014],[40.98394011500011,38.739735727000436],[40.979713428000025,38.73670948100033],[40.97817221500014,38.73355630100002],[40.97567845800012,38.72997998700009],[40.974458488000096,38.72770736800004],[40.97433308300009,38.7276753380001],[40.97430358200006,38.72757757300042],[40.97905214200006,38.71553985200018],[40.98212545700005,38.70397312600039],[40.98749000600009,38.69432215900025],[40.992591971948286,38.680348857720276],[40.99271000000016,38.6804800000001],[40.99666000000013,38.67817000000008],[41.00191000000018,38.67782000000028],[41.00531000000012,38.674840000000245],[41.01116000000013,38.67415000000017],[41.015020000000106,38.67293000000012],[41.01873000000012,38.676540000000216],[41.024130000000184,38.680290000000696],[41.03090000000003,38.68359000000021],[41.03467000000006,38.68332000000004],[41.04152000000016,38.68256000000025],[41.05029000000013,38.68376000000006],[41.06370000000021,38.68530000000027],[41.06588000000011,38.68851000000012],[41.06850000000014,38.69729000000041],[41.06686000000019,38.70039000000003],[41.06825000000009,38.70122000000015],[41.07238000000018,38.702500000000214],[41.07571191599999,38.702721396000015],[41.07582747300006,38.70281796500029],[41.075756057000035,38.70372217600004],[41.07661438000008,38.70825479600012],[41.076717766000115,38.71007605799997],[41.07623614300013,38.71245862800015],[41.075805735000074,38.71639615300006],[41.07514475400018,38.71804557100012],[41.07273764400014,38.71988155100047],[41.07141629400002,38.72227227700057],[41.06979960900014,38.7292882170002],[41.068577833999996,38.73682263400019],[41.06582570200004,38.74238275000016],[41.06485985500012,38.745537029000104],[41.064498560000175,38.74788160900016],[41.06470299400007,38.752429170000426],[41.06444434400015,38.753592766000054],[41.063485065000066,38.75500040300045],[41.063174395000146,38.755928121000295],[41.06228178200007,38.75999942800013]]],"type":"Polygon"}},{"type":"Feature","properties":{"area_id":"TR-12-006-2006158","name_tr":"İnandık Köyü","area_level":"neighbourhood","parent_id":"TR-12-006","endeksa_id":2006158},"geometry":{"coordinates":[[[41.15830422800008,38.74540077100005],[41.158199674000116,38.745302374000175],[41.15805979200013,38.74536401000012],[41.148229442000115,38.765133078000304],[41.145219177,38.78164208300018],[41.14204414100004,38.79021384300012],[41.141945151000186,38.79028224500024],[41.141819067000085,38.79024106300005],[41.14001473899998,38.78821080700027],[41.13823067900017,38.787463049000394],[41.13541538000004,38.786672635],[41.134457043000054,38.78605969500063],[41.133653333000154,38.78439208000009],[41.13359883800018,38.77982221700006],[41.13190374500016,38.77663463100026],[41.12780876400018,38.77100772],[41.126088491000075,38.76978751100006],[41.12290046400017,38.76802357600019],[41.12154309400012,38.76528509400009],[41.121361184000136,38.76522787100009],[41.121472100999995,38.76510597900028],[41.120400146000065,38.76192138800013],[41.12020959900019,38.75913539600003],[41.11924814000014,38.75720702300009],[41.11888618800003,38.7555210380001],[41.11878186500019,38.74777172700027],[41.11862549700004,38.74665620600007],[41.11797402100012,38.74561783300004],[41.11789683600006,38.74336151500023],[41.118419507000056,38.74227724100058],[41.11836906500014,38.74054831400008],[41.1161328340001,38.731629996000606],[41.116287516000114,38.729701529000295],[41.117263654000055,38.72689594100018],[41.11722420300009,38.72679481800003],[41.121976388000064,38.72795559200034],[41.136658254,38.72506913200061],[41.13928231900013,38.725929296000004],[41.14436107400019,38.733011325000234],[41.158367197000075,38.737918222000246],[41.15830422800008,38.74540077100005]]],"type":"Polygon"}},{"type":"Feature","properties":{"area_id":"TR-12-006-2006157","name_tr":"Gençtavus Köyü","area_level":"neighbourhood","parent_id":"TR-12-006","endeksa_id":2006157},"geometry":{"coordinates":[[[41.01469026000018,38.774014661000194],[41.0142375370001,38.77424095800018],[41.010681654000166,38.77760101500064],[41.00950167500014,38.778974304000315],[41.00623818100013,38.78119726000057],[41.003535145000114,38.78541171700016],[41.001119218000156,38.78698909900044],[40.999248421000175,38.790006702000085],[40.996008354000026,38.794439935000526],[40.98611888400012,38.800699291000114],[40.98409648900008,38.80350584300015],[40.98299524800018,38.807372942000086],[40.982109706000074,38.809076769000285],[40.977731538,38.81189001900003],[40.97586447500032,38.814192316000856],[40.97301296700033,38.813226281000595],[40.97019041000027,38.812883751000356],[40.96860821200028,38.81246934500035],[40.967052660000206,38.81135777100036],[40.965909605000206,38.8099157040005],[40.96498821000023,38.809411076000856],[40.961072558000296,38.80976754100027],[40.95690556600027,38.80911610900051],[40.956128683830855,38.80918867583398],[40.95604000000026,38.80904000000055],[40.9538400000003,38.809530000000564],[40.95205000000033,38.80958000000044],[40.95034000000027,38.80944000000022],[40.948770000000366,38.808900000000335],[40.94648000000029,38.807110000000705],[40.94464000000028,38.80594000000053],[40.94266000000022,38.80518000000018],[40.94055000000026,38.80464000000029],[40.93925000000036,38.8039200000004],[40.936870000000226,38.80222000000094],[40.935080000000255,38.801320000000544],[40.930850061720434,38.80031001473748],[40.93076036685113,38.800158863753154],[40.92873402000015,38.799567054000136],[40.9212968220001,38.79246089900005],[40.921111594000024,38.79245352900011],[40.92339334500008,38.79044229800007],[40.92341282800004,38.79032598200007],[40.92350199000015,38.79040339000005],[40.92362680400015,38.790378385000054],[40.93067663700003,38.784563298000364],[40.940656051000076,38.77704120699997],[40.94360394900008,38.77245522900017],[40.949818350999976,38.76602206900009],[40.95755587299999,38.75658684199999],[40.96191355900015,38.75159783000021],[40.96191298100007,38.75148843000039],[40.96173877400014,38.75138754900013],[40.961900238,38.75138676100005],[40.962644315000034,38.75081474600006],[40.964410780000094,38.748879059000046],[40.96992985000003,38.739763896],[40.97029340100016,38.73871706500017],[40.971778719000156,38.731324554000025],[40.97430358200006,38.72757757300042],[40.97433308300009,38.7276753380001],[40.974458488000096,38.72770736800004],[40.97567845800012,38.72997998700009],[40.97817221500014,38.73355630100002],[40.979713428000025,38.73670948100033],[40.98394011500011,38.739735727000436],[40.988941766000096,38.74261945900014],[40.99182699300019,38.74526535700005],[40.992649357000005,38.748028421000186],[40.99352684500013,38.74932056600011],[40.997060728000065,38.75119812300011],[41.00003787200018,38.75196217600069],[41.00192318400002,38.753122341000164],[41.00286934500008,38.75401379900018],[41.003592891000096,38.755105062000496],[41.003932799000154,38.75579046199999],[41.00555466900005,38.76030482400017],[41.008042931000034,38.76519750000011],[41.011827148000066,38.76821759400008],[41.01468948000013,38.77140608900004],[41.01469026000018,38.774014661000194]]],"type":"Polygon"}},{"type":"Feature","properties":{"area_id":"TR-12-006-2006159","name_tr":"Kale Köyü","area_level":"neighbourhood","parent_id":"TR-12-006","endeksa_id":2006159},"geometry":{"coordinates":[[[41.06367377941376,38.80532312281298],[41.061537348000115,38.80498407300058],[41.055582028000174,38.806050655000035],[41.049733330000095,38.806154477000064],[41.047274587000175,38.80646949700002],[41.04457360200007,38.80758984100004],[41.04188447300004,38.811040101],[41.03929289900003,38.81369734200041],[41.036311595000086,38.815408999],[41.02997335600014,38.817633480000154],[41.029504982000105,38.81703973200001],[41.028799517000095,38.81509927700017],[41.02630607600008,38.810730772000625],[41.02363707400008,38.80432441300036],[41.02276760900014,38.802680410000164],[41.02202425400003,38.797557667000206],[41.021756706000076,38.79692660300003],[41.02058506900005,38.79525662400033],[41.017654678000156,38.792163592000065],[41.016414836000024,38.78998734400011],[41.01575089200003,38.785118980000334],[41.016096318000166,38.7780904870001],[41.01469026000018,38.774014661000194],[41.01468948000013,38.77140608900004],[41.014781787000004,38.77131072000003],[41.018358705000026,38.770597752000185],[41.023396147000085,38.770203430000606],[41.02468154300004,38.7698865160005],[41.02538423700008,38.76963296100007],[41.02891448700018,38.76723631500033],[41.032947155000045,38.76555462800019],[41.03572620500012,38.76469178800005],[41.04351018000017,38.76316354800008],[41.04728444799997,38.76367663500014],[41.049847775000046,38.763674388000084],[41.05440888100014,38.76271952400009],[41.058491624,38.76100096500045],[41.06228178200007,38.75999942800013],[41.062297352000144,38.76012962100015],[41.065841929000044,38.76352918300006],[41.065923249000036,38.76373504400027],[41.070347743000184,38.776709634000156],[41.07049514200003,38.77659862200039],[41.070786220000116,38.776771771000085],[41.07375929272149,38.78011046516582],[41.07377455599993,38.78023336224038],[41.07365509704397,38.78030678005837],[41.0716700000001,38.78038000000009],[41.07018000000005,38.779630000000566],[41.0678400000001,38.77928000000003],[41.06582000000009,38.77967000000035],[41.06481000000019,38.78024000000005],[41.06419000000005,38.78218000000038],[41.06274000000019,38.78416000000021],[41.061860000000195,38.78491000000031],[41.06160000000017,38.78644000000003],[41.06182000000007,38.79023000000012],[41.06160000000017,38.79194000000018],[41.05989000000005,38.79273000000018],[41.05778000000009,38.792950000000076],[41.05593000000016,38.793660000000386],[41.054920000000095,38.794310000000166],[41.054300000000126,38.79506000000026],[41.0540400000001,38.79603000000037],[41.054080000000056,38.79700000000037],[41.056190000000186,38.798180000000116],[41.05624000000006,38.798710000000426],[41.05549000000019,38.80012000000056],[41.058600000000126,38.802930000000174],[41.06014000000016,38.80346000000014],[41.061770000000195,38.804200000000094],[41.06367377941376,38.80532312281298]]],"type":"Polygon"}},{"type":"Feature","properties":{"area_id":"TR-12-006-2006151","name_tr":"Asmakaya Köyü","area_level":"neighbourhood","parent_id":"TR-12-006","endeksa_id":2006151},"geometry":{"coordinates":[[[41.12049659400003,38.81951603700037],[41.120425947000115,38.81960621900055],[41.12029506700014,38.8195972580001],[41.119117324000115,38.81870900500002],[41.11552932700016,38.81512868400017],[41.113515992000146,38.81056668400004],[41.113102513000115,38.810078573000396],[41.108427997000035,38.80696041700014],[41.10302154199513,38.80272076228556],[41.10282674603798,38.802700673284505],[41.10105000000004,38.801120000000196],[41.09769000000023,38.79937000000035],[41.0953100000001,38.79726000000039],[41.09109000000018,38.79398000000003],[41.09001000000018,38.79281000000043],[41.086420000000146,38.79070000000007],[41.085030000000074,38.78954000000056],[41.08350000000013,38.78702000000027],[41.08139000000017,38.78410000000025],[41.077170000000194,38.781730000000266],[41.07391905800017,38.7802898780003],[41.070786220000116,38.776771771000085],[41.07049514200003,38.77659862200039],[41.070347743000184,38.776709634000156],[41.065923249000036,38.76373504400027],[41.06596202100002,38.76363477500041],[41.06608963800005,38.763616405000164],[41.07478504700015,38.76632603900015],[41.07840627600018,38.767773198999976],[41.082474786000034,38.768564244000515],[41.08335774600005,38.76850962800012],[41.08893561899998,38.7668810090006],[41.093723505000185,38.76708475500004],[41.09667682000003,38.76687872700023],[41.09770957700016,38.76661548800007],[41.09994781400013,38.76535151000007],[41.10318155300013,38.76217044900022],[41.10381730800003,38.76188621900019],[41.105692317000035,38.7615738570006],[41.109433560000014,38.76199559100013],[41.11165913400015,38.76278394100018],[41.11521838800013,38.764794339000105],[41.11769620700005,38.76549601100004],[41.121361184000136,38.76522787100009],[41.12154309400012,38.76528509400009],[41.12290046400017,38.76802357600019],[41.126088491000075,38.76978751100006],[41.12780876400018,38.77100772],[41.13190374500016,38.77663463100026],[41.13359883800018,38.77982221700006],[41.133653333000154,38.78439208000009],[41.134457043000054,38.78605969500063],[41.13541538000004,38.786672635],[41.13823067900017,38.787463049000394],[41.14001473899998,38.78821080700027],[41.141819067000085,38.79024106300005],[41.14202154100013,38.79051851500043],[41.140318591000096,38.79519446400019],[41.14018366200003,38.795214782000244],[41.13368936100011,38.79314934100017],[41.12403058300015,38.80083203800018],[41.11654162399998,38.80996209099999],[41.11604670600008,38.81445261500011],[41.12037614400003,38.81519735700044],[41.12049659400003,38.81951603700037]]],"type":"Polygon"}},{"type":"Feature","properties":{"area_id":"TR-12-006-2006162","name_tr":"Sükyan Köyü","area_level":"neighbourhood","parent_id":"TR-12-006","endeksa_id":2006162},"geometry":{"coordinates":[[[40.97576427700022,38.84574777700061],[40.96946009000027,38.84821336900069],[40.96524826600029,38.851021147000836],[40.963672448000295,38.85311864900012],[40.96357941800022,38.854639847000044],[40.96307955100036,38.85554079100069],[40.96253491200031,38.855721885000264],[40.96127763700031,38.8557224150008],[40.9578608070002,38.85541308500029],[40.95160950900021,38.85572216800051],[40.94829597200027,38.85637650400065],[40.94406223600026,38.85687638400009],[40.94395859500031,38.85696105900007],[40.94295458024931,38.848446902030446],[40.94447749585021,38.84837606874663],[40.94971231006309,38.844093038936535],[40.95399533987353,38.839334116924874],[40.95589890867819,38.83469416796311],[40.95637480087936,38.82993524595145],[40.958516315784664,38.82172610548133],[40.95887323493548,38.817324102620944],[40.96208550729341,38.81137545010637],[40.96351296485767,38.80954537630578],[40.96498821000023,38.809411076000856],[40.965909605000206,38.8099157040005],[40.967052660000206,38.81135777100036],[40.96860821200028,38.81246934500035],[40.97019041000027,38.812883751000356],[40.97301296700033,38.813226281000595],[40.97586447500032,38.814192316000856],[40.98457887100034,38.828816493000545],[40.98436202400029,38.829794452000726],[40.9843707350002,38.83007935900076],[40.98418076300027,38.82999624300032],[40.98388384300023,38.83029360600028],[40.976950000000386,38.84192000000036],[40.97686184800034,38.841903771000204],[40.97576427700022,38.84574777700061]]],"type":"Polygon"}},{"type":"Feature","properties":{"area_id":"TR-12-006-2006149","name_tr":"Yenibaşak Köyü","area_level":"neighbourhood","parent_id":"TR-12-006","endeksa_id":2006149},"geometry":{"coordinates":[[[41.013070686000106,38.840279408000185],[41.01299500700014,38.84018912500005],[41.01286254900003,38.84020389300002],[41.01031216100006,38.84217736400052],[41.00981185100005,38.84236421000003],[41.00041970800015,38.84446945400009],[40.99590106000005,38.84459822600013],[40.991754442000115,38.844355501000166],[40.99110253900011,38.84406985500016],[40.98713840700003,38.83953489200019],[40.98495668400011,38.83462042900027],[40.98444067400004,38.83207595100009],[40.98436202400029,38.829794452000726],[40.98457887100034,38.828816493000545],[40.97586447500032,38.814192316000856],[40.977731538,38.81189001900003],[40.982109706000074,38.809076769000285],[40.98299524800018,38.807372942000086],[40.98409648900008,38.80350584300015],[40.98611888400012,38.800699291000114],[40.996008354000026,38.794439935000526],[40.999248421000175,38.790006702000085],[41.001119218000156,38.78698909900044],[41.003535145000114,38.78541171700016],[41.00623818100013,38.78119726000057],[41.00950167500014,38.778974304000315],[41.010681654000166,38.77760101500064],[41.0142375370001,38.77424095800018],[41.01469026000018,38.774014661000194],[41.016096318000166,38.7780904870001],[41.01575089200003,38.785118980000334],[41.016414836000024,38.78998734400011],[41.017654678000156,38.792163592000065],[41.02058506900005,38.79525662400033],[41.021756706000076,38.79692660300003],[41.02202425400003,38.797557667000206],[41.02276760900014,38.802680410000164],[41.02363707400008,38.80432441300036],[41.02630607600008,38.810730772000625],[41.028799517000095,38.81509927700017],[41.029504982000105,38.81703973200001],[41.02997335600014,38.817633480000154],[41.029874316000075,38.81818478000008],[41.03243992400007,38.82717726000004],[41.03239771600016,38.82727475200011],[41.03128690500017,38.82796695800016],[41.02915397400017,38.830985656000166],[41.02545811099998,38.83499255900017],[41.02361101100013,38.83604810200018],[41.02256377200007,38.83636103800012],[41.018396546000076,38.83667898600015],[41.01606368300003,38.838009613000054],[41.01310785800018,38.84001742700042],[41.013070686000106,38.840279408000185]]],"type":"Polygon"}},{"type":"Feature","properties":{"area_id":"TR-12-006-2006164","name_tr":"Tarhan Köyü","area_level":"neighbourhood","parent_id":"TR-12-006","endeksa_id":2006164},"geometry":{"coordinates":[[[41.10282674603798,38.802700673284505],[41.0913900000001,38.8079500000004],[41.08836000000008,38.8094500000002],[41.085190000000125,38.811690000000056],[41.08282000000014,38.813580000000115],[41.07917000000015,38.81512000000038],[41.07706000000019,38.816270000000316],[41.07468000000006,38.81806000000006],[41.07284000000004,38.817390000000046],[41.07077000000021,38.8168100000002],[41.06907000000007,38.81496000000061],[41.06889000000007,38.813120000000424],[41.06884000000019,38.811100000000295],[41.067000000000235,38.807600000000036],[41.06367377941376,38.80532312281298],[41.061770000000195,38.804200000000094],[41.06014000000016,38.80346000000014],[41.058600000000126,38.802930000000174],[41.05549000000019,38.80012000000056],[41.05624000000006,38.798710000000426],[41.056190000000186,38.798180000000116],[41.054080000000056,38.79700000000037],[41.0540400000001,38.79603000000037],[41.054300000000126,38.79506000000026],[41.054920000000095,38.794310000000166],[41.05593000000016,38.793660000000386],[41.05778000000009,38.792950000000076],[41.05989000000005,38.79273000000018],[41.06160000000017,38.79194000000018],[41.06182000000007,38.79023000000012],[41.06160000000017,38.78644000000003],[41.061860000000195,38.78491000000031],[41.06274000000019,38.78416000000021],[41.06419000000005,38.78218000000038],[41.06481000000019,38.78024000000005],[41.06582000000009,38.77967000000035],[41.0678400000001,38.77928000000003],[41.07018000000005,38.779630000000566],[41.0716700000001,38.78038000000009],[41.07365509704397,38.78030678005837],[41.07377455599993,38.78023336224038],[41.07375929272149,38.78011046516582],[41.07391905800017,38.7802898780003],[41.077170000000194,38.781730000000266],[41.08139000000017,38.78410000000025],[41.08350000000013,38.78702000000027],[41.085030000000074,38.78954000000056],[41.086420000000146,38.79070000000007],[41.09001000000018,38.79281000000043],[41.09109000000018,38.79398000000003],[41.0953100000001,38.79726000000039],[41.09769000000023,38.79937000000035],[41.10105000000004,38.801120000000196],[41.10282674603798,38.802700673284505]]],"type":"Polygon"}},{"type":"Feature","properties":{"area_id":"TR-12-006-2006163","name_tr":"Sülünkaş Köyü","area_level":"neighbourhood","parent_id":"TR-12-006","endeksa_id":2006163},"geometry":{"coordinates":[[[40.96351296485767,38.80954537630578],[40.96208550729341,38.81137545010637],[40.95887323493548,38.817324102620944],[40.958516315784664,38.82172610548133],[40.95637480087936,38.82993524595145],[40.95589890867819,38.83469416796311],[40.95399533987353,38.839334116924874],[40.94971231006309,38.844093038936535],[40.94447749585021,38.84837606874663],[40.94295458024931,38.848446902030446],[40.942085897000254,38.846030095000344],[40.94151579700031,38.843575688000215],[40.940398528000344,38.84186903200026],[40.93998516800025,38.84059631800079],[40.93993149800025,38.83523818000066],[40.93902123800024,38.829849437000746],[40.93636275700027,38.82275515500049],[40.934328129000335,38.82026466800022],[40.930063632000156,38.81752021600016],[40.92918838400021,38.8163305310004],[40.928125282000224,38.812923603000286],[40.928125577000344,38.81073470500036],[40.9286696650002,38.80829104000037],[40.928820000000314,38.80623000000037],[40.92909000000026,38.80489000000034],[40.929910000000234,38.80337000000088],[40.930850061720434,38.80031001473748],[40.935080000000255,38.801320000000544],[40.936870000000226,38.80222000000094],[40.93925000000036,38.8039200000004],[40.94055000000026,38.80464000000029],[40.94266000000022,38.80518000000018],[40.94464000000028,38.80594000000053],[40.94648000000029,38.807110000000705],[40.948770000000366,38.808900000000335],[40.95034000000027,38.80944000000022],[40.95205000000033,38.80958000000044],[40.9538400000003,38.809530000000564],[40.95604000000026,38.80904000000055],[40.956128683830855,38.80918867583398],[40.95690556600027,38.80911610900051],[40.961072558000296,38.80976754100027],[40.96351296485767,38.80954537630578]]],"type":"Polygon"}},{"type":"Feature","properties":{"area_id":"TR-12-006-2006160","name_tr":"Kırık Köyü","area_level":"neighbourhood","parent_id":"TR-12-006","endeksa_id":2006160},"geometry":{"coordinates":[[[41.13156204700016,38.85415982700016],[41.11053460500011,38.85411962600011],[41.110375938000004,38.85401594600006],[41.11032480800003,38.85416304700021],[41.10824707300003,38.85479354299997],[41.0974073320001,38.85725815400042],[41.09723636500007,38.857363749],[41.09723168700003,38.85721227900012],[41.09673406600018,38.857024379000165],[41.09403533800014,38.85536325700008],[41.092191571000114,38.85470021300006],[41.086113209000075,38.84995767300006],[41.07690838300016,38.84679128200003],[41.074374701000124,38.84435844700005],[41.07099959700014,38.83911990100023],[41.06879852500009,38.832969812000385],[41.065877192000016,38.83371051800003],[41.06374735000003,38.83509071700013],[41.06189780200009,38.83584101500003],[41.058933959000115,38.836668577000125],[41.05783401600013,38.83777852200018],[41.05736935900018,38.837835640000094],[41.05282523000011,38.83617339100033],[41.04898805900018,38.831872840000074],[41.04310933600004,38.82943282300039],[41.03996599100009,38.827606950000074],[41.037302807,38.827290552000136],[41.034002942000086,38.82759748600017],[41.03243992400007,38.82717726000004],[41.029874316000075,38.81818478000008],[41.02997335600014,38.817633480000154],[41.036311595000086,38.815408999],[41.03929289900003,38.81369734200041],[41.04188447300004,38.811040101],[41.04457360200007,38.80758984100004],[41.047274587000175,38.80646949700002],[41.049733330000095,38.806154477000064],[41.055582028000174,38.806050655000035],[41.061537348000115,38.80498407300058],[41.06367377941376,38.80532312281298],[41.067000000000235,38.807600000000036],[41.06884000000019,38.811100000000295],[41.06889000000007,38.813120000000424],[41.06907000000007,38.81496000000061],[41.07077000000021,38.8168100000002],[41.07284000000004,38.817390000000046],[41.07468000000006,38.81806000000006],[41.07706000000019,38.816270000000316],[41.07917000000015,38.81512000000038],[41.08282000000014,38.813580000000115],[41.085190000000125,38.811690000000056],[41.08836000000008,38.8094500000002],[41.0913900000001,38.8079500000004],[41.10282674603798,38.802700673284505],[41.10302154199513,38.80272076228556],[41.108427997000035,38.80696041700014],[41.113102513000115,38.810078573000396],[41.113515992000146,38.81056668400004],[41.11552932700016,38.81512868400017],[41.119117324000115,38.81870900500002],[41.12029506700014,38.8195972580001],[41.120425947000115,38.81960621900055],[41.12049659400003,38.81951603700037],[41.12064318299997,38.82590591600069],[41.11878525200018,38.828618039000105],[41.12233158800018,38.83859083100015],[41.121551276000105,38.8440665710001],[41.12167432100006,38.844142115000636],[41.12585102300011,38.844090876000394],[41.13042128799998,38.84831938600013],[41.130952901,38.85018689800012],[41.13168784800018,38.85404802300013],[41.13156204700016,38.85415982700016]]],"type":"Polygon"}},{"type":"Feature","properties":{"area_id":"TR-12-006-2006156","name_tr":"Gelintepe Köyü","area_level":"neighbourhood","parent_id":"TR-12-006","endeksa_id":2006156},"geometry":{"coordinates":[[[40.94262790200003,38.864721219000046],[40.94219038100016,38.86477889000025],[40.938606721000156,38.86630813400012],[40.93574130000013,38.86677685800004],[40.93295542700008,38.86764092300018],[40.92972846800018,38.869379208000055],[40.928055279000034,38.871377000000166],[40.925627918000146,38.8729476150005],[40.923181670000076,38.873797900000056],[40.918285734000165,38.874734402000456],[40.91427302900007,38.87683834800009],[40.911315860000116,38.87814087300012],[40.91128054330562,38.878028413366565],[40.911440000000084,38.87803000000014],[40.910480000000234,38.87555000000026],[40.909150000000125,38.8728000000001],[40.90911000000017,38.87114000000008],[40.90920000000017,38.870200000000295],[40.908440000000155,38.86930000000041],[40.90745000000015,38.86885000000012],[40.90678000000014,38.86697000000021],[40.90619000000015,38.86468000000042],[40.90606000000008,38.862930000000574],[40.91158000000013,38.861160000000496],[40.91260000000011,38.860200000000646],[40.91255000000007,38.85764000000006],[40.91295000000014,38.85566000000017],[40.91246000000007,38.853510000000085],[40.9113200000001,38.85122000000018],[40.90793000000008,38.84968000000009],[40.90415000000013,38.84990000000039],[40.90233000000018,38.850850000000094],[40.900810000000206,38.847840000000076],[40.898920000000146,38.8425500000003],[40.894930000000045,38.83707000000038],[40.89385000000004,38.835050000000194],[40.89250000000004,38.83213000000018],[40.89079000000015,38.826930000000516],[40.890290000000164,38.82329000000061],[40.88962000000015,38.82155000000017],[40.889488860331426,38.82168201393347],[40.89095196000005,38.81998705300026],[40.895142742000075,38.8125708730002],[40.90112942700006,38.80498762000008],[40.910004711000056,38.79857464300051],[40.91028828300006,38.798165743000425],[40.91027436200005,38.79806907300042],[40.91050235100005,38.79829768300033],[40.91096185700019,38.79815257900003],[40.916967069000066,38.795602845000644],[40.921111594000024,38.79245352900011],[40.9212968220001,38.79246089900005],[40.92873402000015,38.799567054000136],[40.93076036685113,38.800158863753154],[40.930850061720434,38.80031001473748],[40.929910000000234,38.80337000000088],[40.92909000000026,38.80489000000034],[40.928820000000314,38.80623000000037],[40.9286696650002,38.80829104000037],[40.928125577000344,38.81073470500036],[40.928125282000224,38.812923603000286],[40.92918838400021,38.8163305310004],[40.930063632000156,38.81752021600016],[40.934328129000335,38.82026466800022],[40.93636275700027,38.82275515500049],[40.93902123800024,38.829849437000746],[40.93993149800025,38.83523818000066],[40.93998516800025,38.84059631800079],[40.940398528000344,38.84186903200026],[40.94151579700031,38.843575688000215],[40.942085897000254,38.846030095000344],[40.94295458024931,38.848446902030446],[40.94395859500031,38.85696105900007],[40.942686190000074,38.86453299000016],[40.942733995000026,38.86463833300007],[40.94262790200003,38.864721219000046]]],"type":"Polygon"}},{"type":"Feature","properties":{"area_id":"TR-12-006-2006161","name_tr":"Oymapınar Köyü","area_level":"neighbourhood","parent_id":"TR-12-006","endeksa_id":2006161},"geometry":{"coordinates":[[[40.98747303400012,38.873632141000144],[40.9873741400001,38.87375947900017],[40.98581716800004,38.873845853000034],[40.98062229800013,38.873223153000026],[40.97723242300003,38.87325150400051],[40.97166813500007,38.87512366900006],[40.96541034100011,38.87670928600011],[40.96076376700006,38.8775184860001],[40.959006881000164,38.877567641000155],[40.95785529300008,38.879190947000154],[40.956336309000164,38.876753536000365],[40.95297807000003,38.87504326600043],[40.94944818500011,38.87245822600005],[40.94899686900004,38.87204910800017],[40.942840623000166,38.86475346600014],[40.94262790200003,38.864721219000046],[40.942733995000026,38.86463833300007],[40.942686190000074,38.86453299000016],[40.94395859500031,38.85696105900007],[40.94406223600026,38.85687638400009],[40.94829597200027,38.85637650400065],[40.95160950900021,38.85572216800051],[40.9578608070002,38.85541308500029],[40.96127763700031,38.8557224150008],[40.96253491200031,38.855721885000264],[40.96307955100036,38.85554079100069],[40.96357941800022,38.854639847000044],[40.963672448000295,38.85311864900012],[40.96524826600029,38.851021147000836],[40.96946009000027,38.84821336900069],[40.97576427700022,38.84574777700061],[40.97717703100005,38.84921660900039],[40.97671643800004,38.85112391800055],[40.97678110100014,38.852491321000116],[40.97769991300015,38.85378135999997],[40.97923913800008,38.8547920980003],[40.98027121199999,38.85630363900003],[40.98098213300011,38.86004816600018],[40.981741371000055,38.862729561000094],[40.983295332000125,38.86595327800006],[40.98614580800006,38.8703377070002],[40.98747303400012,38.873632141000144]]],"type":"Polygon"}},{"type":"Feature","properties":{"area_id":"TR-12-006-2006153","name_tr":"Demirkapı Köyü","area_level":"neighbourhood","parent_id":"TR-12-006","endeksa_id":2006153},"geometry":{"coordinates":[[[41.013070686000106,38.840279408000185],[41.01309987500014,38.846034121000685],[41.01418939400014,38.859162902000094],[41.018019452000146,38.863038123000194],[41.01850494900003,38.86402100099997],[41.01849821900004,38.865921285000184],[41.01766086200013,38.86838143600011],[41.01616631600007,38.875394442000356],[41.01565702200003,38.87996374300013],[41.015456506000135,38.885300719000156],[41.01536677199999,38.885366007000016],[41.014792516000114,38.88528526100009],[41.014830581000126,38.88519330400021],[41.014139847000195,38.884983890000115],[41.01417292399998,38.884903983000186],[41.013487178000105,38.88468252000007],[41.01350923000018,38.88462924900017],[41.012181840000096,38.88407977899999],[41.00856499300005,38.88076253100019],[41.00186702700012,38.876919928999996],[40.99975701700015,38.875925710000615],[40.996795290000136,38.87511942800052],[40.99316676700005,38.874478763000354],[40.99073677300004,38.87500875000006],[40.987564297999995,38.87376863600031],[40.98747303400012,38.873632141000144],[40.98614580800006,38.8703377070002],[40.983295332000125,38.86595327800006],[40.981741371000055,38.862729561000094],[40.98098213300011,38.86004816600018],[40.98027121199999,38.85630363900003],[40.97923913800008,38.8547920980003],[40.97769991300015,38.85378135999997],[40.97678110100014,38.852491321000116],[40.97671643800004,38.85112391800055],[40.97717703100005,38.84921660900039],[40.97576427700022,38.84574777700061],[40.97686184800034,38.841903771000204],[40.976950000000386,38.84192000000036],[40.98388384300023,38.83029360600028],[40.98418076300027,38.82999624300032],[40.9843707350002,38.83007935900076],[40.98444067400004,38.83207595100009],[40.98495668400011,38.83462042900027],[40.98713840700003,38.83953489200019],[40.99110253900011,38.84406985500016],[40.991754442000115,38.844355501000166],[40.99590106000005,38.84459822600013],[41.00041970800015,38.84446945400009],[41.00981185100005,38.84236421000003],[41.01031216100006,38.84217736400052],[41.01286254900003,38.84020389300002],[41.01299500700014,38.84018912500005],[41.013070686000106,38.840279408000185]]],"type":"Polygon"}},{"type":"Feature","properties":{"area_id":"TR-12-006-2006155","name_tr":"Elmasırtı Köyü","area_level":"neighbourhood","parent_id":"TR-12-006","endeksa_id":2006155},"geometry":{"coordinates":[[[41.09723636500007,38.857363749],[41.095666513000026,38.858451671000125],[41.093661820000136,38.86105359300012],[41.092028459999995,38.862420513000075],[41.089574544000186,38.86358283200059],[41.08462306700005,38.86645335500015],[41.084722943000145,38.86687948700006],[41.08585228300012,38.868013366000355],[41.08661134100009,38.87132861600003],[41.08777061300009,38.87299675300011],[41.08759817700019,38.87424735700006],[41.08707673500004,38.87472429500042],[41.08685464300015,38.875472800000125],[41.08684106900006,38.87635482900015],[41.08704805700012,38.87695985100015],[41.08850853500019,38.87777772800001],[41.0906694250001,38.87858185700003],[41.09140696900005,38.87912819800056],[41.09255681600001,38.88006507099999],[41.09316925500019,38.88164891500031],[41.0930172140001,38.882760510000026],[41.09264179100006,38.88326252999997],[41.09041913200008,38.884579671000154],[41.089250105000076,38.88623612300006],[41.087227745000064,38.88781199300007],[41.08512615200004,38.88898989400013],[41.08289718200018,38.88959661700011],[41.07938269100009,38.889190429999985],[41.075135517000035,38.88770995900052],[41.07152013600012,38.88734376300005],[41.06775090500008,38.88633589100016],[41.064666758000044,38.88400172700011],[41.06388715800006,38.88378681400019],[41.06119175800012,38.883471069999985],[41.05855202900011,38.88398931700016],[41.05790040100004,38.884215234000465],[41.05445532599998,38.88874114300006],[41.047992036000096,38.89392178300005],[41.04438906400003,38.8958698430003],[41.038378831000045,38.896986761000164],[41.03688023700005,38.898113989000194],[41.03688097100013,38.89824590400019],[41.036734933000105,38.898180097000136],[41.022730325000055,38.89929185400001],[41.019992104000096,38.89673422300041],[41.01685360100004,38.89259473500039],[41.01536677199999,38.885366007000016],[41.015456506000135,38.885300719000156],[41.01565702200003,38.87996374300013],[41.01616631600007,38.875394442000356],[41.01766086200013,38.86838143600011],[41.01849821900004,38.865921285000184],[41.01850494900003,38.86402100099997],[41.018019452000146,38.863038123000194],[41.01418939400014,38.859162902000094],[41.01309987500014,38.846034121000685],[41.013070686000106,38.840279408000185],[41.01310785800018,38.84001742700042],[41.01606368300003,38.838009613000054],[41.018396546000076,38.83667898600015],[41.02256377200007,38.83636103800012],[41.02361101100013,38.83604810200018],[41.02545811099998,38.83499255900017],[41.02915397400017,38.830985656000166],[41.03128690500017,38.82796695800016],[41.03239771600016,38.82727475200011],[41.03243992400007,38.82717726000004],[41.034002942000086,38.82759748600017],[41.037302807,38.827290552000136],[41.03996599100009,38.827606950000074],[41.04310933600004,38.82943282300039],[41.04898805900018,38.831872840000074],[41.05282523000011,38.83617339100033],[41.05736935900018,38.837835640000094],[41.05783401600013,38.83777852200018],[41.058933959000115,38.836668577000125],[41.06189780200009,38.83584101500003],[41.06374735000003,38.83509071700013],[41.065877192000016,38.83371051800003],[41.06879852500009,38.832969812000385],[41.07099959700014,38.83911990100023],[41.074374701000124,38.84435844700005],[41.07690838300016,38.84679128200003],[41.086113209000075,38.84995767300006],[41.092191571000114,38.85470021300006],[41.09403533800014,38.85536325700008],[41.09673406600018,38.857024379000165],[41.09723168700003,38.85721227900012],[41.09723636500007,38.857363749]]],"type":"Polygon"}},{"type":"Feature","properties":{"area_id":"TR-12-006-2037670","name_tr":"Düzağaç Köyü","area_level":"neighbourhood","parent_id":"TR-12-006","endeksa_id":2037670},"geometry":{"coordinates":[[[40.9553523670001,38.919206308000355],[40.95515245400003,38.91928181500015],[40.95330022900015,38.918074574000684],[40.94921480900018,38.91446942500005],[40.94725776000013,38.91316864800012],[40.94413525700014,38.912072532000025],[40.93695241600011,38.91075152700006],[40.935561074000134,38.91020791700021],[40.93056437200005,38.90770743400003],[40.930097133000004,38.90720791000041],[40.92974545800013,38.90593292500034],[40.92915605200005,38.9049349500001],[40.92877824000004,38.904422269000406],[40.927647827000044,38.903617800000006],[40.92719937500004,38.90333611600033],[40.92427763400019,38.90277260100015],[40.92410813600003,38.90218206700018],[40.925083899000185,38.900929950000375],[40.9254221650001,38.897693612000296],[40.924964058000114,38.89566477500006],[40.924693031000174,38.895165136000344],[40.92383672100004,38.894376507000004],[40.92199292800012,38.89376665600008],[40.91607070400005,38.893008409000686],[40.914163219000045,38.89154063800015],[40.911879239000086,38.89051280100011],[40.90955316100019,38.89050415800034],[40.90841566000012,38.890949626000065],[40.90561410300006,38.88877072299999],[40.905474214000094,38.88851329400046],[40.905260283000075,38.88852625400011],[40.911315860000116,38.87814087300012],[40.91427302900007,38.87683834800009],[40.918285734000165,38.874734402000456],[40.923181670000076,38.873797900000056],[40.925627918000146,38.8729476150005],[40.928055279000034,38.871377000000166],[40.92972846800018,38.869379208000055],[40.93295542700008,38.86764092300018],[40.93574130000013,38.86677685800004],[40.938606721000156,38.86630813400012],[40.94219038100016,38.86477889000025],[40.94262790200003,38.864721219000046],[40.942840623000166,38.86475346600014],[40.94899686900004,38.87204910800017],[40.94944818500011,38.87245822600005],[40.95297807000003,38.87504326600043],[40.956336309000164,38.876753536000365],[40.95785529300008,38.879190947000154],[40.95729785200007,38.881241394000256],[40.956798513000024,38.88623073000025],[40.95552609800018,38.89204629200003],[40.95562967400008,38.89439186300058],[40.95713744300019,38.90263063600008],[40.95542173100017,38.91043240100066],[40.95521591100004,38.912768459000176],[40.9555252020001,38.91669110400011],[40.9553523670001,38.919206308000355]]],"type":"Polygon"}},{"type":"Feature","properties":{"area_id":"TR-12-006-2006144","name_tr":"Murat Köyü","area_level":"neighbourhood","parent_id":"TR-12-006","endeksa_id":2006144},"geometry":{"coordinates":[[[41.01648264900007,38.91720755300008],[41.01559450700012,38.91742151700021],[41.008839200000125,38.91786292200004],[40.99685254000008,38.919341976000055],[40.992930944000136,38.92046012000003],[40.99060625700008,38.92162878800042],[40.98933443600009,38.92188764600019],[40.98550727600019,38.92147700500038],[40.979725010000095,38.92147659500017],[40.9724293860001,38.920719966000036],[40.96978987600016,38.92061704300011],[40.96616215800003,38.92137364000013],[40.964117288000125,38.922095936000346],[40.962239465000096,38.922095936000346],[40.960099496000055,38.921684312000025],[40.95668033400011,38.92181517400002],[40.95655487800008,38.92173069600017],[40.95650292500011,38.921481306000146],[40.95546726600014,38.91961810300023],[40.955320544000074,38.91948698500022],[40.9553523670001,38.919206308000355],[40.9555252020001,38.91669110400011],[40.95521591100004,38.912768459000176],[40.95542173100017,38.91043240100066],[40.95713744300019,38.90263063600008],[40.95562967400008,38.89439186300058],[40.95552609800018,38.89204629200003],[40.956798513000024,38.88623073000025],[40.95729785200007,38.881241394000256],[40.95785529300008,38.879190947000154],[40.959006881000164,38.877567641000155],[40.96076376700006,38.8775184860001],[40.96541034100011,38.87670928600011],[40.97166813500007,38.87512366900006],[40.97723242300003,38.87325150400051],[40.98062229800013,38.873223153000026],[40.98581716800004,38.873845853000034],[40.9873741400001,38.87375947900017],[40.98747303400012,38.873632141000144],[40.987564297999995,38.87376863600031],[40.99073677300004,38.87500875000006],[40.99316676700005,38.874478763000354],[40.996795290000136,38.87511942800052],[40.99975701700015,38.875925710000615],[41.00186702700012,38.876919928999996],[41.00856499300005,38.88076253100019],[41.012181840000096,38.88407977899999],[41.01350923000018,38.88462924900017],[41.013487178000105,38.88468252000007],[41.01417292399998,38.884903983000186],[41.014139847000195,38.884983890000115],[41.014830581000126,38.88519330400021],[41.014792516000114,38.88528526100009],[41.01536677199999,38.885366007000016],[41.01685360100004,38.89259473500039],[41.019992104000096,38.89673422300041],[41.022730325000055,38.89929185400001],[41.01667345900006,38.91711282300042],[41.01648264900007,38.91720755300008]]],"type":"Polygon"}},{"type":"Feature","properties":{"area_id":"TR-12-006-2006152","name_tr":"Bozkanat Köyü","area_level":"neighbourhood","parent_id":"TR-12-006","endeksa_id":2006152},"geometry":{"coordinates":[[[40.91128054330562,38.878028413366565],[40.90943000000004,38.878010000000586],[40.904900000000225,38.879030000000284],[40.90420000000017,38.87753000000066],[40.90341000000018,38.87718000000012],[40.90226000000007,38.87859000000026],[40.899800000000084,38.87947000000008],[40.898220000000094,38.87947000000008],[40.89619000000022,38.8786800000006],[40.893290000000036,38.876210000000185],[40.88968000000017,38.874010000000055],[40.888620000000174,38.872960000000035],[40.883690000000115,38.872780000000034],[40.881670000000156,38.873490000000345],[40.87542000000013,38.874360000000195],[40.876810000000035,38.873030000000654],[40.87810000000019,38.8708400000001],[40.87930000000017,38.868530000000646],[40.87946000000011,38.86665000000016],[40.87930000000017,38.86164000000042],[40.87898000000018,38.85970000000049],[40.87818000000004,38.856450000000166],[40.87705000000017,38.85469000000023],[40.876810000000035,38.853820000000155],[40.876810000000035,38.85307000000046],[40.87593000000004,38.85169000000013],[40.874973611270946,38.846415880677],[40.874869951748224,38.846319273430026],[40.87471413448742,38.84633925270742],[40.874909856000045,38.84621698300003],[40.876830856271965,38.842487511408706],[40.877240000000086,38.83450000000016],[40.880460642000116,38.831205111000145],[40.88040219310852,38.83104806763089],[40.88065163170364,38.83103835046745],[40.88512000000014,38.82608000000039],[40.88962000000015,38.82155000000017],[40.890290000000164,38.82329000000061],[40.89079000000015,38.826930000000516],[40.89250000000004,38.83213000000018],[40.89385000000004,38.835050000000194],[40.894930000000045,38.83707000000038],[40.898920000000146,38.8425500000003],[40.900810000000206,38.847840000000076],[40.90233000000018,38.850850000000094],[40.90415000000013,38.84990000000039],[40.90793000000008,38.84968000000009],[40.9113200000001,38.85122000000018],[40.91246000000007,38.853510000000085],[40.91295000000014,38.85566000000017],[40.91255000000007,38.85764000000006],[40.91260000000011,38.860200000000646],[40.91158000000013,38.861160000000496],[40.90606000000008,38.862930000000574],[40.90619000000015,38.86468000000042],[40.90678000000014,38.86697000000021],[40.90745000000015,38.86885000000012],[40.908440000000155,38.86930000000041],[40.90920000000017,38.870200000000295],[40.90911000000017,38.87114000000008],[40.909150000000125,38.8728000000001],[40.910480000000234,38.87555000000026],[40.911440000000084,38.87803000000014],[40.91128054330562,38.878028413366565]]],"type":"Polygon"}},{"type":"Feature","properties":{"area_id":"TR-12-006-2006141","name_tr":"Eşmetaş Köyü","area_level":"neighbourhood","parent_id":"TR-12-006","endeksa_id":2006141},"geometry":{"coordinates":[[[41.11088000000018,38.90828000000033],[41.107360000000085,38.909450000000106],[41.10282000000012,38.9107700000003],[41.09732000000014,38.91148000000021],[41.08922000000018,38.91399000000041],[41.083980000000054,38.91631000000052],[41.08015000000006,38.91746000000046],[41.07395000000008,38.919740000000104],[41.06744000000003,38.92111000000034],[41.05394000000018,38.92506000000009],[41.04914000000019,38.92678000000012],[41.045100000000105,38.92810000000031],[41.04215000000005,38.92951000000005],[41.04138000000012,38.928160000000446],[41.0398100000001,38.927940000000035],[41.03734000000014,38.92830000000015],[41.031540000000064,38.92736000000036],[41.03049000000004,38.928250000000105],[41.024250000000166,38.926790000000096],[41.02241000000015,38.92493000000036],[41.022400000000175,38.92385000000053],[41.02019996891153,38.923850097872105],[41.0199980838093,38.92390962229928],[41.01984556300016,38.92362972500018],[41.01713342199997,38.922910818000446],[41.01670392000017,38.92253167600052],[41.016434105000144,38.92092685800043],[41.01664717900019,38.917302162],[41.01648264900007,38.91720755300008],[41.01667345900006,38.91711282300042],[41.022730325000055,38.89929185400001],[41.036734933000105,38.898180097000136],[41.03688097100013,38.89824590400019],[41.03688023700005,38.898113989000194],[41.038378831000045,38.896986761000164],[41.04438906400003,38.8958698430003],[41.047992036000096,38.89392178300005],[41.05445532599998,38.88874114300006],[41.05790040100004,38.884215234000465],[41.05855202900011,38.88398931700016],[41.06119175800012,38.883471069999985],[41.06388715800006,38.88378681400019],[41.064666758000044,38.88400172700011],[41.06775090500008,38.88633589100016],[41.07152013600012,38.88734376300005],[41.075135517000035,38.88770995900052],[41.07938269100009,38.889190429999985],[41.08289718200018,38.88959661700011],[41.08512615200004,38.88898989400013],[41.087227745000064,38.88781199300007],[41.089250105000076,38.88623612300006],[41.09041913200008,38.884579671000154],[41.09264179100006,38.88326252999997],[41.0930172140001,38.882760510000026],[41.09316925500019,38.88164891500031],[41.09255681600001,38.88006507099999],[41.09140696900005,38.87912819800056],[41.0906694250001,38.87858185700003],[41.08850853500019,38.87777772800001],[41.08704805700012,38.87695985100015],[41.08684106900006,38.87635482900015],[41.08685464300015,38.875472800000125],[41.08707673500004,38.87472429500042],[41.08759817700019,38.87424735700006],[41.08777061300009,38.87299675300011],[41.08661134100009,38.87132861600003],[41.08585228300012,38.868013366000355],[41.084722943000145,38.86687948700006],[41.08462306700005,38.86645335500015],[41.089574544000186,38.86358283200059],[41.092028459999995,38.862420513000075],[41.093661820000136,38.86105359300012],[41.095666513000026,38.858451671000125],[41.09723636500007,38.857363749],[41.0974073320001,38.85725815400042],[41.10824707300003,38.85479354299997],[41.11032480800003,38.85416304700021],[41.110375938000004,38.85401594600006],[41.11053460500011,38.85411962600011],[41.13156204700016,38.85415982700016],[41.13172727665466,38.85422745197866],[41.13283000000018,38.85938000000033],[41.12997000000013,38.86827000000045],[41.12426000000022,38.8822100000001],[41.1108900000001,38.894210000000214],[41.11088000000018,38.90828000000033]]],"type":"Polygon"}},{"type":"Feature","properties":{"area_id":"TR-12-006-2006146","name_tr":"Şimşirpınar Köyü","area_level":"neighbourhood","parent_id":"TR-12-006","endeksa_id":2006146},"geometry":{"coordinates":[[[41.064085909000084,38.95004122300003],[41.063863980000065,38.94990973600022],[41.06179694093322,38.9498810563652],[41.06073000000015,38.950500000000034],[41.05666000000019,38.954180000000406],[41.052940000000035,38.953190000000234],[41.045859085117854,38.94965992271585],[41.043560000000184,38.94844000000012],[41.04134000000022,38.94843000000071],[41.03793000000013,38.94911000000013],[41.03665000000012,38.948170000000516],[41.034510000000125,38.94828000000041],[41.03183000000007,38.947620000000484],[41.03099000000003,38.94753000000014],[41.029950000000156,38.94706000000036],[41.02982000000003,38.94507000000016],[41.02900000000005,38.942780000000084],[41.02888000000007,38.94209000000052],[41.02919000000014,38.9397000000003],[41.026920000000075,38.93963000000019],[41.0248400000001,38.9402300000001],[41.01897000000008,38.94217000000003],[41.01458000000014,38.94406000000009],[41.01562000000018,38.939560000000085],[41.01566000000014,38.93723000000057],[41.0173700000002,38.93130000000019],[41.018490000000156,38.927980000000105],[41.01836000000026,38.92722000000015],[41.0187200000002,38.92578000000037],[41.0199300000001,38.92470000000054],[41.02019996891153,38.923850097872105],[41.022400000000175,38.92385000000053],[41.02241000000015,38.92493000000036],[41.024250000000166,38.926790000000096],[41.03049000000004,38.928250000000105],[41.031540000000064,38.92736000000036],[41.03734000000014,38.92830000000015],[41.0398100000001,38.927940000000035],[41.04138000000012,38.928160000000446],[41.04215000000005,38.92951000000005],[41.045100000000105,38.92810000000031],[41.04914000000019,38.92678000000012],[41.05394000000018,38.92506000000009],[41.06744000000003,38.92111000000034],[41.07395000000008,38.919740000000104],[41.08015000000006,38.91746000000046],[41.083980000000054,38.91631000000052],[41.08922000000018,38.91399000000041],[41.09732000000014,38.91148000000021],[41.10282000000012,38.9107700000003],[41.107360000000085,38.909450000000106],[41.11088000000018,38.90828000000033],[41.11755000000011,38.919390000000305],[41.12358000000006,38.92594000000008],[41.114300000000185,38.9343300000001],[41.112230000000125,38.932340000000295],[41.111360000000104,38.93029000000047],[41.11159000000009,38.92802000000023],[41.11141000000015,38.92611000000011],[41.110770000000116,38.925250000000176],[41.109250000000145,38.92561000000035],[41.107210000000066,38.928250000000105],[41.10562144852662,38.92997450858172],[41.11066516300008,38.93280979200006],[41.11071765200006,38.932896710000136],[41.1106471760001,38.93297908500011],[41.10951321900012,38.93319094900005],[41.101318833000164,38.936275559000194],[41.10269280700015,38.942651333000185],[41.102644444000134,38.942747091000115],[41.09536333100016,38.94708154000034],[41.092652745000066,38.95346125100053],[41.09271101900009,38.953599001000384],[41.092545032000146,38.95362924800031],[41.0925318940001,38.95371063700003],[41.091989065000064,38.95362301100005],[41.08093960500008,38.94980728200045],[41.06415864100006,38.94995068700018],[41.064085909000084,38.95004122300003]]],"type":"Polygon"}},{"type":"Feature","properties":{"area_id":"TR-12-006-2006139","name_tr":"Dilektepe Köyü","area_level":"neighbourhood","parent_id":"TR-12-006","endeksa_id":2006139},"geometry":{"coordinates":[[[41.01573162099868,38.94356419961588],[41.015433945000154,38.944660377000105],[41.015368750000164,38.94658016400007],[41.015251211000134,38.94670348000068],[41.01044613800019,38.94690487700001],[41.006577507000145,38.94754666100005],[40.99304147700013,38.95437622400016],[40.986004697,38.95640413800004],[40.98555749800005,38.95629323500037],[40.98534907800007,38.956267593000064],[40.98409664200017,38.95564445700052],[40.982021572000065,38.954268266999975],[40.978484937000076,38.95332498600004],[40.97359674900014,38.95346859000034],[40.96829076700004,38.95494093200011],[40.96096181900009,38.95468225800022],[40.95703951900009,38.953150085000004],[40.954909458000145,38.949844286000314],[40.95424033000006,38.94947767900027],[40.94927832399998,38.94744075300031],[40.94599590600018,38.947105042000146],[40.944939328000146,38.947148771000116],[40.94481323800005,38.9470159400006],[40.947445302000006,38.94189848700057],[40.950184602000036,38.93823024700009],[40.95106411000012,38.936688672],[40.951393313000096,38.93507302300003],[40.95103870600019,38.93314436000003],[40.95105053600008,38.92967406200012],[40.95197092400019,38.928363273000116],[40.95359656500017,38.926873265000154],[40.95469950500012,38.9248701730001],[40.95547905100011,38.924556866000216],[40.9566005260001,38.92202889500004],[40.95655487800008,38.92173069600017],[40.95668033400011,38.92181517400002],[40.960099496000055,38.921684312000025],[40.962239465000096,38.922095936000346],[40.964117288000125,38.922095936000346],[40.96616215800003,38.92137364000013],[40.96978987600016,38.92061704300011],[40.9724293860001,38.920719966000036],[40.979725010000095,38.92147659500017],[40.98550727600019,38.92147700500038],[40.98933443600009,38.92188764600019],[40.99060625700008,38.92162878800042],[40.992930944000136,38.92046012000003],[40.99685254000008,38.919341976000055],[41.008839200000125,38.91786292200004],[41.01559450700012,38.91742151700021],[41.01648264900007,38.91720755300008],[41.01664717900019,38.917302162],[41.016434105000144,38.92092685800043],[41.01670392000017,38.92253167600052],[41.01713342199997,38.922910818000446],[41.01984556300016,38.92362972500018],[41.0199980838093,38.92390962229928],[41.02019996891153,38.923850097872105],[41.0199300000001,38.92470000000054],[41.0187200000002,38.92578000000037],[41.01836000000026,38.92722000000015],[41.018490000000156,38.927980000000105],[41.0173700000002,38.93130000000019],[41.01566000000014,38.93723000000057],[41.01562000000018,38.939560000000085],[41.01458000000014,38.94406000000009],[41.01573162099868,38.94356419961588]]],"type":"Polygon"}},{"type":"Feature","properties":{"area_id":"TR-12-006-2006147","name_tr":"Yenidal Köyü","area_level":"neighbourhood","parent_id":"TR-12-006","endeksa_id":2006147},"geometry":{"coordinates":[[[40.93192022600016,38.9599237540001],[40.93187507800013,38.960011044000055],[40.93173023900016,38.95995923600003],[40.92643653900018,38.97059042900008],[40.92628260300006,38.97064986500004],[40.92251235100002,38.96932352500011],[40.91454871400009,38.967340890000116],[40.90657376400014,38.96284014400004],[40.902397297000164,38.95934507100014],[40.89065100300013,38.959027541000125],[40.887340621000135,38.95817089100012],[40.882234508000124,38.954395032000434],[40.87302961200004,38.94829325000023],[40.86290295800006,38.943562982000174],[40.86034141700014,38.94309439300008],[40.851673315000085,38.94309309900029],[40.848295999000015,38.94189307200003],[40.84824845500003,38.94177975499997],[40.84809032400017,38.9418189620003],[40.8480692170001,38.94173383399999],[40.848270576000175,38.941683910000165],[40.84830395800009,38.941539268999975],[40.84800380200011,38.94146999500015],[40.84261309900006,38.938174333999996],[40.83802332700009,38.93454488600008],[40.83689306800005,38.93320137300003],[40.83455722200006,38.92929146300003],[40.83261676800009,38.92680930100033],[40.82703362300009,38.92493884100014],[40.822856975000036,38.92314583300026],[40.82241337000016,38.922857699000076],[40.8189509930001,38.91878077100023],[40.81709989100011,38.91757461300011],[40.81424195800014,38.91758766000004],[40.81207820400016,38.91805419900015],[40.80905534300007,38.919182408000154],[40.805136964000155,38.91969847300015],[40.804060416000084,38.919696910000084],[40.80075152900014,38.918906053000114],[40.79751599500008,38.917083962000106],[40.796512668000105,38.916306072000054],[40.794296943000006,38.91428786500012],[40.79086774400025,38.90956199500005],[40.78806906531889,38.907962885067604],[40.78782669990653,38.90774134008916],[40.770796782000104,38.868797053000094],[40.768212562000144,38.86290253600043],[40.7662289253401,38.862757413683426],[40.766106337080885,38.86262669918784],[40.76625349817772,38.8625092934293],[40.76700401611669,38.86246331374275],[40.76933000000008,38.86294000000015],[40.77401000000003,38.864810000000375],[40.7761900000001,38.86608000000007],[40.77804000000009,38.86773000000039],[40.78003000000007,38.870550000000094],[40.781190000000095,38.87483000000037],[40.78464000000008,38.87839000000008],[40.786510000000135,38.87934000000013],[40.788840000000164,38.88144000000017],[40.790510000000154,38.883930000000134],[40.793140000000164,38.885200000000054],[40.79703000000012,38.885170000000414],[40.80111000000022,38.88544000000019],[40.80732000000012,38.88891000000007],[40.80979000000019,38.89112000000034],[40.81404000000015,38.88945000000069],[40.81512000000015,38.887090000000114],[40.81459000000018,38.885600000000466],[40.815110000000175,38.883920000000046],[40.81545000000011,38.88227000000063],[40.81463000000008,38.882310000000416],[40.81443000000007,38.881360000000655],[40.81481000000008,38.88098000000048],[40.81426000000005,38.87988000000041],[40.81768000000005,38.877080000000376],[40.817430000000115,38.87627000000015],[40.81628000000018,38.875130000000354],[40.815810000000226,38.873890000000074],[40.815810000000226,38.87286000000012],[40.81630000000007,38.87252000000041],[40.81630000000007,38.87184000000025],[40.8170300000001,38.87140000000011],[40.817270000000235,38.87059000000056],[40.818390000000136,38.869210000000066],[40.81899000000004,38.86874000000029],[40.81880000000018,38.867820000000165],[40.81946000000005,38.86733000000015],[40.819518341726905,38.86648404496344],[40.81969697580723,38.86636550237989],[40.82148277200008,38.86671920900011],[40.82165244400011,38.86665530400006],[40.82191162400005,38.86689112000005],[40.83006868400014,38.869538650000436],[40.845886232000055,38.87379674100009],[40.84601513000007,38.87377460900018],[40.84605028300001,38.873678448000305],[40.84441753400006,38.86867433599997],[40.84568944200009,38.86244005200018],[40.84800388800011,38.85562807700046],[40.854945257000054,38.85382892000018],[40.86655380800016,38.851437111999985],[40.87471413448742,38.84633925270742],[40.874869951748224,38.846319273430026],[40.874973611270946,38.846415880677],[40.87593000000004,38.85169000000013],[40.876810000000035,38.85307000000046],[40.876810000000035,38.853820000000155],[40.87705000000017,38.85469000000023],[40.87818000000004,38.856450000000166],[40.87898000000018,38.85970000000049],[40.87930000000017,38.86164000000042],[40.87946000000011,38.86665000000016],[40.87930000000017,38.868530000000646],[40.87810000000019,38.8708400000001],[40.876810000000035,38.873030000000654],[40.87542000000013,38.874360000000195],[40.881670000000156,38.873490000000345],[40.883690000000115,38.872780000000034],[40.888620000000174,38.872960000000035],[40.88968000000017,38.874010000000055],[40.893290000000036,38.876210000000185],[40.89619000000022,38.8786800000006],[40.898220000000094,38.87947000000008],[40.899800000000084,38.87947000000008],[40.90226000000007,38.87859000000026],[40.90341000000018,38.87718000000012],[40.90420000000017,38.87753000000066],[40.904900000000225,38.879030000000284],[40.90943000000004,38.878010000000586],[40.91128054330562,38.878028413366565],[40.911315860000116,38.87814087300012],[40.905260283000075,38.88852625400011],[40.905474214000094,38.88851329400046],[40.90561410300006,38.88877072299999],[40.90841566000012,38.890949626000065],[40.90955316100019,38.89050415800034],[40.911879239000086,38.89051280100011],[40.914163219000045,38.89154063800015],[40.91607070400005,38.893008409000686],[40.92199292800012,38.89376665600008],[40.92383672100004,38.894376507000004],[40.924693031000174,38.895165136000344],[40.924964058000114,38.89566477500006],[40.9254221650001,38.897693612000296],[40.925083899000185,38.900929950000375],[40.92410813600003,38.90218206700018],[40.92427763400019,38.90277260100015],[40.92719937500004,38.90333611600033],[40.927647827000044,38.903617800000006],[40.92877824000004,38.904422269000406],[40.92915605200005,38.9049349500001],[40.92974545800013,38.90593292500034],[40.930097133000004,38.90720791000041],[40.93056437200005,38.90770743400003],[40.935561074000134,38.91020791700021],[40.93695241600011,38.91075152700006],[40.94413525700014,38.912072532000025],[40.94725776000013,38.91316864800012],[40.94921480900018,38.91446942500005],[40.95330022900015,38.918074574000684],[40.95515245400003,38.91928181500015],[40.9553523670001,38.919206308000355],[40.955320544000074,38.91948698500022],[40.95546726600014,38.91961810300023],[40.95650292500011,38.921481306000146],[40.95655487800008,38.92173069600017],[40.9566005260001,38.92202889500004],[40.95547905100011,38.924556866000216],[40.95469950500012,38.9248701730001],[40.95359656500017,38.926873265000154],[40.95197092400019,38.928363273000116],[40.95105053600008,38.92967406200012],[40.95103870600019,38.93314436000003],[40.951393313000096,38.93507302300003],[40.95106411000012,38.936688672],[40.950184602000036,38.93823024700009],[40.947445302000006,38.94189848700057],[40.94481323800005,38.9470159400006],[40.944939328000146,38.947148771000116],[40.94473295300003,38.94719101599998],[40.93192022600016,38.9599237540001]]],"type":"Polygon"}},{"type":"Feature","properties":{"area_id":"TR-12-006-10734","name_tr":"Kültür","area_level":"neighbourhood","parent_id":"TR-12-006","endeksa_id":10734},"geometry":{"coordinates":[[[41.16928970000009,38.976774123000325],[41.16910336900037,38.976703236000446],[41.16664226800037,38.977868290000515],[41.163425092000466,38.97743451700046],[41.16081507500047,38.97782998100081],[41.158033195000485,38.976768391000405],[41.15743042500037,38.97609587800059],[41.15367520900048,38.97592597300053],[41.148781975000475,38.97629553300055],[41.146557267000446,38.97676339300068],[41.14357243000046,38.97779484700044],[41.14022532000047,38.97708212100059],[41.137766101000466,38.97577678800053],[41.13322765100048,38.97536972900082],[41.13202973600039,38.97460546800073],[41.13154164300039,38.974028008000914],[41.12945099000052,38.97286251300085],[41.12623713300047,38.971758439000496],[41.1239520740005,38.97148284300056],[41.12097482000053,38.96974362300057],[41.11742176600052,38.969281290000595],[41.11477547800041,38.96994727100105],[41.112489299000515,38.97100716800037],[41.107608653000455,38.96937912000067],[41.10453935400045,38.96907832700043],[41.10006568700038,38.96985574400054],[41.100040420439655,38.96979097966744],[41.09936710000039,38.96970580000038],[41.09883480000042,38.969508700000574],[41.098124665207706,38.969104431319124],[41.09985123000013,38.96575343200004],[41.0997378350001,38.9650275190001],[41.09536319600005,38.954649103000406],[41.09271101900009,38.953599001000384],[41.092652745000066,38.95346125100053],[41.09536333100016,38.94708154000034],[41.102644444000134,38.942747091000115],[41.10269280700015,38.942651333000185],[41.101318833000164,38.936275559000194],[41.10951321900012,38.93319094900005],[41.1106471760001,38.93297908500011],[41.11071765200006,38.932896710000136],[41.11066516300008,38.93280979200006],[41.11677237200007,38.93623898800013],[41.12140548400009,38.93698268600053],[41.12887810100011,38.942774203000056],[41.13299885700019,38.94371439500003],[41.134262148000175,38.94580964800008],[41.14964236700007,38.95257086200013],[41.15822456700016,38.95089747100013],[41.16172686300001,38.95647967800011],[41.16703585700003,38.96521199800014],[41.17367802285577,38.97321618846314],[41.173631801000056,38.97351243600019],[41.173392900000124,38.97457016400017],[41.172133611000106,38.97535649300045],[41.16932880000013,38.97659881100003],[41.16928970000009,38.976774123000325]]],"type":"Polygon"}},{"type":"Feature","properties":{"area_id":"TR-12-006-10731","name_tr":"Yeni","area_level":"neighbourhood","parent_id":"TR-12-006","endeksa_id":10731},"geometry":{"coordinates":[[[41.046427158000085,38.97748018200002],[41.046186733000184,38.977630895000516],[41.04431085800013,38.97731168100006],[41.03508658800007,38.978209457000105],[41.034949878000134,38.978127999000435],[41.03472573200003,38.976676653000254],[41.03484126300009,38.976171993000094],[41.03551982500011,38.975850244000355],[41.03591783500019,38.973615018000146],[41.035856748000185,38.97258822900005],[41.03524368700016,38.96996591000038],[41.03641098800006,38.96627008700057],[41.036941859000194,38.965938752000056],[41.03721426600009,38.96549216700015],[41.03737399400012,38.96447067800045],[41.03802809899997,38.96277287100003],[41.038336698000194,38.95719613300014],[41.03758239400014,38.95439094200009],[41.0379094430001,38.952199705000055],[41.03735941100007,38.95175381700011],[41.03743751300016,38.951020608000476],[41.04003251900008,38.94982170300017],[41.04005761500002,38.94974950000011],[41.04019429200008,38.94985223499998],[41.041554233000056,38.94960019400037],[41.045859085117854,38.94965992271585],[41.052940000000035,38.953190000000234],[41.05666000000019,38.954180000000406],[41.06073000000015,38.950500000000034],[41.06179694093322,38.9498810563652],[41.063863980000065,38.94990973600022],[41.064085909000084,38.95004122300003],[41.06429327100017,38.95025487800018],[41.06535869400011,38.95087355500016],[41.065884432000075,38.95153446100045],[41.067243420000125,38.95256660700005],[41.06724442300009,38.95428932600004],[41.06618508200012,38.95575796600008],[41.06546850700005,38.95617289600045],[41.06516030300014,38.956597522000095],[41.0648816260001,38.956652710000185],[41.06390450500015,38.95762726700008],[41.06360638400008,38.957690189000175],[41.06146422100005,38.96006501300019],[41.06118167700009,38.96012630400003],[41.06087637000013,38.96054971900048],[41.059725080000135,38.961262640000086],[41.059396597000045,38.96172138500026],[41.05782059699999,38.96289338600019],[41.05685732000018,38.965335091000156],[41.05685732000018,38.96646545100003],[41.05716629800014,38.9674308860001],[41.0570630040001,38.969151840000166],[41.05697268600011,38.96925372600043],[41.056875807000154,38.96911485100003],[41.053758582000114,38.96849779900015],[41.047760427000185,38.966176159999975],[41.047616296000115,38.96619337100026],[41.04543849900011,38.97044898900015],[41.04555034700013,38.97157683800009],[41.04643146900003,38.97307720900051],[41.04682152300012,38.975015674000076],[41.047233449000146,38.975936453000145],[41.047164160000136,38.976810625000326],[41.046427158000085,38.97748018200002]]],"type":"Polygon"}},{"type":"Feature","properties":{"area_id":"TR-12-006-10730","name_tr":"Halime Pınar","area_level":"neighbourhood","parent_id":"TR-12-006","endeksa_id":10730},"geometry":{"coordinates":[[[41.05697268600011,38.96925372600043],[41.05701709500016,38.96974844800019],[41.05625962300019,38.97006093099998],[41.05626453800011,38.970653148000224],[41.057339794000086,38.97098993300011],[41.05764648400009,38.971666398000025],[41.05880709100012,38.971838453000146],[41.05889421000012,38.97251836300063],[41.0577432020001,38.97283514100019],[41.0573728010001,38.974297961000616],[41.05615909200009,38.97707501899998],[41.054912355000056,38.978382137000324],[41.05386762500012,38.97913401200009],[41.053846424000085,38.97922786000004],[41.053932860000145,38.979291538000155],[41.04648670200004,38.97763982000009],[41.04640139100019,38.977572664000036],[41.046427158000085,38.97748018200002],[41.047164160000136,38.976810625000326],[41.047233449000146,38.975936453000145],[41.04682152300012,38.975015674000076],[41.04643146900003,38.97307720900051],[41.04555034700013,38.97157683800009],[41.04543849900011,38.97044898900015],[41.047616296000115,38.96619337100026],[41.047760427000185,38.966176159999975],[41.053758582000114,38.96849779900015],[41.056875807000154,38.96911485100003],[41.05697268600011,38.96925372600043]]],"type":"Polygon"}},{"type":"Feature","properties":{"area_id":"TR-12-006-10729","name_tr":"Boğlan","area_level":"neighbourhood","parent_id":"TR-12-006","endeksa_id":10729},"geometry":{"coordinates":[[[41.0949964560001,38.97558434700011],[41.09451135800009,38.975849644000164],[41.086205361000054,38.979029941000135],[41.075909276000175,38.982714159000466],[41.070704557000056,38.982065166000325],[41.07056823600004,38.98212325800051],[41.070578029000046,38.98202595400028],[41.07048388700008,38.98196826900039],[41.05909694500008,38.98040255700016],[41.053932860000145,38.979291538000155],[41.053846424000085,38.97922786000004],[41.05386762500012,38.97913401200009],[41.054912355000056,38.978382137000324],[41.05615909200009,38.97707501899998],[41.0573728010001,38.974297961000616],[41.0577432020001,38.97283514100019],[41.05889421000012,38.97251836300063],[41.05880709100012,38.971838453000146],[41.05764648400009,38.971666398000025],[41.057339794000086,38.97098993300011],[41.05626453800011,38.970653148000224],[41.05625962300019,38.97006093099998],[41.05701709500016,38.96974844800019],[41.05697268600011,38.96925372600043],[41.0570630040001,38.969151840000166],[41.05716629800014,38.9674308860001],[41.05685732000018,38.96646545100003],[41.05685732000018,38.965335091000156],[41.05782059699999,38.96289338600019],[41.059396597000045,38.96172138500026],[41.059725080000135,38.961262640000086],[41.06087637000013,38.96054971900048],[41.06118167700009,38.96012630400003],[41.06146422100005,38.96006501300019],[41.06360638400008,38.957690189000175],[41.06390450500015,38.95762726700008],[41.0648816260001,38.956652710000185],[41.06516030300014,38.956597522000095],[41.06546850700005,38.95617289600045],[41.06618508200012,38.95575796600008],[41.06724442300009,38.95428932600004],[41.067243420000125,38.95256660700005],[41.065884432000075,38.95153446100045],[41.06535869400011,38.95087355500016],[41.06429327100017,38.95025487800018],[41.064085909000084,38.95004122300003],[41.06415864100006,38.94995068700018],[41.08093960500008,38.94980728200045],[41.091989065000064,38.95362301100005],[41.0925318940001,38.95371063700003],[41.092545032000146,38.95362924800031],[41.09271101900009,38.953599001000384],[41.09536319600005,38.954649103000406],[41.0997378350001,38.9650275190001],[41.09985123000013,38.96575343200004],[41.09500526700003,38.975158709000425],[41.0949964560001,38.97558434700011]]],"type":"Polygon"}},{"type":"Feature","properties":{"area_id":"TR-12-006-10732","name_tr":"Yeşilova","area_level":"neighbourhood","parent_id":"TR-12-006","endeksa_id":10732},"geometry":{"coordinates":[[[41.00363995300006,38.982151622],[41.003551267000034,38.98198931700017],[41.00343197300009,38.98195542900004],[40.99875669700015,38.982960418000175],[40.99773567000011,38.982988351000415],[40.989395556000034,38.98093632700045],[40.98299320200016,38.977393121000205],[40.98299814900014,38.97717755000008],[40.978847798000174,38.969565342000124],[40.9776822070001,38.96356674700036],[40.98088782500014,38.959190046000515],[40.985782974000074,38.95651000400028],[40.98577787199997,38.956387734000145],[40.98555749800005,38.95629323500037],[40.986004697,38.95640413800004],[40.99304147700013,38.95437622400016],[41.006577507000145,38.94754666100005],[41.01044613800019,38.94690487700001],[41.015251211000134,38.94670348000068],[41.015368750000164,38.94658016400007],[41.015433945000154,38.944660377000105],[41.01573162099868,38.94356419961588],[41.01897000000008,38.94217000000003],[41.0248400000001,38.9402300000001],[41.026920000000075,38.93963000000019],[41.02919000000014,38.9397000000003],[41.02888000000007,38.94209000000052],[41.02900000000005,38.942780000000084],[41.02982000000003,38.94507000000016],[41.029950000000156,38.94706000000036],[41.03099000000003,38.94753000000014],[41.03183000000007,38.947620000000484],[41.034510000000125,38.94828000000041],[41.03665000000012,38.948170000000516],[41.03793000000013,38.94911000000013],[41.04134000000022,38.94843000000071],[41.043560000000184,38.94844000000012],[41.045859085117854,38.94965992271585],[41.041554233000056,38.94960019400037],[41.04019429200008,38.94985223499998],[41.04005761500002,38.94974950000011],[41.04003251900008,38.94982170300017],[41.03743751300016,38.951020608000476],[41.03735941100007,38.95175381700011],[41.0379094430001,38.952199705000055],[41.03758239400014,38.95439094200009],[41.038336698000194,38.95719613300014],[41.03802809899997,38.96277287100003],[41.03737399400012,38.96447067800045],[41.03721426600009,38.96549216700015],[41.036941859000194,38.965938752000056],[41.03641098800006,38.96627008700057],[41.03524368700016,38.96996591000038],[41.035856748000185,38.97258822900005],[41.03591783500019,38.973615018000146],[41.03551982500011,38.975850244000355],[41.03484126300009,38.976171993000094],[41.03472573200003,38.976676653000254],[41.034949878000134,38.978127999000435],[41.03508658800007,38.978209457000105],[41.034963985000104,38.97821828900027],[41.03482700700016,38.97807780400012],[41.03072792200004,38.97833082100016],[41.01425238100012,38.980209548999994],[41.003819481000164,38.98184834000017],[41.00361495700014,38.982042777000515],[41.00363995300006,38.982151622]]],"type":"Polygon"}},{"type":"Feature","properties":{"area_id":"TR-12-006-2006143","name_tr":"Hazarşah Köyü","area_level":"neighbourhood","parent_id":"TR-12-006","endeksa_id":2006143},"geometry":{"coordinates":[[[40.974051130000134,39.03061858600006],[40.97408361300006,39.03072750200005],[40.973965243000066,39.03079067900018],[40.969592174000184,39.030521415000464],[40.96853257200007,39.030596209000066],[40.96285632500019,39.0315600510001],[40.95786805200015,39.03303826500019],[40.952470137000034,39.03338302100008],[40.94482228300018,39.03211047200023],[40.941293702000166,39.0311184490003],[40.934082767999996,39.03083672100007],[40.92960358400012,39.03038694400044],[40.92531939700012,39.02862472200047],[40.919960173000106,39.026050947000044],[40.91422065600011,39.02488199900017],[40.908848900000066,39.024072148000016],[40.9005150000001,39.021421249000184],[40.89308220400011,39.01958029100007],[40.88439129400007,39.01770780400011],[40.88136143400004,39.01575674200052],[40.87893416100019,39.01531213700059],[40.874287231000096,39.01489832100009],[40.870225908000066,39.01388221600013],[40.86650841100004,39.011987183000144],[40.86056330100001,39.00937742400009],[40.852260241000124,39.00300183800033],[40.848205937000046,39.000339510000174],[40.83799415800007,38.995445137000274],[40.83398871899999,38.99401924000051],[40.83392675200014,38.99388655200005],[40.834765864000076,38.992691503000344],[40.841351538000026,38.98622658300047],[40.84384156300007,38.97801778200011],[40.84420102200005,38.976254692000055],[40.8441234230001,38.97593293200009],[40.84410330700007,38.97580764800006],[40.8443913210001,38.97502569100061],[40.844959185000164,38.971684939000056],[40.84702626900014,38.9613723920001],[40.84812727700012,38.94196800500009],[40.848295999000015,38.94189307200003],[40.851673315000085,38.94309309900029],[40.86034141700014,38.94309439300008],[40.86290295800006,38.943562982000174],[40.87302961200004,38.94829325000023],[40.882234508000124,38.954395032000434],[40.887340621000135,38.95817089100012],[40.89065100300013,38.959027541000125],[40.902397297000164,38.95934507100014],[40.90657376400014,38.96284014400004],[40.91454871400009,38.967340890000116],[40.92251235100002,38.96932352500011],[40.92628260300006,38.97064986500004],[40.92643653900018,38.97059042900008],[40.93173023900016,38.95995923600003],[40.93187507800013,38.960011044000055],[40.93192022600016,38.9599237540001],[40.93249633300013,38.96035547500003],[40.932526341000084,38.960299959000054],[40.93556022300015,38.96194017900007],[40.94248680300018,38.964444232000574],[40.94245674600012,38.964527362000524],[40.94346581299999,38.964910791000364],[40.94775299200006,38.96800936900041],[40.9481775050001,38.96876080600015],[40.949294634000125,38.97262850200042],[40.949947720000125,38.979134667000096],[40.94807343300005,38.98632768700031],[40.947318824000035,38.992897435000145],[40.94732168200011,38.99365861100006],[40.95155260800004,39.014592088000256],[40.954142598000146,39.01852834700043],[40.96019621300013,39.02289468000015],[40.96817558600003,39.026414163000084],[40.974051130000134,39.03061858600006]]],"type":"Polygon"}},{"type":"Feature","properties":{"area_id":"TR-12-006-10735","name_tr":"Merkez","area_level":"neighbourhood","parent_id":"TR-12-006","endeksa_id":10735},"geometry":{"coordinates":[[[41.16928970000009,38.976774123000325],[41.17007426200013,38.98061473100012],[41.1738771470001,38.98679866300006],[41.17482835300012,38.992024067000045],[41.17221310500008,39.00797091800007],[41.16840604000015,39.01868034800066],[41.164598092000176,39.02701206000012],[41.16197874900007,39.037485182000125],[41.158412765000094,39.04628060900018],[41.15427198200007,39.052367362000155],[41.14889934300004,39.043902177000064],[41.14535466600012,39.03952545700014],[41.138453962000085,39.03029898500017],[41.126858287000175,39.01745992600007],[41.12316462399997,39.00986352700011],[41.12269514600007,39.009221009000385],[41.11828409000009,39.0069183400002],[41.11421116899999,39.00450772100049],[41.11180090500005,39.00251924100013],[41.109369060000006,38.99906633400013],[41.108093179000036,38.996412743000064],[41.10448831400015,38.990261240999985],[41.09923186800006,38.9832320700001],[41.096838670000125,38.978275491000204],[41.0949964560001,38.97558434700011],[41.09500526700003,38.975158709000425],[41.098124665207706,38.969104431319124],[41.09883480000042,38.969508700000574],[41.09936710000039,38.96970580000038],[41.100040420439655,38.96979097966744],[41.10006568700038,38.96985574400054],[41.10453935400045,38.96907832700043],[41.107608653000455,38.96937912000067],[41.112489299000515,38.97100716800037],[41.11477547800041,38.96994727100105],[41.11742176600052,38.969281290000595],[41.12097482000053,38.96974362300057],[41.1239520740005,38.97148284300056],[41.12623713300047,38.971758439000496],[41.12945099000052,38.97286251300085],[41.13154164300039,38.974028008000914],[41.13202973600039,38.97460546800073],[41.13322765100048,38.97536972900082],[41.137766101000466,38.97577678800053],[41.14022532000047,38.97708212100059],[41.14357243000046,38.97779484700044],[41.146557267000446,38.97676339300068],[41.148781975000475,38.97629553300055],[41.15367520900048,38.97592597300053],[41.15743042500037,38.97609587800059],[41.158033195000485,38.976768391000405],[41.16081507500047,38.97782998100081],[41.163425092000466,38.97743451700046],[41.16664226800037,38.977868290000515],[41.16910336900037,38.976703236000446],[41.16928970000009,38.976774123000325]]],"type":"Polygon"}},{"type":"Feature","properties":{"area_id":"TR-12-006-2006140","name_tr":"Elbaşı Köyü","area_level":"neighbourhood","parent_id":"TR-12-006","endeksa_id":2006140},"geometry":{"coordinates":[[[41.07056823600004,38.98212325800051],[41.06899249200006,38.9849297290001],[41.060945433000086,38.994626464000305],[41.06013275600009,38.99597557900029],[41.05428398300012,39.00741217600006],[41.052539249000176,39.0137294390002],[41.05148707700016,39.0185111350001],[41.05069142200017,39.02074273700015],[41.04931947000017,39.02244294800005],[41.047140310000145,39.02462386000019],[41.044585143000006,39.02650914600008],[41.04330413400015,39.02779297400008],[41.039727343000095,39.03226187000013],[41.03771446700017,39.036552617000154],[41.03572770600016,39.04118097500066],[41.035723875000144,39.04425078300028],[41.036028704000046,39.048512868000046],[41.035503371000175,39.051277439000444],[41.033309766000116,39.05446317700006],[41.029981019000104,39.05778364200012],[41.02895909300014,39.05927670800003],[41.02779041100007,39.06109988500015],[41.02732242600018,39.06299309300044],[41.026576146000025,39.06466115900008],[41.02518806000012,39.06585788600006],[41.024596452000026,39.06612651200027],[41.02253895200016,39.066425475000074],[41.01998143700018,39.070789487000525],[41.019679617000065,39.07050838700036],[41.01931468900011,39.06899875400006],[41.0180427520001,39.06611316700014],[41.01602219400007,39.0600392300002],[41.01511255200012,39.051740194000274],[41.01438958200015,39.04893780400022],[41.013138384,39.04546287300002],[41.01256309900015,39.042513268000164],[41.01128417000007,39.026949179000155],[41.01087240900006,39.02403383400008],[41.00869079100016,39.020000988000504],[41.00853551200004,39.01913270700015],[41.00863139100005,39.016464056000245],[41.009700444000146,39.01453012000013],[41.00961173600007,39.012024053000175],[41.0105093520001,39.011021906999986],[41.011326743000154,39.01060163100004],[41.0142318660001,39.0097542850001],[41.015659644000095,39.009042342999976],[41.01614866400007,39.00858327900005],[41.01617139000018,39.0078221010001],[41.01586255199999,39.00691124900004],[41.00996941700009,39.004424918000154],[41.00942749500001,39.003427761000125],[41.00938177900014,39.00083520700002],[41.010867972000085,38.99192996400012],[41.01081195800009,38.990154394000115],[41.00960789100003,38.986966795000114],[41.00896182400015,38.98586527200018],[41.00508099300009,38.983312010000134],[41.00363995300006,38.982151622],[41.00361495700014,38.982042777000515],[41.003819481000164,38.98184834000017],[41.01425238100012,38.980209548999994],[41.03072792200004,38.97833082100016],[41.03482700700016,38.97807780400012],[41.034963985000104,38.97821828900027],[41.03508658800007,38.978209457000105],[41.04431085800013,38.97731168100006],[41.046186733000184,38.977630895000516],[41.046427158000085,38.97748018200002],[41.04640139100019,38.977572664000036],[41.04648670200004,38.97763982000009],[41.053932860000145,38.979291538000155],[41.05909694500008,38.98040255700016],[41.07048388700008,38.98196826900039],[41.070578029000046,38.98202595400028],[41.07056823600004,38.98212325800051]]],"type":"Polygon"}},{"type":"Feature","properties":{"area_id":"TR-12-006-2006148","name_tr":"Yiğitharman Köyü","area_level":"neighbourhood","parent_id":"TR-12-006","endeksa_id":2006148},"geometry":{"coordinates":[[[41.01998143700018,39.070789487000525],[41.01974102700018,39.07076243000017],[41.019711869000105,39.0708849990001],[41.019560447000174,39.07089924500019],[41.01102759600019,39.06679010100004],[41.00109321300005,39.062711904000025],[40.991529516000185,39.05062952800006],[40.985251195000046,39.04519997700015],[40.97859972000009,39.03816381600018],[40.97432344900005,39.03081413299998],[40.96817558600003,39.026414163000084],[40.96019621300013,39.02289468000015],[40.954142598000146,39.01852834700043],[40.95155260800004,39.014592088000256],[40.94732168200011,38.99365861100006],[40.947318824000035,38.992897435000145],[40.94807343300005,38.98632768700031],[40.949947720000125,38.979134667000096],[40.949294634000125,38.97262850200042],[40.9481775050001,38.96876080600015],[40.94775299200006,38.96800936900041],[40.94346581299999,38.964910791000364],[40.94245674600012,38.964527362000524],[40.94248680300018,38.964444232000574],[40.93556022300015,38.96194017900007],[40.932526341000084,38.960299959000054],[40.93249633300013,38.96035547500003],[40.93192022600016,38.9599237540001],[40.94473295300003,38.94719101599998],[40.944939328000146,38.947148771000116],[40.94599590600018,38.947105042000146],[40.94927832399998,38.94744075300031],[40.95424033000006,38.94947767900027],[40.954909458000145,38.949844286000314],[40.95703951900009,38.953150085000004],[40.96096181900009,38.95468225800022],[40.96829076700004,38.95494093200011],[40.97359674900014,38.95346859000034],[40.978484937000076,38.95332498600004],[40.982021572000065,38.954268266999975],[40.98409664200017,38.95564445700052],[40.98534907800007,38.956267593000064],[40.98555749800005,38.95629323500037],[40.98577787199997,38.956387734000145],[40.985782974000074,38.95651000400028],[40.98088782500014,38.959190046000515],[40.9776822070001,38.96356674700036],[40.978847798000174,38.969565342000124],[40.98299814900014,38.97717755000008],[40.98299320200016,38.977393121000205],[40.989395556000034,38.98093632700045],[40.99773567000011,38.982988351000415],[40.99875669700015,38.982960418000175],[41.00343197300009,38.98195542900004],[41.003551267000034,38.98198931700017],[41.00363995300006,38.982151622],[41.00508099300009,38.983312010000134],[41.00896182400015,38.98586527200018],[41.00960789100003,38.986966795000114],[41.01081195800009,38.990154394000115],[41.010867972000085,38.99192996400012],[41.00938177900014,39.00083520700002],[41.00942749500001,39.003427761000125],[41.00996941700009,39.004424918000154],[41.01586255199999,39.00691124900004],[41.01617139000018,39.0078221010001],[41.01614866400007,39.00858327900005],[41.015659644000095,39.009042342999976],[41.0142318660001,39.0097542850001],[41.011326743000154,39.01060163100004],[41.0105093520001,39.011021906999986],[41.00961173600007,39.012024053000175],[41.009700444000146,39.01453012000013],[41.00863139100005,39.016464056000245],[41.00853551200004,39.01913270700015],[41.00869079100016,39.020000988000504],[41.01087240900006,39.02403383400008],[41.01128417000007,39.026949179000155],[41.01256309900015,39.042513268000164],[41.013138384,39.04546287300002],[41.01438958200015,39.04893780400022],[41.01511255200012,39.051740194000274],[41.01602219400007,39.0600392300002],[41.0180427520001,39.06611316700014],[41.01931468900011,39.06899875400006],[41.019679617000065,39.07050838700036],[41.01998143700018,39.070789487000525]]],"type":"Polygon"}},{"type":"Feature","properties":{"area_id":"TR-12-006-10733","name_tr":"Karşıyaka","area_level":"neighbourhood","parent_id":"TR-12-006","endeksa_id":10733},"geometry":{"coordinates":[[[41.262476742826834,39.07340026301904],[41.26249000000013,39.07333000000017],[41.26196000000016,39.07334000000026],[41.251250000000084,39.07510000000025],[41.24284545402054,39.07531719613223],[41.24226664826733,39.075316713859195],[41.235700000000065,39.07427000000047],[41.2251903466331,39.073960546898036],[41.22209000000021,39.07376000000022],[41.21710000000013,39.074640000000386],[41.21083750611666,39.076398578625856],[41.20580000000007,39.076760000000434],[41.202214872190325,39.07877542320119],[41.201886950582775,39.07881226337798],[41.19680000000005,39.078150000000335],[41.19147216427103,39.077685363163596],[41.184255897170544,39.07686175105209],[41.18363228017819,39.076717997424794],[41.180370000000096,39.07520000000068],[41.17566000000011,39.074640000000386],[41.170400000000086,39.0747800000002],[41.16740161017566,39.07614153618516],[41.16688575910467,39.076157912409656],[41.16680137700013,39.07597213200012],[41.16656781300003,39.0759225700001],[41.16414702300011,39.07242159900056],[41.15855662600018,39.05876078400047],[41.15427198200007,39.052367362000155],[41.158412765000094,39.04628060900018],[41.16197874900007,39.037485182000125],[41.164598092000176,39.02701206000012],[41.16840604000015,39.01868034800066],[41.17221310500008,39.00797091800007],[41.17482835300012,38.992024067000045],[41.1738771470001,38.98679866300006],[41.17007426200013,38.98061473100012],[41.16928970000009,38.976774123000325],[41.16932880000013,38.97659881100003],[41.172133611000106,38.97535649300045],[41.173392900000124,38.97457016400017],[41.173631801000056,38.97351243600019],[41.17372704700011,38.97343156500034],[41.17386065500017,38.973470396000266],[41.17572897300005,38.97574698600016],[41.18237000000016,38.98306000000042],[41.18711354800007,38.98528741100006],[41.19476000000003,38.9904700000003],[41.19904000000014,38.992130000000145],[41.20105000000018,38.99685000000028],[41.200690000000236,38.99786000000017],[41.199020000000075,38.996930000000475],[41.19832000000025,38.998200000000395],[41.198500000000195,38.998730000000194],[41.19846000000007,39.000030000000095],[41.198620000000176,39.002620000000206],[41.198930000000075,39.003000000000384],[41.198500000000195,39.003280000000075],[41.197570000000155,39.00415000000032],[41.19759000000005,39.004860000000065],[41.19808000000012,39.0062700000002],[41.20102000000014,39.00704000000013],[41.20137000000017,39.007360000000176],[41.201780000000156,39.00791000000021],[41.20235000000008,39.00934000000041],[41.20382000000018,39.010000000000446],[41.20393000000007,39.011270000000366],[41.20719000000014,39.01342000000011],[41.21004000000005,39.013030000000356],[41.21172000000013,39.01246000000009],[41.22342000000009,39.013840000000414],[41.224210000000085,39.014000000000294],[41.226960000000076,39.01521000000025],[41.22812000000016,39.01602000000008],[41.232010000000116,39.015660000000366],[41.23420000000016,39.016940000000545],[41.2364300000001,39.017900000000395],[41.23582000000005,39.01833000000045],[41.23613000000012,39.01885000000016],[41.2342500000002,39.02005000000065],[41.238240000000076,39.021770000000174],[41.24224000000032,39.02492000000018],[41.24211527700021,39.0250433130002],[41.24203593348375,39.025582517321936],[41.24078000000031,39.02966000000015],[41.24095923743744,39.032899550714944],[41.240280000000325,39.03752000000088],[41.24058000000025,39.03975000000065],[41.24090661874885,39.04040653667687],[41.241470000000334,39.04300000000046],[41.24374000000023,39.043460000000664],[41.24661000000037,39.04325000000051],[41.24856000000028,39.04328000000015],[41.25251000000043,39.0428500000001],[41.25636938513293,39.04172248487549],[41.26139509800015,39.05275207900024],[41.26335593900012,39.067882866000105],[41.26297237200009,39.0708640230003],[41.26313786100019,39.0709658020001],[41.262942177000184,39.07106826200004],[41.262476742826834,39.07340026301904]]],"type":"Polygon"}},{"type":"Feature","properties":{"area_id":"TR-12-006-2006142","name_tr":"Göksu Köyü","area_level":"neighbourhood","parent_id":"TR-12-006","endeksa_id":2006142},"geometry":{"coordinates":[[[41.080098061601575,39.088384492812],[41.06724368500005,39.08826303500018],[41.06208582100015,39.08939966700024],[41.060568417000184,39.09198176200027],[41.054718621000006,39.09252941800014],[41.05322384400006,39.092581304000134],[41.05024979300009,39.090397922000136],[41.04347546200012,39.09039656700065],[41.03634335400011,39.09330281399997],[41.02985478500017,39.09681915800013],[41.02464433800009,39.098357158000056],[41.020321378000176,39.09803684500025],[41.018944256000054,39.09803687400034],[41.01791631800012,39.09821349600003],[41.01781318200011,39.098162293000144],[41.01780213800009,39.09804851000024],[41.01978006600012,39.070935792000284],[41.01998143700018,39.070789487000525],[41.02253895200016,39.066425475000074],[41.024596452000026,39.06612651200027],[41.02518806000012,39.06585788600006],[41.026576146000025,39.06466115900008],[41.02732242600018,39.06299309300044],[41.02779041100007,39.06109988500015],[41.02895909300014,39.05927670800003],[41.029981019000104,39.05778364200012],[41.033309766000116,39.05446317700006],[41.035503371000175,39.051277439000444],[41.036028704000046,39.048512868000046],[41.035723875000144,39.04425078300028],[41.03572770600016,39.04118097500066],[41.03771446700017,39.036552617000154],[41.039727343000095,39.03226187000013],[41.04330413400015,39.02779297400008],[41.044585143000006,39.02650914600008],[41.047140310000145,39.02462386000019],[41.04931947000017,39.02244294800005],[41.05069142200017,39.02074273700015],[41.05148707700016,39.0185111350001],[41.052539249000176,39.0137294390002],[41.05428398300012,39.00741217600006],[41.06013275600009,38.99597557900029],[41.060945433000086,38.994626464000305],[41.06899249200006,38.9849297290001],[41.07056823600004,38.98212325800051],[41.070704557000056,38.982065166000325],[41.075909276000175,38.982714159000466],[41.086205361000054,38.979029941000135],[41.09451135800009,38.975849644000164],[41.0949964560001,38.97558434700011],[41.096838670000125,38.978275491000204],[41.09923186800006,38.9832320700001],[41.10448831400015,38.990261240999985],[41.108093179000036,38.996412743000064],[41.109369060000006,38.99906633400013],[41.11180090500005,39.00251924100013],[41.11421116899999,39.00450772100049],[41.11828409000009,39.0069183400002],[41.12269514600007,39.009221009000385],[41.12316462399997,39.00986352700011],[41.126858287000175,39.01745992600007],[41.138453962000085,39.03029898500017],[41.14535466600012,39.03952545700014],[41.14889934300004,39.043902177000064],[41.15427198200007,39.052367362000155],[41.15855662600018,39.05876078400047],[41.16414702300011,39.07242159900056],[41.16656781300003,39.0759225700001],[41.16680137700013,39.07597213200012],[41.16688575910467,39.076157912409656],[41.1655600000002,39.07620000000031],[41.159740000000056,39.07739000000015],[41.15619000000015,39.07711000000029],[41.14821000000012,39.074990000000355],[41.146180000000186,39.074530000000664],[41.14092000000022,39.07776000000007],[41.129200000000026,39.07997000000029],[41.12071000000009,39.08486000000005],[41.11342000000019,39.086200000000076],[41.10392000000019,39.08675000000011],[41.10251000000005,39.08633000000003],[41.100730000000226,39.0869400000002],[41.09945000000016,39.08708000000024],[41.09515000000022,39.08814000000041],[41.089240000000245,39.090350000000115],[41.08380000000005,39.08929000000035],[41.08140000000009,39.08832000000052],[41.08009000000004,39.08832000000052],[41.080098061601575,39.088384492812]]],"type":"Polygon"}},{"type":"Feature","properties":{"area_id":"TR-12-006-2006145","name_tr":"Mutluca Köyü","area_level":"neighbourhood","parent_id":"TR-12-006","endeksa_id":2006145},"geometry":{"coordinates":[[[41.01780213800009,39.09804851000024],[41.017694282000036,39.098161556000036],[41.01524598900005,39.098686676000284],[41.01447703100001,39.0986395060001],[41.00758593100005,39.096813317000624],[41.00099615300019,39.09665956500015],[40.995257007000134,39.0954921120001],[40.994214403,39.09547686100018],[40.98651994300019,39.096761009000204],[40.983058388000075,39.09862830499998],[40.98136722900017,39.09870546100018],[40.97640127699998,39.097674705000486],[40.972681782000166,39.09640232700019],[40.96818578800014,39.09601163400009],[40.96762564400018,39.0960176100001],[40.96473033300015,39.09701971800001],[40.959899388,39.09707312400036],[40.95629380700001,39.097519109000075],[40.95349117600006,39.09829418700008],[40.95334698600004,39.09844332500012],[40.95334872500007,39.09834559700022],[40.953245877000086,39.0982943850006],[40.94447602400004,39.09782993400063],[40.93576894600011,39.096247353000194],[40.92929526800003,39.09579817600002],[40.920956665999995,39.09320307200011],[40.91899355200013,39.09225163500031],[40.90327699500011,39.08847476200003],[40.89554029500016,39.08826175600018],[40.89297051300019,39.089017555000055],[40.88764520199999,39.08901699100005],[40.881934295000065,39.08759040900014],[40.87662791200006,39.085431957000026],[40.87633595700015,39.08558707399999],[40.876258464000045,39.085471412000004],[40.87374031400009,39.08477931300007],[40.869976967000184,39.084235986000294],[40.866405482000175,39.08499123700017],[40.863439628000094,39.086015928000165],[40.860246437000114,39.08550762400017],[40.85779828700004,39.085403014000576],[40.85472959300017,39.08477284700007],[40.854561476000185,39.084892804000106],[40.85443691200004,39.084759753000014],[40.84654462100008,39.08509089400019],[40.84347867400015,39.083974788000035],[40.83941668300008,39.0828554900001],[40.83442768200018,39.08083143000033],[40.82895412800008,39.08088716600014],[40.828827010000055,39.080786883000144],[40.828844335000156,39.080050168000525],[40.82938271400019,39.078730010000186],[40.82943610799998,39.077973154999995],[40.829023628000186,39.07500978600007],[40.82720516300009,39.06671444600005],[40.825729590000094,39.062315264000404],[40.822653777000085,39.05983019300004],[40.82190252900011,39.056623723000484],[40.820410173000084,39.05477211500005],[40.818262880000134,39.05036232900022],[40.818140423000045,39.05033854900006],[40.81812381700007,39.05020765800066],[40.81763375800011,39.04987937100009],[40.814617444000135,39.04815867100018],[40.81329730700003,39.04597325000009],[40.810910672000034,39.040969350000466],[40.804634047000036,39.03487601600011],[40.80448064800004,39.033997907000185],[40.804737830000136,39.02840736600007],[40.806191297000055,39.025123726000345],[40.81517359500003,39.01988659200009],[40.81740150100018,39.018259835000094],[40.822121588000186,39.01372582500011],[40.82377326000005,39.00889025200013],[40.823772115000054,39.00771667200053],[40.82276247499999,39.00445260800046],[40.82398366300015,39.00073355800009],[40.82788092100003,38.99657166000031],[40.83114873300002,38.99499028600002],[40.83338135900004,38.994478912000034],[40.833819205,38.99402750000013],[40.83398871899999,38.99401924000051],[40.83799415800007,38.995445137000274],[40.848205937000046,39.000339510000174],[40.852260241000124,39.00300183800033],[40.86056330100001,39.00937742400009],[40.86650841100004,39.011987183000144],[40.870225908000066,39.01388221600013],[40.874287231000096,39.01489832100009],[40.87893416100019,39.01531213700059],[40.88136143400004,39.01575674200052],[40.88439129400007,39.01770780400011],[40.89308220400011,39.01958029100007],[40.9005150000001,39.021421249000184],[40.908848900000066,39.024072148000016],[40.91422065600011,39.02488199900017],[40.919960173000106,39.026050947000044],[40.92531939700012,39.02862472200047],[40.92960358400012,39.03038694400044],[40.934082767999996,39.03083672100007],[40.941293702000166,39.0311184490003],[40.94482228300018,39.03211047200023],[40.952470137000034,39.03338302100008],[40.95786805200015,39.03303826500019],[40.96285632500019,39.0315600510001],[40.96853257200007,39.030596209000066],[40.969592174000184,39.030521415000464],[40.973965243000066,39.03079067900018],[40.97408361300006,39.03072750200005],[40.974051130000134,39.03061858600006],[40.97432344900005,39.03081413299998],[40.97859972000009,39.03816381600018],[40.985251195000046,39.04519997700015],[40.991529516000185,39.05062952800006],[41.00109321300005,39.062711904000025],[41.01102759600019,39.06679010100004],[41.019560447000174,39.07089924500019],[41.019711869000105,39.0708849990001],[41.01974102700018,39.07076243000017],[41.01998143700018,39.070789487000525],[41.01978006600012,39.070935792000284],[41.01780213800009,39.09804851000024]]],"type":"Polygon"}}]}