{"type":"FeatureCollection","source_id":"endeksa","retrieved_at":"2026-08-23","features":[{"type":"Feature","properties":{"area_id":"TR-16-009-184207","name_tr":"Sayfiye","area_level":"neighbourhood","parent_id":"TR-16-009","endeksa_id":184207},"geometry":{"coordinates":[[[29.33705386400004,40.12311191800006],[29.33676705900018,40.12310409100007],[29.336329525000053,40.12278925800001],[29.32150312000016,40.12336252000006],[29.32229369800018,40.11959683300012],[29.31907289500009,40.117307420000316],[29.320311260000096,40.11131813100013],[29.318391930000132,40.10706812100017],[29.319641781000087,40.101171649000435],[29.313441934000025,40.08479462800017],[29.314060168000026,40.08300219200015],[29.31415089900014,40.07178007300007],[29.314009459000147,40.071681164000154],[29.314148785000157,40.071604113000035],[29.31415527000007,40.07123903100057],[29.319503910000094,40.07270477000026],[29.323205790000145,40.07614676000014],[29.32421467100005,40.077609216000155],[29.32516022500016,40.07800962900069],[29.325125099000047,40.07812062400001],[29.325042973000052,40.07828164300014],[29.324873356000126,40.0783646470004],[29.33912692900003,40.09931347700052],[29.346711240000104,40.105843060000325],[29.345811959000173,40.108212399000024],[29.350509420000094,40.10811963000003],[29.34871531000016,40.10946200100017],[29.351822430000027,40.11258630000049],[29.350688170000126,40.11545176000061],[29.352748000000076,40.11651595100011],[29.350696240000104,40.11693541000011],[29.351416178000193,40.11798009],[29.34925080000005,40.11868343000015],[29.347067069000104,40.116558330000146],[29.341461233000075,40.11829847500019],[29.34138826000003,40.1184027240007],[29.342400323000163,40.12297970500009],[29.33705386400004,40.12311191800006]]],"type":"Polygon"}},{"type":"Feature","properties":{"area_id":"TR-16-009-184173","name_tr":"Babasultan","area_level":"neighbourhood","parent_id":"TR-16-009","endeksa_id":184173},"geometry":{"coordinates":[[[29.38951774900437,40.13369390404944],[29.388708969815184,40.13297311524303],[29.388512986000023,40.132925800000464],[29.381983235000007,40.135155954000425],[29.381876947000137,40.1350797450001],[29.381209711000167,40.13258463600016],[29.37752160800011,40.13384619000004],[29.372173611000164,40.130292534000546],[29.36852472800018,40.130755842000156],[29.366541397000105,40.12459155400029],[29.36107888500004,40.12419910400018],[29.357474773000092,40.12076341000045],[29.35534032100003,40.121407893000026],[29.35162827700003,40.11787322000009],[29.351470565000113,40.11785591200004],[29.351416178000193,40.11798009],[29.350696240000104,40.11693541000011],[29.352748000000076,40.11651595100011],[29.350688170000126,40.11545176000061],[29.351822430000027,40.11258630000049],[29.34871531000016,40.10946200100017],[29.350509420000094,40.10811963000003],[29.345811959000173,40.108212399000024],[29.346711240000104,40.105843060000325],[29.33912692900003,40.09931347700052],[29.324873356000126,40.0783646470004],[29.325042973000052,40.07828164300014],[29.325125099000047,40.07812062400001],[29.325732588000164,40.078252007000174],[29.325648226999988,40.07849327500003],[29.326294717000053,40.07871932600017],[29.326502419000178,40.07857800600004],[29.3297188520001,40.079930119000096],[29.34442240800007,40.08511569900014],[29.347986306000053,40.08416307800013],[29.356976980000184,40.093365740000365],[29.365217510000093,40.09721899000033],[29.374490220000098,40.09851709000009],[29.375129010000023,40.10080900000003],[29.377216110000063,40.101546124000095],[29.37748025000002,40.10163140000037],[29.386786579999978,40.098823224],[29.3870819280001,40.09880661100033],[29.38709336600016,40.09892166999998],[29.38535763400006,40.099774249999996],[29.380609406000133,40.10293440000004],[29.378276838000033,40.10545742500011],[29.37961986000016,40.10966036000019],[29.38559067500006,40.110763803000054],[29.38563100300007,40.11090350100011],[29.384226124000065,40.11215320200017],[29.386765319999995,40.11196921000004],[29.388733666000178,40.11373600900049],[29.386582642000178,40.11632675700008],[29.387907177999978,40.117192231000104],[29.387939220000135,40.117297654000026],[29.386576567000134,40.11789996400017],[29.390938899000105,40.1216481080001],[29.390862378000065,40.12173857400012],[29.388679770000124,40.122363191000034],[29.38780470000006,40.12448199100004],[29.391055943000026,40.1252077270002],[29.392432516000156,40.12279756000004],[29.392593567000063,40.1227463030001],[29.39874117200003,40.12720399099999],[29.395929457268608,40.12826191747513],[29.394174505000137,40.128985077000095],[29.39322964100012,40.12927774100069],[29.394594791000088,40.13298025500012],[29.39024078000017,40.13396762100007],[29.3900167975699,40.13347279189884],[29.390015372537334,40.13362372819108],[29.38988639610369,40.13374170794043],[29.38951774900437,40.13369390404944]]],"type":"Polygon"}},{"type":"Feature","properties":{"area_id":"TR-16-009-184171","name_tr":"Alaçam","area_level":"neighbourhood","parent_id":"TR-16-009","endeksa_id":184171},"geometry":{"coordinates":[[[29.30060737400015,40.14754234800017],[29.29884595500016,40.14782658400003],[29.297838016000185,40.14834210900017],[29.296596782000165,40.148443802000656],[29.294465089000084,40.14766966700029],[29.292136787000175,40.14761490500001],[29.290865518000032,40.14782281600026],[29.290009639000175,40.14759060100016],[29.28979220000008,40.14590130099998],[29.28928605200008,40.14470877600053],[29.289658557999985,40.14374899000052],[29.28882306000014,40.14325694800016],[29.289154091000114,40.14216838900006],[29.287074077000113,40.14081446500063],[29.283575048000102,40.1355250790005],[29.279617635000136,40.13206343600052],[29.27311021800017,40.126967665000336],[29.274360876000117,40.124178148],[29.274395272000106,40.12368385500008],[29.27355981000011,40.12245791000032],[29.274748077000083,40.12143497800059],[29.27378112800011,40.11851797200029],[29.273335986000063,40.11811698400015],[29.269296703000066,40.11692507300006],[29.268589670000097,40.11539843200046],[29.266656835000106,40.114675852000175],[29.265522656000144,40.11323780300012],[29.261473041000045,40.11046102200032],[29.2611734890001,40.11002089800013],[29.260031699000137,40.10781229500009],[29.25912071800019,40.104255619000696],[29.2581304200001,40.10231240200005],[29.25781778300012,40.10003004500015],[29.25756985900017,40.09952559500016],[29.25663056799999,40.09941370100029],[29.256533028000092,40.09932828500018],[29.25655068400016,40.09694164900003],[29.258114198000044,40.093313995000074],[29.258165009000038,40.09146188100067],[29.25572054600019,40.09052178100069],[29.25018490900004,40.08789966300009],[29.249175044000083,40.0854093530001],[29.247222988000033,40.084644932000174],[29.246841674999985,40.083642164000025],[29.246464649000075,40.0832391050003],[29.244555108999975,40.08192898700008],[29.24411627900008,40.0778270620001],[29.24201422600015,40.07753338000009],[29.23900654800019,40.078464965000194],[29.23892966400024,40.078560551000294],[29.238721482000244,40.078334871000266],[29.235269988000255,40.0702230510002],[29.235361896000256,40.06995191500033],[29.234413170000266,40.06653596800055],[29.23472936000013,40.06649797000006],[29.241579980000097,40.060901680000484],[29.25305125000017,40.05799091000034],[29.257586830000093,40.05523439000035],[29.26054371000015,40.05521551600003],[29.265626416000032,40.052088595000214],[29.26566197600016,40.05240931700064],[29.28175969000017,40.06319152000009],[29.2889114730001,40.071992106000266],[29.28917248700003,40.07204954600007],[29.289236667000182,40.07214204200005],[29.288092980000158,40.08510294100017],[29.28977518800008,40.091418973000316],[29.294480804000045,40.09278307500006],[29.29701007100016,40.09536461700014],[29.296958906999976,40.098221142000114],[29.30502659800004,40.1044229860006],[29.30822660600012,40.109456328000135],[29.3089744830001,40.11557779900011],[29.30753099400016,40.11715499300004],[29.310420524000108,40.12325264399999],[29.299690939000072,40.14087918700011],[29.30027798800006,40.141855497999984],[29.301563758000043,40.14283392900006],[29.302762375000043,40.143482927000264],[29.302772251000135,40.14374483900008],[29.30172687300012,40.14487595800017],[29.30178351000012,40.14540834700006],[29.30120292600003,40.14605789600006],[29.30060737400015,40.14754234800017]]],"type":"Polygon"}},{"type":"Feature","properties":{"area_id":"TR-16-009-184201","name_tr":"Orhaniye","area_level":"neighbourhood","parent_id":"TR-16-009","endeksa_id":184201},"geometry":{"coordinates":[[[29.287074077000113,40.14081446500063],[29.286734930000023,40.14186858500045],[29.28749876400019,40.142837528000086],[29.287725790000138,40.14406028399998],[29.286944033000054,40.14639163900006],[29.28700150600008,40.14793358400004],[29.28568595300004,40.1505621340001],[29.28369713900014,40.151641412000004],[29.280354326000065,40.15226548900023],[29.27850036700005,40.152215628000135],[29.27617458600008,40.15163633200012],[29.275105447000158,40.15094104999997],[29.272520538000094,40.15079446600009],[29.272392939999975,40.15118108100006],[29.263795910000113,40.152706201000456],[29.260153560000163,40.15290863600006],[29.260005425000088,40.152564566000194],[29.25951504000011,40.15209935400043],[29.259159790000183,40.150441065999985],[29.258788962000096,40.15011628700006],[29.25873304600009,40.14895667200028],[29.259023121000155,40.148135659000104],[29.258987409000042,40.147450201000424],[29.258295396000108,40.14665621500012],[29.257990504000077,40.145145345000174],[29.258093866000138,40.143207832000144],[29.25844073600001,40.14279755600012],[29.25851333800017,40.142045285000506],[29.257987912000033,40.14113981300005],[29.2585734270001,40.13988516100011],[29.258233421,40.13857613600044],[29.25767693800009,40.138200696000126],[29.257436933000008,40.137170283000046],[29.25747914700014,40.13659520600049],[29.256143500000007,40.136106971000686],[29.256000204000088,40.13550043600014],[29.256072909000125,40.134749432000035],[29.257512592000182,40.13365199800069],[29.25810282400016,40.132615623000106],[29.257982923999975,40.131901029000176],[29.257210490000034,40.130945187000634],[29.255793069000106,40.13020219399999],[29.254501493000134,40.129038707999996],[29.25276964800014,40.12805047800049],[29.252401337000094,40.12703181700067],[29.24906447300009,40.12530414000008],[29.247021403000304,40.12489103700028],[29.24652004800032,40.12323415000077],[29.2451478010002,40.115665912000566],[29.24008496100032,40.11149634000054],[29.238906900000302,40.10505250100073],[29.23866633700021,40.10479032900071],[29.239040384000305,40.10478793900069],[29.240312631000336,40.10411358100066],[29.2421178740002,40.10170238700033],[29.24222850200033,40.10076513300072],[29.239028401000326,40.08007903900034],[29.23892966400024,40.078560551000294],[29.23900654800019,40.078464965000194],[29.24201422600015,40.07753338000009],[29.24411627900008,40.0778270620001],[29.244555108999975,40.08192898700008],[29.246464649000075,40.0832391050003],[29.246841674999985,40.083642164000025],[29.247222988000033,40.084644932000174],[29.249175044000083,40.0854093530001],[29.25018490900004,40.08789966300009],[29.25572054600019,40.09052178100069],[29.258165009000038,40.09146188100067],[29.258114198000044,40.093313995000074],[29.25655068400016,40.09694164900003],[29.256533028000092,40.09932828500018],[29.25663056799999,40.09941370100029],[29.25756985900017,40.09952559500016],[29.25781778300012,40.10003004500015],[29.2581304200001,40.10231240200005],[29.25912071800019,40.104255619000696],[29.260031699000137,40.10781229500009],[29.2611734890001,40.11002089800013],[29.261473041000045,40.11046102200032],[29.265522656000144,40.11323780300012],[29.266656835000106,40.114675852000175],[29.268589670000097,40.11539843200046],[29.269296703000066,40.11692507300006],[29.273335986000063,40.11811698400015],[29.27378112800011,40.11851797200029],[29.274748077000083,40.12143497800059],[29.27355981000011,40.12245791000032],[29.274395272000106,40.12368385500008],[29.274360876000117,40.124178148],[29.27311021800017,40.126967665000336],[29.279617635000136,40.13206343600052],[29.283575048000102,40.1355250790005],[29.287074077000113,40.14081446500063]]],"type":"Polygon"}},{"type":"Feature","properties":{"area_id":"TR-16-009-184213","name_tr":"Şevketiye","area_level":"neighbourhood","parent_id":"TR-16-009","endeksa_id":184213},"geometry":{"coordinates":[[[29.335566378000067,40.153024169000105],[29.335425240999996,40.15291747000026],[29.327515606000077,40.15385084300016],[29.327347252000152,40.153749109000046],[29.320580159000087,40.14457106100008],[29.32389148700014,40.13738970300005],[29.323458402000085,40.132892706000064],[29.317494163000163,40.12511639000019],[29.317958854000153,40.12183425500018],[29.31106568200005,40.11723686500011],[29.31426007600004,40.111216678000176],[29.312527466000176,40.108378899000115],[29.311909574000026,40.09539866300008],[29.3091322680001,40.08395710100001],[29.30760956000006,40.08332329000007],[29.303563715000053,40.07257945100014],[29.303675113000054,40.0724533230005],[29.314009459000147,40.071681164000154],[29.31415089900014,40.07178007300007],[29.314060168000026,40.08300219200015],[29.313441934000025,40.08479462800017],[29.319641781000087,40.101171649000435],[29.318391930000132,40.10706812100017],[29.320311260000096,40.11131813100013],[29.31907289500009,40.117307420000316],[29.32229369800018,40.11959683300012],[29.32150312000016,40.12336252000006],[29.336329525000053,40.12278925800001],[29.33676705900018,40.12310409100007],[29.33705386400004,40.12311191800006],[29.336939922,40.123171047000085],[29.336959158000184,40.12327461100011],[29.3412849610001,40.12695491200026],[29.339329501000122,40.12974271799999],[29.339331363999975,40.12983922000052],[29.343690985000023,40.130887099999995],[29.344665920000125,40.132421636000174],[29.34502760100014,40.13327681200019],[29.34258049100015,40.13732339300026],[29.347540935000097,40.13682485000015],[29.34767781400012,40.136891423000066],[29.345747614999993,40.13869548300028],[29.347196883000038,40.139796058000115],[29.34721627900001,40.139905718000136],[29.345302812000057,40.14054554800032],[29.3452291910001,40.14063717700003],[29.34534780000007,40.140733738999984],[29.34720336700019,40.140776290000076],[29.34942899200007,40.142053436000026],[29.348246929000027,40.144775042000504],[29.350230563000025,40.14557822100011],[29.350293576000183,40.1456790820007],[29.350208443000156,40.14575756800008],[29.348030988000005,40.14626151700048],[29.348377612000093,40.148546772000145],[29.348204243000055,40.14864267700068],[29.342078034000053,40.14694097000012],[29.336592915000153,40.149623095000265],[29.335566378000067,40.153024169000105]]],"type":"Polygon"}},{"type":"Feature","properties":{"area_id":"TR-16-009-184195","name_tr":"Lütfiye","area_level":"neighbourhood","parent_id":"TR-16-009","endeksa_id":184195},"geometry":{"coordinates":[[[29.327347252000152,40.153749109000046],[29.327256682000154,40.15389553300008],[29.31296477800015,40.15560716400023],[29.311144067000043,40.156104477999975],[29.310091934000127,40.15617652000009],[29.309130501000084,40.155407238000066],[29.30409667100014,40.15576456800011],[29.303980650000028,40.155724496000346],[29.303867180000054,40.15553101900059],[29.303801763000024,40.155156879],[29.30060737400015,40.14754234800017],[29.30120292600003,40.14605789600006],[29.30178351000012,40.14540834700006],[29.30172687300012,40.14487595800017],[29.302772251000135,40.14374483900008],[29.302762375000043,40.143482927000264],[29.301563758000043,40.14283392900006],[29.30027798800006,40.141855497999984],[29.299690939000072,40.14087918700011],[29.310420524000108,40.12325264399999],[29.30753099400016,40.11715499300004],[29.3089744830001,40.11557779900011],[29.30822660600012,40.109456328000135],[29.30502659800004,40.1044229860006],[29.296958906999976,40.098221142000114],[29.29701007100016,40.09536461700014],[29.294480804000045,40.09278307500006],[29.28977518800008,40.091418973000316],[29.288092980000158,40.08510294100017],[29.289236667000182,40.07214204200005],[29.289362212000185,40.072028647000025],[29.301687200000174,40.07166277500011],[29.30347813000003,40.07244602700007],[29.303563715000053,40.07257945100014],[29.30760956000006,40.08332329000007],[29.3091322680001,40.08395710100001],[29.311909574000026,40.09539866300008],[29.312527466000176,40.108378899000115],[29.31426007600004,40.111216678000176],[29.31106568200005,40.11723686500011],[29.317958854000153,40.12183425500018],[29.317494163000163,40.12511639000019],[29.323458402000085,40.132892706000064],[29.32389148700014,40.13738970300005],[29.320580159000087,40.14457106100008],[29.327347252000152,40.153749109000046]]],"type":"Polygon"}},{"type":"Feature","properties":{"area_id":"TR-16-009-184193","name_tr":"Kozluören","area_level":"neighbourhood","parent_id":"TR-16-009","endeksa_id":184193},"geometry":{"coordinates":[[[29.386294799000098,40.149805612000534],[29.386257702000137,40.14989755900024],[29.38608547300015,40.1499018990001],[29.383455007000123,40.14807198200009],[29.382757792000064,40.147984079000366],[29.38210060300014,40.14760530200056],[29.38196625300003,40.14760282700007],[29.374758440000107,40.15479041300006],[29.365277037000112,40.15209555300038],[29.363793978000047,40.15395405800041],[29.361577068000145,40.15310754000018],[29.356679269000153,40.15715666800054],[29.356555060999995,40.15708453400043],[29.355265779000092,40.15322342500008],[29.351163658000075,40.15109928700019],[29.348550986000078,40.14945005800007],[29.34840436000019,40.14873842800034],[29.348204243000055,40.14864267700068],[29.348377612000093,40.148546772000145],[29.348030988000005,40.14626151700048],[29.350208443000156,40.14575756800008],[29.350293576000183,40.1456790820007],[29.350230563000025,40.14557822100011],[29.348246929000027,40.144775042000504],[29.34942899200007,40.142053436000026],[29.34720336700019,40.140776290000076],[29.34534780000007,40.140733738999984],[29.3452291910001,40.14063717700003],[29.345302812000057,40.14054554800032],[29.34721627900001,40.139905718000136],[29.347196883000038,40.139796058000115],[29.345747614999993,40.13869548300028],[29.34767781400012,40.136891423000066],[29.347540935000097,40.13682485000015],[29.34258049100015,40.13732339300026],[29.34502760100014,40.13327681200019],[29.344665920000125,40.132421636000174],[29.343690985000023,40.130887099999995],[29.339331363999975,40.12983922000052],[29.339329501000122,40.12974271799999],[29.3412849610001,40.12695491200026],[29.336959158000184,40.12327461100011],[29.336939922,40.123171047000085],[29.33705386400004,40.12311191800006],[29.342400323000163,40.12297970500009],[29.34138826000003,40.1184027240007],[29.341461233000075,40.11829847500019],[29.347067069000104,40.116558330000146],[29.34925080000005,40.11868343000015],[29.351416178000193,40.11798009],[29.351470565000113,40.11785591200004],[29.35162827700003,40.11787322000009],[29.35534032100003,40.121407893000026],[29.357474773000092,40.12076341000045],[29.36107888500004,40.12419910400018],[29.366541397000105,40.12459155400029],[29.36852472800018,40.130755842000156],[29.372173611000164,40.130292534000546],[29.37752160800011,40.13384619000004],[29.381209711000167,40.13258463600016],[29.381876947000137,40.1350797450001],[29.381983235000007,40.135155954000425],[29.388512986000023,40.132925800000464],[29.388708969815184,40.13297311524303],[29.39165306330966,40.1355912724278],[29.391574524659063,40.13574333297254],[29.39175838500006,40.135947904000034],[29.389988900000105,40.13607848300046],[29.391982438000014,40.14009147700017],[29.38650859000012,40.14401305100006],[29.38820142200018,40.14497023200016],[29.3882152220001,40.14510837800037],[29.38521981500014,40.14558041500044],[29.386294799000098,40.149805612000534]]],"type":"Polygon"}},{"type":"Feature","properties":{"area_id":"TR-16-009-184215","name_tr":"Kazancı","area_level":"neighbourhood","parent_id":"TR-16-009","endeksa_id":184215},"geometry":{"coordinates":[[[29.344043953341895,40.158480523022945],[29.343884473939568,40.158393298426006],[29.343861475000097,40.158892738000475],[29.34371370500014,40.15897856000015],[29.340046529999995,40.156074507000085],[29.335244752000108,40.156695240000374],[29.33518304600011,40.1566024550001],[29.335566378000067,40.153024169000105],[29.336592915000153,40.149623095000265],[29.342078034000053,40.14694097000012],[29.348204243000055,40.14864267700068],[29.34840436000019,40.14873842800034],[29.348550986000078,40.14945005800007],[29.351163658000075,40.15109928700019],[29.355265779000092,40.15322342500008],[29.35568441800018,40.15447715700026],[29.35561451100017,40.15459129700014],[29.354034727,40.155093191000105],[29.347613977000094,40.1582607630005],[29.345895752000104,40.15793342500024],[29.344043953341895,40.158480523022945]]],"type":"Polygon"}},{"type":"Feature","properties":{"area_id":"TR-16-009-184205","name_tr":"Saitabat","area_level":"neighbourhood","parent_id":"TR-16-009","endeksa_id":184205},"geometry":{"coordinates":[[[29.22839725100033,40.164384646000656],[29.228024121000203,40.16455658200067],[29.228303065000148,40.16210286600051],[29.22785811100033,40.161993085000574],[29.228724100000306,40.161125300000094],[29.228209101000232,40.158845901000234],[29.228702600000304,40.1572879000002],[29.22685730100028,40.152745101000335],[29.224518400000306,40.139475600000424],[29.22503690000036,40.12343890000034],[29.223344935784382,40.12308135273548],[29.219450000000677,40.118260000000646],[29.219080000000645,40.11725000000075],[29.217810000000725,40.116030000000706],[29.217350000000636,40.11381000000085],[29.21674000000064,40.11316000000073],[29.216270000000634,40.11232000000069],[29.21470000000062,40.11138000000108],[29.214410000000555,40.11080000000118],[29.213970000000586,40.11043000000063],[29.213610000000642,40.10983000000073],[29.212030000000652,40.10905000000099],[29.211090000000695,40.10830000000061],[29.210780000000625,40.10742000000096],[29.210060000000738,40.10680000000099],[29.209080000000654,40.10561000000092],[29.207770000000608,40.104980000001035],[29.207620000000645,40.10452000000066],[29.208170000000678,40.10326000000083],[29.207160000000613,40.102340000000765],[29.207160000000613,40.1012400000007],[29.206380000000706,40.100920000001054],[29.205180000000723,40.100150000000724],[29.204740000000754,40.099650000000906],[29.20463000000069,40.09816000000126],[29.203200000000663,40.09610000000134],[29.203040000000556,40.09505000000115],[29.203560000000607,40.09353000000067],[29.204310000000703,40.09328000000107],[29.20485000000059,40.092240000000686],[29.20612000000068,40.090950000001044],[29.206600000000606,40.0912600000006],[29.209640000000604,40.0892500000009],[29.212680000000603,40.08600000000126],[29.212680000000603,40.083790000000704],[29.20801000000057,40.08123000000063],[29.20586135821361,40.08036800574257],[29.206514890000335,40.07871672000033],[29.20668719400021,40.07869648100035],[29.206782000000203,40.0784960000002],[29.210835400000235,40.0787861],[29.21250550000036,40.07807020000081],[29.216535488000204,40.073163994000595],[29.216673654000317,40.072766770000044],[29.221970470000315,40.07051175000021],[29.2233615410002,40.06786409100039],[29.234413170000266,40.06653596800055],[29.235361896000256,40.06995191500033],[29.235269988000255,40.0702230510002],[29.238721482000244,40.078334871000266],[29.23892966400024,40.078560551000294],[29.239028401000326,40.08007903900034],[29.24222850200033,40.10076513300072],[29.2421178740002,40.10170238700033],[29.240312631000336,40.10411358100066],[29.239040384000305,40.10478793900069],[29.23866633700021,40.10479032900071],[29.238906900000302,40.10505250100073],[29.24008496100032,40.11149634000054],[29.2451478010002,40.115665912000566],[29.24652004800032,40.12323415000077],[29.247021403000304,40.12489103700028],[29.246274615000345,40.12641491100061],[29.24659327800032,40.126948460999984],[29.246490689000268,40.12846854400061],[29.2467088370002,40.12902559800034],[29.246717399000204,40.131379419000496],[29.246464153000204,40.132951894000485],[29.246717243000205,40.134434722000606],[29.246658201000287,40.135255358000336],[29.24630757700021,40.13582195500072],[29.24609344500027,40.137356794000084],[29.24544291300026,40.1380407850001],[29.245264211000233,40.138622453000266],[29.246099659000265,40.140369670000325],[29.244839224000316,40.1418044200002],[29.243913375000204,40.14336034800033],[29.24360718300028,40.14443281200079],[29.24365917500029,40.14505859200051],[29.244279589000314,40.14676257900072],[29.244332312000324,40.14899953300022],[29.243010565000247,40.15215428700026],[29.2429442210003,40.15272845500016],[29.242617845000268,40.153300250000484],[29.241923776000306,40.15368365100068],[29.241119083000285,40.15541083100027],[29.240792524000312,40.15572421200085],[29.240687536000337,40.15690034100055],[29.24052882300026,40.156811022],[29.240373503000228,40.15685269099998],[29.240762061000225,40.158687091000274],[29.22839725100033,40.164384646000656]]],"type":"Polygon"}},{"type":"Feature","properties":{"area_id":"TR-16-009-184203","name_tr":"Osmaniye","area_level":"neighbourhood","parent_id":"TR-16-009","endeksa_id":184203},"geometry":{"coordinates":[[[29.26636984400011,40.171360965000304],[29.26627974200011,40.17144122900004],[29.264095033000046,40.17191815700022],[29.26257091399998,40.171625355000174],[29.26174800700005,40.17003588000017],[29.259597284000165,40.16886902499999],[29.258194011000114,40.16769805400037],[29.255017098999986,40.1670017390004],[29.254110125000125,40.16433954600012],[29.25376287300014,40.16379192400029],[29.25184195500003,40.16306154600011],[29.251222187000053,40.16262604400009],[29.250256612000044,40.16181556100014],[29.24973606900005,40.16090993600022],[29.248847227000056,40.16053745600016],[29.24647234700018,40.160356745],[29.245405758000118,40.16002001600049],[29.243654644000173,40.15862920100011],[29.241551094000044,40.157946544000026],[29.2407425400001,40.15733937700014],[29.240687536000337,40.15690034100055],[29.240792524000312,40.15572421200085],[29.241119083000285,40.15541083100027],[29.241923776000306,40.15368365100068],[29.242617845000268,40.153300250000484],[29.2429442210003,40.15272845500016],[29.243010565000247,40.15215428700026],[29.244332312000324,40.14899953300022],[29.244279589000314,40.14676257900072],[29.24365917500029,40.14505859200051],[29.24360718300028,40.14443281200079],[29.243913375000204,40.14336034800033],[29.244839224000316,40.1418044200002],[29.246099659000265,40.140369670000325],[29.245264211000233,40.138622453000266],[29.24544291300026,40.1380407850001],[29.24609344500027,40.137356794000084],[29.24630757700021,40.13582195500072],[29.246658201000287,40.135255358000336],[29.246717243000205,40.134434722000606],[29.246464153000204,40.132951894000485],[29.246717399000204,40.131379419000496],[29.2467088370002,40.12902559800034],[29.246490689000268,40.12846854400061],[29.24659327800032,40.126948460999984],[29.246274615000345,40.12641491100061],[29.247021403000304,40.12489103700028],[29.24906447300009,40.12530414000008],[29.252401337000094,40.12703181700067],[29.25276964800014,40.12805047800049],[29.254501493000134,40.129038707999996],[29.255793069000106,40.13020219399999],[29.257210490000034,40.130945187000634],[29.257982923999975,40.131901029000176],[29.25810282400016,40.132615623000106],[29.257512592000182,40.13365199800069],[29.256072909000125,40.134749432000035],[29.256000204000088,40.13550043600014],[29.256143500000007,40.136106971000686],[29.25747914700014,40.13659520600049],[29.257436933000008,40.137170283000046],[29.25767693800009,40.138200696000126],[29.258233421,40.13857613600044],[29.2585734270001,40.13988516100011],[29.257987912000033,40.14113981300005],[29.25851333800017,40.142045285000506],[29.25844073600001,40.14279755600012],[29.258093866000138,40.143207832000144],[29.257990504000077,40.145145345000174],[29.258295396000108,40.14665621500012],[29.258987409000042,40.147450201000424],[29.259023121000155,40.148135659000104],[29.25873304600009,40.14895667200028],[29.258788962000096,40.15011628700006],[29.259159790000183,40.150441065999985],[29.25951504000011,40.15209935400043],[29.260005425000088,40.152564566000194],[29.2602171960001,40.153056442000036],[29.260964853000075,40.1535232280001],[29.260350249,40.15506534200034],[29.261530958000094,40.15627619200052],[29.26122411700004,40.156888364],[29.26123728300007,40.15754326800004],[29.2615349620001,40.15797509300012],[29.26248487800018,40.15854183600004],[29.2627023390001,40.159195573000034],[29.262661466000054,40.16067643299999],[29.263212258000124,40.16232030000003],[29.264162935000172,40.16349761400028],[29.265181999000106,40.16551502700031],[29.26698970600006,40.16809276100025],[29.26636984400011,40.171360965000304]]],"type":"Polygon"}},{"type":"Feature","properties":{"area_id":"TR-16-009-184189","name_tr":"Gözede","area_level":"neighbourhood","parent_id":"TR-16-009","endeksa_id":184189},"geometry":{"coordinates":[[[29.290138208000087,40.17425130800012],[29.269765335000102,40.175048675000426],[29.266877966000038,40.17329039900011],[29.26636984400011,40.171360965000304],[29.26698970600006,40.16809276100025],[29.265181999000106,40.16551502700031],[29.264162935000172,40.16349761400028],[29.263212258000124,40.16232030000003],[29.262661466000054,40.16067643299999],[29.2627023390001,40.159195573000034],[29.26248487800018,40.15854183600004],[29.2615349620001,40.15797509300012],[29.26123728300007,40.15754326800004],[29.26122411700004,40.156888364],[29.261530958000094,40.15627619200052],[29.260350249,40.15506534200034],[29.260964853000075,40.1535232280001],[29.2602171960001,40.153056442000036],[29.260153560000163,40.15290863600006],[29.263795910000113,40.152706201000456],[29.272392939999975,40.15118108100006],[29.272520538000094,40.15079446600009],[29.275105447000158,40.15094104999997],[29.27617458600008,40.15163633200012],[29.27850036700005,40.152215628000135],[29.280354326000065,40.15226548900023],[29.28369713900014,40.151641412000004],[29.28568595300004,40.1505621340001],[29.28700150600008,40.14793358400004],[29.286944033000054,40.14639163900006],[29.287725790000138,40.14406028399998],[29.28749876400019,40.142837528000086],[29.286734930000023,40.14186858500045],[29.287074077000113,40.14081446500063],[29.289154091000114,40.14216838900006],[29.28882306000014,40.14325694800016],[29.289658557999985,40.14374899000052],[29.28928605200008,40.14470877600053],[29.28979220000008,40.14590130099998],[29.290009639000175,40.14759060100016],[29.290865518000032,40.14782281600026],[29.292136787000175,40.14761490500001],[29.294465089000084,40.14766966700029],[29.296596782000165,40.148443802000656],[29.297838016000185,40.14834210900017],[29.29884595500016,40.14782658400003],[29.30060737400015,40.14754234800017],[29.303801763000024,40.155156879],[29.303867180000054,40.15553101900059],[29.303980650000028,40.155724496000346],[29.30409667100014,40.15576456800011],[29.30384968700008,40.155839129000185],[29.300629884000045,40.16310589600005],[29.29745592900008,40.1636406370003],[29.296399745000087,40.16552075700025],[29.297188350000056,40.17071067400059],[29.296426866000104,40.1724188070001],[29.290076485000043,40.17403074800012],[29.29025823900014,40.17413305300016],[29.290138208000087,40.17425130800012]]],"type":"Polygon"}},{"type":"Feature","properties":{"area_id":"TR-16-009-184175","name_tr":"Burhaniye","area_level":"neighbourhood","parent_id":"TR-16-009","endeksa_id":184175},"geometry":{"coordinates":[[[29.266877966000038,40.17329039900011],[29.2668323850001,40.1733884520001],[29.262770429000057,40.17583947900016],[29.25570423700003,40.17736814100067],[29.239954367000166,40.17633755300017],[29.230715924000037,40.18133497200017],[29.23052197400017,40.18129171500004],[29.2301954350001,40.180677717000094],[29.233718400000157,40.179202500000656],[29.233265067000048,40.17805481000005],[29.226937800000087,40.17686620000012],[29.22231360000012,40.17413640000035],[29.224942199999987,40.16683180000064],[29.22784430000013,40.164331200000504],[29.228115575000118,40.165017981000574],[29.228381033000062,40.164780151000116],[29.22839725100033,40.164384646000656],[29.240762061000225,40.158687091000274],[29.240373503000228,40.15685269099998],[29.24052882300026,40.156811022],[29.240687536000337,40.15690034100055],[29.2407425400001,40.15733937700014],[29.241551094000044,40.157946544000026],[29.243654644000173,40.15862920100011],[29.245405758000118,40.16002001600049],[29.24647234700018,40.160356745],[29.248847227000056,40.16053745600016],[29.24973606900005,40.16090993600022],[29.250256612000044,40.16181556100014],[29.251222187000053,40.16262604400009],[29.25184195500003,40.16306154600011],[29.25376287300014,40.16379192400029],[29.254110125000125,40.16433954600012],[29.255017098999986,40.1670017390004],[29.258194011000114,40.16769805400037],[29.259597284000165,40.16886902499999],[29.26174800700005,40.17003588000017],[29.26257091399998,40.171625355000174],[29.264095033000046,40.17191815700022],[29.26627974200011,40.17144122900004],[29.26636984400011,40.171360965000304],[29.266877966000038,40.17329039900011]]],"type":"Polygon"}},{"type":"Feature","properties":{"area_id":"TR-16-009-184219","name_tr":"Ümitalan","area_level":"neighbourhood","parent_id":"TR-16-009","endeksa_id":184219},"geometry":{"coordinates":[[[29.394548850000092,40.17977718600042],[29.394648640000185,40.179917611000405],[29.38143855400017,40.18029965900007],[29.365033172000096,40.18371015100013],[29.36398610100008,40.18511484100037],[29.365033600000118,40.18574358100017],[29.361065370000063,40.186723300000494],[29.352871595000067,40.18347608000005],[29.350924600000155,40.18471666000005],[29.350042155000096,40.182352051000066],[29.349943693000114,40.182283816000165],[29.343890611000006,40.181484826000315],[29.341756096000097,40.184165947000054],[29.340355672000044,40.18209152700018],[29.34273539600008,40.176951685000176],[29.340367045000164,40.17682545299999],[29.339041159000033,40.175024720000124],[29.336041880000153,40.176431810000054],[29.335967177999976,40.17267343800063],[29.33417496000004,40.17245431000026],[29.333608098000013,40.170248226000695],[29.337395820999973,40.16650593500009],[29.336634031000187,40.16386245100017],[29.34363059300017,40.16372356400018],[29.344747779000045,40.15983538600017],[29.343867806000162,40.15913135700009],[29.3438890970001,40.15852627400017],[29.345895752000104,40.15793342500024],[29.347613977000094,40.1582607630005],[29.354034727,40.155093191000105],[29.35561451100017,40.15459129700014],[29.35568441800018,40.15447715700026],[29.356555060999995,40.15708453400043],[29.356679269000153,40.15715666800054],[29.361577068000145,40.15310754000018],[29.363793978000047,40.15395405800041],[29.365277037000112,40.15209555300038],[29.374758440000107,40.15479041300006],[29.38196625300003,40.14760282700007],[29.38210060300014,40.14760530200056],[29.382757792000064,40.147984079000366],[29.383455007000123,40.14807198200009],[29.38608547300015,40.1499018990001],[29.386257702000137,40.14989755900024],[29.386294799000098,40.149805612000534],[29.38698749000008,40.156076010000106],[29.39029838000016,40.155789440000035],[29.390267345000154,40.1561954390005],[29.39365633000017,40.156336820000206],[29.393111449999992,40.158333089999985],[29.396490077000067,40.15801719700005],[29.397824012,40.15934572500021],[29.39659108600017,40.16076432000011],[29.39893896899997,40.16295043100007],[29.39723299500008,40.163578617000496],[29.39750205200005,40.166977606000444],[29.392439369999977,40.167647749000025],[29.392334387999995,40.16772814000001],[29.394075864000058,40.17279728700066],[29.39589171800003,40.17359516000033],[29.392829296000116,40.177312249000124],[29.394548850000092,40.17977718600042]]],"type":"Polygon"}},{"type":"Feature","properties":{"area_id":"TR-16-009-184179","name_tr":"Derekızık","area_level":"neighbourhood","parent_id":"TR-16-009","endeksa_id":184179},"geometry":{"coordinates":[[[29.22795213917061,40.18286562152605],[29.227770524356742,40.18287123388484],[29.22769334949561,40.18274429419796],[29.228219800000147,40.181505000000016],[29.22521410000013,40.182210100000134],[29.22494360000013,40.18277670000009],[29.224884100000168,40.18320950000037],[29.224554800000078,40.183685100000105],[29.223872000000085,40.18413200000032],[29.222910100000092,40.184588800000085],[29.21937790000004,40.185613400000136],[29.21799279999999,40.185908100000006],[29.21727040000013,40.185832800000355],[29.21219550000012,40.18693350000012],[29.212229900000125,40.18588810000017],[29.209571100000062,40.184747400000106],[29.209258100000113,40.18499170000007],[29.20300971834746,40.186553837296174],[29.202794599151446,40.18644046184602],[29.20276039999999,40.18593240000007],[29.203130900000133,40.185588600000074],[29.202756600000043,40.18519270000019],[29.202525000000094,40.185308900000166],[29.20201190000006,40.18463390000028],[29.201517200000183,40.18359090000013],[29.2015143000001,40.18255660000017],[29.201348600000074,40.18227780000001],[29.201688200000092,40.18186760000003],[29.201764400000002,40.18112780000007],[29.202074300000106,40.18099810000018],[29.202484600000105,40.18066570000008],[29.205485400000043,40.17873440000011],[29.206361000000186,40.17805200000032],[29.209114500000112,40.17715810000061],[29.211253399999975,40.1753109],[29.21232490000017,40.17400210000011],[29.212178900000026,40.17187340000015],[29.209426940825495,40.17162845343046],[29.2092954833239,40.171553978191184],[29.209309260392104,40.17143317944948],[29.209670000000074,40.17136000000016],[29.209910000000036,40.16918000000027],[29.208740000000034,40.166090000000395],[29.20770000000016,40.165440000000046],[29.20791000000014,40.164320000000316],[29.207470000000114,40.16153000000037],[29.203990000000147,40.153480000000116],[29.202170000000194,40.149060000000304],[29.2015100000001,40.14713000000012],[29.20141000000018,40.14588000000009],[29.20119000000011,40.14521000000008],[29.201260000000048,40.14445000000006],[29.200960000000066,40.14344000000017],[29.201350000000218,40.14259000000004],[29.201560000000143,40.14163000000019],[29.20193000000006,40.141560000000084],[29.202570000000037,40.14078000000018],[29.202620000000138,40.13996000000054],[29.201310000000092,40.13721000000038],[29.200870000000066,40.13529000000017],[29.20085000000023,40.13415000000015],[29.200440000000242,40.132850000000076],[29.19943000000012,40.131430000000364],[29.199310000000708,40.12553000000088],[29.204090000000576,40.12396000000081],[29.205400000000623,40.12339000000105],[29.207320000000664,40.12221000000045],[29.214930000000606,40.12259000000063],[29.219490000000633,40.12216000000058],[29.223344935784382,40.12308135273548],[29.22503690000036,40.12343890000034],[29.224518400000306,40.139475600000424],[29.22685730100028,40.152745101000335],[29.228702600000304,40.1572879000002],[29.228209101000232,40.158845901000234],[29.228724100000306,40.161125300000094],[29.22785811100033,40.161993085000574],[29.228303065000148,40.16210286600051],[29.228024121000203,40.16455658200067],[29.22839725100033,40.164384646000656],[29.228381033000062,40.164780151000116],[29.228115575000118,40.165017981000574],[29.22784430000013,40.164331200000504],[29.224942199999987,40.16683180000064],[29.22231360000012,40.17413640000035],[29.226937800000087,40.17686620000012],[29.233265067000048,40.17805481000005],[29.233718400000157,40.179202500000656],[29.2301954350001,40.180677717000094],[29.23052197400017,40.18129171500004],[29.23050590500003,40.18144846400014],[29.22795213917061,40.18286562152605]]],"type":"Polygon"}},{"type":"Feature","properties":{"area_id":"TR-16-009-19995","name_tr":"Yeni","area_level":"neighbourhood","parent_id":"TR-16-009","endeksa_id":19995},"geometry":{"coordinates":[[[29.230733000000043,40.18761850000067],[29.229448700000034,40.187986600000215],[29.22773570000004,40.1894233000001],[29.224800400000163,40.189969899999994],[29.223670200000072,40.190640700000074],[29.219759300000135,40.19083950000004],[29.21714920000005,40.190870500000074],[29.217092300000104,40.19159100000019],[29.215124600000024,40.191485399999976],[29.213709800000004,40.192559900000106],[29.210514400000136,40.19321210000021],[29.20487150000008,40.1930258000001],[29.20423696100005,40.193044276000535],[29.19983677600004,40.19297274300021],[29.195416334000072,40.19066086800018],[29.195360310000012,40.190565896000464],[29.195149633000085,40.19069758100011],[29.195068800000058,40.190657600000236],[29.195334700000046,40.19017210000021],[29.19498130000011,40.189876900000115],[29.1948503000001,40.189644900000644],[29.19449660000015,40.1897130000001],[29.194097000000113,40.189612200000056],[29.194167400000083,40.18934330000002],[29.194599000000096,40.18912490000025],[29.194631200000117,40.189029800000014],[29.19436860000002,40.18882700000012],[29.194400100000166,40.188632300000165],[29.19468110000014,40.18873160000004],[29.194982800000048,40.18812900000012],[29.19484300000005,40.18792650000057],[29.19449110000005,40.18791150000004],[29.19445040000005,40.1880604000001],[29.194095300000185,40.18840320000004],[29.193746300000043,40.188208100000054],[29.19358679999999,40.18839690000004],[29.193652800000166,40.18849440000031],[29.193578600000023,40.18855250000013],[29.19264880000003,40.188397900000496],[29.192297700000097,40.18849740000002],[29.19278140000017,40.18770820000009],[29.193882000000087,40.187310600000046],[29.194512400000065,40.18721490000013],[29.19774230000013,40.18745400000006],[29.198734899999977,40.187408600000026],[29.20069719999998,40.18753710000033],[29.2011361000001,40.187465400000065],[29.201224400000115,40.18736640000009],[29.201206400000046,40.187210800000685],[29.201437000000112,40.18699740000011],[29.202794599151446,40.18644046184602],[29.20300971834746,40.186553837296174],[29.209258100000113,40.18499170000007],[29.209571100000062,40.184747400000106],[29.212229900000125,40.18588810000017],[29.21219550000012,40.18693350000012],[29.21727040000013,40.185832800000355],[29.21799279999999,40.185908100000006],[29.21937790000004,40.185613400000136],[29.222910100000092,40.184588800000085],[29.223872000000085,40.18413200000032],[29.224554800000078,40.183685100000105],[29.224884100000168,40.18320950000037],[29.22494360000013,40.18277670000009],[29.22521410000013,40.182210100000134],[29.228219800000147,40.181505000000016],[29.22769334949561,40.18274429419796],[29.227770524356742,40.18287123388484],[29.22795213917061,40.18286562152605],[29.227692431000094,40.18300974100009],[29.2283179800001,40.18613381100033],[29.2293595000001,40.18640020000004],[29.230733000000043,40.18761850000067]]],"type":"Polygon"}},{"type":"Feature","properties":{"area_id":"TR-16-009-19996","name_tr":"Ahmet Vefik Paşa Osb","area_level":"neighbourhood","parent_id":"TR-16-009","endeksa_id":19996},"geometry":{"coordinates":[[[29.196713764000094,40.19852107500009],[29.19231214200005,40.19898841500003],[29.192411132000075,40.19890092500026],[29.192517144000135,40.19687489500012],[29.19290108900003,40.19656776100015],[29.192940400000168,40.19549850000038],[29.19350342500013,40.19363757900015],[29.193509565000113,40.19155082500015],[29.193734821000078,40.19115103700011],[29.195149633000085,40.19069758100011],[29.195360310000012,40.190565896000464],[29.195416334000072,40.19066086800018],[29.19983677600004,40.19297274300021],[29.20505240700004,40.19305753200007],[29.20487758100012,40.19325248000035],[29.205109883000148,40.19474994000012],[29.20571756099997,40.19609182800008],[29.206392484000162,40.196670697000116],[29.20664147400015,40.1970838420001],[29.206600519000062,40.19718744900024],[29.206099859000176,40.19739715400027],[29.196713764000094,40.19852107500009]]],"type":"Polygon"}},{"type":"Feature","properties":{"area_id":"TR-16-009-184169","name_tr":"Aksu","area_level":"neighbourhood","parent_id":"TR-16-009","endeksa_id":184169},"geometry":{"coordinates":[[[29.323755067000036,40.1999964780004],[29.324009205000095,40.199799471000176],[29.31653395100011,40.20039870200014],[29.316290473000038,40.19974377700004],[29.31617193300019,40.199618034000025],[29.31619733000008,40.19949790999999],[29.314824351000084,40.195982078999975],[29.308630004000122,40.193040882000105],[29.308464586000127,40.19286124400031],[29.30715509500004,40.18777470500004],[29.302917719000106,40.18559275700011],[29.302924367999992,40.185485842000105],[29.303748483000106,40.18465360000016],[29.30117786000011,40.18187430100011],[29.302335069000037,40.18072726300011],[29.302330688000097,40.180607651000116],[29.297424625000133,40.17613721500061],[29.290782725000042,40.17423309800017],[29.290138208000087,40.17425130800012],[29.29025823900014,40.17413305300016],[29.290076485000043,40.17403074800012],[29.296426866000104,40.1724188070001],[29.297188350000056,40.17071067400059],[29.296399745000087,40.16552075700025],[29.29745592900008,40.1636406370003],[29.300629884000045,40.16310589600005],[29.30384968700008,40.155839129000185],[29.30409667100014,40.15576456800011],[29.309130501000084,40.155407238000066],[29.310091934000127,40.15617652000009],[29.311144067000043,40.156104477999975],[29.31296477800015,40.15560716400023],[29.327256682000154,40.15389553300008],[29.327347252000152,40.153749109000046],[29.327515606000077,40.15385084300016],[29.335425240999996,40.15291747000026],[29.335566378000067,40.153024169000105],[29.33518304600011,40.1566024550001],[29.335244752000108,40.156695240000374],[29.340046529999995,40.156074507000085],[29.34371370500014,40.15897856000015],[29.343861475000097,40.158892738000475],[29.343884473939568,40.158393298426006],[29.344043953341895,40.158480523022945],[29.3438890970001,40.15852627400017],[29.343867806000162,40.15913135700009],[29.344747779000045,40.15983538600017],[29.34363059300017,40.16372356400018],[29.336634031000187,40.16386245100017],[29.337395820999973,40.16650593500009],[29.333608098000013,40.170248226000695],[29.33417496000004,40.17245431000026],[29.335967177999976,40.17267343800063],[29.336041880000153,40.176431810000054],[29.339041159000033,40.175024720000124],[29.340367045000164,40.17682545299999],[29.34273539600008,40.176951685000176],[29.340355672000044,40.18209152700018],[29.341379884000048,40.18360883700046],[29.341195348000042,40.18435793700013],[29.33941091800017,40.18494556000013],[29.337107144000186,40.18477087499997],[29.33678244000015,40.18576937800026],[29.336632681000083,40.18585242000006],[29.332024727000032,40.18735739700014],[29.330341922000173,40.18882318600015],[29.327632082000093,40.197540689000334],[29.324603747000083,40.19973474700015],[29.324021775000062,40.19980200500021],[29.323755067000036,40.1999964780004]]],"type":"Polygon"}},{"type":"Feature","properties":{"area_id":"TR-16-009-184221","name_tr":"Yağmurlu","area_level":"neighbourhood","parent_id":"TR-16-009","endeksa_id":184221},"geometry":{"coordinates":[[[29.401055969000026,40.200490294000076],[29.400922758999968,40.200563423000176],[29.400803502000144,40.20047943600002],[29.40043996600008,40.19704792199997],[29.38859875100013,40.18409497800013],[29.38863962500011,40.18399655800016],[29.394784326000035,40.179914201000656],[29.394548850000092,40.17977718600042],[29.392829296000116,40.177312249000124],[29.39589171800003,40.17359516000033],[29.394075864000058,40.17279728700066],[29.392334387999995,40.16772814000001],[29.392439369999977,40.167647749000025],[29.39750205200005,40.166977606000444],[29.39749334300012,40.166869366000185],[29.397674207000136,40.166772531000106],[29.399676244000148,40.16767267300031],[29.399928234000015,40.16764821200019],[29.399835954000025,40.167716536000114],[29.39986508400017,40.16781149000019],[29.406699945000184,40.17330393700013],[29.406722334000165,40.17341614899999],[29.4065980850001,40.17347117400004],[29.403383148000103,40.172995024000045],[29.403234673000156,40.173086433000094],[29.407106374000136,40.17831232900028],[29.417093061000173,40.18608917299997],[29.418903258000114,40.191379860000666],[29.417416425000113,40.19369807500004],[29.415706106000073,40.193680788999984],[29.416147294000154,40.19538780100004],[29.413196138000046,40.19621740400004],[29.413272362000157,40.19876386600038],[29.413214929000105,40.1988467850004],[29.408864036000068,40.19824901900017],[29.405772541000147,40.19961875300032],[29.402005735000046,40.197999382000035],[29.401904187000184,40.1980691820001],[29.401055969000026,40.200490294000076]]],"type":"Polygon"}},{"type":"Feature","properties":{"area_id":"TR-16-009-19994","name_tr":"Vanimehmet","area_level":"neighbourhood","parent_id":"TR-16-009","endeksa_id":19994},"geometry":{"coordinates":[[[29.220584177187163,40.20212477851635],[29.220433262870017,40.20218463458468],[29.220296575170266,40.20211460354881],[29.220317174207594,40.20170633754998],[29.221127200000183,40.200611900000695],[29.221404300000188,40.199808600000665],[29.22109069999999,40.200167900000054],[29.218871000000036,40.2006274000002],[29.218399400000067,40.200360400000136],[29.21736670000007,40.200254800000096],[29.216439800000103,40.20045970000018],[29.21506570000014,40.20060260000014],[29.215049399999998,40.19994430000003],[29.213602100000173,40.200385200000085],[29.212894700000106,40.19959030000018],[29.21322810000015,40.19944120000014],[29.212502900000175,40.19834110000039],[29.210819100000094,40.19663350000013],[29.2106045000001,40.19600250000019],[29.210514400000136,40.19321210000021],[29.213709800000004,40.192559900000106],[29.215124600000024,40.191485399999976],[29.217092300000104,40.19159100000019],[29.21714920000005,40.190870500000074],[29.219759300000135,40.19083950000004],[29.223670200000072,40.190640700000074],[29.224800400000163,40.189969899999994],[29.22773570000004,40.1894233000001],[29.229448700000034,40.187986600000215],[29.230733000000043,40.18761850000067],[29.231219700000167,40.18803810000003],[29.232385900000054,40.188602400000036],[29.232530400000087,40.18921590100041],[29.232474400000058,40.19031720000049],[29.23233490000007,40.191172801000675],[29.23199500000004,40.19187750000009],[29.231994300000167,40.19251850100011],[29.23110140000017,40.19314800100017],[29.231289500000116,40.19416900000016],[29.22956371100645,40.197661369032915],[29.222220000000164,40.19926000000004],[29.220584177187163,40.20212477851635]]],"type":"Polygon"}},{"type":"Feature","properties":{"area_id":"TR-16-009-19992","name_tr":"Ahmetvefikpaşa","area_level":"neighbourhood","parent_id":"TR-16-009","endeksa_id":19992},"geometry":{"coordinates":[[[29.204238478865705,40.20455356618561],[29.20349000000016,40.20479000000017],[29.20290000000017,40.204570000000274],[29.20248700473286,40.2049590174571],[29.202177700000107,40.20464609999999],[29.201757500000156,40.204582000000016],[29.200980200000174,40.203695100000175],[29.200151400000152,40.20334190000062],[29.199681699999985,40.202844400000174],[29.199455900000146,40.202303400000176],[29.19929350000001,40.202310400000044],[29.19901720000007,40.202491200000225],[29.198688400000037,40.20194670000029],[29.198142651000126,40.20165626800042],[29.197730239000123,40.20038339700017],[29.197698527000114,40.199992683000175],[29.19698534400004,40.199173183000084],[29.19685915500014,40.19859541000011],[29.196713764000094,40.19852107500009],[29.206099859000176,40.19739715400027],[29.206600519000062,40.19718744900024],[29.20664147400015,40.1970838420001],[29.206392484000162,40.196670697000116],[29.20571756099997,40.19609182800008],[29.205109883000148,40.19474994000012],[29.20487758100012,40.19325248000035],[29.20505240700004,40.19305753200007],[29.20423696100005,40.193044276000535],[29.20487150000008,40.1930258000001],[29.210514400000136,40.19321210000021],[29.2106045000001,40.19600250000019],[29.210819100000094,40.19663350000013],[29.212502900000175,40.19834110000039],[29.21322810000015,40.19944120000014],[29.212894700000106,40.19959030000018],[29.213602100000173,40.200385200000085],[29.21235580000007,40.20091900000017],[29.21199810000013,40.200931400000115],[29.211169300000165,40.201545000000124],[29.210632600000167,40.20176240000018],[29.20932530000016,40.20192180000004],[29.208043600000167,40.20235480000031],[29.20769850000005,40.20290080000018],[29.207846400000165,40.20336199999997],[29.205874500000107,40.203936200000044],[29.204863900000134,40.204425600000036],[29.204238478865705,40.20455356618561]]],"type":"Polygon"}},{"type":"Feature","properties":{"area_id":"TR-16-009-100131","name_tr":"Esentepe","area_level":"neighbourhood","parent_id":"TR-16-009","endeksa_id":100131},"geometry":{"coordinates":[[[29.2458029803895,40.20876835334951],[29.245760000000132,40.208840000000066],[29.24565000000007,40.20872000000031],[29.245170000000144,40.2089500000003],[29.244550000000174,40.209090000000515],[29.24449000000004,40.20922000000007],[29.244910000000118,40.20911000000007],[29.244910000000118,40.209300000000155],[29.24440000000004,40.20979000000017],[29.240210000000104,40.21192000000019],[29.23971019564027,40.21208000000013],[29.239210000000128,40.21208000000013],[29.237370000000112,40.211970000000065],[29.22586000000007,40.20995000000062],[29.22576000000015,40.209650000000124],[29.224500000000205,40.209310000000244],[29.223760000000084,40.20898000000011],[29.22248000000019,40.207390000000544],[29.221590000000106,40.20682000000028],[29.22194000000013,40.206140000000175],[29.221750000000043,40.205520000000035],[29.22161000000017,40.20547000000016],[29.22040000000004,40.20304000000016],[29.22046000000006,40.202280000000144],[29.220584177187163,40.20212477851635],[29.222220000000164,40.19926000000004],[29.22956371100645,40.197661369032915],[29.2458029803895,40.20876835334951]]],"type":"Polygon"}},{"type":"Feature","properties":{"area_id":"TR-16-009-19993","name_tr":"Kale","area_level":"neighbourhood","parent_id":"TR-16-009","endeksa_id":19993},"geometry":{"coordinates":[[[29.22586000000007,40.20995000000062],[29.22588000000013,40.21033000000011],[29.2211200000001,40.21125000000018],[29.219110000000057,40.211200000000304],[29.217660000000194,40.211540000000184],[29.21529000000004,40.21174000000025],[29.214530000000195,40.21153000000061],[29.21473000000026,40.210860000000594],[29.214710000000196,40.2105600000001],[29.214870000000076,40.20994000000013],[29.214830000000177,40.209580000000415],[29.212490000000173,40.20975000000004],[29.212290000000166,40.20932000000039],[29.211000000000183,40.20935000000003],[29.210970000000145,40.2091300000003],[29.209790000000055,40.208900000000426],[29.209010000000205,40.20885000000055],[29.207980000000248,40.207880000000046],[29.20779000000016,40.20784000000015],[29.207250000000045,40.206980000000044],[29.206730000000164,40.20675000000017],[29.206400000000258,40.20690000000036],[29.206170000000043,40.206700000000296],[29.206000000000188,40.20651000000021],[29.205610000000036,40.20546000000019],[29.205200000000048,40.20499000000024],[29.20463000000018,40.205180000000325],[29.204238478865705,40.20455356618561],[29.204863900000134,40.204425600000036],[29.205874500000107,40.203936200000044],[29.207846400000165,40.20336199999997],[29.20769850000005,40.20290080000018],[29.208043600000167,40.20235480000031],[29.20932530000016,40.20192180000004],[29.210632600000167,40.20176240000018],[29.211169300000165,40.201545000000124],[29.21199810000013,40.200931400000115],[29.21235580000007,40.20091900000017],[29.213602100000173,40.200385200000085],[29.215049399999998,40.19994430000003],[29.21506570000014,40.20060260000014],[29.216439800000103,40.20045970000018],[29.21736670000007,40.200254800000096],[29.218399400000067,40.200360400000136],[29.218871000000036,40.2006274000002],[29.22109069999999,40.200167900000054],[29.221404300000188,40.199808600000665],[29.221127200000183,40.200611900000695],[29.220317174207594,40.20170633754998],[29.220296575170266,40.20211460354881],[29.220433262870017,40.20218463458468],[29.220584177187163,40.20212477851635],[29.22046000000006,40.202280000000144],[29.22040000000004,40.20304000000016],[29.22161000000017,40.20547000000016],[29.221750000000043,40.205520000000035],[29.22194000000013,40.206140000000175],[29.221590000000106,40.20682000000028],[29.22248000000019,40.207390000000544],[29.223760000000084,40.20898000000011],[29.224500000000205,40.209310000000244],[29.22576000000015,40.209650000000124],[29.22586000000007,40.20995000000062]]],"type":"Polygon"}},{"type":"Feature","properties":{"area_id":"TR-16-009-185576","name_tr":"Barakfakih Osb","area_level":"neighbourhood","parent_id":"TR-16-009","endeksa_id":185576},"geometry":{"coordinates":[[[29.289865638000094,40.21001598000004],[29.27087982200004,40.2117858040001],[29.267806636000103,40.21219496500015],[29.261308803000134,40.212039891000074],[29.253428935000045,40.21207829400032],[29.256652460000055,40.209227340000155],[29.25956891900006,40.207538865000515],[29.266680985000164,40.20830635400051],[29.26959744400017,40.20651554600016],[29.271541750000097,40.20549222600005],[29.27195107800003,40.203189759000054],[29.274509375000036,40.20006863599997],[29.275993188000143,40.20150128200021],[29.27896081300014,40.20262693300003],[29.280853953000076,40.20063146199999],[29.283821578000072,40.1981754950001],[29.293491942000117,40.19955697600045],[29.299017864000064,40.201245453000126],[29.303520467000055,40.203087426000025],[29.30327891900015,40.20523813700004],[29.303861168000083,40.20639186400001],[29.30304595600012,40.207783999000185],[29.30208857400015,40.20887657899999],[29.289865638000094,40.21001598000004]]],"type":"Polygon"}},{"type":"Feature","properties":{"area_id":"TR-16-009-184177","name_tr":"Çataltepe","area_level":"neighbourhood","parent_id":"TR-16-009","endeksa_id":184177},"geometry":{"coordinates":[[[29.30342972400007,40.20553695799998],[29.30327891900015,40.20523813700004],[29.303520467000055,40.203087426000025],[29.299017864000064,40.201245453000126],[29.293491942000117,40.19955697600045],[29.283821578000072,40.1981754950001],[29.280853953000076,40.20063146199999],[29.27896081300014,40.20262693300003],[29.275993188000143,40.20150128200021],[29.274509375000036,40.20006863599997],[29.27195107800003,40.203189759000054],[29.271541750000097,40.20549222600005],[29.26959744400017,40.20651554600016],[29.266680985000164,40.20830635400051],[29.25956891900006,40.207538865000515],[29.256652460000055,40.209227340000155],[29.254685195000093,40.210967231000495],[29.25280634000012,40.20996986100022],[29.246040410000035,40.208636502000104],[29.2458029803895,40.20876835334951],[29.22956371100645,40.197661369032915],[29.231289500000116,40.19416900000016],[29.23110140000017,40.19314800100017],[29.231994300000167,40.19251850100011],[29.23199500000004,40.19187750000009],[29.23233490000007,40.191172801000675],[29.232474400000058,40.19031720000049],[29.232530400000087,40.18921590100041],[29.232385900000054,40.188602400000036],[29.231219700000167,40.18803810000003],[29.230733000000043,40.18761850000067],[29.2293595000001,40.18640020000004],[29.2283179800001,40.18613381100033],[29.227692431000094,40.18300974100009],[29.23050590500003,40.18144846400014],[29.23052197400017,40.18129171500004],[29.230715924000037,40.18133497200017],[29.239954367000166,40.17633755300017],[29.25570423700003,40.17736814100067],[29.262770429000057,40.17583947900016],[29.2668323850001,40.1733884520001],[29.266877966000038,40.17329039900011],[29.269765335000102,40.175048675000426],[29.290138208000087,40.17425130800012],[29.290782725000042,40.17423309800017],[29.297424625000133,40.17613721500061],[29.302330688000097,40.180607651000116],[29.302335069000037,40.18072726300011],[29.30117786000011,40.18187430100011],[29.303748483000106,40.18465360000016],[29.302924367999992,40.185485842000105],[29.302917719000106,40.18559275700011],[29.30715509500004,40.18777470500004],[29.308464586000127,40.19286124400031],[29.308630004000122,40.193040882000105],[29.314824351000084,40.195982078999975],[29.31619733000008,40.19949790999999],[29.31617193300019,40.199618034000025],[29.315777531000094,40.19976557200016],[29.309736260000193,40.20004385000004],[29.31015552500014,40.201395134000165],[29.308200592000105,40.202575090000096],[29.31114581500003,40.2043694730001],[29.310860756000125,40.20431793000006],[29.310912980000182,40.204388216000154],[29.308002602999977,40.20386878900007],[29.30342972400007,40.20553695799998]]],"type":"Polygon"}},{"type":"Feature","properties":{"area_id":"TR-16-009-184217","name_tr":"Turanköy","area_level":"neighbourhood","parent_id":"TR-16-009","endeksa_id":184217},"geometry":{"coordinates":[[[29.353970217215817,40.212246222511624],[29.35385000000008,40.21245000000016],[29.35381000000018,40.212770000000205],[29.35394000000008,40.213420000000156],[29.353330000000085,40.213420000000156],[29.352840000000185,40.21202000000011],[29.353090000000122,40.21195000000017],[29.353120000000104,40.21186000000023],[29.352250000000254,40.21160000000003],[29.35155000000003,40.21126000000032],[29.350580000000093,40.21220000000062],[29.350170000000105,40.211840000000166],[29.3495700000002,40.212580000000116],[29.34917000000013,40.212900000000275],[29.348910000000103,40.21247000000022],[29.348940000000084,40.21180000000021],[29.348840000000166,40.21136000000007],[29.347550000000183,40.211750000000336],[29.347020000000043,40.210880000000145],[29.347480000000076,40.21063000000004],[29.346500000000162,40.21028000000024],[29.345410000000072,40.21010000000024],[29.34372000000019,40.20954000000012],[29.34266000000008,40.209920000000295],[29.341160000000116,40.21019000000058],[29.340420000000165,40.21018000000009],[29.338430000000187,40.209930000000384],[29.337290000000223,40.20956000000035],[29.33591000000007,40.20935000000003],[29.335150000000056,40.20936000000012],[29.33362000000011,40.20968000000033],[29.332610000000045,40.209620000000314],[29.331900000000076,40.20941000000016],[29.330280000000187,40.209390000000326],[29.329050000000166,40.20927000000012],[29.32727000000017,40.208500000000186],[29.329080000000204,40.20737000000031],[29.32900000000012,40.205370000000414],[29.32638368147991,40.20607926146488],[29.321833522000134,40.20479566100005],[29.32090656600019,40.20222163600016],[29.323755067000036,40.1999964780004],[29.324021775000062,40.19980200500021],[29.324603747000083,40.19973474700015],[29.327632082000093,40.197540689000334],[29.330341922000173,40.18882318600015],[29.332024727000032,40.18735739700014],[29.336632681000083,40.18585242000006],[29.34194757700004,40.187637155000346],[29.33779141400015,40.19065947100012],[29.337801326000033,40.19080713900007],[29.34679032400004,40.19124578900016],[29.35492415300007,40.19670645300005],[29.35288009600015,40.20022396200039],[29.35449151300014,40.201504203000184],[29.353792906000024,40.20579803300018],[29.354889688000128,40.20674872800009],[29.355646864999983,40.21107795400019],[29.355543315000148,40.21118331800017],[29.353783568000097,40.21136365799998],[29.353742604000104,40.21146726200021],[29.354064506999975,40.21207647199998],[29.353970217215817,40.212246222511624]]],"type":"Polygon"}},{"type":"Feature","properties":{"area_id":"TR-16-009-184183","name_tr":"Erdoğan","area_level":"neighbourhood","parent_id":"TR-16-009","endeksa_id":184183},"geometry":{"coordinates":[[[29.401852518000112,40.209373405000065],[29.396890875000167,40.20900842700007],[29.393008140000177,40.20653946600015],[29.391919881000092,40.20729515400069],[29.392291574000012,40.21062159100018],[29.392082084000094,40.21209605600001],[29.39161765600005,40.21229895700037],[29.39201091600006,40.212611849000325],[29.391190887000164,40.21840359800018],[29.38719838700007,40.22133213900014],[29.38261030700005,40.22795357900014],[29.379583009000044,40.22869932100002],[29.37602810400017,40.234354030000134],[29.374890105000077,40.23423682600003],[29.374693428000057,40.234033878000105],[29.374652489000084,40.234180467000215],[29.374388307690936,40.23428653146959],[29.374540000000138,40.23419000000041],[29.374670000000037,40.23360000000059],[29.373410000000092,40.23274000000049],[29.372480000000053,40.23172000000011],[29.371660000000247,40.23036000000042],[29.371370000000184,40.22964000000036],[29.37032000000022,40.2286500000003],[29.36955000000006,40.22818000000012],[29.369310000000098,40.22793000000041],[29.367470000000083,40.225450000000194],[29.366690000000062,40.225320000000465],[29.365560000000187,40.22468000000009],[29.36540000000008,40.22434000000038],[29.365480000000105,40.22376000000003],[29.36531000000008,40.22342000000032],[29.363750000000152,40.222350000000574],[29.36267000000015,40.2211800000004],[29.361350000000186,40.2202400000001],[29.360890000000154,40.21960000000041],[29.35991000000024,40.219220000000234],[29.35964000000007,40.21866000000011],[29.35914000000008,40.21809000000053],[29.358920000000182,40.2176800000002],[29.35864000000015,40.216670000000306],[29.35676000000018,40.21569000000022],[29.355350000000044,40.21444000000014],[29.353970217215817,40.212246222511624],[29.354064506999975,40.21207647199998],[29.353742604000104,40.21146726200021],[29.353783568000097,40.21136365799998],[29.355543315000148,40.21118331800017],[29.355646864999983,40.21107795400019],[29.354889688000128,40.20674872800009],[29.353792906000024,40.20579803300018],[29.35449151300014,40.201504203000184],[29.35288009600015,40.20022396200039],[29.35492415300007,40.19670645300005],[29.34679032400004,40.19124578900016],[29.337801326000033,40.19080713900007],[29.33779141400015,40.19065947100012],[29.34194757700004,40.187637155000346],[29.336632681000083,40.18585242000006],[29.33678244000015,40.18576937800026],[29.337107144000186,40.18477087499997],[29.33941091800017,40.18494556000013],[29.341195348000042,40.18435793700013],[29.341379884000048,40.18360883700046],[29.341756096000097,40.184165947000054],[29.343890611000006,40.181484826000315],[29.349943693000114,40.182283816000165],[29.350042155000096,40.182352051000066],[29.350924600000155,40.18471666000005],[29.352871595000067,40.18347608000005],[29.361065370000063,40.186723300000494],[29.365033600000118,40.18574358100017],[29.36398610100008,40.18511484100037],[29.365033172000096,40.18371015100013],[29.38143855400017,40.18029965900007],[29.394648640000185,40.179917611000405],[29.394548850000092,40.17977718600042],[29.394784326000035,40.179914201000656],[29.38863962500011,40.18399655800016],[29.38859875100013,40.18409497800013],[29.40043996600008,40.19704792199997],[29.400803502000144,40.20047943600002],[29.400922758999968,40.200563423000176],[29.401055969000026,40.200490294000076],[29.400862801000187,40.20106364100013],[29.401690874000053,40.209170380000046],[29.401733032000152,40.20931990100007],[29.401852518000112,40.209373405000065]]],"type":"Polygon"}},{"type":"Feature","properties":{"area_id":"TR-16-009-184211","name_tr":"Soğuksu","area_level":"neighbourhood","parent_id":"TR-16-009","endeksa_id":184211},"geometry":{"coordinates":[[[29.46073479851657,40.21769761399844],[29.460040000000106,40.21772000000033],[29.455630000000042,40.21743000000009],[29.454560000000185,40.217480000000364],[29.45386000000019,40.21759000000037],[29.453230000000076,40.21785000000057],[29.45180000000005,40.218720000000076],[29.451090000000136,40.21883000000014],[29.45055000000019,40.21874000000031],[29.449350000000038,40.218780000000095],[29.446140000000185,40.21918000000011],[29.444770000000176,40.21923000000038],[29.443570000000193,40.21966000000003],[29.44302000000016,40.219740000000115],[29.442340000000172,40.21969000000007],[29.44185000000016,40.219870000000185],[29.44027000000017,40.21898000000027],[29.439070000000186,40.21877000000012],[29.437840000000165,40.2183200000004],[29.437340000000177,40.218350000000044],[29.43739000000005,40.21923000000038],[29.436780000000056,40.220640000000344],[29.435980000000143,40.22073000000012],[29.435240000000192,40.22104000000019],[29.43466000000012,40.2207600000001],[29.43354000000022,40.22040000000038],[29.43296000000015,40.22033000000005],[29.431980000000067,40.22041000000013],[29.431090000000154,40.22028000000017],[29.43069000000014,40.22012000000012],[29.430220000000133,40.21978000000041],[29.429610000000082,40.22016000000042],[29.428330000000074,40.221330000000194],[29.428980000000195,40.22180000000054],[29.428780000000188,40.22239000000036],[29.429130000000157,40.22370000000018],[29.42884000000015,40.22411000000017],[29.428140000000155,40.22438000000017],[29.42636000000016,40.22435000000013],[29.425411382291145,40.224616278866506],[29.42680179300004,40.22185980100011],[29.418834432000097,40.2157833820001],[29.419188570000074,40.213324247000116],[29.41876751400008,40.21303416100045],[29.401852518000112,40.209373405000065],[29.401733032000152,40.20931990100007],[29.401690874000053,40.209170380000046],[29.400862801000187,40.20106364100013],[29.401055969000026,40.200490294000076],[29.401904187000184,40.1980691820001],[29.402005735000046,40.197999382000035],[29.405772541000147,40.19961875300032],[29.408864036000068,40.19824901900017],[29.413214929000105,40.1988467850004],[29.413272362000157,40.19876386600038],[29.413196138000046,40.19621740400004],[29.416147294000154,40.19538780100004],[29.415706106000073,40.193680788999984],[29.417416425000113,40.19369807500004],[29.418903258000114,40.191379860000666],[29.417093061000173,40.18608917299997],[29.407106374000136,40.17831232900028],[29.403234673000156,40.173086433000094],[29.403383148000103,40.172995024000045],[29.4065980850001,40.17347117400004],[29.406722334000165,40.17341614899999],[29.406699945000184,40.17330393700013],[29.407019951000166,40.173534595000206],[29.411377511000126,40.174176663000026],[29.41181824299997,40.174160700000584],[29.422270813000125,40.17746927500019],[29.422899745999985,40.18010791200061],[29.428796715000033,40.18507484300011],[29.42833842200008,40.18685211200017],[29.429022809000116,40.18778320000007],[29.435837202000187,40.190315385000076],[29.436135010000157,40.19205780000027],[29.445026980000137,40.19662861000063],[29.45936981100016,40.201402139000265],[29.46407111800005,40.20503013500024],[29.467554423000024,40.20779045600028],[29.464530756000045,40.215241567000305],[29.460656730000153,40.21768970000045],[29.46073479851657,40.21769761399844]]],"type":"Polygon"}},{"type":"Feature","properties":{"area_id":"TR-16-009-20000","name_tr":"Serme","area_level":"neighbourhood","parent_id":"TR-16-009","endeksa_id":20000},"geometry":{"coordinates":[[[29.254333846000065,40.21207388400012],[29.253363120000188,40.21326355100007],[29.255288570000175,40.21330536000005],[29.26261205000003,40.21465103000003],[29.260515720000114,40.216591190000145],[29.26160383000007,40.21731718100011],[29.261188993000133,40.21810021700003],[29.263504749000106,40.2188708300003],[29.265144985000063,40.221042184],[29.26785693000005,40.222299020000264],[29.266140497000038,40.22247358100009],[29.26623544100005,40.222637281999994],[29.268210700000168,40.22285564000049],[29.268352709999988,40.225649971000166],[29.265464502000157,40.22762777600013],[29.26458157899998,40.22982225900057],[29.264221253000017,40.231243546000485],[29.26430095000012,40.23130943100034],[29.26418894800014,40.23137097],[29.26375072899998,40.23309949900016],[29.260039124000116,40.23658805400038],[29.26001992400012,40.236688656000354],[29.258777848000022,40.23633156000011],[29.248677011000154,40.23142180900004],[29.248212701000114,40.23144437300016],[29.246049321000157,40.23340022200023],[29.243179232000102,40.23510774400029],[29.23843030800009,40.230975978000004],[29.23829312700002,40.23098339000012],[29.23922871400009,40.230039125000076],[29.241848353000023,40.22695359700003],[29.244635940000023,40.2141145100004],[29.239522868999984,40.21217054000067],[29.23971019564027,40.21208000000013],[29.240210000000104,40.21192000000019],[29.24440000000004,40.20979000000017],[29.244910000000118,40.209300000000155],[29.244910000000118,40.20911000000007],[29.24449000000004,40.20922000000007],[29.244550000000174,40.209090000000515],[29.245170000000144,40.2089500000003],[29.24565000000007,40.20872000000031],[29.245760000000132,40.208840000000066],[29.2458029803895,40.20876835334951],[29.246040410000035,40.208636502000104],[29.25280634000012,40.20996986100022],[29.254685195000093,40.210967231000495],[29.253428935000045,40.21207829400032],[29.254333846000065,40.21207388400012]]],"type":"Polygon"}},{"type":"Feature","properties":{"area_id":"TR-16-009-184185","name_tr":"Gölbaşı","area_level":"neighbourhood","parent_id":"TR-16-009","endeksa_id":184185},"geometry":{"coordinates":[[[29.374388307690936,40.23428653146959],[29.367240000000095,40.2371600000003],[29.358320000000106,40.23772000000042],[29.349460000000136,40.23704000000032],[29.346820000000037,40.23713000000009],[29.33964576630916,40.23948934173825],[29.33736000000016,40.23811000000018],[29.335760000000107,40.236560000000395],[29.33492000000024,40.23508000000015],[29.334910000000093,40.234580000000165],[29.334620000000086,40.23363000000023],[29.33436000000006,40.233090000000345],[29.3342100000001,40.23239000000012],[29.33433000000008,40.23181000000028],[29.334090000000117,40.23106000000007],[29.334040000000073,40.230580000000145],[29.332360000000165,40.22589000000005],[29.331230000000062,40.22217000000006],[29.33065000000005,40.22227000000038],[29.327930000000094,40.22415000000029],[29.327150000000188,40.22441000000049],[29.326530000000048,40.2244000000004],[29.32603000000006,40.22421000000031],[29.32578000000018,40.22401000000008],[29.325390000000027,40.22341000000017],[29.32497000000012,40.22240000000045],[29.324500000000114,40.22183000000018],[29.323470000000157,40.22148000000038],[29.322450000000174,40.22128000000015],[29.32166000000018,40.22125000000051],[29.320790000000102,40.22139000000004],[29.320680000000095,40.22128000000015],[29.320440000000133,40.221290000000295],[29.315840000000208,40.21242000000035],[29.31506000000013,40.20933000000048],[29.316190000000176,40.21020000000016],[29.31689000000017,40.21063000000004],[29.318980000000124,40.2124300000001],[29.319570000000056,40.212740000000395],[29.320070000000044,40.21286000000015],[29.320560000000114,40.212810000000104],[29.320830000000058,40.212900000000275],[29.32138000000009,40.21263000000067],[29.32231000000013,40.212340000000154],[29.32200000000006,40.21201000000053],[29.321640000000116,40.21183000000042],[29.32188000000008,40.21165000000008],[29.322100000000148,40.21112000000011],[29.321150000000046,40.210700000000145],[29.321220000000153,40.210270000000094],[29.32240000000013,40.21025000000003],[29.3224400000002,40.20975000000004],[29.322770000000162,40.20967000000019],[29.323070000000143,40.209640000000036],[29.323620000000176,40.209770000000105],[29.32355000000024,40.20953000000014],[29.322940000000187,40.209030000000155],[29.324030000000164,40.20744000000042],[29.324160000000063,40.20694000000026],[29.324130000000082,40.20675000000017],[29.32638368147991,40.20607926146488],[29.32900000000012,40.205370000000414],[29.329080000000204,40.20737000000031],[29.32727000000017,40.208500000000186],[29.329050000000166,40.20927000000012],[29.330280000000187,40.209390000000326],[29.331900000000076,40.20941000000016],[29.332610000000045,40.209620000000314],[29.33362000000011,40.20968000000033],[29.335150000000056,40.20936000000012],[29.33591000000007,40.20935000000003],[29.337290000000223,40.20956000000035],[29.338430000000187,40.209930000000384],[29.340420000000165,40.21018000000009],[29.341160000000116,40.21019000000058],[29.34266000000008,40.209920000000295],[29.34372000000019,40.20954000000012],[29.345410000000072,40.21010000000024],[29.346500000000162,40.21028000000024],[29.347480000000076,40.21063000000004],[29.347020000000043,40.210880000000145],[29.347550000000183,40.211750000000336],[29.348840000000166,40.21136000000007],[29.348940000000084,40.21180000000021],[29.348910000000103,40.21247000000022],[29.34917000000013,40.212900000000275],[29.3495700000002,40.212580000000116],[29.350170000000105,40.211840000000166],[29.350580000000093,40.21220000000062],[29.35155000000003,40.21126000000032],[29.352250000000254,40.21160000000003],[29.353120000000104,40.21186000000023],[29.353090000000122,40.21195000000017],[29.352840000000185,40.21202000000011],[29.353330000000085,40.213420000000156],[29.35394000000008,40.213420000000156],[29.35381000000018,40.212770000000205],[29.35385000000008,40.21245000000016],[29.353970217215817,40.212246222511624],[29.355350000000044,40.21444000000014],[29.35676000000018,40.21569000000022],[29.35864000000015,40.216670000000306],[29.358920000000182,40.2176800000002],[29.35914000000008,40.21809000000053],[29.35964000000007,40.21866000000011],[29.35991000000024,40.219220000000234],[29.360890000000154,40.21960000000041],[29.361350000000186,40.2202400000001],[29.36267000000015,40.2211800000004],[29.363750000000152,40.222350000000574],[29.36531000000008,40.22342000000032],[29.365480000000105,40.22376000000003],[29.36540000000008,40.22434000000038],[29.365560000000187,40.22468000000009],[29.366690000000062,40.225320000000465],[29.367470000000083,40.225450000000194],[29.369310000000098,40.22793000000041],[29.36955000000006,40.22818000000012],[29.37032000000022,40.2286500000003],[29.371370000000184,40.22964000000036],[29.371660000000247,40.23036000000042],[29.372480000000053,40.23172000000011],[29.373410000000092,40.23274000000049],[29.374670000000037,40.23360000000059],[29.374540000000138,40.23419000000041],[29.374388307690936,40.23428653146959]]],"type":"Polygon"}},{"type":"Feature","properties":{"area_id":"TR-16-009-184181","name_tr":"Dudaklı","area_level":"neighbourhood","parent_id":"TR-16-009","endeksa_id":184181},"geometry":{"coordinates":[[[29.339445786000056,40.239477368000166],[29.32995201600005,40.238935736000144],[29.32320235500015,40.242806625000014],[29.314203654000153,40.240007671000114],[29.303160796000043,40.23904969400013],[29.30613806399998,40.23358603600013],[29.293981763000033,40.209632282000086],[29.30208857400015,40.20887657899999],[29.30304595600012,40.207783999000185],[29.303861168000083,40.20639186400001],[29.30342972400007,40.20553695799998],[29.308002602999977,40.20386878900007],[29.310912980000182,40.204388216000154],[29.310860756000125,40.20431793000006],[29.31114581500003,40.2043694730001],[29.308200592000105,40.202575090000096],[29.31015552500014,40.201395134000165],[29.309736260000193,40.20004385000004],[29.315777531000094,40.19976557200016],[29.31617193300019,40.199618034000025],[29.316290473000038,40.19974377700004],[29.31653395100011,40.20039870200014],[29.324009205000095,40.199799471000176],[29.32090656600019,40.20222163600016],[29.321833522000134,40.20479566100005],[29.32638368147991,40.20607926146488],[29.324130000000082,40.20675000000017],[29.324160000000063,40.20694000000026],[29.324030000000164,40.20744000000042],[29.322940000000187,40.209030000000155],[29.32355000000024,40.20953000000014],[29.323620000000176,40.209770000000105],[29.323070000000143,40.209640000000036],[29.322770000000162,40.20967000000019],[29.3224400000002,40.20975000000004],[29.32240000000013,40.21025000000003],[29.321220000000153,40.210270000000094],[29.321150000000046,40.210700000000145],[29.322100000000148,40.21112000000011],[29.32188000000008,40.21165000000008],[29.321640000000116,40.21183000000042],[29.32200000000006,40.21201000000053],[29.32231000000013,40.212340000000154],[29.32138000000009,40.21263000000067],[29.320830000000058,40.212900000000275],[29.320560000000114,40.212810000000104],[29.320070000000044,40.21286000000015],[29.319570000000056,40.212740000000395],[29.318980000000124,40.2124300000001],[29.31689000000017,40.21063000000004],[29.316190000000176,40.21020000000016],[29.31506000000013,40.20933000000048],[29.315840000000208,40.21242000000035],[29.320440000000133,40.221290000000295],[29.320680000000095,40.22128000000015],[29.320790000000102,40.22139000000004],[29.32166000000018,40.22125000000051],[29.322450000000174,40.22128000000015],[29.323470000000157,40.22148000000038],[29.324500000000114,40.22183000000018],[29.32497000000012,40.22240000000045],[29.325390000000027,40.22341000000017],[29.32578000000018,40.22401000000008],[29.32603000000006,40.22421000000031],[29.326530000000048,40.2244000000004],[29.327150000000188,40.22441000000049],[29.327930000000094,40.22415000000029],[29.33065000000005,40.22227000000038],[29.331230000000062,40.22217000000006],[29.332360000000165,40.22589000000005],[29.334040000000073,40.230580000000145],[29.334090000000117,40.23106000000007],[29.33433000000008,40.23181000000028],[29.3342100000001,40.23239000000012],[29.33436000000006,40.233090000000345],[29.334620000000086,40.23363000000023],[29.334910000000093,40.234580000000165],[29.33492000000024,40.23508000000015],[29.335760000000107,40.236560000000395],[29.33736000000016,40.23811000000018],[29.33964576630916,40.23948934173825],[29.339445786000056,40.239477368000166]]],"type":"Polygon"}},{"type":"Feature","properties":{"area_id":"TR-16-009-99957","name_tr":"Barakfakih","area_level":"neighbourhood","parent_id":"TR-16-009","endeksa_id":99957},"geometry":{"coordinates":[[[29.275227447972156,40.250917260887036],[29.27472211000014,40.25118887900027],[29.27434688200003,40.251213104000044],[29.273303323000107,40.25079172200003],[29.27250471000019,40.25006843600005],[29.271710000000155,40.24882000000014],[29.271390000000167,40.24894000000012],[29.27062000000018,40.24828000000019],[29.270630000000153,40.24786000000029],[29.270160000000146,40.24750000000034],[29.268990000000144,40.2476700000002],[29.26565000000005,40.247350000000154],[29.265330000000176,40.24783000000008],[29.26510000000019,40.24783000000008],[29.26416000000023,40.248180000000445],[29.263070000000084,40.2483500000003],[29.263070000000084,40.24817000000036],[29.262760000000185,40.247870000000376],[29.26197000000019,40.24846000000019],[29.26104000000015,40.248700000000156],[29.260340000000156,40.24833000000007],[29.260580000000118,40.24810000000025],[29.259880000000123,40.24732000000034],[29.25965211182171,40.247457317235956],[29.259281443000077,40.247532793999994],[29.259177437000176,40.24743258300015],[29.25920754000009,40.24670052400006],[29.259910175000186,40.24201112600019],[29.260419052000145,40.2408226340001],[29.26102189300019,40.240083602000084],[29.261882627000148,40.23961427300003],[29.26143506300008,40.238902339000106],[29.261797404000106,40.23812019500008],[29.261048196000104,40.23801230000009],[29.260601642000154,40.23774457700006],[29.26001992400012,40.236688656000354],[29.260039124000116,40.23658805400038],[29.26375072899998,40.23309949900016],[29.26418894800014,40.23137097],[29.26430095000012,40.23130943100034],[29.264221253000017,40.231243546000485],[29.26458157899998,40.22982225900057],[29.265464502000157,40.22762777600013],[29.268352709999988,40.225649971000166],[29.268210700000168,40.22285564000049],[29.26623544100005,40.222637281999994],[29.266140497000038,40.22247358100009],[29.26785693000005,40.222299020000264],[29.265144985000063,40.221042184],[29.263504749000106,40.2188708300003],[29.261188993000133,40.21810021700003],[29.26160383000007,40.21731718100011],[29.260515720000114,40.216591190000145],[29.26261205000003,40.21465103000003],[29.255288570000175,40.21330536000005],[29.253363120000188,40.21326355100007],[29.254333846000065,40.21207388400012],[29.261308803000134,40.212039891000074],[29.267806636000103,40.21219496500015],[29.27087982200004,40.2117858040001],[29.289865638000094,40.21001598000004],[29.28965791500002,40.21430635400014],[29.289994222000075,40.21630692000008],[29.29080850000014,40.21931880000005],[29.289613509000105,40.22268387600013],[29.289518330000135,40.225253694000116],[29.28818583200018,40.2282994040001],[29.285620600000016,40.22982610000008],[29.283712445000162,40.232867969000154],[29.28542565700019,40.23591367900008],[29.28709850600012,40.23924317300009],[29.286163509999994,40.241868135000175],[29.282017673000098,40.244703394000055],[29.2782357640001,40.245996036000065],[29.275161410000067,40.25076988800015],[29.275227447972156,40.250917260887036]]],"type":"Polygon"}},{"type":"Feature","properties":{"area_id":"TR-16-009-184209","name_tr":"Seymen","area_level":"neighbourhood","parent_id":"TR-16-009","endeksa_id":184209},"geometry":{"coordinates":[[[29.425411382291145,40.224616278866506],[29.424770000000194,40.22512000000029],[29.42463000000015,40.225850000000264],[29.424050000000136,40.22732000000042],[29.42385000000013,40.227550000000235],[29.42081000000013,40.23045000000019],[29.419650000000047,40.23109000000039],[29.418080000000202,40.23174000000017],[29.420640000000105,40.2334800000001],[29.42051000000015,40.23367000000019],[29.420340000000124,40.233530000000485],[29.4181200000001,40.23696000000007],[29.401621004408355,40.25005920256115],[29.39900599500004,40.244840298000156],[29.38798287000003,40.24229575100003],[29.37761875900003,40.234628527000154],[29.37602810400017,40.234354030000134],[29.379583009000044,40.22869932100002],[29.38261030700005,40.22795357900014],[29.38719838700007,40.22133213900014],[29.391190887000164,40.21840359800018],[29.39201091600006,40.212611849000325],[29.39161765600005,40.21229895700037],[29.392082084000094,40.21209605600001],[29.392291574000012,40.21062159100018],[29.391919881000092,40.20729515400069],[29.393008140000177,40.20653946600015],[29.396890875000167,40.20900842700007],[29.401852518000112,40.209373405000065],[29.41876751400008,40.21303416100045],[29.419188570000074,40.213324247000116],[29.418834432000097,40.2157833820001],[29.42680179300004,40.22185980100011],[29.425411382291145,40.224616278866506]]],"type":"Polygon"}},{"type":"Feature","properties":{"area_id":"TR-16-009-184197","name_tr":"Narlıdere","area_level":"neighbourhood","parent_id":"TR-16-009","endeksa_id":184197},"geometry":{"coordinates":[[[29.28967976100006,40.26079902700013],[29.289523783000163,40.26084952900004],[29.283045630169624,40.259237393961996],[29.282971655000154,40.25909641500016],[29.28403105405914,40.25758285397325],[29.285340000000076,40.25666000000007],[29.28527000000014,40.256600000000105],[29.28557000000012,40.25650000000036],[29.281610000000228,40.255270000000166],[29.282390000000078,40.254680000000405],[29.28037000000012,40.25413000000037],[29.27922000000018,40.253110000000504],[29.277820000000133,40.25262000000032],[29.279300000000035,40.25257000000005],[29.27938000000006,40.25209000000012],[29.27752000000021,40.2511300000001],[29.276130000000137,40.25082000000003],[29.27540695914945,40.25108533677019],[29.27525588025071,40.25104179598554],[29.275227447972156,40.250917260887036],[29.275161410000067,40.25076988800015],[29.2782357640001,40.245996036000065],[29.282017673000098,40.244703394000055],[29.286163509999994,40.241868135000175],[29.28709850600012,40.23924317300009],[29.28542565700019,40.23591367900008],[29.283712445000162,40.232867969000154],[29.285620600000016,40.22982610000008],[29.28818583200018,40.2282994040001],[29.289518330000135,40.225253694000116],[29.289613509000105,40.22268387600013],[29.29080850000014,40.21931880000005],[29.289994222000075,40.21630692000008],[29.28965791500002,40.21430635400014],[29.289865638000094,40.21001598000004],[29.293981763000033,40.209632282000086],[29.30613806399998,40.23358603600013],[29.30322790800011,40.23892767200016],[29.30313639500008,40.23903175099997],[29.302799487000073,40.23908831500057],[29.297092039000177,40.24900234500018],[29.29623892300009,40.25225428300013],[29.297663610000143,40.25437975700049],[29.291211348000047,40.25766026800005],[29.291498783000122,40.25927689700018],[29.290009665000184,40.26029505600013],[29.28967976100006,40.26079902700013]]],"type":"Polygon"}},{"type":"Feature","properties":{"area_id":"TR-16-009-184191","name_tr":"Kayacık","area_level":"neighbourhood","parent_id":"TR-16-009","endeksa_id":184191},"geometry":{"coordinates":[[[29.341855402000135,40.25903309700004],[29.34124429200017,40.259059969000134],[29.34125279000017,40.258998960000326],[29.336088913000026,40.25827971700005],[29.331967956000028,40.259585586000185],[29.33134811000008,40.261021316000324],[29.332173727999987,40.261860531000025],[29.330862942000067,40.26218627000026],[29.330567146000135,40.26281938500017],[29.33444550200005,40.26705354000012],[29.332425474000047,40.26856930900004],[29.333419168000034,40.27188438100006],[29.330158778999987,40.27264820900035],[29.32974371300014,40.27539710500042],[29.33942634400006,40.281368122],[29.342993776000185,40.28162240400013],[29.34358838500009,40.285311836000176],[29.340601586000105,40.29115148200003],[29.336718583000106,40.29237587299997],[29.33394510500011,40.298922860000175],[29.32800428800016,40.29568559500012],[29.320694512000046,40.295036782000125],[29.31928829200001,40.29375631100015],[29.31914165600017,40.293739029000676],[29.319070198000134,40.293838241000174],[29.319001966000144,40.29348879200012],[29.31446631600005,40.28927228000049],[29.308891508999977,40.287945676000504],[29.30888016300014,40.287851643000124],[29.310224066000046,40.28553982700066],[29.307105108000087,40.28113810100007],[29.307947000000127,40.27967027400007],[29.295551094000132,40.26696716100014],[29.293099185000187,40.26637385500044],[29.29254892300014,40.26397343200051],[29.289675850000037,40.26092432000047],[29.28967976100006,40.26079902700013],[29.290009665000184,40.26029505600013],[29.291498783000122,40.25927689700018],[29.291211348000047,40.25766026800005],[29.297663610000143,40.25437975700049],[29.29623892300009,40.25225428300013],[29.297092039000177,40.24900234500018],[29.302799487000073,40.23908831500057],[29.30313639500008,40.23903175099997],[29.30322790800011,40.23892767200016],[29.303160796000043,40.23904969400013],[29.314203654000153,40.240007671000114],[29.32320235500015,40.242806625000014],[29.32995201600005,40.238935736000144],[29.339445786000056,40.239477368000166],[29.33944141900014,40.239538570000434],[29.33966209800019,40.23953947600069],[29.338611213000036,40.243435797000075],[29.344446901000026,40.25588777400014],[29.341840958000148,40.25893185700005],[29.341855402000135,40.25903309700004]]],"type":"Polygon"}},{"type":"Feature","properties":{"area_id":"TR-16-009-184187","name_tr":"Gölcük","area_level":"neighbourhood","parent_id":"TR-16-009","endeksa_id":184187},"geometry":{"coordinates":[[[29.379232819000038,40.30466160100025],[29.379155274000084,40.30476717500028],[29.37675884900011,40.30549432000049],[29.374330780000037,40.304545896000036],[29.362512897000045,40.30330742100011],[29.357570717000044,40.305253654000296],[29.35829472900008,40.30242770100051],[29.36011256000012,40.301888291000466],[29.36018915700015,40.30179129100026],[29.358463739,40.29986443299998],[29.359176161000164,40.298713458000236],[29.35647828800012,40.29575156400011],[29.356037406000098,40.289562419000106],[29.3605452110001,40.28659266300019],[29.360748548000174,40.28222438000034],[29.356326518000003,40.27918232000053],[29.357523923000088,40.27604332400051],[29.350459766000085,40.26638055000001],[29.350696804000165,40.26360254800005],[29.347421334000046,40.259994846000154],[29.34188365500006,40.25915673500015],[29.341840958000148,40.25893185700005],[29.344446901000026,40.25588777400014],[29.338611213000036,40.243435797000075],[29.33966209800019,40.23953947600069],[29.33944141900014,40.239538570000434],[29.339445786000056,40.239477368000166],[29.33964576630916,40.23948934173825],[29.346820000000037,40.23713000000009],[29.349460000000136,40.23704000000032],[29.358320000000106,40.23772000000042],[29.367240000000095,40.2371600000003],[29.374652489000084,40.234180467000215],[29.374693428000057,40.234033878000105],[29.374890105000077,40.23423682600003],[29.37602810400017,40.234354030000134],[29.37761875900003,40.234628527000154],[29.38798287000003,40.24229575100003],[29.39900599500004,40.244840298000156],[29.401621004408355,40.25005920256115],[29.40616000000017,40.252270000000635],[29.406440000000032,40.253130000000056],[29.406440000000032,40.25349000000017],[29.406330000000196,40.25381000000016],[29.40641000000005,40.25411000000014],[29.40666000000016,40.2544300000003],[29.407670000000053,40.25522000000029],[29.408290000000193,40.255340000000274],[29.409080000000188,40.255640000000255],[29.409620000000075,40.255680000000154],[29.410790000000077,40.257010000000605],[29.41269000000011,40.258060000000114],[29.41366000000005,40.260260000000244],[29.4140000000001,40.26213000000007],[29.413280000000043,40.269590000000164],[29.413460000000043,40.27010000000013],[29.413500000000113,40.27043000000026],[29.41344000000015,40.27057000000008],[29.413600000000088,40.27089000000012],[29.41323000000017,40.27122000000003],[29.41481000000016,40.27223000000015],[29.414470000000108,40.2724400000003],[29.414630000000216,40.27257000000054],[29.41483000000005,40.27243000000033],[29.41503000000006,40.272490000000346],[29.415490000000148,40.273060000000044],[29.416330000000187,40.27348000000052],[29.4170400000001,40.27396000000044],[29.41723000000019,40.27390000000008],[29.417700000000195,40.27432000000039],[29.417990000000202,40.27465000000018],[29.4181200000001,40.27509000000015],[29.418879491000155,40.27566720100003],[29.419618755000045,40.27905286500021],[29.415204836000157,40.28247165500011],[29.413354563000098,40.28877088700011],[29.41220857900015,40.29000775500015],[29.412254506000124,40.290145129000166],[29.412131067000132,40.29009090700009],[29.403879595000035,40.298992822000116],[29.39607876700012,40.30351613100015],[29.37915859200018,40.304274010000086],[29.379232819000038,40.30466160100025]]],"type":"Polygon"}},{"type":"Feature","properties":{"area_id":"TR-16-009-184199","name_tr":"Nüzhetiye","area_level":"neighbourhood","parent_id":"TR-16-009","endeksa_id":184199},"geometry":{"coordinates":[[[29.34978319800007,40.31425221400019],[29.349192708000032,40.31442196400002],[29.344485123000027,40.31878624000035],[29.340028240000095,40.32214897600005],[29.32972252900015,40.32719332000033],[29.324399631000063,40.33103087800009],[29.32426796800013,40.33105090300006],[29.32418351100017,40.33096820300011],[29.319070198000134,40.293838241000174],[29.31914165600017,40.293739029000676],[29.31928829200001,40.29375631100015],[29.320694512000046,40.295036782000125],[29.32800428800016,40.29568559500012],[29.33394510500011,40.298922860000175],[29.336718583000106,40.29237587299997],[29.340601586000105,40.29115148200003],[29.34358838500009,40.285311836000176],[29.342993776000185,40.28162240400013],[29.33942634400006,40.281368122],[29.32974371300014,40.27539710500042],[29.330158778999987,40.27264820900035],[29.333419168000034,40.27188438100006],[29.332425474000047,40.26856930900004],[29.33444550200005,40.26705354000012],[29.330567146000135,40.26281938500017],[29.330862942000067,40.26218627000026],[29.332173727999987,40.261860531000025],[29.33134811000008,40.261021316000324],[29.331967956000028,40.259585586000185],[29.336088913000026,40.25827971700005],[29.34125279000017,40.258998960000326],[29.34124429200017,40.259059969000134],[29.341855402000135,40.25903309700004],[29.34188365500006,40.25915673500015],[29.347421334000046,40.259994846000154],[29.350696804000165,40.26360254800005],[29.350459766000085,40.26638055000001],[29.357523923000088,40.27604332400051],[29.356326518000003,40.27918232000053],[29.360748548000174,40.28222438000034],[29.3605452110001,40.28659266300019],[29.356037406000098,40.289562419000106],[29.35647828800012,40.29575156400011],[29.359176161000164,40.298713458000236],[29.358463739,40.29986443299998],[29.36018915700015,40.30179129100026],[29.36011256000012,40.301888291000466],[29.35829472900008,40.30242770100051],[29.357570717000044,40.305253654000296],[29.357242279000047,40.30540591800013],[29.354779731000008,40.30953569800039],[29.355561100000102,40.31117794700015],[29.35287895400006,40.31187911800066],[29.350232766000147,40.31369045000025],[29.34978319800007,40.31425221400019]]],"type":"Polygon"}},{"type":"Feature","properties":{"area_id":"TR-16-009-184167","name_tr":"Ağlaşan","area_level":"neighbourhood","parent_id":"TR-16-009","endeksa_id":184167},"geometry":{"coordinates":[[[29.32418351100017,40.33096820300011],[29.324172071000078,40.33119438600045],[29.32301719200018,40.33196469500018],[29.31264461500001,40.32882359800004],[29.30256220100017,40.32261069000009],[29.303333811000073,40.32086769900053],[29.305961497000055,40.3173026900007],[29.306521171000156,40.31524879600005],[29.306452890000116,40.31444999700011],[29.30442876800015,40.31186897300012],[29.301740155000175,40.31089202700008],[29.299399695000147,40.310521786000265],[29.29862847300012,40.310213704000034],[29.29721963200018,40.30915386100014],[29.296129401000087,40.30880344800005],[29.29528992900009,40.30779440300029],[29.294634375000044,40.306023398000036],[29.294581807000156,40.30548029800008],[29.295045326000036,40.30456631900017],[29.295195892000038,40.30263766700011],[29.29455155000005,40.30076504300007],[29.29377454400003,40.299508706000665],[29.29239221300014,40.29895775600005],[29.29133288600019,40.29671167300006],[29.289304140000183,40.29549565000008],[29.282560848000173,40.292693235000115],[29.280705018000106,40.29120459900008],[29.276734161000093,40.28709990600015],[29.27503257400008,40.27961654900031],[29.27482636400009,40.27654795500007],[29.27539796100001,40.27325825800011],[29.27545985500018,40.27119711000046],[29.275940649000177,40.27080590900033],[29.277946022000094,40.270167795000134],[29.27842931700019,40.26873922900006],[29.28046693700003,40.267995955000174],[29.28196217700014,40.266082327000106],[29.28165772200009,40.26554328700013],[29.279641099999992,40.264393967000046],[29.27841731500007,40.26211558200009],[29.27921137799308,40.2612680203016],[29.280020000000093,40.260820000000365],[29.2802700000002,40.260380000000225],[29.280670000000043,40.26005000000009],[29.281120000000158,40.25991000000039],[29.281310000000076,40.25961000000029],[29.28154000000012,40.259770000000174],[29.281870000000197,40.25983000000019],[29.28254000000004,40.25969000000066],[29.282836406611864,40.25926517556974],[29.283045630169624,40.259237393961996],[29.289523783000163,40.26084952900004],[29.28967976100006,40.26079902700013],[29.289675850000037,40.26092432000047],[29.29254892300014,40.26397343200051],[29.293099185000187,40.26637385500044],[29.295551094000132,40.26696716100014],[29.307947000000127,40.27967027400007],[29.307105108000087,40.28113810100007],[29.310224066000046,40.28553982700066],[29.30888016300014,40.287851643000124],[29.308891508999977,40.287945676000504],[29.31446631600005,40.28927228000049],[29.319001966000144,40.29348879200012],[29.319070198000134,40.293838241000174],[29.32418351100017,40.33096820300011]]],"type":"Polygon"}}]}