{"type":"FeatureCollection","source_id":"endeksa","retrieved_at":"2026-08-23","features":[{"type":"Feature","properties":{"area_id":"TR-14-009-2007078","name_tr":"Yukarıkuldan Köyü","area_level":"neighbourhood","parent_id":"TR-14-009","endeksa_id":2007078},"geometry":{"coordinates":[[[32.02969550000023,40.76262550000007],[32.025457600000266,40.763324300000875],[32.02100510000025,40.76330000000064],[32.01711060000025,40.76206480000042],[32.010083200000224,40.76320240000024],[32.00830220000029,40.76487640000033],[32.00744390000034,40.7651202000003],[32.00690740000033,40.76578650000067],[32.00593473800035,40.766592243000105],[32.006626110000354,40.76421729400033],[32.008736478000344,40.763155092000375],[32.0088594300002,40.763220751000404],[32.010742350000214,40.761788411000225],[32.007384963000334,40.759370354000396],[32.007883630000265,40.7520027300003],[32.00747856000032,40.75161923500042],[32.00749248000028,40.750936351000405],[32.00605008000031,40.75026684300008],[32.00509056000027,40.74935843000014],[32.00643275000033,40.7487571410004],[32.0270084632665,40.747854932978726],[32.0271593052218,40.747722267976314],[32.027378188346574,40.74770917720804],[32.02779479666685,40.74788027807733],[32.02751919788733,40.74839884990746],[32.02749000000017,40.74844000000019],[32.026474180830235,40.748953351288264],[32.026260000000036,40.74905000000024],[32.02752000000038,40.74938000000037],[32.02869367595321,40.74922514480073],[32.03056800488616,40.74968772698594],[32.03231000000039,40.750710000000595],[32.033489762318425,40.75086336439824],[32.03602616267926,40.7516865090559],[32.037110000000325,40.75255000000078],[32.0379800000004,40.752750000000276],[32.03932699041576,40.752607587189345],[32.03976090151252,40.7527263353432],[32.03984379217911,40.75283551540144],[32.039308500000345,40.75353970100036],[32.03947717206154,40.75452952303698],[32.03927356932206,40.755076057857536],[32.03901732660279,40.755349786678835],[32.03862472180572,40.75553980438849],[32.037624100000244,40.75566900000024],[32.03714130000026,40.755929101000504],[32.03691600000025,40.75626230100022],[32.036905300000285,40.75670930000035],[32.03733593016307,40.75743972446401],[32.03759115873419,40.758634649442854],[32.0374394126527,40.75868540902127],[32.036235166641006,40.758522383199306],[32.034331164472974,40.75817637803061],[32.03362230000022,40.75760330000003],[32.033146457552675,40.758170570240054],[32.03297464278472,40.75817627446986],[32.032807162000324,40.758033724000484],[32.03269606100025,40.75819455500039],[32.03294616800025,40.75844074900084],[32.0310044000002,40.760845800000084],[32.02969550000023,40.76262550000007]]],"type":"Polygon"}},{"type":"Feature","properties":{"area_id":"TR-14-009-2007064","name_tr":"Aşağıkuldan Köyü","area_level":"neighbourhood","parent_id":"TR-14-009","endeksa_id":2007064},"geometry":{"coordinates":[[[32.00593473800035,40.766592243000105],[32.00228482400013,40.76962431900034],[32.00211240400006,40.76966828200034],[32.00154300000003,40.7705969000001],[32.00144237800009,40.77108296200015],[32.00124101700004,40.7710140730004],[31.99623361400006,40.76750980899999],[31.986457722000125,40.76894272400017],[31.98377999200011,40.768322838000074],[31.982893260000083,40.76838144000027],[31.972693620000086,40.76554944300034],[31.971832856000105,40.765386801000204],[31.971814864000066,40.76544958300025],[31.970652035,40.76518210200004],[31.970677126000055,40.76506928600031],[31.970225111000047,40.765004165000164],[31.97024701800018,40.764870127999984],[31.96632506000003,40.7637811710004],[31.968551470000023,40.763089626000294],[31.96711846000011,40.75827253000034],[31.969409290000158,40.747481570000105],[31.970096865000073,40.74694359],[31.969248517000096,40.7456668320001],[31.965496688000087,40.74980991600006],[31.961680224000133,40.75244580599997],[31.96150243600016,40.752438413000164],[31.961480719000065,40.75228431400012],[31.95863285700011,40.75455004700012],[31.95724229900003,40.75655056400018],[31.955503180000107,40.761487436000095],[31.955574124000123,40.76158220200011],[31.956406531277423,40.761887306256085],[31.951950000000068,40.76104000000038],[31.950550000000078,40.76041000000009],[31.950560000000166,40.76026000000047],[31.947620000000086,40.759600000000034],[31.946870000000047,40.75932000000017],[31.946340000000077,40.75908000000021],[31.945670000000064,40.7585600000005],[31.947150000000136,40.756500000000074],[31.94729000000018,40.755880000000445],[31.94745000000006,40.75583000000006],[31.947380000000123,40.75567000000012],[31.947680000000105,40.75558000000035],[31.947990000000175,40.75485000000049],[31.948100000000238,40.75349000000023],[31.948930000000132,40.75268000000017],[31.949480000000165,40.75193000000047],[31.949420000000202,40.751640000000634],[31.94962000000004,40.75103000000007],[31.95005000000009,40.750610000000165],[31.95079000000004,40.75066000000004],[31.951520000000187,40.750550000000146],[31.95281000000017,40.75078000000053],[31.95265000000012,40.75028000000037],[31.952750000000037,40.74942000000027],[31.95346000000012,40.74889000000047],[31.953840000000127,40.748190000000136],[31.953710000000058,40.74813000000012],[31.95374000000004,40.74782000000005],[31.95296000000019,40.74695000000054],[31.953000000000088,40.74676000000045],[31.95269000000019,40.74644000000029],[31.952490000000182,40.74610000000041],[31.952520000000163,40.74595000000022],[31.95219000000003,40.74579000000011],[31.952080000000194,40.745440000000144],[31.95215000000013,40.74458000000004],[31.96142000000009,40.7446800000003],[31.971680000000106,40.74498000000028],[31.973450000000184,40.74515000000014],[31.975170000000162,40.74520000000018],[31.97585000000015,40.74497000000014],[31.976765648672767,40.74035345954462],[31.983630182000127,40.74340594800003],[31.989367166000136,40.74489296500025],[31.993705543000033,40.74726297400014],[32.00088294000017,40.747868451000045],[32.0052471477905,40.749893959328574],[32.00545385418491,40.749864492825395],[32.0054561039197,40.74970450392095],[32.00605008000031,40.75026684300008],[32.00749248000028,40.750936351000405],[32.00747856000032,40.75161923500042],[32.007883630000265,40.7520027300003],[32.007384963000334,40.759370354000396],[32.010742350000214,40.761788411000225],[32.0088594300002,40.763220751000404],[32.008736478000344,40.763155092000375],[32.006626110000354,40.76421729400033],[32.00593473800035,40.766592243000105]]],"type":"Polygon"}},{"type":"Feature","properties":{"area_id":"TR-14-009-10939","name_tr":"Asil Bey","area_level":"neighbourhood","parent_id":"TR-14-009","endeksa_id":10939},"geometry":{"coordinates":[[[32.07010115700007,40.761372719000065],[32.070168334000186,40.761453031000144],[32.07014539100015,40.76200789900008],[32.06892697300003,40.76384897600042],[32.06590337000006,40.76332260000021],[32.064904259000116,40.761146512000096],[32.06083060000009,40.762617400000124],[32.06031560000014,40.763836300000435],[32.05960749999997,40.764323900000136],[32.05582020000014,40.76509580000004],[32.054243100000065,40.7657215000001],[32.05327750000009,40.76594900000009],[32.051314100000184,40.76681040000017],[32.04991940000008,40.76843550000012],[32.05034850000004,40.769646200000466],[32.05124969999997,40.76999560000024],[32.054597100000024,40.77062940000013],[32.05760120000008,40.772140600000114],[32.05892080000018,40.77761670000007],[32.05872770000019,40.77835600000009],[32.03097220000018,40.77164500000015],[32.03142280000014,40.77048310000043],[32.031583800000135,40.77052370000024],[32.032334800000115,40.7693780000003],[32.032324100000096,40.76879300000007],[32.03215240000014,40.768305500000054],[32.03209880000014,40.767720400000144],[32.032302600000094,40.76768790000011],[32.03331110000005,40.768305500000054],[32.033439900000076,40.768199900000525],[32.0331609000001,40.76746040000012],[32.03320380000008,40.76692410000015],[32.032882000000086,40.76658280000015],[32.03265670000013,40.7651608000001],[32.03061819999999,40.763576200000045],[32.02969550000023,40.76262550000007],[32.0310044000002,40.760845800000084],[32.03294616800025,40.75844074900084],[32.03269606100025,40.75819455500039],[32.032807162000324,40.758033724000484],[32.03297464278472,40.75817627446986],[32.033146457552675,40.758170570240054],[32.03362230000022,40.75760330000003],[32.034331164472974,40.75817637803061],[32.036235166641006,40.758522383199306],[32.0374394126527,40.75868540902127],[32.03759115873419,40.758634649442854],[32.03733593016307,40.75743972446401],[32.036905300000285,40.75670930000035],[32.03691600000025,40.75626230100022],[32.03714130000026,40.755929101000504],[32.037624100000244,40.75566900000024],[32.03862472180572,40.75553980438849],[32.03901732660279,40.755349786678835],[32.03927356932206,40.755076057857536],[32.03947717206154,40.75452952303698],[32.039308500000345,40.75353970100036],[32.03984379217911,40.75283551540144],[32.03976090151252,40.7527263353432],[32.03932699041576,40.752607587189345],[32.04008251830578,40.75249283340918],[32.042367112000306,40.752172574000326],[32.04634060677205,40.75324476124314],[32.055466900000226,40.75425030000042],[32.06422480000026,40.75554250000005],[32.0647175000002,40.75647630000003],[32.06362568899999,40.757638619000204],[32.06107933500016,40.75745017300005],[32.060952830000076,40.7575256990001],[32.06101735100003,40.757636352000134],[32.07010115700007,40.761372719000065]]],"type":"Polygon"}},{"type":"Feature","properties":{"area_id":"TR-14-009-10940","name_tr":"Camiatik","area_level":"neighbourhood","parent_id":"TR-14-009","endeksa_id":10940},"geometry":{"coordinates":[[[32.03097220000018,40.77164500000015],[32.02738880000015,40.77087310000019],[32.02496410000009,40.77073500000017],[32.022357,40.771165600000415],[32.0210373000001,40.771580000000085],[32.01910610000016,40.77240880000011],[32.01711060000008,40.77309940000055],[32.01581240000013,40.77336750000035],[32.013162400000056,40.77354630000008],[32.01177830000012,40.77340000000004],[32.01036210000018,40.77309940000055],[32.00984710000006,40.7739931000001],[32.009246300000086,40.774545600000124],[32.00759410000012,40.77569930000004],[32.00585600000005,40.779907800000046],[32.00068470000008,40.77696680000008],[32.000749100000064,40.77443190000031],[32.00154300000003,40.7705969000001],[32.00211240400006,40.76966828200034],[32.00228482400013,40.76962431900034],[32.00690740000033,40.76578650000067],[32.00744390000034,40.7651202000003],[32.00830220000029,40.76487640000033],[32.010083200000224,40.76320240000024],[32.01711060000025,40.76206480000042],[32.02100510000025,40.76330000000064],[32.025457600000266,40.763324300000875],[32.02969550000023,40.76262550000007],[32.03061819999999,40.763576200000045],[32.03265670000013,40.7651608000001],[32.032882000000086,40.76658280000015],[32.03320380000008,40.76692410000015],[32.0331609000001,40.76746040000012],[32.033439900000076,40.768199900000525],[32.03331110000005,40.768305500000054],[32.032302600000094,40.76768790000011],[32.03209880000014,40.767720400000144],[32.03215240000014,40.768305500000054],[32.032324100000096,40.76879300000007],[32.032334800000115,40.7693780000003],[32.031583800000135,40.77052370000024],[32.03142280000014,40.77048310000043],[32.03097220000018,40.77164500000015]]],"type":"Polygon"}},{"type":"Feature","properties":{"area_id":"TR-14-009-2007068","name_tr":"Doğancı Köyü","area_level":"neighbourhood","parent_id":"TR-14-009","endeksa_id":2007068},"geometry":{"coordinates":[[[32.06645693900015,40.781262459000175],[32.0655868230001,40.780913989000624],[32.06356600500004,40.781801755000174],[32.06443680000007,40.78371670100017],[32.06095746000011,40.78392789000014],[32.058265260000155,40.782875751000404],[32.05834467000011,40.78071598000014],[32.056082790000005,40.77929758000005],[32.05431830700013,40.77965007600005],[32.05398042292478,40.77970177963857],[32.053855954921744,40.77956017824255],[32.05398063676648,40.77943446380567],[32.05872770000019,40.77835600000009],[32.05892080000018,40.77761670000007],[32.05760120000008,40.772140600000114],[32.054597100000024,40.77062940000013],[32.05124969999997,40.76999560000024],[32.05034850000004,40.769646200000466],[32.04991940000008,40.76843550000012],[32.051314100000184,40.76681040000017],[32.05327750000009,40.76594900000009],[32.054243100000065,40.7657215000001],[32.05582020000014,40.76509580000004],[32.05960749999997,40.764323900000136],[32.06031560000014,40.763836300000435],[32.06083060000009,40.762617400000124],[32.064904259000116,40.761146512000096],[32.06590337000006,40.76332260000021],[32.06892697300003,40.76384897600042],[32.07014539100015,40.76200789900008],[32.070168334000186,40.761453031000144],[32.07010115700007,40.761372719000065],[32.07229771000016,40.76290694300019],[32.07242473000019,40.76307063100023],[32.07223465800007,40.76307837700034],[32.07209723000011,40.76337464000011],[32.07179974000019,40.76460439400057],[32.073723050000126,40.765172361000225],[32.073952720000136,40.76781947100022],[32.070098502000064,40.77163691700042],[32.070027362000076,40.77193099500005],[32.07061957000002,40.77408270100028],[32.068544750000115,40.7796145410004],[32.068123912000146,40.77979942000019],[32.067940429000146,40.78055789500047],[32.06645693900015,40.781262459000175]]],"type":"Polygon"}},{"type":"Feature","properties":{"area_id":"TR-14-009-10941","name_tr":"Gölyüzü","area_level":"neighbourhood","parent_id":"TR-14-009","endeksa_id":10941},"geometry":{"coordinates":[[[32.03061282300018,40.78889194900046],[32.03055054500004,40.78861764300012],[32.02671290000018,40.79001340000025],[32.01915980000018,40.78871370000036],[32.01637030000012,40.7865692000002],[32.01345200000003,40.78310860000022],[32.01169250000015,40.782150000000115],[32.00585600000005,40.779907800000046],[32.00759410000012,40.77569930000004],[32.009246300000086,40.774545600000124],[32.00984710000006,40.7739931000001],[32.01036210000018,40.77309940000055],[32.01177830000012,40.77340000000004],[32.013162400000056,40.77354630000008],[32.01581240000013,40.77336750000035],[32.01711060000008,40.77309940000055],[32.01910610000016,40.77240880000011],[32.0210373000001,40.771580000000085],[32.022357,40.771165600000415],[32.02496410000009,40.77073500000017],[32.02738880000015,40.77087310000019],[32.03097220000018,40.77164500000015],[32.05872770000019,40.77835600000009],[32.05398063676648,40.77943446380567],[32.053855954921744,40.77956017824255],[32.05398042292478,40.77970177963857],[32.05431830700013,40.77965007600005],[32.05375792800004,40.77978245700007],[32.05175400000013,40.78428650000069],[32.05116390000018,40.78479020000009],[32.050402200000065,40.78520450000008],[32.047119099999975,40.78449770000003],[32.03846100000004,40.785740600000054],[32.03110838900017,40.788414754000314],[32.03119258500004,40.788551411000526],[32.03066698800012,40.788758582000696],[32.03061282300018,40.78889194900046]]],"type":"Polygon"}},{"type":"Feature","properties":{"area_id":"TR-14-009-2007072","name_tr":"Kemaller Köyü","area_level":"neighbourhood","parent_id":"TR-14-009","endeksa_id":2007072},"geometry":{"coordinates":[[[31.953033003909752,40.793077919831774],[31.951511512000025,40.7936294400003],[31.95147421600018,40.79378794300004],[31.951310726000145,40.793682247000675],[31.933390453000015,40.79040812800008],[31.93230784600007,40.79002019000063],[31.932267518000117,40.789900956],[31.940799433000052,40.783830583],[31.94533793100004,40.77561949300025],[31.946483657000158,40.77247644400052],[31.946329090000063,40.77236226100007],[31.943098240000097,40.773089900000116],[31.942928432000087,40.76832368500004],[31.940444429846593,40.76615245656973],[31.940397747541283,40.766093479464246],[31.940373272483384,40.766076373241106],[31.94052963776909,40.766079008911106],[31.94183375602654,40.76524440770095],[31.942261126217318,40.76508190405485],[31.943993084167573,40.76495720871117],[31.944785877116715,40.764796013654404],[31.945106189191506,40.76497743381401],[31.94668000000013,40.7646400000005],[31.94710000000009,40.764430000000175],[31.947550000000206,40.76436000000007],[31.94974000000019,40.764740000000245],[31.95135000000016,40.765260000000126],[31.95157000000006,40.765240000000404],[31.952040000000068,40.76540000000017],[31.952510000000075,40.766010000000165],[31.953040000000044,40.765980000000525],[31.95488000000006,40.76376000000016],[31.954950000000167,40.76302000000004],[31.954830000000186,40.76269000000008],[31.954960000000085,40.76219000000032],[31.95677000000012,40.76196000000044],[31.956406531277423,40.761887306256085],[31.955574124000123,40.76158220200011],[31.955503180000107,40.761487436000095],[31.95724229900003,40.75655056400018],[31.95863285700011,40.75455004700012],[31.961480719000065,40.75228431400012],[31.96150243600016,40.752438413000164],[31.961680224000133,40.75244580599997],[31.965496688000087,40.74980991600006],[31.969248517000096,40.7456668320001],[31.970096865000073,40.74694359],[31.969409290000158,40.747481570000105],[31.96711846000011,40.75827253000034],[31.968551470000023,40.763089626000294],[31.96632506000003,40.7637811710004],[31.97024701800018,40.764870127999984],[31.970225111000047,40.765004165000164],[31.970677126000055,40.76506928600031],[31.970637577000048,40.76524710700005],[31.970203674000118,40.765078967000136],[31.97017776600012,40.765195455000026],[31.970102961000066,40.76517881800049],[31.96847589800018,40.766849137000406],[31.97810207300006,40.77259620500007],[31.97537245150022,40.77815184350021],[31.983394210000142,40.78179511200011],[31.982097370000133,40.78934992100051],[31.981336443000146,40.78916373900006],[31.981455962000155,40.789265155000066],[31.981421766787832,40.78939948763326],[31.980300000000113,40.789210000000196],[31.979740000000106,40.78901000000036],[31.97911000000005,40.78942000000018],[31.974900000000048,40.787130000000275],[31.97285000000005,40.78646000000026],[31.967930000000138,40.78601000000015],[31.966180000000122,40.78545000000014],[31.96322000000015,40.78588000000019],[31.962450000000047,40.785890000000165],[31.962080000000185,40.78603000000038],[31.95792000000006,40.78616000000045],[31.953033003909752,40.793077919831774]]],"type":"Polygon"}},{"type":"Feature","properties":{"area_id":"TR-14-009-2007066","name_tr":"Akıncılar Köyü","area_level":"neighbourhood","parent_id":"TR-14-009","endeksa_id":2007066},"geometry":{"coordinates":[[[32.07452636700009,40.789320150000265],[32.0747833800001,40.79103158000015],[32.07258405100015,40.79267027400016],[32.071566380000036,40.79192846100034],[32.07152555400006,40.792029113000126],[32.07100374000004,40.791702069999985],[32.07082595300017,40.79375389100005],[32.070588353000005,40.79433966400012],[32.069482500000106,40.794519010000045],[32.06599524200004,40.79388813300011],[32.06524007000007,40.79316034000021],[32.063438317000134,40.79342556100022],[32.062636619000045,40.79328052600039],[32.06262716000009,40.79159088000006],[32.05918327000006,40.79355014000049],[32.056015190000096,40.792470191000575],[32.051142209999966,40.79375857100024],[32.05183798000019,40.79074383000011],[32.04724337000016,40.79008952000015],[32.042821600000025,40.791768919000106],[32.04001154000008,40.78859273000012],[32.03778603000012,40.78827639000008],[32.034198810000134,40.78806004000012],[32.032846007000046,40.79123507100019],[32.03110838900017,40.788414754000314],[32.03846100000004,40.785740600000054],[32.047119099999975,40.78449770000003],[32.050402200000065,40.78520450000008],[32.05116390000018,40.78479020000009],[32.05175400000013,40.78428650000069],[32.05375792800004,40.77978245700007],[32.05431830700013,40.77965007600005],[32.056082790000005,40.77929758000005],[32.05834467000011,40.78071598000014],[32.058265260000155,40.782875751000404],[32.06095746000011,40.78392789000014],[32.06443680000007,40.78371670100017],[32.06356600500004,40.781801755000174],[32.0655868230001,40.780913989000624],[32.06645693900015,40.781262459000175],[32.07112224500014,40.78319381799997],[32.07005896999999,40.78412344999998],[32.07104865000019,40.78539971000009],[32.076674650000086,40.786633119999976],[32.074327100000005,40.78764346000008],[32.07452636700009,40.789320150000265]]],"type":"Polygon"}},{"type":"Feature","properties":{"area_id":"TR-14-009-2007076","name_tr":"Şahnalar Köyü","area_level":"neighbourhood","parent_id":"TR-14-009","endeksa_id":2007076},"geometry":{"coordinates":[[[32.08595126800009,40.79466197400029],[32.08582633500015,40.79483177400016],[32.08563090000007,40.794517160000055],[32.085546978000025,40.794710539000164],[32.0848694660001,40.7944165130005],[32.07452636700009,40.789320150000265],[32.074327100000005,40.78764346000008],[32.076674650000086,40.786633119999976],[32.07104865000019,40.78539971000009],[32.07005896999999,40.78412344999998],[32.07112224500014,40.78319381799997],[32.06645693900015,40.781262459000175],[32.067940429000146,40.78055789500047],[32.068123912000146,40.77979942000019],[32.068544750000115,40.7796145410004],[32.07061957000002,40.77408270100028],[32.070027362000076,40.77193099500005],[32.070098502000064,40.77163691700042],[32.073952720000136,40.76781947100022],[32.073723050000126,40.765172361000225],[32.07179974000019,40.76460439400057],[32.07209723000011,40.76337464000011],[32.07223465800007,40.76307837700034],[32.07242473000019,40.76307063100023],[32.076667039000085,40.766162126000495],[32.08672679600011,40.766674781000006],[32.086820636000084,40.7667698570001],[32.08677319200007,40.76831434800005],[32.088299211000106,40.768731547000186],[32.088603985000134,40.768635755000105],[32.08834071400008,40.76874292000019],[32.09182765000014,40.76965461000009],[32.091151220000086,40.770943380000176],[32.098929770000154,40.77484050000004],[32.09813853456774,40.77525243523206],[32.09835169027326,40.77521632355524],[32.09853495356208,40.77529675826281],[32.09860027516282,40.775455771917336],[32.098507500177845,40.77560290527384],[32.09664812300008,40.7769370960001],[32.09654340100013,40.77722883600012],[32.09824846200007,40.77854397700014],[32.09891192000009,40.77880912000046],[32.09842970000017,40.780070660000035],[32.09643546000018,40.782636900000625],[32.09278856200007,40.7832220410001],[32.09268893800015,40.78330350500045],[32.09276277600003,40.78340837900009],[32.09650048000003,40.784550550000176],[32.09664495800007,40.787484567000035],[32.098372770000026,40.788333180000166],[32.09499598100018,40.78864992400008],[32.091311505000135,40.78928680200016],[32.09125398700019,40.78939911700013],[32.09167824000019,40.79028871000014],[32.08940255600004,40.79046580800019],[32.08925626600018,40.79133033200014],[32.08916438600005,40.791408205000096],[32.08606558100007,40.79070828300013],[32.08612904000006,40.792143550000105],[32.085044776000075,40.792276346999984],[32.08437646300007,40.793323477000115],[32.0857601240001,40.794341528000245],[32.08569313400005,40.79443257600013],[32.086026095000136,40.79456027500049],[32.08595126800009,40.79466197400029]]],"type":"Polygon"}},{"type":"Feature","properties":{"area_id":"TR-14-009-2007075","name_tr":"Sarayköy Köyü","area_level":"neighbourhood","parent_id":"TR-14-009","endeksa_id":2007075},"geometry":{"coordinates":[[[32.07902683757192,40.80331351776704],[32.0781300000001,40.80316000000016],[32.07803000000018,40.80363000000068],[32.07808000000023,40.803890000000195],[32.07764000000003,40.804330000000334],[32.077220000000125,40.80421000000035],[32.07739000000015,40.80444000000023],[32.077260000000194,40.80459000000053],[32.07613000000015,40.80505000000022],[32.075360000000046,40.805130000000304],[32.074930000000165,40.80550000000051],[32.07517000000013,40.80611000000016],[32.07426000000015,40.80592000000007],[32.073870000000056,40.8055700000001],[32.07305000000025,40.80583000000013],[32.07265000000018,40.80586000000045],[32.07185000000004,40.80567000000036],[32.07175000000012,40.80577000000011],[32.07198000000017,40.80630000000008],[32.072260000000256,40.80669000000023],[32.07207000000017,40.80675000000019],[32.072270000000174,40.807140000000345],[32.071330000000216,40.8070800000005],[32.07043000000016,40.80685000000011],[32.0707000000001,40.806340000000375],[32.07003000000009,40.8061800000001],[32.069670000000144,40.805810000000065],[32.06952000000018,40.80576000000019],[32.06906000000015,40.80579000000034],[32.068520000000035,40.80567000000036],[32.06822000000011,40.805780000000254],[32.066810000000146,40.8058700000002],[32.06614000000013,40.80573000000038],[32.06595000000004,40.805630000000065],[32.06590000000017,40.80519000000044],[32.065550000000144,40.805130000000304],[32.06513000000024,40.80478000000062],[32.064930000000174,40.80421000000035],[32.06419000000005,40.80400000000003],[32.06333000000012,40.80397000000039],[32.061760000000106,40.80492000000015],[32.06016000000005,40.80519000000044],[32.05939000000012,40.80521000000067],[32.058300000000145,40.80573000000038],[32.058290000000056,40.80511000000024],[32.05744000000004,40.80514000000005],[32.05747000000025,40.804850000000044],[32.05716000000018,40.80468000000019],[32.05670000000009,40.80456000000021],[32.05570000000017,40.80456000000021],[32.05506293989981,40.80439274499179],[32.05664972200003,40.80363847100023],[32.05765791000016,40.794282529999975],[32.06263809000012,40.7935433560001],[32.062636619000045,40.79328052600039],[32.063438317000134,40.79342556100022],[32.06524007000007,40.79316034000021],[32.06599524200004,40.79388813300011],[32.069482500000106,40.794519010000045],[32.070588353000005,40.79433966400012],[32.07082595300017,40.79375389100005],[32.07100374000004,40.791702069999985],[32.07152555400006,40.792029113000126],[32.071566380000036,40.79192846100034],[32.07258405100015,40.79267027400016],[32.0747833800001,40.79103158000015],[32.07452636700009,40.789320150000265],[32.0848694660001,40.7944165130005],[32.085546978000025,40.794710539000164],[32.08563090000007,40.794517160000055],[32.08582633500015,40.79483177400016],[32.08595126800009,40.79466197400029],[32.08604074900012,40.794702422000114],[32.08600321600011,40.79478890900003],[32.08640748700009,40.79508398100012],[32.08679707099998,40.79525643400012],[32.08682121100003,40.79537560100027],[32.08554136500004,40.79536838600012],[32.08493088800003,40.79697548900049],[32.086936660000106,40.7992362870005],[32.086932673000035,40.7993490500005],[32.079555955000046,40.80199452700009],[32.07925579621809,40.80324532181396],[32.07902683757192,40.80331351776704]]],"type":"Polygon"}},{"type":"Feature","properties":{"area_id":"TR-14-009-2007074","name_tr":"Ören Köyü","area_level":"neighbourhood","parent_id":"TR-14-009","endeksa_id":2007074},"geometry":{"coordinates":[[[31.98932000000019,40.80672000000004],[31.988900000000058,40.806560000000104],[31.9878700000001,40.807140000000345],[31.987320000000068,40.80732000000046],[31.98716000000013,40.80688000000032],[31.985720000000185,40.80766000000017],[31.985900000000186,40.8078600000004],[31.986580000000117,40.808260000000075],[31.984970000000146,40.809380000000374],[31.984790000000146,40.809370000000285],[31.98443000000003,40.80917000000005],[31.983520000000055,40.80967000000021],[31.98323000000005,40.81005000000039],[31.983270000000175,40.81020000000018],[31.98369000000008,40.81038000000069],[31.982770000000187,40.811790000000144],[31.982130000000154,40.811570000000415],[31.981380000000115,40.81144000000029],[31.981580000000122,40.81078000000042],[31.98121000000009,40.81042000000008],[31.981450000000052,40.80971000000068],[31.980040000000088,40.80895000000032],[31.979860000000087,40.80898000000013],[31.97836000000018,40.80830000000054],[31.97901000000013,40.80750000000006],[31.977020000000152,40.807270000000585],[31.97737000000012,40.80597000000034],[31.975900000000195,40.80550000000051],[31.975470000000144,40.80571000000015],[31.974840000000086,40.805750000000046],[31.974530000000186,40.80595000000011],[31.97393000000011,40.80615000000029],[31.97300000000007,40.80631000000005],[31.972590000000253,40.80589000000009],[31.973330000000203,40.80486000000013],[31.973410000000058,40.804580000000044],[31.97436000000016,40.80403000000041],[31.97480000000013,40.80344000000059],[31.97585000000015,40.80291000000011],[31.97554000000008,40.802220000000545],[31.975260000000162,40.80203000000046],[31.975340000000244,40.80162000000064],[31.97610000000003,40.80123000000037],[31.976990000000114,40.80093000000039],[31.976610000000164,40.80048000000011],[31.976230000000157,40.80048000000011],[31.97579000000013,40.80066000000011],[31.975400000000036,40.80066000000011],[31.974950000000092,40.800540000000126],[31.974860000000092,40.80031000000025],[31.97365000000019,40.7997900000002],[31.973050000000114,40.79942000000051],[31.972640000000126,40.79986000000014],[31.972270000000037,40.799710000000346],[31.972250000000145,40.79955000000007],[31.971350000000143,40.79938000000004],[31.97133000000008,40.79891000000026],[31.97068000000013,40.79898000000037],[31.970160000000078,40.799190000000124],[31.969740000000172,40.7992000000001],[31.969710000000134,40.799680000000194],[31.97018000000014,40.79992000000016],[31.96985000000018,40.800580000000025],[31.968580000000088,40.80028000000061],[31.968090000000245,40.801320000000146],[31.967720000000156,40.80110000000025],[31.966960000000142,40.800980000000266],[31.967130000000225,40.79985000000056],[31.96582000000018,40.80001000000033],[31.96573000000018,40.800330000000486],[31.963610000000074,40.802900000000136],[31.963100000000168,40.80302000000012],[31.962520000000154,40.80199000000016],[31.961960000000204,40.801510000000064],[31.9610100000001,40.80216000000041],[31.96039000000013,40.802310000000205],[31.96008000000006,40.80167000000051],[31.95878000000016,40.80174000000011],[31.958420000000217,40.80131000000006],[31.958240000000046,40.80088000000052],[31.958110000000147,40.79996000000028],[31.957590000000096,40.79998000000012],[31.957380000000114,40.80013000000031],[31.956380000000138,40.80015000000037],[31.9556300000001,40.79980000000069],[31.95504000000011,40.80059000000017],[31.953820000000064,40.80022000000008],[31.952740000000063,40.800050000000056],[31.952330000000075,40.79985000000056],[31.95228000000003,40.79416000000015],[31.953033003909752,40.793077919831774],[31.95792000000006,40.78616000000045],[31.962080000000185,40.78603000000038],[31.962450000000047,40.785890000000165],[31.96322000000015,40.78588000000019],[31.966180000000122,40.78545000000014],[31.967930000000138,40.78601000000015],[31.97285000000005,40.78646000000026],[31.974900000000048,40.787130000000275],[31.97911000000005,40.78942000000018],[31.979740000000106,40.78901000000036],[31.980300000000113,40.789210000000196],[31.981780000000185,40.789460000000645],[31.982020000000148,40.78938000000028],[31.981670000000122,40.789520000000095],[31.981690000000185,40.789580000000115],[31.981230000000153,40.78985000000023],[31.98180000000019,40.79025000000013],[31.981620000000078,40.79055000000005],[31.982530000000054,40.79108000000042],[31.98248000000018,40.79143000000022],[31.981790000000103,40.791440000000364],[31.982220000000154,40.792650000000265],[31.98180000000019,40.792870000000164],[31.98168000000004,40.79303000000044],[31.982180000000028,40.7938000000002],[31.982130000000154,40.794220000000166],[31.98196000000013,40.794630000000666],[31.981760000000122,40.7948100000001],[31.983420000000137,40.797360000000594],[31.9835300000002,40.79774000000009],[31.983740000000125,40.79784000000052],[31.983890000000144,40.79891000000026],[31.983730000000037,40.80007000000029],[31.984450000000095,40.80078000000009],[31.98450000000014,40.80124000000046],[31.984700000000203,40.80158000000017],[31.986000000000104,40.80138000000068],[31.98660000000018,40.8011800000001],[31.986740000000054,40.8015300000003],[31.987110000000087,40.80188000000015],[31.98753000000005,40.80277000000058],[31.987720000000138,40.803000000000054],[31.987110000000087,40.80313000000052],[31.9864800000002,40.80345000000017],[31.986970000000042,40.80421000000035],[31.987910000000227,40.80447000000055],[31.99028000000021,40.805990000000406],[31.98997000000014,40.806400000000394],[31.989430000000027,40.80639000000025],[31.98932000000019,40.80672000000004]]],"type":"Polygon"}},{"type":"Feature","properties":{"area_id":"TR-14-009-2007071","name_tr":"Hamzabey Köyü","area_level":"neighbourhood","parent_id":"TR-14-009","endeksa_id":2007071},"geometry":{"coordinates":[[[32.00751276272564,40.80808357554724],[32.00755000000004,40.80766000000017],[32.006290000000035,40.80770000000064],[32.00544000000008,40.807950000000176],[32.00391000000013,40.808570000000145],[32.00218000000018,40.808760000000234],[32.00212000000016,40.81041000000033],[32.00132000000008,40.81041000000033],[32.0011100000001,40.81035000000037],[32.00110000000018,40.81020000000018],[32.00061000000011,40.810120000000495],[31.999970000000076,40.810770000000275],[32.00011000000012,40.81091000000049],[31.999420000000043,40.81156000000027],[31.998700000000156,40.81271000000021],[31.998050000000035,40.81268000000057],[31.998010000000136,40.81317000000007],[31.99810000000008,40.813840000000084],[31.997400000000084,40.81400000000036],[31.99723000000006,40.81322000000034],[31.997120000000166,40.81320000000028],[31.995530000000088,40.81370000000027],[31.995010000000036,40.81370000000027],[31.99525000000017,40.8130800000003],[31.99437000000023,40.81236000000041],[31.99450000000013,40.812130000000536],[31.995140000000163,40.81163000000038],[31.99564000000015,40.811080000000345],[31.99478000000022,40.81038000000069],[31.99502000000018,40.810120000000495],[31.994640000000174,40.80985000000021],[31.99509000000012,40.80946000000006],[31.99534000000017,40.80942000000016],[31.994260000000168,40.808360000000164],[31.99367000000018,40.80861000000061],[31.993080000000248,40.80901000000034],[31.99255000000005,40.808320000000094],[31.99320000000023,40.807800000000384],[31.99264000000005,40.80742000000021],[31.991920000000164,40.8082100000002],[31.990520000000174,40.80745000000019],[31.990180000000066,40.807390000000055],[31.989720000000034,40.8070000000003],[31.989290000000153,40.80683000000005],[31.989430000000027,40.80639000000025],[31.98997000000014,40.806400000000394],[31.99028000000021,40.805990000000406],[31.987910000000227,40.80447000000055],[31.986970000000042,40.80421000000035],[31.9864800000002,40.80345000000017],[31.987110000000087,40.80313000000052],[31.987720000000138,40.803000000000054],[31.98753000000005,40.80277000000058],[31.987110000000087,40.80188000000015],[31.986740000000054,40.8015300000003],[31.98660000000018,40.8011800000001],[31.986000000000104,40.80138000000068],[31.984700000000203,40.80158000000017],[31.98450000000014,40.80124000000046],[31.984450000000095,40.80078000000009],[31.983730000000037,40.80007000000029],[31.983890000000144,40.79891000000026],[31.983740000000125,40.79784000000052],[31.9835300000002,40.79774000000009],[31.983420000000137,40.797360000000594],[31.981760000000122,40.7948100000001],[31.98196000000013,40.794630000000666],[31.982130000000154,40.794220000000166],[31.982180000000028,40.7938000000002],[31.98168000000004,40.79303000000044],[31.98180000000019,40.792870000000164],[31.982220000000154,40.792650000000265],[31.981790000000103,40.791440000000364],[31.98248000000018,40.79143000000022],[31.982530000000054,40.79108000000042],[31.981620000000078,40.79055000000005],[31.98180000000019,40.79025000000013],[31.981230000000153,40.78985000000023],[31.981690000000185,40.789580000000115],[31.981670000000122,40.789520000000095],[31.982020000000148,40.78938000000028],[31.981780000000185,40.789460000000645],[31.981421766787832,40.78939948763326],[31.981455962000155,40.789265155000066],[31.981336443000146,40.78916373900006],[31.982097370000133,40.78934992100051],[31.983394210000142,40.78179511200011],[31.97537245150022,40.77815184350021],[31.97810207300006,40.77259620500007],[31.96847589800018,40.766849137000406],[31.970102961000066,40.76517881800049],[31.97017776600012,40.765195455000026],[31.970203674000118,40.765078967000136],[31.970637577000048,40.76524710700005],[31.970652035,40.76518210200004],[31.971814864000066,40.76544958300025],[31.971832856000105,40.765386801000204],[31.972693620000086,40.76554944300034],[31.982893260000083,40.76838144000027],[31.98377999200011,40.768322838000074],[31.986457722000125,40.76894272400017],[31.99623361400006,40.76750980899999],[32.00124101700004,40.7710140730004],[32.00144237800009,40.77108296200015],[32.000749100000064,40.77443190000031],[32.00068470000008,40.77696680000008],[32.00585600000005,40.779907800000046],[32.01169250000015,40.782150000000115],[32.01345200000003,40.78310860000022],[32.01637030000012,40.7865692000002],[32.01915980000018,40.78871370000036],[32.02309548900013,40.78939093400044],[32.02136948900011,40.79396947900028],[32.017330609000055,40.794610301000034],[32.017191581000134,40.79677709900005],[32.01770485600002,40.79688505600001],[32.01818527400019,40.799370739000096],[32.01185721200011,40.801034155000025],[32.01179928300019,40.80111744499999],[32.01188174000015,40.802722096000025],[32.00977440100013,40.80378754700013],[32.010517320000076,40.807728129000566],[32.00751276272564,40.80808357554724]]],"type":"Polygon"}},{"type":"Feature","properties":{"area_id":"TR-14-009-2007063","name_tr":"Adaköy Köyü","area_level":"neighbourhood","parent_id":"TR-14-009","endeksa_id":2007063},"geometry":{"coordinates":[[[32.05506293989981,40.80439274499179],[32.054790000000196,40.8043100000001],[32.05435000000017,40.804420000000164],[32.05419000000012,40.80483000000049],[32.05423000000019,40.80552000000006],[32.05474000000015,40.80576000000019],[32.05522000000025,40.80574000000047],[32.05562000000009,40.80584000000022],[32.0559100000001,40.80633000000029],[32.05589000000009,40.806860000000086],[32.05633000000006,40.80729000000014],[32.056500000000085,40.80765000000008],[32.05644000000012,40.80840000000029],[32.056160000000034,40.80884000000009],[32.0559100000001,40.809590000000185],[32.0559100000001,40.810150000000135],[32.055790000000115,40.81016000000028],[32.05568000000011,40.810340000000224],[32.05580000000009,40.81136000000009],[32.056160000000034,40.81163000000038],[32.056990000000155,40.811920000000214],[32.0568600000002,40.81212000000028],[32.057340000000124,40.81248000000039],[32.05691000000007,40.813100000000134],[32.05617000000012,40.81338000000022],[32.0559100000001,40.81366000000014],[32.0557800000002,40.81387000000029],[32.05571000000009,40.814740000000484],[32.0553000000001,40.814890000000105],[32.05488000000014,40.814860000000465],[32.05433000000011,40.81435000000022],[32.054080000000056,40.81398000000013],[32.05357000000015,40.813780000000634],[32.0530500000001,40.813810000000274],[32.05224000000004,40.81419000000045],[32.05130000000008,40.81401000000011],[32.0506206117758,40.81403093998125],[32.04964659895802,40.813806920307],[32.049146640673484,40.813525968673105],[32.048160000000166,40.81259000000023],[32.04596916054629,40.81321317211183],[32.0457699823026,40.81342116742826],[32.04410300698697,40.81338251370289],[32.04396675451312,40.81349643015852],[32.04382487242788,40.81338443899591],[32.03777030000009,40.81449478200011],[32.03393580000005,40.807429350999996],[32.03388052300005,40.806748954000284],[32.0334307550001,40.79299112899997],[32.03061282300018,40.78889194900046],[32.03066698800012,40.788758582000696],[32.03119258500004,40.788551411000526],[32.032846007000046,40.79123507100019],[32.034198810000134,40.78806004000012],[32.03778603000012,40.78827639000008],[32.04001154000008,40.78859273000012],[32.042821600000025,40.791768919000106],[32.04724337000016,40.79008952000015],[32.05183798000019,40.79074383000011],[32.051142209999966,40.79375857100024],[32.056015190000096,40.792470191000575],[32.05918327000006,40.79355014000049],[32.06262716000009,40.79159088000006],[32.06263809000012,40.7935433560001],[32.05765791000016,40.794282529999975],[32.05664972200003,40.80363847100023],[32.05506293989981,40.80439274499179]]],"type":"Polygon"}},{"type":"Feature","properties":{"area_id":"TR-14-009-2007070","name_tr":"Gölbaşı Köyü","area_level":"neighbourhood","parent_id":"TR-14-009","endeksa_id":2007070},"geometry":{"coordinates":[[[32.03388052300005,40.806748954000284],[32.03377123300004,40.80685596100017],[32.0277454030001,40.80770504999998],[32.02774548200017,40.80783246200008],[32.03186481400013,40.81148347600015],[32.03187341600011,40.81160224900066],[32.02807417600019,40.81326422900014],[32.02827434000005,40.81495391300018],[32.028216859,40.81504424300016],[32.02581935800015,40.81466316799998],[32.02363073900017,40.81755220000014],[32.02208655600003,40.817413014000124],[32.02024049800008,40.817511878000175],[32.02007545500015,40.8187650860001],[32.02035059000008,40.81882311700019],[32.02037188600008,40.81895757300015],[32.019906301100946,40.8193775180323],[32.019700000000114,40.81877000000014],[32.017590000000155,40.81796000000031],[32.01729000000017,40.81681000000037],[32.017320000000154,40.81655000000035],[32.01628000000011,40.816560000000436],[32.015520000000095,40.81624000000028],[32.015580000000114,40.81607000000042],[32.015240000000176,40.81535000000014],[32.014500000000055,40.8144700000002],[32.014500000000055,40.81382000000042],[32.01441000000011,40.81375000000031],[32.01404000000019,40.8142000000002],[32.01302000000021,40.81490000000025],[32.01253000000014,40.81509000000034],[32.01249000000024,40.814850000000376],[32.01224000000013,40.81475000000006],[32.01166000000012,40.81482000000017],[32.01172000000008,40.81534000000039],[32.01116000000013,40.81552000000039],[32.01101000000017,40.81510000000043],[32.01093000000009,40.814210000000685],[32.01083000000017,40.81432000000041],[32.00928000000016,40.81448000000029],[32.00925000000018,40.813960000000066],[32.0094400000001,40.81339000000037],[32.00790000000006,40.81295000000017],[32.00844000000012,40.81236000000041],[32.00884000000019,40.81144000000029],[32.007100000000094,40.81094000000013],[32.007650000000126,40.81045000000012],[32.007500000000164,40.81044000000014],[32.00701000000015,40.81011000000041],[32.00692000000015,40.809870000000274],[32.00751276272564,40.80808357554724],[32.010517320000076,40.807728129000566],[32.00977440100013,40.80378754700013],[32.01188174000015,40.802722096000025],[32.01179928300019,40.80111744499999],[32.01185721200011,40.801034155000025],[32.01818527400019,40.799370739000096],[32.01770485600002,40.79688505600001],[32.017191581000134,40.79677709900005],[32.017330609000055,40.794610301000034],[32.02136948900011,40.79396947900028],[32.02309548900013,40.78939093400044],[32.02671290000018,40.79001340000025],[32.03055054500004,40.78861764300012],[32.03061282300018,40.78889194900046],[32.0334307550001,40.79299112899997],[32.03388052300005,40.806748954000284]]],"type":"Polygon"}},{"type":"Feature","properties":{"area_id":"TR-14-009-2007067","name_tr":"Dereköy Köyü","area_level":"neighbourhood","parent_id":"TR-14-009","endeksa_id":2007067},"geometry":{"coordinates":[[[31.97300000000007,40.80631000000005],[31.9722900000001,40.80663000000021],[31.972010000000182,40.80688000000032],[31.971690000000194,40.80751000000055],[31.971630000000232,40.80838000000006],[31.971490000000188,40.808660000000486],[31.971290000000124,40.80887000000013],[31.970470000000148,40.8093300000005],[31.97037000000006,40.80949000000027],[31.97049000000004,40.809620000000336],[31.97050000000013,40.80997000000019],[31.970720000000256,40.810020000000065],[31.97074000000009,40.81025000000005],[31.970630000000085,40.81040000000024],[31.970670000000155,40.81063000000006],[31.969610000000046,40.81153000000063],[31.969510000000128,40.811850000000106],[31.96922000000012,40.8121100000003],[31.969480000000146,40.8126400000001],[31.969820000000198,40.81261000000046],[31.96957000000009,40.81338000000022],[31.96963000000011,40.81377000000015],[31.96984000000009,40.81413000000032],[31.970320000000186,40.81463000000008],[31.97034000000025,40.81661000000031],[31.96836000000019,40.82242000000019],[31.96783000000005,40.82713000000035],[31.96641000000011,40.83386000000013],[31.966230000000166,40.838030000000515],[31.9568000000001,40.83197000000007],[31.949500000000057,40.8286100000002],[31.939720000000136,40.82713000000035],[31.932600000000093,40.827930000000435],[31.93385000000012,40.81891000000019],[31.936690000000112,40.811510000000396],[31.94150000000019,40.80747000000008],[31.942920000000072,40.803830000000175],[31.949630000000127,40.800390000000334],[31.94983000000019,40.800200000000416],[31.95024000000018,40.80019000000027],[31.951180000000136,40.80059000000017],[31.951680000000124,40.80029000000019],[31.95203000000015,40.7998800000002],[31.952330000000075,40.79985000000056],[31.952740000000063,40.800050000000056],[31.953820000000064,40.80022000000008],[31.95504000000011,40.80059000000017],[31.9556300000001,40.79980000000069],[31.956380000000138,40.80015000000037],[31.957380000000114,40.80013000000031],[31.957590000000096,40.79998000000012],[31.958110000000147,40.79996000000028],[31.958240000000046,40.80088000000052],[31.958420000000217,40.80131000000006],[31.95878000000016,40.80174000000011],[31.96008000000006,40.80167000000051],[31.96039000000013,40.802310000000205],[31.9610100000001,40.80216000000041],[31.961960000000204,40.801510000000064],[31.962520000000154,40.80199000000016],[31.963100000000168,40.80302000000012],[31.963610000000074,40.802900000000136],[31.96573000000018,40.800330000000486],[31.96582000000018,40.80001000000033],[31.967130000000225,40.79985000000056],[31.966960000000142,40.800980000000266],[31.967720000000156,40.80110000000025],[31.968090000000245,40.801320000000146],[31.968580000000088,40.80028000000061],[31.96985000000018,40.800580000000025],[31.97018000000014,40.79992000000016],[31.969710000000134,40.799680000000194],[31.969740000000172,40.7992000000001],[31.970160000000078,40.799190000000124],[31.97068000000013,40.79898000000037],[31.97133000000008,40.79891000000026],[31.971350000000143,40.79938000000004],[31.972250000000145,40.79955000000007],[31.972270000000037,40.799710000000346],[31.972640000000126,40.79986000000014],[31.973050000000114,40.79942000000051],[31.97365000000019,40.7997900000002],[31.974860000000092,40.80031000000025],[31.974950000000092,40.800540000000126],[31.975400000000036,40.80066000000011],[31.97579000000013,40.80066000000011],[31.976230000000157,40.80048000000011],[31.976610000000164,40.80048000000011],[31.976990000000114,40.80093000000039],[31.97610000000003,40.80123000000037],[31.975340000000244,40.80162000000064],[31.975260000000162,40.80203000000046],[31.97554000000008,40.802220000000545],[31.97585000000015,40.80291000000011],[31.97480000000013,40.80344000000059],[31.97436000000016,40.80403000000041],[31.973410000000058,40.804580000000044],[31.973330000000203,40.80486000000013],[31.972590000000253,40.80589000000009],[31.97300000000007,40.80631000000005]]],"type":"Polygon"}},{"type":"Feature","properties":{"area_id":"TR-14-009-2007073","name_tr":"Kındıra Köyü","area_level":"neighbourhood","parent_id":"TR-14-009","endeksa_id":2007073},"geometry":{"coordinates":[[[32.019906301100946,40.8193775180323],[32.0242300000001,40.832110000000284],[32.02832000000012,40.84570000000008],[32.018710000000056,40.84315000000015],[32.01071000000019,40.84234000000043],[32.003060000000175,40.84086000000019],[31.988110000000063,40.83776000000023],[31.98171000000025,40.83669000000049],[31.97263000000015,40.836950000000684],[31.966230000000166,40.838030000000515],[31.96641000000011,40.83386000000013],[31.96783000000005,40.82713000000035],[31.96836000000019,40.82242000000019],[31.97034000000025,40.81661000000031],[31.970320000000186,40.81463000000008],[31.96984000000009,40.81413000000032],[31.96963000000011,40.81377000000015],[31.96957000000009,40.81338000000022],[31.969820000000198,40.81261000000046],[31.969480000000146,40.8126400000001],[31.96922000000012,40.8121100000003],[31.969510000000128,40.811850000000106],[31.969610000000046,40.81153000000063],[31.970670000000155,40.81063000000006],[31.970630000000085,40.81040000000024],[31.97074000000009,40.81025000000005],[31.970720000000256,40.810020000000065],[31.97050000000013,40.80997000000019],[31.97049000000004,40.809620000000336],[31.97037000000006,40.80949000000027],[31.970470000000148,40.8093300000005],[31.971290000000124,40.80887000000013],[31.971490000000188,40.808660000000486],[31.971630000000232,40.80838000000006],[31.971690000000194,40.80751000000055],[31.972010000000182,40.80688000000032],[31.9722900000001,40.80663000000021],[31.97300000000007,40.80631000000005],[31.97393000000011,40.80615000000029],[31.974530000000186,40.80595000000011],[31.974840000000086,40.805750000000046],[31.975470000000144,40.80571000000015],[31.975900000000195,40.80550000000051],[31.97737000000012,40.80597000000034],[31.977020000000152,40.807270000000585],[31.97901000000013,40.80750000000006],[31.97836000000018,40.80830000000054],[31.979860000000087,40.80898000000013],[31.980040000000088,40.80895000000032],[31.981450000000052,40.80971000000068],[31.98121000000009,40.81042000000008],[31.981580000000122,40.81078000000042],[31.981380000000115,40.81144000000029],[31.982130000000154,40.811570000000415],[31.982770000000187,40.811790000000144],[31.98369000000008,40.81038000000069],[31.983270000000175,40.81020000000018],[31.98323000000005,40.81005000000039],[31.983520000000055,40.80967000000021],[31.98443000000003,40.80917000000005],[31.984790000000146,40.809370000000285],[31.984970000000146,40.809380000000374],[31.986580000000117,40.808260000000075],[31.985900000000186,40.8078600000004],[31.985720000000185,40.80766000000017],[31.98716000000013,40.80688000000032],[31.987320000000068,40.80732000000046],[31.9878700000001,40.807140000000345],[31.988900000000058,40.806560000000104],[31.98932000000019,40.80672000000004],[31.989290000000153,40.80683000000005],[31.989720000000034,40.8070000000003],[31.990180000000066,40.807390000000055],[31.990520000000174,40.80745000000019],[31.991920000000164,40.8082100000002],[31.99264000000005,40.80742000000021],[31.99320000000023,40.807800000000384],[31.99255000000005,40.808320000000094],[31.993080000000248,40.80901000000034],[31.99367000000018,40.80861000000061],[31.994260000000168,40.808360000000164],[31.99534000000017,40.80942000000016],[31.99509000000012,40.80946000000006],[31.994640000000174,40.80985000000021],[31.99502000000018,40.810120000000495],[31.99478000000022,40.81038000000069],[31.99564000000015,40.811080000000345],[31.995140000000163,40.81163000000038],[31.99450000000013,40.812130000000536],[31.99437000000023,40.81236000000041],[31.99525000000017,40.8130800000003],[31.995010000000036,40.81370000000027],[31.995530000000088,40.81370000000027],[31.997120000000166,40.81320000000028],[31.99723000000006,40.81322000000034],[31.997400000000084,40.81400000000036],[31.99810000000008,40.813840000000084],[31.998010000000136,40.81317000000007],[31.998050000000035,40.81268000000057],[31.998700000000156,40.81271000000021],[31.999420000000043,40.81156000000027],[32.00011000000012,40.81091000000049],[31.999970000000076,40.810770000000275],[32.00061000000011,40.810120000000495],[32.00110000000018,40.81020000000018],[32.0011100000001,40.81035000000037],[32.00132000000008,40.81041000000033],[32.00212000000016,40.81041000000033],[32.00218000000018,40.808760000000234],[32.00391000000013,40.808570000000145],[32.00544000000008,40.807950000000176],[32.006290000000035,40.80770000000064],[32.00755000000004,40.80766000000017],[32.00751276272564,40.80808357554724],[32.00692000000015,40.809870000000274],[32.00701000000015,40.81011000000041],[32.007500000000164,40.81044000000014],[32.007650000000126,40.81045000000012],[32.007100000000094,40.81094000000013],[32.00884000000019,40.81144000000029],[32.00844000000012,40.81236000000041],[32.00790000000006,40.81295000000017],[32.0094400000001,40.81339000000037],[32.00925000000018,40.813960000000066],[32.00928000000016,40.81448000000029],[32.01083000000017,40.81432000000041],[32.01093000000009,40.814210000000685],[32.01101000000017,40.81510000000043],[32.01116000000013,40.81552000000039],[32.01172000000008,40.81534000000039],[32.01166000000012,40.81482000000017],[32.01224000000013,40.81475000000006],[32.01249000000024,40.814850000000376],[32.01253000000014,40.81509000000034],[32.01302000000021,40.81490000000025],[32.01404000000019,40.8142000000002],[32.01441000000011,40.81375000000031],[32.014500000000055,40.81382000000042],[32.014500000000055,40.8144700000002],[32.015240000000176,40.81535000000014],[32.015580000000114,40.81607000000042],[32.015520000000095,40.81624000000028],[32.01628000000011,40.816560000000436],[32.017320000000154,40.81655000000035],[32.01729000000017,40.81681000000037],[32.017590000000155,40.81796000000031],[32.019700000000114,40.81877000000014],[32.019906301100946,40.8193775180323]]],"type":"Polygon"}},{"type":"Feature","properties":{"area_id":"TR-14-009-2007065","name_tr":"Çamlık Köyü","area_level":"neighbourhood","parent_id":"TR-14-009","endeksa_id":2007065},"geometry":{"coordinates":[[[32.10056000000003,40.837220000000286],[32.08365000000009,40.84368000000046],[32.063190000000134,40.85041000000024],[32.059630000000084,40.84745000000032],[32.05679000000009,40.844220000000405],[32.0528700000001,40.841400000000135],[32.050740000000076,40.83830000000012],[32.047890000000166,40.83184000000011],[32.04771000000005,40.82834000000025],[32.04665000000011,40.82605000000035],[32.04469000000012,40.82376000000005],[32.04344000000003,40.820530000000645],[32.04291000000006,40.8178400000001],[32.0417700000001,40.8154100000005],[32.0426300000002,40.815290000000516],[32.04292000000004,40.81479000000036],[32.04305000000011,40.81422000000009],[32.04388000000006,40.81373000000008],[32.04396675451312,40.81349643015852],[32.04410300698697,40.81338251370289],[32.0457699823026,40.81342116742826],[32.04596916054629,40.81321317211183],[32.048160000000166,40.81259000000023],[32.049146640673484,40.813525968673105],[32.04964659895802,40.813806920307],[32.0506206117758,40.81403093998125],[32.05130000000008,40.81401000000011],[32.05224000000004,40.81419000000045],[32.0530500000001,40.813810000000274],[32.05357000000015,40.813780000000634],[32.054080000000056,40.81398000000013],[32.05433000000011,40.81435000000022],[32.05488000000014,40.814860000000465],[32.0553000000001,40.814890000000105],[32.05571000000009,40.814740000000484],[32.0557800000002,40.81387000000029],[32.0559100000001,40.81366000000014],[32.05617000000012,40.81338000000022],[32.05691000000007,40.813100000000134],[32.057340000000124,40.81248000000039],[32.0568600000002,40.81212000000028],[32.056990000000155,40.811920000000214],[32.056160000000034,40.81163000000038],[32.05580000000009,40.81136000000009],[32.05568000000011,40.810340000000224],[32.055790000000115,40.81016000000028],[32.0559100000001,40.810150000000135],[32.0559100000001,40.809590000000185],[32.056160000000034,40.80884000000009],[32.05644000000012,40.80840000000029],[32.056500000000085,40.80765000000008],[32.05633000000006,40.80729000000014],[32.05589000000009,40.806860000000086],[32.0559100000001,40.80633000000029],[32.05562000000009,40.80584000000022],[32.05522000000025,40.80574000000047],[32.05474000000015,40.80576000000019],[32.05423000000019,40.80552000000006],[32.05419000000012,40.80483000000049],[32.05435000000017,40.804420000000164],[32.054790000000196,40.8043100000001],[32.05506293989981,40.80439274499179],[32.05570000000017,40.80456000000021],[32.05670000000009,40.80456000000021],[32.05716000000018,40.80468000000019],[32.05747000000025,40.804850000000044],[32.05744000000004,40.80514000000005],[32.058290000000056,40.80511000000024],[32.058300000000145,40.80573000000038],[32.05939000000012,40.80521000000067],[32.06016000000005,40.80519000000044],[32.061760000000106,40.80492000000015],[32.06333000000012,40.80397000000039],[32.06419000000005,40.80400000000003],[32.064930000000174,40.80421000000035],[32.06513000000024,40.80478000000062],[32.065550000000144,40.805130000000304],[32.06590000000017,40.80519000000044],[32.06595000000004,40.805630000000065],[32.06614000000013,40.80573000000038],[32.066810000000146,40.8058700000002],[32.06822000000011,40.805780000000254],[32.068520000000035,40.80567000000036],[32.06906000000015,40.80579000000034],[32.06952000000018,40.80576000000019],[32.069670000000144,40.805810000000065],[32.07003000000009,40.8061800000001],[32.0707000000001,40.806340000000375],[32.07043000000016,40.80685000000011],[32.071330000000216,40.8070800000005],[32.072270000000174,40.807140000000345],[32.07207000000017,40.80675000000019],[32.072260000000256,40.80669000000023],[32.07198000000017,40.80630000000008],[32.07175000000012,40.80577000000011],[32.07185000000004,40.80567000000036],[32.07265000000018,40.80586000000045],[32.07305000000025,40.80583000000013],[32.073870000000056,40.8055700000001],[32.07426000000015,40.80592000000007],[32.07517000000013,40.80611000000016],[32.074930000000165,40.80550000000051],[32.075360000000046,40.805130000000304],[32.07613000000015,40.80505000000022],[32.077260000000194,40.80459000000053],[32.07739000000015,40.80444000000023],[32.077220000000125,40.80421000000035],[32.07764000000003,40.804330000000334],[32.07808000000023,40.803890000000195],[32.07803000000018,40.80363000000068],[32.0781300000001,40.80316000000016],[32.07902683757192,40.80331351776704],[32.07913643714011,40.80341324466258],[32.0789900000002,40.804420000000164],[32.07932000000011,40.805010000000095],[32.07996000000014,40.805410000000165],[32.08088000000009,40.80620000000016],[32.08135000000004,40.80661000000015],[32.08160000000015,40.80697000000009],[32.08075000000014,40.807800000000384],[32.080510000000174,40.80787000000049],[32.08052000000015,40.80807000000016],[32.08022000000017,40.80820000000011],[32.08006000000006,40.80840000000029],[32.08062000000007,40.80892000000017],[32.080510000000174,40.809220000000096],[32.080910000000074,40.8093300000005],[32.08153000000004,40.80974000000032],[32.08192000000014,40.81010000000026],[32.0820300000002,40.81069000000008],[32.08294000000018,40.81135000000012],[32.084280000000206,40.811760000000106],[32.0852000000001,40.81261000000046],[32.08601000000016,40.814150000000154],[32.088220000000035,40.81611000000015],[32.088810000000194,40.81754000000052],[32.09022000000016,40.81979000000052],[32.09229000000016,40.8214500000002],[32.09789000000006,40.83467000000036],[32.10056000000003,40.837220000000286]]],"type":"Polygon"}},{"type":"Feature","properties":{"area_id":"TR-14-009-2007069","name_tr":"Eskiçağa Köyü","area_level":"neighbourhood","parent_id":"TR-14-009","endeksa_id":2007069},"geometry":{"coordinates":[[[32.063190000000134,40.85041000000024],[32.05252000000013,40.85687000000041],[32.04540000000003,40.85432000000009],[32.04149000000018,40.8539100000001],[32.039321813913716,40.85559393703312],[32.0373541620001,40.854674585000396],[32.024519451000174,40.852771886000085],[32.02316971400012,40.85095958200009],[32.01747884200017,40.84989204100009],[32.01729312500015,40.850038418000224],[32.01720643400017,40.84991056900003],[32.012774230000105,40.849011186000496],[32.008560395000075,40.84518514100006],[32.00869896800009,40.84521240400005],[32.008786485000144,40.84513078400005],[32.00889940700006,40.84284045100003],[32.0088583133134,40.84198176519044],[32.01071000000019,40.84234000000043],[32.018710000000056,40.84315000000015],[32.02832000000012,40.84570000000008],[32.0242300000001,40.832110000000284],[32.019906301100946,40.8193775180323],[32.02037188600008,40.81895757300015],[32.02035059000008,40.81882311700019],[32.02007545500015,40.8187650860001],[32.02024049800008,40.817511878000175],[32.02208655600003,40.817413014000124],[32.02363073900017,40.81755220000014],[32.02581935800015,40.81466316799998],[32.028216859,40.81504424300016],[32.02827434000005,40.81495391300018],[32.02807417600019,40.81326422900014],[32.03187341600011,40.81160224900066],[32.03186481400013,40.81148347600015],[32.02774548200017,40.80783246200008],[32.0277454030001,40.80770504999998],[32.03377123300004,40.80685596100017],[32.03388052300005,40.806748954000284],[32.03393580000005,40.807429350999996],[32.03777030000009,40.81449478200011],[32.04382487242788,40.81338443899591],[32.04396675451312,40.81349643015852],[32.04388000000006,40.81373000000008],[32.04305000000011,40.81422000000009],[32.04292000000004,40.81479000000036],[32.0426300000002,40.815290000000516],[32.0417700000001,40.8154100000005],[32.04291000000006,40.8178400000001],[32.04344000000003,40.820530000000645],[32.04469000000012,40.82376000000005],[32.04665000000011,40.82605000000035],[32.04771000000005,40.82834000000025],[32.047890000000166,40.83184000000011],[32.050740000000076,40.83830000000012],[32.0528700000001,40.841400000000135],[32.05679000000009,40.844220000000405],[32.059630000000084,40.84745000000032],[32.063190000000134,40.85041000000024]]],"type":"Polygon"}},{"type":"Feature","properties":{"area_id":"TR-14-009-2007077","name_tr":"Yamanlar Köyü","area_level":"neighbourhood","parent_id":"TR-14-009","endeksa_id":2007077},"geometry":{"coordinates":[[[32.12560278398928,40.83095947587418],[32.11248000000006,40.83305000000007],[32.10056000000003,40.837220000000286],[32.09789000000006,40.83467000000036],[32.09229000000016,40.8214500000002],[32.09022000000016,40.81979000000052],[32.088810000000194,40.81754000000052],[32.088220000000035,40.81611000000015],[32.08601000000016,40.814150000000154],[32.0852000000001,40.81261000000046],[32.084280000000206,40.811760000000106],[32.08294000000018,40.81135000000012],[32.0820300000002,40.81069000000008],[32.08192000000014,40.81010000000026],[32.08153000000004,40.80974000000032],[32.080910000000074,40.8093300000005],[32.080510000000174,40.809220000000096],[32.08062000000007,40.80892000000017],[32.08006000000006,40.80840000000029],[32.08022000000017,40.80820000000011],[32.08052000000015,40.80807000000016],[32.080510000000174,40.80787000000049],[32.08075000000014,40.807800000000384],[32.08160000000015,40.80697000000009],[32.08135000000004,40.80661000000015],[32.08088000000009,40.80620000000016],[32.07996000000014,40.805410000000165],[32.07932000000011,40.805010000000095],[32.0789900000002,40.804420000000164],[32.07913643714011,40.80341324466258],[32.07902683757192,40.80331351776704],[32.07925579621809,40.80324532181396],[32.079555955000046,40.80199452700009],[32.086932673000035,40.7993490500005],[32.086936660000106,40.7992362870005],[32.08493088800003,40.79697548900049],[32.08554136500004,40.79536838600012],[32.08682121100003,40.79537560100027],[32.08679707099998,40.79525643400012],[32.08640748700009,40.79508398100012],[32.08600321600011,40.79478890900003],[32.08604074900012,40.794702422000114],[32.08595126800009,40.79466197400029],[32.086026095000136,40.79456027500049],[32.08569313400005,40.79443257600013],[32.0857601240001,40.794341528000245],[32.08437646300007,40.793323477000115],[32.085044776000075,40.792276346999984],[32.08612904000006,40.792143550000105],[32.08606558100007,40.79070828300013],[32.08916438600005,40.791408205000096],[32.08925626600018,40.79133033200014],[32.08940255600004,40.79046580800019],[32.09167824000019,40.79028871000014],[32.09125398700019,40.78939911700013],[32.091311505000135,40.78928680200016],[32.09499598100018,40.78864992400008],[32.09759873300004,40.788405673],[32.097917504000065,40.788392198000224],[32.1016472340001,40.79101569000022],[32.11074005200015,40.7940575450001],[32.113183872000036,40.79570415400019],[32.113358729000026,40.79560891400013],[32.11303439400007,40.794958958000166],[32.11314801300017,40.79484120100011],[32.11885875400009,40.79524999400013],[32.11892148200013,40.79533532500017],[32.11881348900016,40.79779323100047],[32.11868531400012,40.7978360890001],[32.11605762100004,40.79747241300004],[32.11460469300005,40.79997540000028],[32.12137804300005,40.800807794000036],[32.121511356000326,40.80093067500053],[32.12469131000017,40.806586525000284],[32.131045332000326,40.81091777000023],[32.13099729800024,40.81141970100032],[32.12653067900027,40.822560591000695],[32.12572095200028,40.82968441900056],[32.12567664901076,40.830924562182304],[32.12560278398928,40.83095947587418]]],"type":"Polygon"}}]}