{"type":"FeatureCollection","source_id":"endeksa","retrieved_at":"2026-08-23","features":[{"type":"Feature","properties":{"area_id":"TR-11-004-2005762","name_tr":"Hisarcık Köyü","area_level":"neighbourhood","parent_id":"TR-11-004","endeksa_id":2005762},"geometry":{"coordinates":[[[30.35397308295029,40.03447070674065],[30.342791514999988,40.03516103200019],[30.338399593000076,40.03327410300011],[30.335454613000138,40.02565270800039],[30.33536157600014,40.02558438100016],[30.33522324000006,40.025626213000066],[30.331323189000045,40.03019209500019],[30.328742711000075,40.02967007299998],[30.32963802900008,40.02771749800053],[30.325781462000066,40.024230687000056],[30.32487510700014,40.022408399000085],[30.32445745900003,40.02214264400004],[30.32423993200007,40.021087949000446],[30.32574444200003,40.01856810100014],[30.318381536000118,40.00713952300009],[30.317878331000145,40.003262605000145],[30.317700207000144,40.00328933600065],[30.31672320300015,40.00451959500003],[30.316580817999977,40.00449941500017],[30.315198436000173,40.003391645000136],[30.313786770000092,40.00458779000007],[30.30914321700004,40.004041455000106],[30.30872835500014,40.00216484300006],[30.308632663000083,40.00208796300012],[30.291221650000182,40.00013290000061],[30.291074378000076,40.000235900000064],[30.290415584000073,39.99661904400011],[30.292749330000106,39.99434968000014],[30.292729768000072,39.99414779800014],[30.292816832000028,39.99423422500007],[30.292955031000133,39.9942057400001],[30.295637895000084,39.99165630300047],[30.297590810000145,39.98864004100011],[30.304456415000175,39.9810553800001],[30.310509156000137,39.976315294000074],[30.31648354800012,39.97320807600039],[30.318361904000085,39.97256253300003],[30.319689555000082,39.97240309900013],[30.329257818000144,39.97229925400018],[30.335005667000075,39.97146813400013],[30.33807968600013,39.97123232700011],[30.343616345000044,39.97123293800007],[30.34912115700007,39.97209258700019],[30.350658310000142,39.97223763200003],[30.350127700000144,39.97250120000052],[30.347155600000065,39.97600990000058],[30.34253020000017,39.97713320000008],[30.341265000000078,39.978068800000074],[30.34329990000009,39.979949400000066],[30.3436707190001,39.97976725700033],[30.344664463000072,39.980620126000645],[30.35067170200017,39.97879368700006],[30.35269810000017,39.98007250000012],[30.353582292000112,39.97990310200015],[30.355570681000074,39.98073479999999],[30.359108100000128,39.98342530000008],[30.361272700000143,39.98392840000014],[30.36000780000012,39.9854888000001],[30.36074070000018,39.987033699999984],[30.36089140000007,39.988504500000545],[30.360636000000056,39.98932700000006],[30.360890900000186,39.990412300000116],[30.362367819999974,39.99044375500068],[30.36258720300009,39.99173075800013],[30.362747312000124,39.99179915400015],[30.364621524000142,39.99126808600005],[30.367229873000042,39.99756552800028],[30.365229100000136,40.000812200000325],[30.362578300000166,40.00136600000013],[30.36201600000004,40.00395030000027],[30.364071969000065,40.004450198000086],[30.36403540300006,40.004827790000036],[30.365322406209657,40.00528289793857],[30.365050000000053,40.00528000000014],[30.36451000000011,40.00504000000018],[30.365080000000034,40.007930000000215],[30.366680000000088,40.01099000000045],[30.366680000000088,40.01651000000032],[30.365080000000034,40.02705000000054],[30.355440000000215,40.03285000000011],[30.35397308295029,40.03447070674065]]],"type":"Polygon"}},{"type":"Feature","properties":{"area_id":"TR-11-004-2005766","name_tr":"Tarpak Köyü","area_level":"neighbourhood","parent_id":"TR-11-004","endeksa_id":2005766},"geometry":{"coordinates":[[[30.424856596427105,40.04613797033039],[30.42428049699049,40.04627071272631],[30.423089961826918,40.04629321292305],[30.423246014572726,40.04641091826238],[30.423110835748332,40.04654333306382],[30.419001233799463,40.04691057468119],[30.418864213218114,40.04685913252507],[30.418547634000163,40.04642992900011],[30.416684732282988,40.046454497235516],[30.416551655755597,40.04635222149852],[30.41663050286894,40.04622144102103],[30.415736347127506,40.04636778396059],[30.414741595705664,40.0463932240998],[30.414652030015134,40.046299344056365],[30.414705994702103,40.04618539434108],[30.415617280734693,40.045792461496944],[30.415310000000147,40.04542000000009],[30.41536000000019,40.04524000000015],[30.415660000000116,40.04490000000027],[30.415610000000072,40.0445900000002],[30.415880000000243,40.044510000000116],[30.416060000000186,40.044020000000614],[30.416160000000104,40.043520000000456],[30.416010000000142,40.04323000000011],[30.416050076361557,40.04303534338783],[30.41608000000008,40.04289000000023],[30.415960000000098,40.04275000000018],[30.41620000000006,40.04270000000014],[30.41620000000006,40.04257000000018],[30.41645000000011,40.04242000000039],[30.416150000000187,40.0422300000003],[30.41630000000015,40.04190000000017],[30.415830000000142,40.04146000000054],[30.415910000000054,40.04096000000038],[30.416070000000104,40.04074000000014],[30.415840000000117,40.04041000000035],[30.41590000000008,40.04010000000028],[30.41633000000013,40.0399000000001],[30.41450000000009,40.030950000000644],[30.411110000000065,40.03071000000068],[30.410760000000096,40.03064000000006],[30.410700000000077,40.03052000000059],[30.40973000000014,40.0304000000001],[30.409330000000068,40.03019000000029],[30.407620000000122,40.0266100000004],[30.407860000000085,40.02464000000009],[30.407730000000186,40.02452000000011],[30.40276000000017,40.02426000000008],[30.40229000000005,40.02470000000011],[30.400880000000086,40.024810000000116],[30.400170000000116,40.024780000000305],[30.39808000000005,40.02564000000041],[30.396400000000142,40.02609000000018],[30.391720000000134,40.02565000000038],[30.388560000000155,40.02638000000053],[30.388040000000103,40.025890000000345],[30.387410000000045,40.025740000000155],[30.385620000000074,40.02555000000007],[30.385425411460346,40.025137472295796],[30.384870000000035,40.02396000000067],[30.38523000000015,40.023730000000114],[30.38576000000012,40.02362000000028],[30.385590000000093,40.023200000000315],[30.385020000000168,40.0227900000005],[30.38495000000006,40.02263000000005],[30.384570000000053,40.02234000000021],[30.384430000000236,40.02205000000038],[30.384560000000135,40.02164000000005],[30.384500000000173,40.02125000000029],[30.385150000000124,40.02041000000003],[30.38464000000016,40.01832000000013],[30.38526000000013,40.016360000000134],[30.385290000000168,40.01600000000019],[30.385080000000187,40.01574000000039],[30.384840000000054,40.01563000000067],[30.38430000000011,40.01563000000067],[30.38417000000004,40.01522000000017],[30.383590000000197,40.015020000000106],[30.38229000000007,40.013380000000666],[30.382390000000157,40.01321000000013],[30.38237000000015,40.013010000000065],[30.38436000000013,40.012670000000185],[30.387410000000045,40.012420000000134],[30.391060000000095,40.01313000000005],[30.395990000000154,40.012200000000405],[30.39916000000005,40.0113400000003],[30.40125000000012,40.011080000000106],[30.40369000000004,40.01136000000014],[30.405830000000208,40.011180000000536],[30.406150000000196,40.01081000000033],[30.406160000000114,40.01070000000061],[30.407930000000192,40.00968000000006],[30.41007000000019,40.01148000000035],[30.410880000000247,40.011740000000145],[30.412060000000167,40.01196000000027],[30.412790000000143,40.013200000000154],[30.413220000000194,40.01294000000013],[30.413220000000194,40.01206000000019],[30.413740000000075,40.01165000000037],[30.41366000000005,40.01130000000052],[30.413200000000188,40.01126000000005],[30.41345000000007,40.01028000000014],[30.41375000000022,40.01010000000019],[30.41314000000017,40.009500000000116],[30.412890000000118,40.00902000000019],[30.41546000000011,40.00956000000008],[30.41577000000018,40.0088300000001],[30.41590000000008,40.008110000000215],[30.415830000000142,40.0076600000001],[30.41453000000007,40.004830000000254],[30.417810000000202,40.00436000000042],[30.419220000000166,40.003690000000404],[30.420310000000143,40.0035400000001],[30.42072000000013,40.00317000000018],[30.42051000000015,40.0025600000007],[30.418580000000134,40.002450000000124],[30.41590000000008,40.002600000000086],[30.415540000000135,40.00196000000011],[30.41512000000006,40.00208000000009],[30.414300000000253,40.00137000000029],[30.413460000000157,40.00113000000033],[30.412100000000123,40.00091000000009],[30.4129200000001,39.99660000000017],[30.413950000000057,39.995910000000436],[30.41367000000014,39.99491000000012],[30.413370000000214,39.9950300000001],[30.412750000000074,39.993580000000236],[30.41251000000011,39.99121000000025],[30.419280365631607,39.9797415541301],[30.422540000000083,39.97422000000063],[30.42041000000006,39.97383000000036],[30.420040000000142,39.97289000000018],[30.42010000000016,39.97180000000009],[30.42026000000004,39.971500000000106],[30.420830000000137,39.971350000000484],[30.420920000000137,39.97257000000053],[30.422200000000203,39.97278000000017],[30.422880000000134,39.971680000000106],[30.423710000000256,39.972950000000026],[30.42476000000005,39.97275000000036],[30.424800000000175,39.97235000000012],[30.424140000000136,39.97206000000028],[30.424570000000188,39.97196000000014],[30.424830000000156,39.97146000000038],[30.424460000000124,39.97124000000008],[30.423940000000073,39.96968000000015],[30.42271000000011,39.969770000000494],[30.42203000000012,39.96962000000019],[30.421820000000196,39.968840000000284],[30.42265000000009,39.96878000000032],[30.422880000000134,39.96823000000029],[30.42308000000014,39.968060000000264],[30.42292000000009,39.96708000000035],[30.421580000000233,39.96683000000024],[30.43309289367113,39.96250371320923],[30.448910000000183,39.95656000000031],[30.449200000000246,39.9574600000002],[30.450200000000166,39.957280000000196],[30.45201000000003,39.96096000000057],[30.452500000000043,39.96127000000013],[30.45390000000009,39.96449000000007],[30.45415000000014,39.96731000000017],[30.454910000000154,39.968190000000504],[30.456180000000074,39.96966000000009],[30.45400000000018,39.970910000000345],[30.4521400000001,39.97157000000021],[30.451620000000105,39.97186000000005],[30.4510200000002,39.97263000000015],[30.450800000000072,39.97334000000029],[30.451070000000243,39.974010000000305],[30.451620000000105,39.974530000000186],[30.4522300000001,39.975560000000655],[30.452770000000214,39.976710000000594],[30.45737000000014,39.97510000000028],[30.460460000000182,39.97477000000015],[30.463210000000174,39.97529000000037],[30.463270000000136,39.975470000000314],[30.463490000000036,39.97569000000004],[30.4635100000001,39.975900000000365],[30.463300000000174,39.97660000000019],[30.463480000000118,39.97765000000021],[30.464010000000087,39.978630000000294],[30.464480000000094,39.979830000000106],[30.464810000000227,39.98125000000039],[30.464790000000164,39.9817400000004],[30.464610000000164,39.98215000000022],[30.463620000000162,39.98940000000039],[30.464510000000075,39.99070000000012],[30.464890000000082,39.99109000000027],[30.465110000000152,39.99152000000032],[30.465120000000127,39.992660000000114],[30.465280000000178,39.9936400000002],[30.465630000000203,39.994240000000104],[30.46644000000009,39.99528000000021],[30.466580000000135,39.99623000000008],[30.46803000000017,39.99759000000017],[30.468700000000183,39.99791000000039],[30.46998000000025,39.99794000000003],[30.47332000000017,39.99944000000011],[30.474790000000155,40.00038000000012],[30.47552000000013,40.000870000000134],[30.476100000000145,40.00108000000046],[30.474850000000117,40.00191000000024],[30.473140000000228,40.00239000000016],[30.47299000000004,40.00249000000008],[30.472660000000133,40.00308000000041],[30.472250000000088,40.00343000000021],[30.471510000000194,40.003810000000385],[30.47118000000006,40.003870000000404],[30.470990000000143,40.00426000000016],[30.470390000000066,40.004520000000184],[30.470080000000166,40.00476000000015],[30.469880000000103,40.00503000000043],[30.46982000000014,40.006040000000155],[30.469620000000134,40.00629000000026],[30.469590000000096,40.006750000000125],[30.46979000000016,40.00701000000015],[30.469840000000033,40.00758000000042],[30.46969000000024,40.00782000000038],[30.470950000000187,40.00785000000019],[30.471290000000067,40.00769000000025],[30.471770000000163,40.00727000000035],[30.472130000000107,40.007190000000094],[30.472530000000177,40.00724000000014],[30.473840000000052,40.007810000000234],[30.47543000000013,40.007990000000234],[30.475540000000194,40.008580000000165],[30.473890000000097,40.00918000000007],[30.47351000000009,40.00943000000018],[30.472870000000057,40.01103000000023],[30.47237000000007,40.0116900000001],[30.471880000000056,40.0121300000003],[30.47066000000018,40.01293000000038],[30.46961000000016,40.013750000000186],[30.469220000000064,40.0149100000001],[30.468970000000127,40.01528000000013],[30.468270000000132,40.015490000000455],[30.468010000000106,40.01573000000042],[30.4677200000001,40.01739000000009],[30.46740000000011,40.01782000000014],[30.466820000000098,40.01830000000007],[30.466000000000065,40.01866000000041],[30.46580000000006,40.0197500000005],[30.464880000000164,40.02005000000031],[30.46428000000003,40.02043000000009],[30.463760000000036,40.02083000000033],[30.461530000000096,40.02296000000035],[30.460390000000075,40.024500000000046],[30.46115000000009,40.02451000000019],[30.461560000000077,40.02461000000045],[30.461990000000128,40.02532000000025],[30.46372000000008,40.03011000000009],[30.463360000000137,40.03099000000003],[30.462190000000135,40.031600000000424],[30.461530000000096,40.0355500000004],[30.46100000000007,40.03578000000027],[30.461020000000133,40.03625000000005],[30.46087000000017,40.03654000000006],[30.460200000000157,40.03691000000015],[30.45858000000004,40.04094000000015],[30.45688000000007,40.04187000000036],[30.455280000000243,40.042500000000075],[30.454390000000103,40.043430000000114],[30.45437000000004,40.0440600000004],[30.453730000000064,40.043920000000185],[30.452990000000113,40.04394000000042],[30.452480000000207,40.044050000000254],[30.452160000000163,40.044230000000255],[30.451380000000142,40.04413000000034],[30.450910000000135,40.04425000000009],[30.450700000000154,40.04413000000034],[30.449830000000134,40.04410000000013],[30.449420000000146,40.04426000000058],[30.44885000000005,40.04431000000045],[30.446730000000116,40.044270000000154],[30.445400000000063,40.04410000000013],[30.444060000000036,40.04511000000019],[30.443450000000155,40.04548000000011],[30.44319000000013,40.045540000000074],[30.442860000000223,40.045500000000175],[30.442550000000153,40.04514000000023],[30.441400000000215,40.04458000000005],[30.43990000000008,40.044270000000154],[30.4396500000002,40.04400000000038],[30.438470000000052,40.04443000000043],[30.437960000000146,40.04447000000022],[30.437370000000158,40.0443700000003],[30.43664000000018,40.043920000000185],[30.435080000000085,40.04395000000051],[30.4337900000001,40.04410000000013],[30.432950000000233,40.044350000000236],[30.432160000000238,40.04442000000034],[30.429380000000037,40.04493000000059],[30.42800000000011,40.04524000000015],[30.424856596427105,40.04613797033039]]],"type":"Polygon"}},{"type":"Feature","properties":{"area_id":"TR-11-004-10647","name_tr":"Güner Orbay","area_level":"neighbourhood","parent_id":"TR-11-004","endeksa_id":10647},"geometry":{"coordinates":[[[30.36942797853618,40.08499477655653],[30.36943000000008,40.08511000000033],[30.367550000000108,40.08551000000017],[30.364010000000178,40.08659000000017],[30.3592000000001,40.086790000000235],[30.353870000000143,40.08434000000017],[30.348530000000096,40.08373000000017],[30.340790000000027,40.08454000000023],[30.332180000000164,40.085020000000156],[30.330620000000238,40.0805000000006],[30.327660000000094,40.077040000000125],[30.321900000000085,40.07299000000023],[30.31832000000003,40.071330000000046],[30.31290000000007,40.06986000000006],[30.319170000000156,40.065140000000156],[30.32504000000023,40.0614700000001],[30.333580000000154,40.05881000000011],[30.337850000000174,40.05615000000029],[30.34328000000022,40.04990000000004],[30.349240000000236,40.03970000000004],[30.355440000000215,40.03285000000011],[30.365080000000034,40.02705000000054],[30.366680000000088,40.01651000000032],[30.366680000000088,40.01099000000045],[30.365080000000034,40.007930000000215],[30.36451000000011,40.00504000000018],[30.365050000000053,40.00528000000014],[30.365322406209657,40.00528289793857],[30.36679000000015,40.005260000000305],[30.36704000000003,40.0051900000002],[30.36860000000013,40.005910000000085],[30.369760000000042,40.00602000000009],[30.371800000000064,40.0082300000002],[30.374120000000175,40.008460000000184],[30.377340000000117,40.0094400000001],[30.376110000000153,40.01155000000006],[30.37605000000019,40.012950000000615],[30.377780000000143,40.016110000000594],[30.37786000000017,40.018430000000194],[30.378860000000145,40.0188500000001],[30.37946000000005,40.01875000000018],[30.381080000000168,40.02077000000037],[30.380880000000104,40.021150000000375],[30.380870000000186,40.02217000000036],[30.381990000000144,40.02213000000006],[30.382610000000113,40.022330000000125],[30.38253000000003,40.02290000000039],[30.38290000000012,40.0233200000003],[30.383850000000166,40.023880000000304],[30.383820000000185,40.02415000000008],[30.384590000000117,40.024660000000324],[30.38523000000015,40.02535000000057],[30.385770000000093,40.02743000000004],[30.384680000000117,40.029920000000175],[30.384680000000117,40.031440000000146],[30.38631000000015,40.03483000000051],[30.386040000000037,40.035870000000045],[30.38649000000015,40.039400000000114],[30.386580000000095,40.04148000000009],[30.387310000000127,40.043210000000386],[30.389110000000187,40.04487000000006],[30.389830000000075,40.045960000000036],[30.389700000000175,40.04592000000008],[30.389180000000124,40.046150000000125],[30.38851000000011,40.04747000000043],[30.388120000000185,40.0477800000005],[30.387630000000115,40.04868000000039],[30.387290000000064,40.048910000000205],[30.386420000000044,40.049250000000086],[30.38618000000008,40.04962000000069],[30.386140000000125,40.05126000000013],[30.38594000000012,40.05209000000042],[30.3859700000001,40.05265000000003],[30.385620000000074,40.05336000000034],[30.38501000000008,40.05391000000037],[30.38482000000016,40.054230000000416],[30.384570000000053,40.05500000000035],[30.384690000000035,40.0561100000005],[30.384630000000072,40.05701000000039],[30.383790000000033,40.059010000000285],[30.38179000000008,40.057460000000106],[30.38151000000022,40.05661000000066],[30.380750000000035,40.05763000000036],[30.376164108963508,40.06101413762059],[30.371870000000172,40.07290000000006],[30.373800000000188,40.07222000000047],[30.372950000000174,40.0740100000001],[30.37184000000019,40.07532000000009],[30.37145000000004,40.07600000000059],[30.36956000000015,40.077220000000125],[30.36887000000013,40.077530000000706],[30.368970000000047,40.077810000000056],[30.36921000000018,40.0779900000004],[30.36937000000006,40.078250000000594],[30.3694000000001,40.07860000000028],[30.369200000000035,40.079150000000084],[30.36924000000016,40.07977000000005],[30.369820000000175,40.081030000000396],[30.369790000000194,40.08198000000016],[30.369590000000187,40.08220000000006],[30.369310000000098,40.08339000000029],[30.36942797853618,40.08499477655653]]],"type":"Polygon"}},{"type":"Feature","properties":{"area_id":"TR-11-004-10649","name_tr":"Zafer","area_level":"neighbourhood","parent_id":"TR-11-004","endeksa_id":10649},"geometry":{"coordinates":[[[30.395179281000082,40.05924941800038],[30.39498777500006,40.05943317400016],[30.395315756000116,40.05989587100066],[30.39581319500013,40.06029575100035],[30.3957708640001,40.06039518000017],[30.395325401000093,40.06062031200065],[30.394281895999995,40.06062556200004],[30.392107680000095,40.060114635000104],[30.39087607700003,40.06031341000016],[30.38928616200019,40.059904594000045],[30.385475916000075,40.0598512360001],[30.384003734000146,40.05897820600018],[30.383997388000125,40.05880116300068],[30.383853856103713,40.05886562967925],[30.384630000000072,40.05701000000039],[30.384690000000035,40.0561100000005],[30.384570000000053,40.05500000000035],[30.38482000000016,40.054230000000416],[30.38501000000008,40.05391000000037],[30.385620000000074,40.05336000000034],[30.3859700000001,40.05265000000003],[30.38594000000012,40.05209000000042],[30.386140000000125,40.05126000000013],[30.38618000000008,40.04962000000069],[30.386420000000044,40.049250000000086],[30.387290000000064,40.048910000000205],[30.387630000000115,40.04868000000039],[30.388120000000185,40.0477800000005],[30.38851000000011,40.04747000000043],[30.389180000000124,40.046150000000125],[30.389700000000175,40.04592000000008],[30.389830000000075,40.045960000000036],[30.389110000000187,40.04487000000006],[30.387310000000127,40.043210000000386],[30.386580000000095,40.04148000000009],[30.38649000000015,40.039400000000114],[30.386040000000037,40.035870000000045],[30.38631000000015,40.03483000000051],[30.384680000000117,40.031440000000146],[30.384680000000117,40.029920000000175],[30.385770000000093,40.02743000000004],[30.385304582889148,40.02563728223913],[30.385431750000123,40.0255533130001],[30.385425411460346,40.025137472295796],[30.385620000000074,40.02555000000007],[30.387410000000045,40.025740000000155],[30.388040000000103,40.025890000000345],[30.388560000000155,40.02638000000053],[30.391720000000134,40.02565000000038],[30.396400000000142,40.02609000000018],[30.39808000000005,40.02564000000041],[30.400170000000116,40.024780000000305],[30.400880000000086,40.024810000000116],[30.40229000000005,40.02470000000011],[30.40276000000017,40.02426000000008],[30.407730000000186,40.02452000000011],[30.407860000000085,40.02464000000009],[30.407620000000122,40.0266100000004],[30.409330000000068,40.03019000000029],[30.40973000000014,40.0304000000001],[30.410700000000077,40.03052000000059],[30.410760000000096,40.03064000000006],[30.411110000000065,40.03071000000068],[30.41450000000009,40.030950000000644],[30.41633000000013,40.0399000000001],[30.41590000000008,40.04010000000028],[30.415840000000117,40.04041000000035],[30.416070000000104,40.04074000000014],[30.415910000000054,40.04096000000038],[30.415830000000142,40.04146000000054],[30.41630000000015,40.04190000000017],[30.416150000000187,40.0422300000003],[30.41645000000011,40.04242000000039],[30.41620000000006,40.04257000000018],[30.41620000000006,40.04270000000014],[30.415960000000098,40.04275000000018],[30.41608000000008,40.04289000000023],[30.416050076361557,40.04303534338783],[30.413029447000156,40.0389062700001],[30.413000905000104,40.03876962200019],[30.412895022000157,40.03887691500006],[30.41234933300001,40.03885457600012],[30.4086039070001,40.040096200000676],[30.40447413300018,40.04299456000018],[30.40351048900004,40.04462420400051],[30.40285684600002,40.04875730900045],[30.40269847100018,40.048840276000476],[30.39930621400009,40.04821598300009],[30.397311690000038,40.048960612000485],[30.395041490000153,40.050596333000044],[30.39381368400018,40.05217719500007],[30.393321348000143,40.05447058700048],[30.39336095700014,40.05588900800069],[30.394156662000114,40.05819558900049],[30.394726059999982,40.0586596020006],[30.395179281000082,40.05924941800038]]],"type":"Polygon"}},{"type":"Feature","properties":{"area_id":"TR-11-004-10648","name_tr":"Karaağaç","area_level":"neighbourhood","parent_id":"TR-11-004","endeksa_id":10648},"geometry":{"coordinates":[[[30.433198933116103,40.07146707278429],[30.432375010000044,40.07277890000017],[30.42414212200009,40.073795182000595],[30.416374435000023,40.072432540000136],[30.411479426000085,40.06046064300017],[30.40831072100019,40.058190038000475],[30.398721591000083,40.05023718600006],[30.398492850000082,40.049830896],[30.402429045000076,40.05002078400008],[30.402804524000146,40.04895828700006],[30.40269847100018,40.048840276000476],[30.40285684600002,40.04875730900045],[30.40351048900004,40.04462420400051],[30.40447413300018,40.04299456000018],[30.4086039070001,40.040096200000676],[30.41234933300001,40.03885457600012],[30.412895022000157,40.03887691500006],[30.413000905000104,40.03876962200019],[30.413029447000156,40.0389062700001],[30.416050076361557,40.04303534338783],[30.416010000000142,40.04323000000011],[30.416160000000104,40.043520000000456],[30.416060000000186,40.044020000000614],[30.415880000000243,40.044510000000116],[30.415610000000072,40.0445900000002],[30.415660000000116,40.04490000000027],[30.41536000000019,40.04524000000015],[30.415310000000147,40.04542000000009],[30.415617280734693,40.045792461496944],[30.414705994702103,40.04618539434108],[30.414652030015134,40.046299344056365],[30.414741595705664,40.0463932240998],[30.415736347127506,40.04636778396059],[30.41663050286894,40.04622144102103],[30.416551655755597,40.04635222149852],[30.416684732282988,40.046454497235516],[30.418547634000163,40.04642992900011],[30.418864213218114,40.04685913252507],[30.419001233799463,40.04691057468119],[30.423110835748332,40.04654333306382],[30.423246014572726,40.04641091826238],[30.423089961826918,40.04629321292305],[30.42428049699049,40.04627071272631],[30.424856596427105,40.04613797033039],[30.424756007315125,40.04627691829819],[30.42490684462433,40.04638080966464],[30.42668907000018,40.04622352100006],[30.42686345000004,40.052161610000155],[30.433071690000133,40.05613096100001],[30.438410110000063,40.064554490000205],[30.436379730000112,40.067905881000115],[30.433452270000032,40.06872484100006],[30.43441293000012,40.0694100500005],[30.433198933116103,40.07146707278429]]],"type":"Polygon"}},{"type":"Feature","properties":{"area_id":"TR-11-004-2005760","name_tr":"Çayköy Köyü","area_level":"neighbourhood","parent_id":"TR-11-004","endeksa_id":2005760},"geometry":{"coordinates":[[[30.463461086847644,40.06809953206846],[30.461497798000096,40.06875591000005],[30.46090334500019,40.06915863900002],[30.46060001900014,40.07176089500041],[30.451013497000076,40.073806631000025],[30.443951957000024,40.07401123100044],[30.436083110000084,40.069304110000076],[30.435299496000084,40.06965296100026],[30.43346186638894,40.07161019726203],[30.43325138245359,40.071620796079856],[30.433198933116103,40.07146707278429],[30.43441293000012,40.0694100500005],[30.433452270000032,40.06872484100006],[30.436379730000112,40.067905881000115],[30.438410110000063,40.064554490000205],[30.433071690000133,40.05613096100001],[30.42686345000004,40.052161610000155],[30.42668907000018,40.04622352100006],[30.42490684462433,40.04638080966464],[30.424756007315125,40.04627691829819],[30.424856596427105,40.04613797033039],[30.42800000000011,40.04524000000015],[30.429380000000037,40.04493000000059],[30.432160000000238,40.04442000000034],[30.432950000000233,40.044350000000236],[30.4337900000001,40.04410000000013],[30.435080000000085,40.04395000000051],[30.43664000000018,40.043920000000185],[30.437370000000158,40.0443700000003],[30.437960000000146,40.04447000000022],[30.438470000000052,40.04443000000043],[30.4396500000002,40.04400000000038],[30.43990000000008,40.044270000000154],[30.441400000000215,40.04458000000005],[30.442550000000153,40.04514000000023],[30.442860000000223,40.045500000000175],[30.44319000000013,40.045540000000074],[30.443450000000155,40.04548000000011],[30.444060000000036,40.04511000000019],[30.445400000000063,40.04410000000013],[30.446730000000116,40.044270000000154],[30.44885000000005,40.04431000000045],[30.449420000000146,40.04426000000058],[30.449830000000134,40.04410000000013],[30.450700000000154,40.04413000000034],[30.450910000000135,40.04425000000009],[30.451380000000142,40.04413000000034],[30.452160000000163,40.044230000000255],[30.452480000000207,40.044050000000254],[30.452990000000113,40.04394000000042],[30.453730000000064,40.043920000000185],[30.45437000000004,40.0440600000004],[30.454390000000103,40.043430000000114],[30.455280000000243,40.042500000000075],[30.45688000000007,40.04187000000036],[30.45858000000004,40.04094000000015],[30.460200000000157,40.03691000000015],[30.46087000000017,40.03654000000006],[30.461020000000133,40.03625000000005],[30.46100000000007,40.03578000000027],[30.461530000000096,40.0355500000004],[30.462190000000135,40.031600000000424],[30.463360000000137,40.03099000000003],[30.46372000000008,40.03011000000009],[30.461990000000128,40.02532000000025],[30.469490000000178,40.02737000000019],[30.4729200000001,40.02915000000024],[30.475670000000093,40.030880000000536],[30.48054000000019,40.033760000000086],[30.483900000000176,40.03511000000026],[30.482790000000193,40.035370000000285],[30.48140000000012,40.03589000000011],[30.481800000000135,40.03661000000017],[30.480560000000253,40.03718000000026],[30.480960000000096,40.03793000000013],[30.481800000000135,40.03768000000042],[30.482530000000168,40.038600000000145],[30.483310000000245,40.038250000000176],[30.48353732122854,40.03795001051054],[30.48358916275572,40.03807681382705],[30.48373162276539,40.03805003117981],[30.48328143100008,40.038500832000125],[30.480156951000026,40.03930309300051],[30.47905974700018,40.04318998700006],[30.474030967000147,40.04499707500037],[30.47337221400005,40.05813293600005],[30.47734335199999,40.05836255500009],[30.47644314814812,40.06015430739615],[30.473810000000242,40.05980000000028],[30.47286000000014,40.06057000000004],[30.466920000000187,40.06172000000015],[30.465320000000133,40.06318000000016],[30.46465000000012,40.06234000000012],[30.46391000000017,40.06218000000041],[30.46434000000005,40.063840000000596],[30.464330000000132,40.065360000000055],[30.46403000000015,40.06575000000021],[30.464610000000164,40.06741000000039],[30.463360000000137,40.06777000000034],[30.46310000000011,40.0677500000001],[30.463461086847644,40.06809953206846]]],"type":"Polygon"}},{"type":"Feature","properties":{"area_id":"TR-11-004-2005765","name_tr":"Samrı Köyü","area_level":"neighbourhood","parent_id":"TR-11-004","endeksa_id":2005765},"geometry":{"coordinates":[[[30.29035252600005,40.065155908000406],[30.290048322000075,40.06516004100013],[30.287785134000046,40.06352653200008],[30.29177327200017,40.057151555000075],[30.28901894400019,40.056753276999984],[30.28768949400012,40.054565699000534],[30.287475079000046,40.04971496200005],[30.275097346999985,40.0467074540004],[30.275007311000024,40.0466129980004],[30.286068733000036,40.01833718300003],[30.288947987000086,40.018081395000195],[30.29203877000009,40.013447890000066],[30.2910982840001,40.00324319600003],[30.291264172000126,40.00314138200031],[30.291074378000076,40.000235900000064],[30.291221650000182,40.00013290000061],[30.308632663000083,40.00208796300012],[30.30872835500014,40.00216484300006],[30.30914321700004,40.004041455000106],[30.313786770000092,40.00458779000007],[30.315198436000173,40.003391645000136],[30.316580817999977,40.00449941500017],[30.31672320300015,40.00451959500003],[30.317700207000144,40.00328933600065],[30.317878331000145,40.003262605000145],[30.318381536000118,40.00713952300009],[30.32574444200003,40.01856810100014],[30.32423993200007,40.021087949000446],[30.32445745900003,40.02214264400004],[30.32487510700014,40.022408399000085],[30.325781462000066,40.024230687000056],[30.32963802900008,40.02771749800053],[30.328742711000075,40.02967007299998],[30.331323189000045,40.03019209500019],[30.33522324000006,40.025626213000066],[30.33536157600014,40.02558438100016],[30.335454613000138,40.02565270800039],[30.338399593000076,40.03327410300011],[30.342791514999988,40.03516103200019],[30.35397308295029,40.03447070674065],[30.349240000000236,40.03970000000004],[30.34328000000022,40.04990000000004],[30.337850000000174,40.05615000000029],[30.333580000000154,40.05881000000011],[30.32504000000023,40.0614700000001],[30.320037344145646,40.06459772521117],[30.319195205000028,40.06464669400037],[30.316457351000167,40.060911136000016],[30.31052861800015,40.05850585300004],[30.304290013000127,40.05996983600011],[30.301371340999992,40.063723272000175],[30.29035252600005,40.065155908000406]]],"type":"Polygon"}},{"type":"Feature","properties":{"area_id":"TR-11-004-10646","name_tr":"Akkum","area_level":"neighbourhood","parent_id":"TR-11-004","endeksa_id":10646},"geometry":{"coordinates":[[[30.395179281000082,40.05924941800038],[30.395319017000133,40.05912567500053],[30.396934416000136,40.060395402000154],[30.402676529000132,40.06064253300008],[30.40407196600006,40.0638273050007],[30.40210826000009,40.06692558900005],[30.398469342999988,40.07046213399997],[30.396676549000176,40.07158923500009],[30.396243869000102,40.07218272800009],[30.39817713000008,40.072204451000516],[30.397181230000115,40.07282716000026],[30.398416650000172,40.07347887000003],[30.395909450000033,40.07477064000011],[30.39813851000008,40.078924440000264],[30.393036740000184,40.08117698100057],[30.399904710000044,40.08610455100006],[30.39677438000018,40.0852747400001],[30.397310510000125,40.08731177000021],[30.39913617000019,40.088772092000056],[30.39901853000009,40.09209790000011],[30.39749964000015,40.09323524100017],[30.398550490000048,40.09708217200006],[30.397050960000172,40.09862095000051],[30.390516819136963,40.09898446712589],[30.389204985000163,40.09686202900019],[30.390479930000026,40.091924690000326],[30.3854356600001,40.086086580000085],[30.37226985000001,40.08425717000006],[30.372184366000056,40.08416375500025],[30.372577080000042,40.083470509999984],[30.372718110000164,40.082638570000086],[30.372209070000167,40.08234874000044],[30.369660973000066,40.084880110000086],[30.369500964667793,40.08488975315822],[30.36942797853618,40.08499477655653],[30.369310000000098,40.08339000000029],[30.369590000000187,40.08220000000006],[30.369790000000194,40.08198000000016],[30.369820000000175,40.081030000000396],[30.36924000000016,40.07977000000005],[30.369200000000035,40.079150000000084],[30.3694000000001,40.07860000000028],[30.36937000000006,40.078250000000594],[30.36921000000018,40.0779900000004],[30.368970000000047,40.077810000000056],[30.36887000000013,40.077530000000706],[30.36956000000015,40.077220000000125],[30.37145000000004,40.07600000000059],[30.37184000000019,40.07532000000009],[30.372950000000174,40.0740100000001],[30.373800000000188,40.07222000000047],[30.371870000000172,40.07290000000006],[30.376164108963508,40.06101413762059],[30.380750000000035,40.05763000000036],[30.38151000000022,40.05661000000066],[30.38179000000008,40.057460000000106],[30.383790000000033,40.059010000000285],[30.383853856103713,40.05886562967925],[30.383997388000125,40.05880116300068],[30.384003734000146,40.05897820600018],[30.385475916000075,40.0598512360001],[30.38928616200019,40.059904594000045],[30.39087607700003,40.06031341000016],[30.392107680000095,40.060114635000104],[30.394281895999995,40.06062556200004],[30.395325401000093,40.06062031200065],[30.3957708640001,40.06039518000017],[30.39581319500013,40.06029575100035],[30.395315756000116,40.05989587100066],[30.39498777500006,40.05943317400016],[30.395179281000082,40.05924941800038]]],"type":"Polygon"}},{"type":"Feature","properties":{"area_id":"TR-11-004-2005763","name_tr":"Koyunlu Köyü","area_level":"neighbourhood","parent_id":"TR-11-004","endeksa_id":2005763},"geometry":{"coordinates":[[[30.3767908210001,40.10321256900005],[30.37237128099997,40.1024784440001],[30.371452666000096,40.10461357200006],[30.36791528100008,40.10633072600035],[30.372963740000046,40.109961680000026],[30.37409537100018,40.111687241000084],[30.375833343000068,40.11316810800031],[30.376266385000065,40.11426696700005],[30.3759128210001,40.11446304700007],[30.376127325000084,40.11479045900052],[30.376243810000062,40.114744551000626],[30.376142812000012,40.11481409700019],[30.376426293000122,40.115246792000164],[30.376621499000123,40.11516808600004],[30.376779519000024,40.11557058600067],[30.376647546000072,40.11550034300012],[30.376529624000057,40.115579082000124],[30.376357289199575,40.11621777514614],[30.37605000000019,40.11589000000009],[30.37500000000017,40.1143500000004],[30.374590000000182,40.1143100000001],[30.370410000000163,40.11265000000043],[30.365290000000186,40.1111600000001],[30.364730000000236,40.11147000000017],[30.360530000000153,40.11209000000031],[30.358570000000157,40.111230000000205],[30.358080000000143,40.11125000000027],[30.356840000000034,40.1117500000002],[30.356430000000046,40.112850000000094],[30.35540000000009,40.11276000000032],[30.35604000000012,40.111670000000345],[30.349590000000035,40.10883000000018],[30.348420000000033,40.108570000000384],[30.347150000000113,40.108110000000124],[30.34366000000017,40.10642000000013],[30.34248000000008,40.106270000000336],[30.336760000000197,40.104730000000245],[30.333080000000166,40.10308000000015],[30.328147546163507,40.10423476584913],[30.327943081250112,40.104146586140985],[30.32609301900004,40.09887985600011],[30.326192637000077,40.09884501800008],[30.325973527000087,40.098542727000165],[30.32338531000005,40.096529680000174],[30.321620150000058,40.09332049000017],[30.322821500000146,40.090787490000025],[30.324185616000193,40.09053583900061],[30.324164315000132,40.09022277700046],[30.324296142000094,40.09051529699997],[30.324495816000137,40.09028730800003],[30.32453010800009,40.0904718110001],[30.32687125800004,40.090036683000164],[30.33158468400012,40.08652438500019],[30.33185735724072,40.08408516328683],[30.332180000000164,40.085020000000156],[30.340790000000027,40.08454000000023],[30.348530000000096,40.08373000000017],[30.353870000000143,40.08434000000017],[30.3592000000001,40.086790000000235],[30.364010000000178,40.08659000000017],[30.367550000000108,40.08551000000017],[30.36943000000008,40.08511000000033],[30.36942797853618,40.08499477655653],[30.369500964667793,40.08488975315822],[30.369660973000066,40.084880110000086],[30.372209070000167,40.08234874000044],[30.372718110000164,40.082638570000086],[30.372577080000042,40.083470509999984],[30.372184366000056,40.08416375500025],[30.37226985000001,40.08425717000006],[30.3854356600001,40.086086580000085],[30.390479930000026,40.091924690000326],[30.389204985000163,40.09686202900019],[30.390516819136963,40.09898446712589],[30.389346200000034,40.1015673320004],[30.37913322300011,40.10101655200015],[30.37690697200003,40.1029599150001],[30.37693794300003,40.10314941100012],[30.3767908210001,40.10321256900005]]],"type":"Polygon"}},{"type":"Feature","properties":{"area_id":"TR-11-004-2005767","name_tr":"Tozman Köyü","area_level":"neighbourhood","parent_id":"TR-11-004","endeksa_id":2005767},"geometry":{"coordinates":[[[30.53063414769963,40.06051948520076],[30.524629900000434,40.06295150000079],[30.523276600000372,40.064095200000565],[30.524760600000434,40.064543500000354],[30.523998400000266,40.065548000000376],[30.521223100000498,40.066607000000204],[30.521117400000435,40.068291100000636],[30.522244800000465,40.06855900000079],[30.52300520000051,40.06732700000009],[30.524548500000435,40.067775100000574],[30.52663000000058,40.06890320000048],[30.524510900000394,40.070596400000454],[30.52173020000049,40.07097290000013],[30.518533806000562,40.07043720200039],[30.519510050000463,40.072158329000615],[30.519875566000508,40.07697558500024],[30.52685808000041,40.088734215000215],[30.53580442000043,40.10162664500024],[30.53941192400049,40.112060784000164],[30.53944842600049,40.11266481300049],[30.539838439000505,40.11310044600043],[30.54412051500043,40.12155831200084],[30.54466152100042,40.122234986000876],[30.54597529595418,40.12317750830857],[30.53236000000021,40.12306000000058],[30.526970000000063,40.1221500000006],[30.515280000000075,40.12112000000013],[30.5143700000001,40.11847000000023],[30.514140000000054,40.118300000000374],[30.51393000000013,40.11638000000016],[30.51323000000008,40.11634000000021],[30.512110000000177,40.115230000000054],[30.494280000000174,40.11211000000037],[30.494123071106458,40.11364806398569],[30.492090000000132,40.11308000000048],[30.491330000000175,40.112280000000396],[30.489900000000148,40.11155000000036],[30.48853000000014,40.10824000000008],[30.48677000000015,40.105480000000114],[30.486870000000067,40.103550000000155],[30.48596000000009,40.10187000000025],[30.486500000000035,40.10034000000013],[30.487780000000043,40.099550000000136],[30.488790000000108,40.09740000000056],[30.48884000000021,40.09568000000036],[30.4905500000001,40.09298000000007],[30.490220000000136,40.09167000000042],[30.48761000000019,40.08874000000026],[30.485570000000166,40.086170000000095],[30.484610000000146,40.083260000000166],[30.484740000000045,40.082950000000096],[30.48422000000022,40.08148000000017],[30.484770000000253,40.08023000000031],[30.484710000000064,40.080070000000546],[30.48374000000007,40.0793800000003],[30.480210000000056,40.07873000000052],[30.475550000000112,40.07909000000046],[30.473250000000064,40.078740000000096],[30.47044000000011,40.07616000000036],[30.46812000000017,40.07339000000013],[30.467990000000043,40.07215000000036],[30.467660000000137,40.071610000000305],[30.464800000000082,40.07065000000006],[30.463550000000055,40.069420000000434],[30.463790000000188,40.06944000000067],[30.464830000000063,40.06913000000009],[30.464350000000138,40.06896000000006],[30.46310000000011,40.0677500000001],[30.463360000000137,40.06777000000034],[30.464610000000164,40.06741000000039],[30.46403000000015,40.06575000000021],[30.464330000000132,40.065360000000055],[30.46434000000005,40.063840000000596],[30.46391000000017,40.06218000000041],[30.46465000000012,40.06234000000012],[30.465320000000133,40.06318000000016],[30.466920000000187,40.06172000000015],[30.47286000000014,40.06057000000004],[30.473810000000242,40.05980000000028],[30.477080000000058,40.06024000000008],[30.479380000000106,40.06013000000007],[30.48922000000016,40.05649000000017],[30.49318000000011,40.0561100000005],[30.497790000000123,40.053520000000105],[30.50718000000012,40.05187000000069],[30.51418000000018,40.053060000000414],[30.528600000000154,40.05903000000052],[30.53063414769963,40.06051948520076]]],"type":"Polygon"}},{"type":"Feature","properties":{"area_id":"TR-11-004-2005764","name_tr":"Muratça Köyü","area_level":"neighbourhood","parent_id":"TR-11-004","endeksa_id":2005764},"geometry":{"coordinates":[[[30.425120239000137,40.11153606900018],[30.424990134000097,40.111537667000675],[30.4249568190001,40.10878582700036],[30.433671600000082,40.11020894100034],[30.441297633000147,40.11702241400036],[30.449401575000138,40.116089462000105],[30.454524844000105,40.121295756999984],[30.44340130700016,40.13382198400018],[30.443294918000106,40.13380348700019],[30.443192694000004,40.13366146000004],[30.4431799890001,40.133722220000095],[30.44132223000014,40.13336339000011],[30.43535736600012,40.125250022000046],[30.43057146100017,40.122457128000065],[30.43503245000005,40.11697496199997],[30.434999524000148,40.11639825500032],[30.431883281000125,40.113148244000115],[30.43021055400004,40.112072168000225],[30.428118808000136,40.11150066200037],[30.425120239000137,40.11153606900018]]],"type":"Polygon"}},{"type":"Feature","properties":{"area_id":"TR-11-004-2005759","name_tr":"Akköy Köyü","area_level":"neighbourhood","parent_id":"TR-11-004","endeksa_id":2005759},"geometry":{"coordinates":[[[30.49273643800018,40.13188981100063],[30.49465810999999,40.12792556000028],[30.48890718500013,40.12799514700026],[30.486444749000157,40.13095072200065],[30.48002749900013,40.13252320800001],[30.471995769000102,40.131408138000154],[30.470030040000097,40.1301996840005],[30.46762862800017,40.13077449300005],[30.467190869000092,40.13072032100018],[30.453449463000027,40.134159893000344],[30.44352603700014,40.13392512100046],[30.44340130700016,40.13382198400018],[30.454524844000105,40.121295756999984],[30.449401575000138,40.116089462000105],[30.441297633000147,40.11702241400036],[30.433671600000082,40.11020894100034],[30.4249568190001,40.10878582700036],[30.424990134000097,40.111537667000675],[30.425120239000137,40.11153606900018],[30.425008867000145,40.11158377700008],[30.4230020280001,40.11413868300008],[30.410401267000168,40.11685845100038],[30.399151075000134,40.114569383000344],[30.397593811000036,40.11159471400015],[30.38734363000009,40.11013838600013],[30.381066000000033,40.10395320500004],[30.3767908210001,40.10321256900005],[30.37693794300003,40.10314941100012],[30.37690697200003,40.1029599150001],[30.37913322300011,40.10101655200015],[30.389346200000034,40.1015673320004],[30.390516819136963,40.09898446712589],[30.397050960000172,40.09862095000051],[30.398550490000048,40.09708217200006],[30.39749964000015,40.09323524100017],[30.39901853000009,40.09209790000011],[30.39913617000019,40.088772092000056],[30.397310510000125,40.08731177000021],[30.39677438000018,40.0852747400001],[30.399904710000044,40.08610455100006],[30.393036740000184,40.08117698100057],[30.39813851000008,40.078924440000264],[30.395909450000033,40.07477064000011],[30.398416650000172,40.07347887000003],[30.397181230000115,40.07282716000026],[30.39817713000008,40.072204451000516],[30.396243869000102,40.07218272800009],[30.396676549000176,40.07158923500009],[30.398469342999988,40.07046213399997],[30.40210826000009,40.06692558900005],[30.40407196600006,40.0638273050007],[30.402676529000132,40.06064253300008],[30.396934416000136,40.060395402000154],[30.395319017000133,40.05912567500053],[30.395179281000082,40.05924941800038],[30.394726059999982,40.0586596020006],[30.394156662000114,40.05819558900049],[30.39336095700014,40.05588900800069],[30.393321348000143,40.05447058700048],[30.39381368400018,40.05217719500007],[30.395041490000153,40.050596333000044],[30.397311690000038,40.048960612000485],[30.39930621400009,40.04821598300009],[30.40269847100018,40.048840276000476],[30.402804524000146,40.04895828700006],[30.402429045000076,40.05002078400008],[30.398492850000082,40.049830896],[30.398721591000083,40.05023718600006],[30.40831072100019,40.058190038000475],[30.411479426000085,40.06046064300017],[30.416374435000023,40.072432540000136],[30.42414212200009,40.073795182000595],[30.432375010000044,40.07277890000017],[30.433198933116103,40.07146707278429],[30.43325138245359,40.071620796079856],[30.43346186638894,40.07161019726203],[30.435299496000084,40.06965296100026],[30.436083110000084,40.069304110000076],[30.443951957000024,40.07401123100044],[30.451013497000076,40.073806631000025],[30.46060001900014,40.07176089500041],[30.46090334500019,40.06915863900002],[30.461497798000096,40.06875591000005],[30.463461086847644,40.06809953206846],[30.464350000000138,40.06896000000006],[30.464830000000063,40.06913000000009],[30.463790000000188,40.06944000000067],[30.463550000000055,40.069420000000434],[30.464800000000082,40.07065000000006],[30.467660000000137,40.071610000000305],[30.467990000000043,40.07215000000036],[30.46812000000017,40.07339000000013],[30.47044000000011,40.07616000000036],[30.473250000000064,40.078740000000096],[30.475550000000112,40.07909000000046],[30.480210000000056,40.07873000000052],[30.48374000000007,40.0793800000003],[30.484710000000064,40.080070000000546],[30.484770000000253,40.08023000000031],[30.48422000000022,40.08148000000017],[30.484740000000045,40.082950000000096],[30.484610000000146,40.083260000000166],[30.485570000000166,40.086170000000095],[30.48761000000019,40.08874000000026],[30.490220000000136,40.09167000000042],[30.4905500000001,40.09298000000007],[30.48884000000021,40.09568000000036],[30.488790000000108,40.09740000000056],[30.487780000000043,40.099550000000136],[30.486500000000035,40.10034000000013],[30.48596000000009,40.10187000000025],[30.486870000000067,40.103550000000155],[30.48677000000015,40.105480000000114],[30.48853000000014,40.10824000000008],[30.489900000000148,40.11155000000036],[30.491330000000175,40.112280000000396],[30.492090000000132,40.11308000000048],[30.494123071106458,40.11364806398569],[30.494231092047073,40.11376842043455],[30.49407627500011,40.11576654800018],[30.502873959000055,40.11993196200058],[30.50133250200014,40.123611593000476],[30.502239832999976,40.125043903000176],[30.499379057000112,40.12698621300012],[30.49778346100004,40.12714932700027],[30.49767932500015,40.127227569000524],[30.5000402230001,40.1312776530001],[30.499968326999976,40.13136862400023],[30.497382596000193,40.13209384100014],[30.49500535900006,40.13302579500015],[30.492785332000153,40.132005809000134],[30.49273643800018,40.13188981100063]]],"type":"Polygon"}},{"type":"Feature","properties":{"area_id":"TR-11-004-2005761","name_tr":"Harmanköy Köyü","area_level":"neighbourhood","parent_id":"TR-11-004","endeksa_id":2005761},"geometry":{"coordinates":[[[30.415783107000095,40.1509206140006],[30.409532674000104,40.15106217100032],[30.401343347000136,40.15435901100011],[30.39616066500014,40.15379195000014],[30.395871179000153,40.153929727000104],[30.39591781400003,40.153827678000255],[30.39581485700012,40.153753659000074],[30.38712328800011,40.15279295700003],[30.38325707400014,40.15045177400003],[30.374487333000104,40.14884675300016],[30.37439710281359,40.14873263410203],[30.37289000000021,40.14616000000052],[30.37240000000014,40.146240000000034],[30.372120000000052,40.145900000000324],[30.372050000000115,40.14536000000004],[30.37281000000013,40.144530000000145],[30.372820000000104,40.14414000000039],[30.37312000000003,40.14322000000027],[30.372830000000192,40.141800000000046],[30.37250000000006,40.14124000000021],[30.37250000000006,40.14089000000007],[30.372050000000115,40.140320000000486],[30.37163000000004,40.13959000000034],[30.371280000000183,40.13832000000019],[30.371400000000165,40.138090000000034],[30.37215000000009,40.13764000000043],[30.37268000000006,40.1376200000002],[30.3733400000001,40.137780000000134],[30.373850000000232,40.137720000000115],[30.374460000000056,40.13792000000018],[30.374980000000107,40.13861000000003],[30.375180000000114,40.138740000000496],[30.375360000000114,40.13869000000011],[30.376110000000153,40.13797000000005],[30.377160000000174,40.13736000000017],[30.377270000000237,40.13703000000004],[30.377350000000092,40.13585000000012],[30.377780000000143,40.135460000000535],[30.3785000000002,40.13510000000008],[30.379100000000108,40.13454000000007],[30.380200000000173,40.134090000000185],[30.38113000000004,40.13402000000008],[30.38166000000018,40.13387000000006],[30.382260000000088,40.13303000000042],[30.38241000000005,40.132420000000536],[30.382400000000132,40.13213000000019],[30.381710000000055,40.130500000000154],[30.38120000000015,40.129660000000285],[30.38117000000011,40.129360000000304],[30.381560000000093,40.12902000000008],[30.38222000000013,40.12822000000011],[30.38355000000007,40.12742000000037],[30.384550000000218,40.126540000000034],[30.384410000000173,40.126350000000116],[30.3844900000002,40.12615000000045],[30.384250000000065,40.12550000000067],[30.384350000000154,40.12502000000006],[30.384550000000218,40.1248600000003],[30.38448000000011,40.124400000000605],[30.384190000000103,40.123910000000194],[30.38380000000012,40.12370000000027],[30.38364000000024,40.12346000000031],[30.383160000000146,40.123220000000344],[30.38324000000017,40.122910000000275],[30.383510000000115,40.1226400000001],[30.383470000000216,40.12250000000029],[30.382980000000146,40.122100000000046],[30.382650000000183,40.12162000000012],[30.38229000000007,40.12141000000048],[30.381410000000074,40.121770000000424],[30.381030000000123,40.12181000000021],[30.38061000000016,40.12172000000055],[30.380330000000072,40.121490000000165],[30.380070000000046,40.121180000000095],[30.379880000000185,40.12067000000036],[30.380000000000166,40.11961000000008],[30.379920000000084,40.11940000000044],[30.379330000000152,40.1190000000002],[30.37913000000009,40.11874000000017],[30.37891000000019,40.11867000000029],[30.37835000000024,40.11871000000019],[30.37794000000025,40.11854000000034],[30.377820000000042,40.11837000000048],[30.377830000000188,40.118200000000115],[30.37828000000013,40.11763000000036],[30.37828000000013,40.11732000000029],[30.378140000000087,40.11705000000018],[30.37758000000008,40.116810000000044],[30.37680000000006,40.11669000000006],[30.376357289199575,40.11621777514614],[30.376529624000057,40.115579082000124],[30.376647546000072,40.11550034300012],[30.376779519000024,40.11557058600067],[30.376621499000123,40.11516808600004],[30.376426293000122,40.115246792000164],[30.376142812000012,40.11481409700019],[30.376243810000062,40.114744551000626],[30.376127325000084,40.11479045900052],[30.3759128210001,40.11446304700007],[30.376266385000065,40.11426696700005],[30.375833343000068,40.11316810800031],[30.37409537100018,40.111687241000084],[30.372963740000046,40.109961680000026],[30.36791528100008,40.10633072600035],[30.371452666000096,40.10461357200006],[30.37237128099997,40.1024784440001],[30.3767908210001,40.10321256900005],[30.381066000000033,40.10395320500004],[30.38734363000009,40.11013838600013],[30.397593811000036,40.11159471400015],[30.399151075000134,40.114569383000344],[30.410401267000168,40.11685845100038],[30.4230020280001,40.11413868300008],[30.425008867000145,40.11158377700008],[30.425120239000137,40.11153606900018],[30.428118808000136,40.11150066200037],[30.43021055400004,40.112072168000225],[30.431883281000125,40.113148244000115],[30.434999524000148,40.11639825500032],[30.43503245000005,40.11697496199997],[30.43057146100017,40.122457128000065],[30.43535736600012,40.125250022000046],[30.44132223000014,40.13336339000011],[30.4431799890001,40.133722220000095],[30.443192694000004,40.13366146000004],[30.443294918000106,40.13380348700019],[30.4432246290001,40.13416211300017],[30.44359089000011,40.139380479000465],[30.43573978000012,40.14016179600003],[30.431793848000098,40.14478860300011],[30.431664976000093,40.14484990600016],[30.42664682000003,40.14416060100001],[30.41551856000018,40.14864457100066],[30.415907989000118,40.15081312400008],[30.415783107000095,40.1509206140006]]],"type":"Polygon"}}]}