{"type":"FeatureCollection","source_id":"endeksa","retrieved_at":"2026-08-23","features":[{"type":"Feature","properties":{"area_id":"TR-11-007-2005844","name_tr":"Zemzemiye Köyü","area_level":"neighbourhood","parent_id":"TR-11-007","endeksa_id":2005844},"geometry":{"coordinates":[[[30.319113081000182,39.867441074000055],[30.31702950000016,39.870380100000034],[30.307122700000093,39.871799500000066],[30.30359900000002,39.87304330000012],[30.30289210000018,39.876742100000286],[30.30016360000019,39.878866200000175],[30.29660514500017,39.888302823000345],[30.296564684000145,39.88706248500057],[30.2910242050001,39.88498829500037],[30.289029151000022,39.88580615400008],[30.285352696000075,39.88197449400013],[30.27693598000019,39.880193865000194],[30.27566381700018,39.87774712000066],[30.268339921000063,39.876385347000166],[30.26494894900003,39.878436441000076],[30.25836917700002,39.87701331100061],[30.249536736000152,39.87049618000009],[30.24482587400007,39.870685127000684],[30.244717244000128,39.87082691299997],[30.246234243000174,39.87298416400006],[30.244902572000058,39.87759214800013],[30.24297054900012,39.87925699100009],[30.242671914000027,39.87942022900063],[30.239299916000107,39.875477493000005],[30.239187509000146,39.87543301400018],[30.240007042000173,39.87537732700025],[30.244134499000154,39.87108985900005],[30.244796647000044,39.86560275500045],[30.244912212000145,39.86553965500002],[30.247042675999978,39.865518717999976],[30.24657048800003,39.86335306800021],[30.249196074000167,39.86343803800031],[30.251719339000147,39.86102095500007],[30.24982494799997,39.85719360200005],[30.249847271000135,39.857096036000485],[30.255330139000137,39.85645875200015],[30.25903949500008,39.85565419700015],[30.262116235999997,39.854580588000545],[30.266077089000078,39.85178602300016],[30.26679687348684,39.85042127120698],[30.27182000000016,39.849480000000256],[30.272610000000157,39.849520000000155],[30.273035955733064,39.84873306483246],[30.27349543400004,39.848678836000374],[30.273269768000034,39.84907047400009],[30.27332144100012,39.849193787000104],[30.274808299000085,39.84889152500011],[30.27696758200011,39.84826904300013],[30.27770170000008,39.848182400000155],[30.278391641999974,39.84785851200036],[30.27965237900014,39.84749506500003],[30.285566235000033,39.84449046000003],[30.287848050000093,39.84341928100014],[30.293554365000034,39.84159365000016],[30.294171002000155,39.841548116000126],[30.29351000000014,39.843100600000184],[30.295373500000153,39.848231700000326],[30.29503160000013,39.856880500000045],[30.30386200000015,39.86465860000004],[30.304436701000157,39.86501349200046],[30.305979080000157,39.865565414000116],[30.30861553600016,39.86631575200056],[30.312209900000028,39.86756880000013],[30.319113081000182,39.867441074000055]]],"type":"Polygon"}},{"type":"Feature","properties":{"area_id":"TR-11-007-2005836","name_tr":"Oluklu Köyü","area_level":"neighbourhood","parent_id":"TR-11-007","endeksa_id":2005836},"geometry":{"coordinates":[[[30.22939845717923,39.93908152393027],[30.229329838060494,39.939214708107386],[30.229140028366828,39.939210447516245],[30.20823760100012,39.927033340000094],[30.208058273000177,39.92691315700006],[30.207454196000015,39.92572940700012],[30.20752820900003,39.92560129800046],[30.20730170400003,39.92559469800062],[30.198484309000094,39.91681139300033],[30.198298319000173,39.91658252400049],[30.198749787000054,39.91474605400009],[30.199709518000134,39.91300619200052],[30.199592788000075,39.91287328900012],[30.199780301000033,39.912815005000425],[30.204076169000075,39.90511399700006],[30.20410685799999,39.90437245600026],[30.204310915999997,39.904398815000036],[30.204700148000086,39.903958726000155],[30.20525511600016,39.902807940000116],[30.207146595999973,39.89543211000006],[30.207703520000052,39.89015357500017],[30.21191304900009,39.883406282000124],[30.215389929000025,39.88112982300015],[30.21460227900002,39.87687890900014],[30.22420179900007,39.87437207400012],[30.226402465000092,39.87608670000009],[30.232061729000122,39.875717876000124],[30.23215986100007,39.8757759180001],[30.232601018000025,39.876715484000215],[30.23270232200008,39.876770138000154],[30.232827672000155,39.87672121700007],[30.233587061000037,39.87560432600014],[30.239187509000146,39.87543301400018],[30.239299916000107,39.875477493000005],[30.242671914000027,39.87942022900063],[30.24265991200008,39.87952280300004],[30.242165926999974,39.87994735700005],[30.24248895400018,39.882818101000396],[30.247510716000193,39.88500519700017],[30.248604957000055,39.88627936600017],[30.248599556000045,39.88637455300017],[30.248360895000076,39.88650292],[30.248341707999998,39.88660645700014],[30.250307863000046,39.88925053500009],[30.25023764500014,39.88935443400004],[30.24902059700014,39.88966114400006],[30.24893865400003,39.8897512920002],[30.250125786000183,39.89464606600018],[30.245665747000032,39.90388546300005],[30.248539828000048,39.91024391400009],[30.247791966000193,39.91513868500016],[30.249024544000008,39.91566744000045],[30.24929249800016,39.915652137000336],[30.2493895770001,39.91573608200008],[30.249411454350025,39.91615438163234],[30.24927000000008,39.916020000000344],[30.24934000000019,39.91579000000013],[30.2490600000001,39.91575000000017],[30.24788000000018,39.91608000000048],[30.24766000000011,39.915960000000496],[30.247760000000028,39.91554000000042],[30.24660000000017,39.91539000000023],[30.246650000000216,39.91501000000005],[30.2462000000001,39.91499000000016],[30.246240000000228,39.91458000000017],[30.246000000000038,39.91453000000013],[30.245840000000157,39.91501000000005],[30.245530000000088,39.91456000000011],[30.245380000000125,39.91452000000004],[30.244890000000055,39.91467000000034],[30.24273000000005,39.91421000000014],[30.241920000000164,39.914290000000165],[30.241580000000113,39.91452000000004],[30.24122000000017,39.914600000000235],[30.24085000000008,39.91508000000016],[30.239770000000078,39.91480000000007],[30.239560000000097,39.91499000000016],[30.240000000000123,39.91554000000042],[30.23979000000014,39.91546000000034],[30.239200000000153,39.91545000000025],[30.23936000000009,39.91625000000033],[30.239060000000165,39.91736000000037],[30.239130000000046,39.91759000000036],[30.23809000000017,39.91769000000011],[30.237890000000164,39.917540000000486],[30.237630000000138,39.917630000000145],[30.2374700000002,39.91792000000066],[30.237330000000156,39.91770000000025],[30.236880000000042,39.91772000000009],[30.236560000000054,39.91834000000006],[30.23623000000009,39.91854000000012],[30.23599000000013,39.918500000000336],[30.235970000000066,39.91862000000032],[30.23580000000004,39.918720000000064],[30.235730000000103,39.91904000000028],[30.23598000000004,39.919310000000564],[30.235970000000066,39.91955000000053],[30.235710000000097,39.91981000000004],[30.23552000000018,39.919870000000174],[30.235130000000197,39.9203100000002],[30.234560000000158,39.92060000000072],[30.234850000000165,39.920700000000465],[30.234920000000102,39.92085000000009],[30.234970000000146,39.92155000000008],[30.234760000000165,39.92150000000021],[30.234790000000146,39.92161000000044],[30.233770000000163,39.922410000000184],[30.233590000000163,39.92267000000004],[30.233810000000062,39.92286000000013],[30.2335300000002,39.923240000000305],[30.232250000000136,39.92372000000023],[30.230990000000133,39.92382000000015],[30.22948000000008,39.924230000000136],[30.22747000000004,39.92446000000035],[30.22731000000016,39.924850000000106],[30.22774000000021,39.9267200000001],[30.227630000000147,39.927210000000514],[30.22759000000019,39.92918000000009],[30.22703000000007,39.929590000000076],[30.226800000000196,39.931100000000356],[30.227580000000103,39.932320000000175],[30.227570000000185,39.933220000000404],[30.227710000000172,39.93379000000016],[30.228280000000098,39.93463000000054],[30.228810000000067,39.93624000000017],[30.229100000000074,39.936620000000346],[30.229020000000048,39.93700000000052],[30.229100000000074,39.93803000000048],[30.22939845717923,39.93908152393027]]],"type":"Polygon"}},{"type":"Feature","properties":{"area_id":"TR-11-007-2005838","name_tr":"Rızapaşa Köyü","area_level":"neighbourhood","parent_id":"TR-11-007","endeksa_id":2005838},"geometry":{"coordinates":[[[30.258865282388456,39.9486483524563],[30.259200000000135,39.94912000000005],[30.25918000000007,39.94936000000018],[30.257470000000183,39.949600000000146],[30.256680000000188,39.95016000000015],[30.256050000000073,39.94993000000028],[30.25537000000014,39.95031000000046],[30.254610000000127,39.94992000000019],[30.254300000000057,39.95004000000017],[30.25419000000022,39.949350000000095],[30.25361000000015,39.94854000000038],[30.25333000000012,39.94858000000016],[30.252950000000112,39.94829000000033],[30.25231000000008,39.94808000000069],[30.25218000000018,39.948330000000055],[30.25148000000013,39.94835000000029],[30.251210000000185,39.94858000000016],[30.250740000000235,39.948520000000144],[30.25021000000004,39.94740000000019],[30.249530000000107,39.94674000000066],[30.24918000000008,39.947060000000135],[30.248800000000074,39.94692000000009],[30.248520000000042,39.94700000000017],[30.24791000000016,39.94666000000029],[30.247920000000136,39.94655000000057],[30.24810000000008,39.94643000000008],[30.247100000000103,39.94608000000005],[30.246710000000178,39.94615000000016],[30.24577000000005,39.945890000000134],[30.245300000000043,39.946440000000166],[30.245110000000125,39.94687000000005],[30.2448100000002,39.94688000000019],[30.244480000000067,39.94671000000034],[30.244350000000168,39.94700000000017],[30.244460000000174,39.94711000000018],[30.244110000000205,39.94751000000042],[30.244370000000174,39.947870000000364],[30.243830000000116,39.94827000000009],[30.243520000000046,39.94785000000013],[30.242440000000045,39.948480000000416],[30.241410000000087,39.94886000000042],[30.24051000000003,39.94959000000006],[30.240180000000066,39.94971000000055],[30.239610000000198,39.94969000000032],[30.239630000000034,39.9497700000004],[30.23849000000007,39.950070000000494],[30.238230000000044,39.95026000000007],[30.238040000000126,39.95011000000028],[30.23713000000015,39.95092000000034],[30.236890000000187,39.951210000000344],[30.236860000000206,39.9513800000002],[30.236140000000148,39.95163000000025],[30.23598000000004,39.95145000000031],[30.235810000000185,39.95148000000063],[30.235790000000122,39.95179000000019],[30.233950000000107,39.95238000000012],[30.233820000000208,39.952540000000226],[30.233697344616928,39.952492824853095],[30.233340000000112,39.95244000000048],[30.233090000000175,39.95228000000003],[30.233150000000194,39.95209000000011],[30.232320000000072,39.95083000000017],[30.231500000000096,39.94611000000003],[30.23164000000014,39.9458200000002],[30.231750000000147,39.945790000000216],[30.231670000000122,39.94555000000025],[30.23133000000024,39.945140000000436],[30.231080000000134,39.94368000000043],[30.23115000000007,39.94368000000043],[30.231100000000197,39.943030000000135],[30.229990000000214,39.94094000000041],[30.230000000000132,39.939840000000345],[30.229920000000106,39.93964000000011],[30.229470000000163,39.939320000000635],[30.229100000000074,39.93803000000048],[30.229020000000048,39.93700000000052],[30.229100000000074,39.936620000000346],[30.228810000000067,39.93624000000017],[30.228280000000098,39.93463000000054],[30.227710000000172,39.93379000000016],[30.227570000000185,39.933220000000404],[30.227580000000103,39.932320000000175],[30.226800000000196,39.931100000000356],[30.22703000000007,39.929590000000076],[30.22759000000019,39.92918000000009],[30.227630000000147,39.927210000000514],[30.22774000000021,39.9267200000001],[30.22731000000016,39.924850000000106],[30.22747000000004,39.92446000000035],[30.22948000000008,39.924230000000136],[30.230990000000133,39.92382000000015],[30.232250000000136,39.92372000000023],[30.2335300000002,39.923240000000305],[30.233810000000062,39.92286000000013],[30.233590000000163,39.92267000000004],[30.233770000000163,39.922410000000184],[30.234790000000146,39.92161000000044],[30.234760000000165,39.92150000000021],[30.234970000000146,39.92155000000008],[30.234920000000102,39.92085000000009],[30.234850000000165,39.920700000000465],[30.234560000000158,39.92060000000072],[30.235130000000197,39.9203100000002],[30.23552000000018,39.919870000000174],[30.235710000000097,39.91981000000004],[30.235970000000066,39.91955000000053],[30.23598000000004,39.919310000000564],[30.235730000000103,39.91904000000028],[30.23580000000004,39.918720000000064],[30.235970000000066,39.91862000000032],[30.23599000000013,39.918500000000336],[30.23623000000009,39.91854000000012],[30.236560000000054,39.91834000000006],[30.236880000000042,39.91772000000009],[30.237330000000156,39.91770000000025],[30.2374700000002,39.91792000000066],[30.237630000000138,39.917630000000145],[30.237890000000164,39.917540000000486],[30.23809000000017,39.91769000000011],[30.239130000000046,39.91759000000036],[30.239060000000165,39.91736000000037],[30.23936000000009,39.91625000000033],[30.239200000000153,39.91545000000025],[30.23979000000014,39.91546000000034],[30.240000000000123,39.91554000000042],[30.239560000000097,39.91499000000016],[30.239770000000078,39.91480000000007],[30.24085000000008,39.91508000000016],[30.24122000000017,39.914600000000235],[30.241580000000113,39.91452000000004],[30.241920000000164,39.914290000000165],[30.24273000000005,39.91421000000014],[30.244890000000055,39.91467000000034],[30.245380000000125,39.91452000000004],[30.245530000000088,39.91456000000011],[30.245840000000157,39.91501000000005],[30.246000000000038,39.91453000000013],[30.246240000000228,39.91458000000017],[30.2462000000001,39.91499000000016],[30.246650000000216,39.91501000000005],[30.24660000000017,39.91539000000023],[30.247760000000028,39.91554000000042],[30.24766000000011,39.915960000000496],[30.24788000000018,39.91608000000048],[30.2490600000001,39.91575000000017],[30.24934000000019,39.91579000000013],[30.24927000000008,39.916020000000344],[30.249411454350025,39.91615438163234],[30.24946000000017,39.91631000000035],[30.24937000000017,39.91647000000006],[30.248950000000093,39.9168200000006],[30.248860000000093,39.917100000000346],[30.248860000000093,39.917750000000126],[30.249000000000137,39.918190000000266],[30.24890000000022,39.91924000000046],[30.24894000000012,39.91957000000008],[30.249570000000233,39.92055000000016],[30.24955000000017,39.92112000000003],[30.24990000000014,39.92183000000017],[30.249940000000095,39.92265000000015],[30.25010000000003,39.92331000000041],[30.250040000000183,39.92344000000037],[30.250220000000184,39.9237600000007],[30.25020000000012,39.92434000000037],[30.249810000000195,39.925810000000126],[30.24998000000005,39.92619000000013],[30.25085000000007,39.92701000000034],[30.25126000000006,39.927540000000135],[30.252330000000143,39.92815000000013],[30.25311000000022,39.929160000000195],[30.253310000000056,39.92981000000037],[30.253410000000144,39.930890000000204],[30.25355000000019,39.931230000000596],[30.253900000000215,39.93171000000052],[30.254870000000153,39.93394000000029],[30.25556000000006,39.936090000000036],[30.255890000000193,39.939750000000686],[30.255740000000173,39.940280000000485],[30.255670000000066,39.941080000000056],[30.25612000000018,39.941540000000316],[30.25665000000015,39.94183000000015],[30.256680000000188,39.941980000000456],[30.257490000000246,39.94268000000011],[30.258160000000032,39.94308000000052],[30.25829000000016,39.943250000000376],[30.25835000000012,39.94346000000019],[30.25828000000024,39.94368000000043],[30.258420000000058,39.943930000000364],[30.2606100000001,39.94402000000014],[30.26170000000019,39.94445000000019],[30.260930000000087,39.94453000000004],[30.260690000000125,39.94475000000017],[30.260260000000073,39.94476000000026],[30.259390000000053,39.94555000000025],[30.259350000000097,39.94574000000034],[30.25959000000006,39.94606000000016],[30.258490000000165,39.94661000000042],[30.258330000000115,39.94649000000004],[30.25813000000005,39.94686000000013],[30.25797000000017,39.94686000000013],[30.257330000000138,39.94745000000006],[30.257070000000112,39.94750000000033],[30.25653000000017,39.94738000000035],[30.256160000000136,39.94747000000012],[30.256130000000155,39.94766000000021],[30.256380000000036,39.94778000000019],[30.25705000000005,39.94856000000061],[30.258180000000095,39.94888000000009],[30.258370000000184,39.94866000000036],[30.258760000000166,39.94850000000008],[30.258865282388456,39.9486483524563]]],"type":"Polygon"}},{"type":"Feature","properties":{"area_id":"TR-11-007-2005831","name_tr":"Hayriye Köyü","area_level":"neighbourhood","parent_id":"TR-11-007","endeksa_id":2005831},"geometry":{"coordinates":[[[30.20823760100012,39.927033340000094],[30.20803319800018,39.92709530899998],[30.205215029000158,39.940443745000266],[30.206554656000037,39.94075427600029],[30.206697112000086,39.94070765599997],[30.208668470000134,39.93589854000015],[30.212540769000157,39.939462136000316],[30.210900440000103,39.94187687000027],[30.20533727000003,39.94264295800042],[30.206409015000133,39.94558337000035],[30.203924449000112,39.947727377000376],[30.20391164,39.95247871000015],[30.201983360000156,39.95564110000066],[30.20028159600008,39.955750447000014],[30.200177174000146,39.9558308070001],[30.20159222700005,39.95751519300006],[30.201519433000044,39.95788107200019],[30.20192279000014,39.95848087000007],[30.201743918999966,39.95854962499999],[30.201693694000028,39.958418682000115],[30.198045022000088,39.95704167600019],[30.19537348600005,39.95578320400034],[30.191395244000034,39.95173400100009],[30.180482040000186,39.94858268000036],[30.176161777000004,39.942921039000055],[30.172392763999994,39.94115437500011],[30.171671033000052,39.94013520500016],[30.171627626000145,39.93969645300007],[30.171832226000163,39.93949409100003],[30.173019619000115,39.93839047900019],[30.17852671000003,39.93977333300006],[30.178586680000024,39.93967134400003],[30.17773151700004,39.936010530000544],[30.180377671000144,39.935328746000266],[30.18052095100012,39.93539242600002],[30.18099464300002,39.93682129200016],[30.181087908000052,39.936890659000085],[30.190383155000063,39.93721805500036],[30.190959921333558,39.93614771800003],[30.19114674499997,39.93616536400003],[30.191290294000055,39.935925251000185],[30.192590896000183,39.93280790300014],[30.19578776000003,39.92632165400005],[30.19820708399999,39.916963910000106],[30.19830641500016,39.91679207200042],[30.198484309000094,39.91681139300033],[30.20730170400003,39.92559469800062],[30.20752820900003,39.92560129800046],[30.207454196000015,39.92572940700012],[30.208058273000177,39.92691315700006],[30.20823760100012,39.927033340000094]]],"type":"Polygon"}},{"type":"Feature","properties":{"area_id":"TR-11-007-2005839","name_tr":"Savcıbey Köyü","area_level":"neighbourhood","parent_id":"TR-11-007","endeksa_id":2005839},"geometry":{"coordinates":[[[30.19779768900014,39.96064352200017],[30.197408609000092,39.958364673000176],[30.195373310000036,39.957359620000034],[30.19091179200018,39.96336287499997],[30.185314599000094,39.9657034600001],[30.178888357000005,39.965794415999994],[30.175461637000183,39.96631063900003],[30.1699782500001,39.96427362000014],[30.168608579000193,39.96586566500048],[30.16335627000018,39.964886610000065],[30.160105415000032,39.966033628000105],[30.159933562011872,39.96598387214658],[30.159793539461134,39.96585912575421],[30.159929358000113,39.96342381100004],[30.15032014999997,39.95203452800018],[30.155064613000036,39.951209862000155],[30.154072957999972,39.94430746000012],[30.156462707999992,39.941248574000156],[30.156971567000085,39.94085918900004],[30.162219904000096,39.94237589599999],[30.16205504400017,39.9404659110005],[30.162605767000173,39.939871847000006],[30.16321363300017,39.93955146700051],[30.167357498000115,39.937406343000305],[30.171432321000054,39.93829073100011],[30.171605677000173,39.93945678600005],[30.171705563000103,39.939530386000456],[30.171832226000163,39.93949409100003],[30.171627626000145,39.93969645300007],[30.171671033000052,39.94013520500016],[30.172392763999994,39.94115437500011],[30.176161777000004,39.942921039000055],[30.180482040000186,39.94858268000036],[30.191395244000034,39.95173400100009],[30.19537348600005,39.95578320400034],[30.198045022000088,39.95704167600019],[30.201693694000028,39.958418682000115],[30.201743918999966,39.95854962499999],[30.20031507500005,39.960697300000504],[30.200133705000155,39.96073682600007],[30.199606843000083,39.96035813200018],[30.197951098000146,39.96072764400003],[30.19779768900014,39.96064352200017]]],"type":"Polygon"}},{"type":"Feature","properties":{"area_id":"TR-11-007-2005843","name_tr":"Yeşilyurt Köyü","area_level":"neighbourhood","parent_id":"TR-11-007","endeksa_id":2005843},"geometry":{"coordinates":[[[30.294988691000185,39.95570441300015],[30.29432035600007,39.957053850000136],[30.285297620000108,39.971809149000194],[30.28267261000019,39.96837421800029],[30.28209802700013,39.96275585300003],[30.283601362000127,39.96178783100004],[30.281698466000023,39.95859297900006],[30.28302392000012,39.95689508000032],[30.28046328700009,39.95546843400041],[30.27965368600013,39.95626611300008],[30.27529403900013,39.95684649000003],[30.271082843000045,39.953022618000546],[30.262114112000177,39.950873484],[30.26125587000007,39.94751181000004],[30.258865282388456,39.9486483524563],[30.258760000000166,39.94850000000008],[30.258370000000184,39.94866000000036],[30.258180000000095,39.94888000000009],[30.25705000000005,39.94856000000061],[30.256380000000036,39.94778000000019],[30.256130000000155,39.94766000000021],[30.256160000000136,39.94747000000012],[30.25653000000017,39.94738000000035],[30.257070000000112,39.94750000000033],[30.257330000000138,39.94745000000006],[30.25797000000017,39.94686000000013],[30.25813000000005,39.94686000000013],[30.258330000000115,39.94649000000004],[30.258490000000165,39.94661000000042],[30.25959000000006,39.94606000000016],[30.259350000000097,39.94574000000034],[30.259390000000053,39.94555000000025],[30.260260000000073,39.94476000000026],[30.260690000000125,39.94475000000017],[30.260930000000087,39.94453000000004],[30.26170000000019,39.94445000000019],[30.2606100000001,39.94402000000014],[30.258420000000058,39.943930000000364],[30.25828000000024,39.94368000000043],[30.25835000000012,39.94346000000019],[30.25829000000016,39.943250000000376],[30.258160000000032,39.94308000000052],[30.257490000000246,39.94268000000011],[30.256680000000188,39.941980000000456],[30.25665000000015,39.94183000000015],[30.25612000000018,39.941540000000316],[30.255670000000066,39.941080000000056],[30.255740000000173,39.940280000000485],[30.255890000000193,39.939750000000686],[30.25556000000006,39.936090000000036],[30.254870000000153,39.93394000000029],[30.253900000000215,39.93171000000052],[30.25355000000019,39.931230000000596],[30.253410000000144,39.930890000000204],[30.253310000000056,39.92981000000037],[30.25311000000022,39.929160000000195],[30.252330000000143,39.92815000000013],[30.25126000000006,39.927540000000135],[30.25085000000007,39.92701000000034],[30.24998000000005,39.92619000000013],[30.249810000000195,39.925810000000126],[30.25020000000012,39.92434000000037],[30.250220000000184,39.9237600000007],[30.250040000000183,39.92344000000037],[30.25010000000003,39.92331000000041],[30.249940000000095,39.92265000000015],[30.24990000000014,39.92183000000017],[30.24955000000017,39.92112000000003],[30.249570000000233,39.92055000000016],[30.24894000000012,39.91957000000008],[30.24890000000022,39.91924000000046],[30.249000000000137,39.918190000000266],[30.248860000000093,39.917750000000126],[30.248860000000093,39.917100000000346],[30.248950000000093,39.9168200000006],[30.24937000000017,39.91647000000006],[30.24946000000017,39.91631000000035],[30.249411454350025,39.91615438163234],[30.2493895770001,39.91573608200008],[30.24929249800016,39.915652137000336],[30.249024544000008,39.91566744000045],[30.247791966000193,39.91513868500016],[30.248539828000048,39.91024391400009],[30.245665747000032,39.90388546300005],[30.250125786000183,39.89464606600018],[30.24893865400003,39.8897512920002],[30.24902059700014,39.88966114400006],[30.25023764500014,39.88935443400004],[30.250307863000046,39.88925053500009],[30.248341707999998,39.88660645700014],[30.248360895000076,39.88650292],[30.248599556000045,39.88637455300017],[30.248604957000055,39.88627936600017],[30.247510716000193,39.88500519700017],[30.24248895400018,39.882818101000396],[30.242165926999974,39.87994735700005],[30.24265991200008,39.87952280300004],[30.242671914000027,39.87942022900063],[30.24297054900012,39.87925699100009],[30.244902572000058,39.87759214800013],[30.246234243000174,39.87298416400006],[30.244717244000128,39.87082691299997],[30.24482587400007,39.870685127000684],[30.249536736000152,39.87049618000009],[30.25836917700002,39.87701331100061],[30.26494894900003,39.878436441000076],[30.268339921000063,39.876385347000166],[30.27566381700018,39.87774712000066],[30.27693598000019,39.880193865000194],[30.285352696000075,39.88197449400013],[30.289029151000022,39.88580615400008],[30.2910242050001,39.88498829500037],[30.296564684000145,39.88706248500057],[30.29660514500017,39.888302823000345],[30.2911668000001,39.902724700000704],[30.296467600000085,39.916398500000184],[30.286881100000016,39.93026280000015],[30.28948560000009,39.93810640000004],[30.290690500000096,39.9531941000007],[30.294988691000185,39.95570441300015]]],"type":"Polygon"}},{"type":"Feature","properties":{"area_id":"TR-11-007-2005829","name_tr":"Gündüzbey Köyü","area_level":"neighbourhood","parent_id":"TR-11-007","endeksa_id":2005829},"geometry":{"coordinates":[[[30.233697344616928,39.952492824853095],[30.23355054900003,39.95250044700009],[30.23350161800016,39.95272432900015],[30.23359067000007,39.952739685000495],[30.233606866000116,39.9530130830002],[30.233517373000097,39.95305987299997],[30.233612486000084,39.95310795600017],[30.233622233000062,39.953453142000285],[30.24018105300007,39.96599787000014],[30.23954493800011,39.96762466100017],[30.23948327400018,39.96759656000006],[30.23657125000011,39.973990820000495],[30.233709437000186,39.973836049000056],[30.222485125000162,39.96867619000005],[30.217089302000034,39.970762529000126],[30.21278806500004,39.96934339300009],[30.2113289670001,39.968548029000374],[30.21185977900012,39.96662078200052],[30.201772731000062,39.96263936000025],[30.20027383500002,39.960858629000086],[30.20031507500005,39.960697300000504],[30.201743918999966,39.95854962499999],[30.20192279000014,39.95848087000007],[30.201519433000044,39.95788107200019],[30.20159222700005,39.95751519300006],[30.200177174000146,39.9558308070001],[30.20028159600008,39.955750447000014],[30.201983360000156,39.95564110000066],[30.20391164,39.95247871000015],[30.203924449000112,39.947727377000376],[30.206409015000133,39.94558337000035],[30.20533727000003,39.94264295800042],[30.210900440000103,39.94187687000027],[30.212540769000157,39.939462136000316],[30.208668470000134,39.93589854000015],[30.206697112000086,39.94070765599997],[30.206554656000037,39.94075427600029],[30.205215029000158,39.940443745000266],[30.20803319800018,39.92709530899998],[30.20823760100012,39.927033340000094],[30.229140028366828,39.939210447516245],[30.229329838060494,39.939214708107386],[30.22939845717923,39.93908152393027],[30.229470000000163,39.939320000000635],[30.229920000000106,39.93964000000011],[30.230000000000132,39.939840000000345],[30.229990000000214,39.94094000000041],[30.231100000000197,39.943030000000135],[30.23115000000007,39.94368000000043],[30.231080000000134,39.94368000000043],[30.23133000000024,39.945140000000436],[30.231670000000122,39.94555000000025],[30.231750000000147,39.945790000000216],[30.23164000000014,39.9458200000002],[30.231500000000096,39.94611000000003],[30.232320000000072,39.95083000000017],[30.233150000000194,39.95209000000011],[30.233090000000175,39.95228000000003],[30.233340000000112,39.95244000000048],[30.233697344616928,39.952492824853095]]],"type":"Polygon"}},{"type":"Feature","properties":{"area_id":"TR-11-007-2005837","name_tr":"Ortaca Köyü","area_level":"neighbourhood","parent_id":"TR-11-007","endeksa_id":2005837},"geometry":{"coordinates":[[[30.350658310000142,39.97223763200003],[30.34912115700007,39.97209258700019],[30.343616345000044,39.97123293800007],[30.33807968600013,39.97123232700011],[30.335005667000075,39.97146813400013],[30.329257818000144,39.97229925400018],[30.319689555000082,39.97240309900013],[30.318361904000085,39.97256253300003],[30.31648354800012,39.97320807600039],[30.310509156000137,39.976315294000074],[30.304456415000175,39.9810553800001],[30.297590810000145,39.98864004100011],[30.295637895000084,39.99165630300047],[30.292955031000133,39.9942057400001],[30.292816832000028,39.99423422500007],[30.292729768000072,39.99414779800014],[30.29225969700019,39.98930328300014],[30.288746676000017,39.97631109900004],[30.285297620000108,39.971809149000194],[30.29432035600007,39.957053850000136],[30.295055625000032,39.955569266000225],[30.295255512000153,39.95553398700008],[30.29606662900005,39.956038627000055],[30.297205930000075,39.955767631000015],[30.29829746000013,39.95437983200003],[30.30101100000013,39.95339022200005],[30.300945864000084,39.95265321200003],[30.29982302600007,39.95142371600059],[30.299191762000078,39.950400508000484],[30.2992534550001,39.94874807700012],[30.299945245000174,39.94716469600013],[30.301321966000103,39.946647142000074],[30.306293821000168,39.94636978200003],[30.307908011000166,39.94605917900037],[30.31316704600016,39.94128719600019],[30.319849204000036,39.93771608000009],[30.322845339000082,39.93907876500066],[30.324883996000096,39.93969682500028],[30.32712000900011,39.939945310000326],[30.32845321000019,39.940712194000184],[30.32956610000008,39.94107426900007],[30.33102259600014,39.94099598700012],[30.338699892000136,39.93806537900048],[30.340321202000155,39.9380672370001],[30.353511228000116,39.93976583900013],[30.353909861000147,39.93996992800004],[30.354121694000185,39.94088545300008],[30.35679144300019,39.9449660650007],[30.35775274000008,39.945971795000105],[30.359720824000192,39.953775202000145],[30.359759396000186,39.95425825400014],[30.360165819000144,39.955116100000055],[30.360113978000186,39.95520676100034],[30.35996590000019,39.95522597500019],[30.359966679000024,39.95549782100011],[30.361253305000048,39.9633120830004],[30.358155146000115,39.96403124900007],[30.35543883800011,39.97154459300015],[30.35401613500005,39.97271340600014],[30.354044499999986,39.97261348700016],[30.35394495700001,39.97254775800013],[30.350658310000142,39.97223763200003]]],"type":"Polygon"}},{"type":"Feature","properties":{"area_id":"TR-11-007-2005833","name_tr":"Kepen Köyü","area_level":"neighbourhood","parent_id":"TR-11-007","endeksa_id":2005833},"geometry":{"coordinates":[[[30.145719440000335,39.99669418500025],[30.141857490000177,39.997491140000704],[30.14159854100035,39.99908476100029],[30.134395895000353,40.0044710330003],[30.131137899000294,40.00597154500025],[30.122188344000108,39.99947378899998],[30.110261419000096,39.98260376900055],[30.109158245000117,39.97692199700009],[30.10649757000016,39.976106913000194],[30.102438379000148,39.96966255900003],[30.10222430200008,39.96964037099997],[30.09983112157755,39.966037252598994],[30.100006368077175,39.966058667094956],[30.10010425249044,39.96594328515806],[30.099820879000106,39.965448152000306],[30.102409045000172,39.96297098400015],[30.10962234200008,39.96127188000008],[30.110425819000056,39.96130455100007],[30.111746245000063,39.9607722490004],[30.115466110000057,39.959897350000574],[30.117164181000135,39.958588122000606],[30.1183495140001,39.95811028000014],[30.12101858800014,39.9556163390003],[30.12268291000015,39.95433313100017],[30.12482327200013,39.950714315000425],[30.13075578600018,39.94815331000018],[30.131672040000183,39.94777300900006],[30.137275654000177,39.94805164200011],[30.140013990000057,39.94918852200021],[30.14232685000013,39.95199053400006],[30.15032014999997,39.95203452800018],[30.159929358000113,39.96342381100004],[30.159793539461134,39.96585912575421],[30.159933562011872,39.96598387214658],[30.15986701200012,39.966911985000365],[30.1599920270001,39.966915069000265],[30.159696443000144,39.970301263000124],[30.15953993000005,39.97039471600067],[30.159262078000154,39.97536581900016],[30.152838172000145,39.99511500800003],[30.147281250000106,39.995013889999996],[30.145719440000335,39.99669418500025]]],"type":"Polygon"}},{"type":"Feature","properties":{"area_id":"TR-11-007-2005834","name_tr":"Kızılsaray Köyü","area_level":"neighbourhood","parent_id":"TR-11-007","endeksa_id":2005834},"geometry":{"coordinates":[[[30.161156022000227,40.00639463700031],[30.16107922500032,40.00629915700023],[30.16093431300027,40.00632131700024],[30.16065304000034,40.00681976000021],[30.157481765000227,40.00793237900035],[30.156155495000235,40.00363339000069],[30.15215267000025,40.00405415500023],[30.151809370000308,39.998912160000316],[30.147844130000294,39.99873486000024],[30.145719440000335,39.99669418500025],[30.147281250000106,39.995013889999996],[30.152838172000145,39.99511500800003],[30.159262078000154,39.97536581900016],[30.15953993000005,39.97039471600067],[30.159696443000144,39.970301263000124],[30.1599920270001,39.966915069000265],[30.15986701200012,39.966911985000365],[30.159933562011872,39.96598387214658],[30.160105415000032,39.966033628000105],[30.16335627000018,39.964886610000065],[30.168608579000193,39.96586566500048],[30.1699782500001,39.96427362000014],[30.175461637000183,39.96631063900003],[30.178888357000005,39.965794415999994],[30.185314599000094,39.9657034600001],[30.19091179200018,39.96336287499997],[30.195373310000036,39.957359620000034],[30.197408609000092,39.958364673000176],[30.19779768900014,39.96064352200017],[30.19773955000005,39.960772300000315],[30.197259210000084,39.96088260000056],[30.19364803899998,39.96616191000021],[30.191189488000077,39.966872073000104],[30.19198340400004,39.97719439200017],[30.18986594900008,39.977546614000175],[30.18879564500014,39.984589273000154],[30.19088137000017,39.98904845000061],[30.187893623000093,39.99396924000007],[30.1891171690001,39.99582320900009],[30.186591084999975,39.997817685000086],[30.186700915000188,39.99892402300014],[30.186531091000177,39.99892402300014],[30.18592725600007,39.99832613700005],[30.18578235900003,39.99830397300036],[30.182625732000076,40.00019185700006],[30.182615066999972,40.00036598500009],[30.182422647000067,40.00031396200012],[30.179905563000148,40.0018218730001],[30.18065730699999,39.99907952700005],[30.18059506600008,39.99897566200025],[30.1700653690001,39.99734138200006],[30.165733910000085,40.00038036200016],[30.164522309999995,40.0014521490001],[30.164369652000175,40.001893966000125],[30.162050964000173,40.00436626800058],[30.16119719500017,40.005824342000096],[30.161156022000227,40.00639463700031]]],"type":"Polygon"}},{"type":"Feature","properties":{"area_id":"TR-11-007-10662","name_tr":"Balaban","area_level":"neighbourhood","parent_id":"TR-11-007","endeksa_id":10662},"geometry":{"coordinates":[[[30.197742627000025,40.00835983400043],[30.193877020000002,40.01007971000013],[30.192998863000128,40.00846877100014],[30.188302892000138,40.00931901200039],[30.183545686000173,40.011269355000024],[30.183000822000054,40.011110503000054],[30.182500323000113,40.010680459000184],[30.182321496000156,40.010754222000116],[30.182368237000162,40.01054264700065],[30.183059364000087,40.00963007200005],[30.183497970000133,40.00823740800007],[30.183819469000184,40.00775796300013],[30.18464078400018,40.00735134100006],[30.184892383000147,40.006157949000055],[30.184838705000118,40.00554319700035],[30.182615066999972,40.00036598500009],[30.182625732000076,40.00019185700006],[30.18578235900003,39.99830397300036],[30.18592725600007,39.99832613700005],[30.186531091000177,39.99892402300014],[30.186700915000188,39.99892402300014],[30.186591084999975,39.997817685000086],[30.188991541000178,39.995922179000104],[30.18919526100018,39.995941850000406],[30.190525594000178,39.99794708100018],[30.193388363000167,39.99664008600013],[30.195780780000177,39.99710281800003],[30.196386513999983,39.997511220000035],[30.204297223000026,39.99991467100023],[30.204465296000023,40.00290228200009],[30.197742627000025,40.00835983400043]]],"type":"Polygon"}},{"type":"Feature","properties":{"area_id":"TR-11-007-10665","name_tr":"Orta","area_level":"neighbourhood","parent_id":"TR-11-007","endeksa_id":10665},"geometry":{"coordinates":[[[30.197742627000025,40.00835983400043],[30.198681420000185,40.01139626000031],[30.19560440200013,40.017546701000185],[30.195573010000032,40.01744000100024],[30.19496634400008,40.017071179000084],[30.194103434000112,40.01530216200018],[30.192387727000153,40.01437396500057],[30.191939473000048,40.013815389],[30.191105015000062,40.013660091000304],[30.19007852900006,40.01381006000037],[30.187561840000114,40.01340351400012],[30.186975115000166,40.01355096300051],[30.18636618100004,40.01346157800049],[30.185356949000038,40.011797417000196],[30.185415155000044,40.01194861900012],[30.18505758400005,40.012052901000004],[30.18388414000009,40.0132973140004],[30.18354147100007,40.0139174250001],[30.18386217700015,40.01442323600065],[30.18329433600013,40.01544401600006],[30.183355577000157,40.01556563800017],[30.182103437000137,40.01517765300014],[30.181201511000097,40.015517297000315],[30.182265728000118,40.01270164500005],[30.18214123300004,40.011577174000536],[30.182321496000156,40.010754222000116],[30.182500323000113,40.010680459000184],[30.183000822000054,40.011110503000054],[30.183545686000173,40.011269355000024],[30.188302892000138,40.00931901200039],[30.192998863000128,40.00846877100014],[30.193877020000002,40.01007971000013],[30.197742627000025,40.00835983400043]]],"type":"Polygon"}},{"type":"Feature","properties":{"area_id":"TR-11-007-10663","name_tr":"Cumhuriyet","area_level":"neighbourhood","parent_id":"TR-11-007","endeksa_id":10663},"geometry":{"coordinates":[[[30.181201511000097,40.015517297000315],[30.177665264000154,40.01737535700022],[30.17521351700009,40.017730413000095],[30.17296536300006,40.01845048300004],[30.171605710000108,40.01927418700012],[30.16604374700006,40.02311775000044],[30.164462216000004,40.024854640000115],[30.160471363000113,40.025484197000026],[30.160324552000304,40.02536088700049],[30.16121138500023,40.02282041200016],[30.16121142200035,40.0147779020005],[30.16090181600032,40.01040462700041],[30.16119719500017,40.005824342000096],[30.162050964000173,40.00436626800058],[30.164369652000175,40.001893966000125],[30.164522309999995,40.0014521490001],[30.165733910000085,40.00038036200016],[30.1700653690001,39.99734138200006],[30.18059506600008,39.99897566200025],[30.18065730699999,39.99907952700005],[30.179905563000148,40.0018218730001],[30.182422647000067,40.00031396200012],[30.182615066999972,40.00036598500009],[30.184838705000118,40.00554319700035],[30.184892383000147,40.006157949000055],[30.18464078400018,40.00735134100006],[30.183819469000184,40.00775796300013],[30.183497970000133,40.00823740800007],[30.183059364000087,40.00963007200005],[30.182368237000162,40.01054264700065],[30.18214123300004,40.011577174000536],[30.182265728000118,40.01270164500005],[30.181201511000097,40.015517297000315]]],"type":"Polygon"}},{"type":"Feature","properties":{"area_id":"TR-11-007-2005827","name_tr":"Dudaş Köyü","area_level":"neighbourhood","parent_id":"TR-11-007","endeksa_id":2005827},"geometry":{"coordinates":[[[30.282503484000017,39.95660511300008],[30.281327050000016,39.95729951200002],[30.278903438000043,39.95709060100006],[30.273635218000095,39.963127513000586],[30.273058131000028,39.9625398770001],[30.268479970000044,39.96501121000006],[30.269604977000142,39.97374419300007],[30.268198160000168,39.97319350000009],[30.263501260000055,39.97611117000025],[30.26491072700003,39.97797146000016],[30.263392140000065,39.98451424000007],[30.26588960200013,39.985867607000046],[30.261137830000052,39.98901731000052],[30.26172868000009,39.990715594000164],[30.257796012000142,39.99562212800009],[30.257555415000013,40.00122616900006],[30.256259800000066,40.002078680000125],[30.256521590000034,40.005970730000286],[30.260889440000142,40.01123922000011],[30.263961958000152,40.01221271000054],[30.264183928000193,40.01422007500008],[30.26355084000005,40.015047478999975],[30.249039830000072,40.02420640000008],[30.236319114000025,40.02633521100029],[30.236142718000167,40.02625432600007],[30.236003139000104,40.02643991700006],[30.234993068000108,40.02579367200019],[30.234921117000056,40.025764842000115],[30.234869269000058,40.02587766800053],[30.23426998900004,40.02550394100007],[30.23420090899998,40.02547626100045],[30.234149516000116,40.02558809700014],[30.23354213500005,40.02521229600001],[30.2334453900001,40.025264520000064],[30.23201100900019,40.024605360000066],[30.231772636000073,40.020337051000126],[30.228084097000135,40.018211049000115],[30.223321057000078,40.01101512500048],[30.222760787000084,40.01115220400004],[30.222310603000096,40.012774267000054],[30.222174766000137,40.01284050300035],[30.22206059600012,40.012751940000214],[30.221936982000045,40.011773113000174],[30.222794216000068,40.00849019500015],[30.224435814000174,40.00674227200017],[30.225771422000037,40.00322442400011],[30.225755174000085,40.000744714000064],[30.22962636800014,39.995514196000045],[30.231966760000148,39.98699327000003],[30.23620654700005,39.984924374000116],[30.2395889,39.980118310000194],[30.23777918600001,39.97413125800006],[30.236549376000085,39.974042160000124],[30.23948327400018,39.96759656000006],[30.23954493800011,39.96762466100017],[30.24018105300007,39.96599787000014],[30.233622233000062,39.953453142000285],[30.233612486000084,39.95310795600017],[30.233517373000097,39.95305987299997],[30.233606866000116,39.9530130830002],[30.23359067000007,39.952739685000495],[30.23350161800016,39.95272432900015],[30.23355054900003,39.95250044700009],[30.233697344616928,39.952492824853095],[30.233820000000208,39.952540000000226],[30.233950000000107,39.95238000000012],[30.235790000000122,39.95179000000019],[30.235810000000185,39.95148000000063],[30.23598000000004,39.95145000000031],[30.236140000000148,39.95163000000025],[30.236860000000206,39.9513800000002],[30.236890000000187,39.951210000000344],[30.23713000000015,39.95092000000034],[30.238040000000126,39.95011000000028],[30.238230000000044,39.95026000000007],[30.23849000000007,39.950070000000494],[30.239630000000034,39.9497700000004],[30.239610000000198,39.94969000000032],[30.240180000000066,39.94971000000055],[30.24051000000003,39.94959000000006],[30.241410000000087,39.94886000000042],[30.242440000000045,39.948480000000416],[30.243520000000046,39.94785000000013],[30.243830000000116,39.94827000000009],[30.244370000000174,39.947870000000364],[30.244110000000205,39.94751000000042],[30.244460000000174,39.94711000000018],[30.244350000000168,39.94700000000017],[30.244480000000067,39.94671000000034],[30.2448100000002,39.94688000000019],[30.245110000000125,39.94687000000005],[30.245300000000043,39.946440000000166],[30.24577000000005,39.945890000000134],[30.246710000000178,39.94615000000016],[30.247100000000103,39.94608000000005],[30.24810000000008,39.94643000000008],[30.247920000000136,39.94655000000057],[30.24791000000016,39.94666000000029],[30.248520000000042,39.94700000000017],[30.248800000000074,39.94692000000009],[30.24918000000008,39.947060000000135],[30.249530000000107,39.94674000000066],[30.25021000000004,39.94740000000019],[30.250740000000235,39.948520000000144],[30.251210000000185,39.94858000000016],[30.25148000000013,39.94835000000029],[30.25218000000018,39.948330000000055],[30.25231000000008,39.94808000000069],[30.252950000000112,39.94829000000033],[30.25333000000012,39.94858000000016],[30.25361000000015,39.94854000000038],[30.25419000000022,39.949350000000095],[30.254300000000057,39.95004000000017],[30.254610000000127,39.94992000000019],[30.25537000000014,39.95031000000046],[30.256050000000073,39.94993000000028],[30.256680000000188,39.95016000000015],[30.257470000000183,39.949600000000146],[30.25918000000007,39.94936000000018],[30.259200000000135,39.94912000000005],[30.258865282388456,39.9486483524563],[30.26125587000007,39.94751181000004],[30.262114112000177,39.950873484],[30.271082843000045,39.953022618000546],[30.27529403900013,39.95684649000003],[30.27965368600013,39.95626611300008],[30.28046328700009,39.95546843400041],[30.282503484000017,39.95660511300008]]],"type":"Polygon"}},{"type":"Feature","properties":{"area_id":"TR-11-007-10666","name_tr":"Türkmenbaşı","area_level":"neighbourhood","parent_id":"TR-11-007","endeksa_id":10666},"geometry":{"coordinates":[[[30.18852015000016,40.034594365000146],[30.18828582400016,40.034728936000135],[30.187122438000188,40.03478881400048],[30.184889304000137,40.033877071999996],[30.184160753000185,40.03332862900004],[30.18346879300009,40.03204490300004],[30.18300472200019,40.02955197900019],[30.181830483000113,40.02847577000006],[30.18044166100009,40.028369403000056],[30.177906951000182,40.02752378500003],[30.179387047999967,40.024823270000184],[30.18041283800011,40.02015932800026],[30.18053208700013,40.02010414700004],[30.18237633300015,40.020231910000405],[30.183002314000134,40.018835477000096],[30.184637309000152,40.01700671600054],[30.18480514500004,40.01634153900011],[30.184418710000102,40.015994929000044],[30.183355577000157,40.01556563800017],[30.18329433600013,40.01544401600006],[30.18386217700015,40.01442323600065],[30.18354147100007,40.0139174250001],[30.18388414000009,40.0132973140004],[30.18505758400005,40.012052901000004],[30.185415155000044,40.01194861900012],[30.185356949000038,40.011797417000196],[30.18636618100004,40.01346157800049],[30.186975115000166,40.01355096300051],[30.187561840000114,40.01340351400012],[30.19007852900006,40.01381006000037],[30.191105015000062,40.013660091000304],[30.191939473000048,40.013815389],[30.192387727000153,40.01437396500057],[30.194103434000112,40.01530216200018],[30.19496634400008,40.017071179000084],[30.195573010000032,40.01744000100024],[30.19560440200013,40.017546701000185],[30.192391782000072,40.02397329799999],[30.19351940500019,40.02655690000006],[30.188775940000028,40.03366242000004],[30.18852015000016,40.034594365000146]]],"type":"Polygon"}},{"type":"Feature","properties":{"area_id":"TR-11-007-2005840","name_tr":"Sırhoca Köyü","area_level":"neighbourhood","parent_id":"TR-11-007","endeksa_id":2005840},"geometry":{"coordinates":[[[30.22206059600012,40.012751940000214],[30.222140493000097,40.01340125600029],[30.22084093699999,40.01816729700005],[30.220314371000143,40.026679252000065],[30.21568352900016,40.028944867000064],[30.213618039000153,40.03286016500033],[30.201350309000134,40.037560164000126],[30.19559037500011,40.03496079400014],[30.194802789000164,40.03996559500007],[30.188298189000193,40.04311310300045],[30.188108559000113,40.043063071000574],[30.188053004000096,40.042604499000106],[30.188405363000186,40.03473454500016],[30.18852015000016,40.034594365000146],[30.188775940000028,40.03366242000004],[30.19351940500019,40.02655690000006],[30.192391782000072,40.02397329799999],[30.198681420000185,40.01139626000031],[30.197742627000025,40.00835983400043],[30.204465296000023,40.00290228200009],[30.204297223000026,39.99991467100023],[30.196386513999983,39.997511220000035],[30.195780780000177,39.99710281800003],[30.193388363000167,39.99664008600013],[30.190525594000178,39.99794708100018],[30.18919526100018,39.995941850000406],[30.188991541000178,39.995922179000104],[30.1891171690001,39.99582320900009],[30.187893623000093,39.99396924000007],[30.19088137000017,39.98904845000061],[30.18879564500014,39.984589273000154],[30.18986594900008,39.977546614000175],[30.19198340400004,39.97719439200017],[30.191189488000077,39.966872073000104],[30.19364803899998,39.96616191000021],[30.197259210000084,39.96088260000056],[30.19773955000005,39.960772300000315],[30.19779768900014,39.96064352200017],[30.197951098000146,39.96072764400003],[30.199606843000083,39.96035813200018],[30.200133705000155,39.96073682600007],[30.20031507500005,39.960697300000504],[30.20027383500002,39.960858629000086],[30.201772731000062,39.96263936000025],[30.21185977900012,39.96662078200052],[30.2113289670001,39.968548029000374],[30.21278806500004,39.96934339300009],[30.217089302000034,39.970762529000126],[30.222485125000162,39.96867619000005],[30.233709437000186,39.973836049000056],[30.23657125000011,39.973990820000495],[30.236549376000085,39.974042160000124],[30.23777918600001,39.97413125800006],[30.2395889,39.980118310000194],[30.23620654700005,39.984924374000116],[30.231966760000148,39.98699327000003],[30.22962636800014,39.995514196000045],[30.225755174000085,40.000744714000064],[30.225771422000037,40.00322442400011],[30.224435814000174,40.00674227200017],[30.222794216000068,40.00849019500015],[30.221936982000045,40.011773113000174],[30.22206059600012,40.012751940000214]]],"type":"Polygon"}},{"type":"Feature","properties":{"area_id":"TR-11-007-2005826","name_tr":"Dömez Köyü","area_level":"neighbourhood","parent_id":"TR-11-007","endeksa_id":2005826},"geometry":{"coordinates":[[[30.119447760413152,40.04095787000608],[30.119520657363523,40.04083879803511],[30.119413733490717,40.04073403946671],[30.118999741000323,40.0408276900003],[30.115310920000354,40.03977663000052],[30.11452352000026,40.042508610000255],[30.111782480000272,40.04344169000001],[30.110239620000357,40.04624908000034],[30.104967660000227,40.04670150000061],[30.10335225200032,40.04415089600025],[30.103049121000026,40.04213120100002],[30.102445798000133,40.04069107800069],[30.100540498000043,40.03813079900033],[30.10150293400011,40.032507011000064],[30.098703363000027,40.024911397000096],[30.096740392000015,40.02046960400003],[30.09594540600017,40.01936647200006],[30.090056985000103,40.01501630600052],[30.08826490000007,40.01112174000019],[30.085173666000117,39.984691548],[30.081695060000072,39.98270603800006],[30.0820572450001,39.9782255380004],[30.081922684000062,39.978121964000024],[30.088839312000175,39.97609195500053],[30.092019279000112,39.97228896500013],[30.09740729500004,39.971047410000494],[30.099437679000175,39.96685633600015],[30.09934141400015,39.96654222300015],[30.099531627000147,39.96659872600014],[30.09983112157755,39.966037252598994],[30.10222430200008,39.96964037099997],[30.102438379000148,39.96966255900003],[30.10649757000016,39.976106913000194],[30.109158245000117,39.97692199700009],[30.110261419000096,39.98260376900055],[30.122188344000108,39.99947378899998],[30.131137899000294,40.00597154500025],[30.13119922000027,40.00604333000024],[30.129696492000278,40.007645168000295],[30.129540963000295,40.008100019000324],[30.12855724000036,40.008837595000784],[30.128091700000198,40.01985668500021],[30.12565996000029,40.02024060000059],[30.126471260000244,40.02206534000021],[30.12312068000034,40.02730545000071],[30.12305219000035,40.03765137500062],[30.119402880000166,40.03803735000031],[30.12083015000036,40.04025916000029],[30.119447760413152,40.04095787000608]]],"type":"Polygon"}},{"type":"Feature","properties":{"area_id":"TR-11-007-2005825","name_tr":"Dereboyu Köyü","area_level":"neighbourhood","parent_id":"TR-11-007","endeksa_id":2005825},"geometry":{"coordinates":[[[30.140581306626302,40.05182707203977],[30.1244070620005,40.05352132400054],[30.12352985000041,40.049928259000694],[30.12063325100047,40.04812798600051],[30.120235256000512,40.04508493400061],[30.117238125000426,40.0431973620004],[30.11714389900044,40.042127308000545],[30.119447760413152,40.04095787000608],[30.12083015000036,40.04025916000029],[30.119402880000166,40.03803735000031],[30.12305219000035,40.03765137500062],[30.12312068000034,40.02730545000071],[30.126471260000244,40.02206534000021],[30.12565996000029,40.02024060000059],[30.128091700000198,40.01985668500021],[30.12855724000036,40.008837595000784],[30.129540963000295,40.008100019000324],[30.129696492000278,40.007645168000295],[30.13119922000027,40.00604333000024],[30.131137899000294,40.00597154500025],[30.134395895000353,40.0044710330003],[30.14159854100035,39.99908476100029],[30.141857490000177,39.997491140000704],[30.145719440000335,39.99669418500025],[30.147844130000294,39.99873486000024],[30.151809370000308,39.998912160000316],[30.15215267000025,40.00405415500023],[30.156155495000235,40.00363339000069],[30.157481765000227,40.00793237900035],[30.16065304000034,40.00681976000021],[30.16093431300027,40.00632131700024],[30.16107922500032,40.00629915700023],[30.161156022000227,40.00639463700031],[30.16090181600032,40.01040462700041],[30.16121142200035,40.0147779020005],[30.16121138500023,40.02282041200016],[30.160324552000304,40.02536088700049],[30.159571540000172,40.02748808000018],[30.159180507000258,40.028040595000334],[30.153507453000202,40.03279845900022],[30.152460224000322,40.03605425800055],[30.152574774000357,40.036159189000614],[30.153215284000282,40.03611837400052],[30.153304058000344,40.03623805000029],[30.151899542000308,40.037773797000625],[30.14440901500035,40.03918834200033],[30.141174583000293,40.043551158000355],[30.14206727400034,40.04519106300029],[30.141763401000333,40.04848025000052],[30.140044819000252,40.04964095000065],[30.140651641000147,40.05145144600033],[30.140557970671807,40.0515468424191],[30.140581306626302,40.05182707203977]]],"type":"Polygon"}},{"type":"Feature","properties":{"area_id":"TR-11-007-10664","name_tr":"Kayhan","area_level":"neighbourhood","parent_id":"TR-11-007","endeksa_id":10664},"geometry":{"coordinates":[[[30.17414627115903,40.06547519551202],[30.17410372833558,40.065344979352574],[30.173934149698198,40.06531755576509],[30.172056031000295,40.06601356100026],[30.167109467000273,40.067598232000364],[30.16489040900035,40.06793705500024],[30.16138250100022,40.06757811200026],[30.155893571000263,40.06871206800065],[30.149311602000182,40.06593959400027],[30.149018345000343,40.0652239290003],[30.1489155550002,40.06351592200042],[30.148831304000282,40.06343213000059],[30.144406637000202,40.06538085100027],[30.144237443000236,40.06534905100034],[30.14146602600033,40.06110293000029],[30.143894505000276,40.057709264000835],[30.141973417000315,40.05629221500038],[30.140722054000207,40.05181656200017],[30.140581306626302,40.05182707203977],[30.140557970671807,40.0515468424191],[30.140651641000147,40.05145144600033],[30.140044819000252,40.04964095000065],[30.141763401000333,40.04848025000052],[30.14206727400034,40.04519106300029],[30.141174583000293,40.043551158000355],[30.14440901500035,40.03918834200033],[30.151899542000308,40.037773797000625],[30.153304058000344,40.03623805000029],[30.153215284000282,40.03611837400052],[30.152574774000357,40.036159189000614],[30.152460224000322,40.03605425800055],[30.153507453000202,40.03279845900022],[30.159180507000258,40.028040595000334],[30.159571540000172,40.02748808000018],[30.160324552000304,40.02536088700049],[30.160471363000113,40.025484197000026],[30.164462216000004,40.024854640000115],[30.16604374700006,40.02311775000044],[30.171605710000108,40.01927418700012],[30.17296536300006,40.01845048300004],[30.17521351700009,40.017730413000095],[30.177665264000154,40.01737535700022],[30.181201511000097,40.015517297000315],[30.182103437000137,40.01517765300014],[30.183355577000157,40.01556563800017],[30.184418710000102,40.015994929000044],[30.18480514500004,40.01634153900011],[30.184637309000152,40.01700671600054],[30.183002314000134,40.018835477000096],[30.18237633300015,40.020231910000405],[30.18053208700013,40.02010414700004],[30.18041283800011,40.02015932800026],[30.179387047999967,40.024823270000184],[30.177906951000182,40.02752378500003],[30.18044166100009,40.028369403000056],[30.181830483000113,40.02847577000006],[30.18300472200019,40.02955197900019],[30.18346879300009,40.03204490300004],[30.184160753000185,40.03332862900004],[30.184889304000137,40.033877071999996],[30.187122438000188,40.03478881400048],[30.18828582400016,40.034728936000135],[30.18852015000016,40.034594365000146],[30.188405363000186,40.03473454500016],[30.188053004000096,40.042604499000106],[30.188108559000113,40.043063071000574],[30.188298189000193,40.04311310300045],[30.188027319000184,40.043267587000116],[30.187993006000056,40.04397028800008],[30.18916110700019,40.049606118999975],[30.18916211700008,40.050642637000124],[30.187313174000167,40.05965567300018],[30.177360396530787,40.06424314348686],[30.177166141954615,40.0642266644557],[30.176300990000072,40.064584352],[30.17627330900018,40.064509733000136],[30.17414627115903,40.06547519551202]]],"type":"Polygon"}},{"type":"Feature","properties":{"area_id":"TR-11-007-2005824","name_tr":"Çaltı Köyü","area_level":"neighbourhood","parent_id":"TR-11-007","endeksa_id":2005824},"geometry":{"coordinates":[[[30.274181551000083,40.0812221530004],[30.273966993999977,40.0811742460001],[30.26603089000008,40.085091660000046],[30.264512070000023,40.08410875000004],[30.267520669000135,40.08332109700018],[30.267189213999984,40.0819207350001],[30.264332668000065,40.0805628280001],[30.261846670000068,40.08236327000003],[30.260736226000063,40.08241604500006],[30.26123252300016,40.08657657800012],[30.262558828166846,40.08883136318411],[30.261550000000057,40.08827000000031],[30.260180000000048,40.08657000000011],[30.258910000000128,40.08418000000029],[30.25819000000007,40.083170000000166],[30.257520000000056,40.082670000000405],[30.257060000000195,40.08244000000053],[30.256480000000124,40.08226000000019],[30.25590000000011,40.082270000000676],[30.25506000000007,40.08257000000009],[30.253810000000044,40.08337000000006],[30.246810000000096,40.08331000000004],[30.24655555069012,40.08354640999352],[30.24679258200007,40.08330729100044],[30.246170788000143,40.08052761100066],[30.2423424160001,40.078146835000496],[30.23698240900012,40.07537780300004],[30.23693707000018,40.07527155700012],[30.237050094000097,40.075200547000065],[30.2380802240001,40.0751064530001],[30.238201491000098,40.074203239000155],[30.236034651000182,40.07064855500039],[30.241507811000076,40.0675901900002],[30.24399875500012,40.06296301200018],[30.2437432750001,40.058436954000115],[30.236677443000076,40.05105548800009],[30.230733653000186,40.04199192100009],[30.23482909200004,40.03928281400016],[30.235437067000134,40.034395128000085],[30.23383134000005,40.02992237000035],[30.236003139000104,40.02643991700006],[30.236142718000167,40.02625432600007],[30.236319114000025,40.02633521100029],[30.249039830000072,40.02420640000008],[30.26355084000005,40.015047478999975],[30.264183928000193,40.01422007500008],[30.263961958000152,40.01221271000054],[30.260889440000142,40.01123922000011],[30.256521590000034,40.005970730000286],[30.256259800000066,40.002078680000125],[30.257555415000013,40.00122616900006],[30.257796012000142,39.99562212800009],[30.26172868000009,39.990715594000164],[30.261137830000052,39.98901731000052],[30.26588960200013,39.985867607000046],[30.263392140000065,39.98451424000007],[30.26491072700003,39.97797146000016],[30.263501260000055,39.97611117000025],[30.268198160000168,39.97319350000009],[30.269604977000142,39.97374419300007],[30.268479970000044,39.96501121000006],[30.273058131000028,39.9625398770001],[30.273635218000095,39.963127513000586],[30.278903438000043,39.95709060100006],[30.281327050000016,39.95729951200002],[30.282503484000017,39.95660511300008],[30.28302392000012,39.95689508000032],[30.281698466000023,39.95859297900006],[30.283601362000127,39.96178783100004],[30.28209802700013,39.96275585300003],[30.28267261000019,39.96837421800029],[30.285297620000108,39.971809149000194],[30.288746676000017,39.97631109900004],[30.29225969700019,39.98930328300014],[30.292729768000072,39.99414779800014],[30.292749330000106,39.99434968000014],[30.290415584000073,39.99661904400011],[30.291074378000076,40.000235900000064],[30.291264172000126,40.00314138200031],[30.2910982840001,40.00324319600003],[30.29203877000009,40.013447890000066],[30.288947987000086,40.018081395000195],[30.286068733000036,40.01833718300003],[30.275007311000024,40.0466129980004],[30.275097346999985,40.0467074540004],[30.287475079000046,40.04971496200005],[30.28768949400012,40.054565699000534],[30.28901894400019,40.056753276999984],[30.29177327200017,40.057151555000075],[30.287785134000046,40.06352653200008],[30.290048322000075,40.06516004100013],[30.29035252600005,40.065155908000406],[30.290247789000148,40.0652706930004],[30.290407595000033,40.065410007000025],[30.285891003000074,40.06588570300016],[30.285783303000073,40.065964395000094],[30.289190477999966,40.070484371000305],[30.287840693000135,40.07375978000033],[30.28796952400006,40.07393051200006],[30.287729211422743,40.07403045828545],[30.286344350000036,40.07738963000014],[30.280922660000158,40.07774314800008],[30.274192060000132,40.08106316300007],[30.274181551000083,40.0812221530004]]],"type":"Polygon"}},{"type":"Feature","properties":{"area_id":"TR-11-007-2005823","name_tr":"Borcak Köyü","area_level":"neighbourhood","parent_id":"TR-11-007","endeksa_id":2005823},"geometry":{"coordinates":[[[30.237050094000097,40.075200547000065],[30.224712453000052,40.07599481000034],[30.21986389100016,40.07819611000008],[30.210202878000075,40.07675439700006],[30.20840644600014,40.07831025400043],[30.20488655400004,40.07768852400068],[30.198170701000095,40.08238851900012],[30.19764871500007,40.085532831000194],[30.190029346000188,40.084758711999996],[30.18691594900025,40.086141756000245],[30.18672229800029,40.08605923200031],[30.186357627000234,40.07727838800031],[30.184554958000206,40.07463083500022],[30.172732221000274,40.06917782900024],[30.171476739000354,40.06705410000029],[30.171531473000243,40.06693531000019],[30.174242289000347,40.06568317200015],[30.17414627115903,40.06547519551202],[30.17627330900018,40.064509733000136],[30.176300990000072,40.064584352],[30.177166141954615,40.0642266644557],[30.177360396530787,40.06424314348686],[30.187313174000167,40.05965567300018],[30.18916211700008,40.050642637000124],[30.18916110700019,40.049606118999975],[30.187993006000056,40.04397028800008],[30.188027319000184,40.043267587000116],[30.188298189000193,40.04311310300045],[30.194802789000164,40.03996559500007],[30.19559037500011,40.03496079400014],[30.201350309000134,40.037560164000126],[30.213618039000153,40.03286016500033],[30.21568352900016,40.028944867000064],[30.220314371000143,40.026679252000065],[30.22084093699999,40.01816729700005],[30.222140493000097,40.01340125600029],[30.22206059600012,40.012751940000214],[30.222174766000137,40.01284050300035],[30.222310603000096,40.012774267000054],[30.222760787000084,40.01115220400004],[30.223321057000078,40.01101512500048],[30.228084097000135,40.018211049000115],[30.231772636000073,40.020337051000126],[30.23201100900019,40.024605360000066],[30.2334453900001,40.025264520000064],[30.23354213500005,40.02521229600001],[30.234149516000116,40.02558809700014],[30.23420090899998,40.02547626100045],[30.23426998900004,40.02550394100007],[30.234869269000058,40.02587766800053],[30.234921117000056,40.025764842000115],[30.234993068000108,40.02579367200019],[30.236003139000104,40.02643991700006],[30.23383134000005,40.02992237000035],[30.235437067000134,40.034395128000085],[30.23482909200004,40.03928281400016],[30.230733653000186,40.04199192100009],[30.236677443000076,40.05105548800009],[30.2437432750001,40.058436954000115],[30.24399875500012,40.06296301200018],[30.241507811000076,40.0675901900002],[30.236034651000182,40.07064855500039],[30.238201491000098,40.074203239000155],[30.2380802240001,40.0751064530001],[30.237050094000097,40.075200547000065]]],"type":"Polygon"}},{"type":"Feature","properties":{"area_id":"TR-11-007-2005842","name_tr":"Yakacık Köyü","area_level":"neighbourhood","parent_id":"TR-11-007","endeksa_id":2005842},"geometry":{"coordinates":[[[30.33185735724072,40.08408516328683],[30.33158468400012,40.08652438500019],[30.32687125800004,40.090036683000164],[30.32453010800009,40.0904718110001],[30.324495816000137,40.09028730800003],[30.324296142000094,40.09051529699997],[30.324164315000132,40.09022277700046],[30.32446728800005,40.09021835000004],[30.324411793000024,40.09009520800015],[30.327858280000157,40.08854223000009],[30.31804012500004,40.08823829200031],[30.30749211200009,40.0790663680001],[30.30578163100006,40.07693743900012],[30.298261589000106,40.077305016000025],[30.28615026700004,40.0797232220001],[30.286088441000118,40.07963266700051],[30.286292887000116,40.07778978300007],[30.288269895364067,40.07789403426085],[30.289632023278728,40.07539561165038],[30.289597084172726,40.075283458668366],[30.28796952400006,40.07393051200006],[30.287840693000135,40.07375978000033],[30.289190477999966,40.070484371000305],[30.285783303000073,40.065964395000094],[30.285891003000074,40.06588570300016],[30.290407595000033,40.065410007000025],[30.290247789000148,40.0652706930004],[30.29035252600005,40.065155908000406],[30.301371340999992,40.063723272000175],[30.304290013000127,40.05996983600011],[30.31052861800015,40.05850585300004],[30.316457351000167,40.060911136000016],[30.319195205000028,40.06464669400037],[30.320037344145646,40.06459772521117],[30.319170000000156,40.065140000000156],[30.31290000000007,40.06986000000006],[30.31832000000003,40.071330000000046],[30.321900000000085,40.07299000000023],[30.327660000000094,40.077040000000125],[30.330620000000238,40.0805000000006],[30.33185735724072,40.08408516328683]]],"type":"Polygon"}},{"type":"Feature","properties":{"area_id":"TR-11-007-2005822","name_tr":"Akçasu Köyü","area_level":"neighbourhood","parent_id":"TR-11-007","endeksa_id":2005822},"geometry":{"coordinates":[[[30.319282667000152,40.11263838900027],[30.31868876900006,40.11286390300063],[30.318318407000163,40.11269726600011],[30.315825820000043,40.11400493000008],[30.31206561000016,40.11195649000007],[30.310871681000037,40.108341254000436],[30.301790546000177,40.097375564000174],[30.28707082000011,40.09225045000028],[30.290948306000132,40.080019776000654],[30.2909080230001,40.07992188100013],[30.289930702000106,40.07987545800012],[30.27552160300013,40.08202764400016],[30.274181551000083,40.0812221530004],[30.274192060000132,40.08106316300007],[30.280922660000158,40.07774314800008],[30.286344350000036,40.07738963000014],[30.287729211422743,40.07403045828545],[30.28796952400006,40.07393051200006],[30.289597084172726,40.075283458668366],[30.289632023278728,40.07539561165038],[30.288269895364067,40.07789403426085],[30.286292887000116,40.07778978300007],[30.286088441000118,40.07963266700051],[30.28615026700004,40.0797232220001],[30.298261589000106,40.077305016000025],[30.30578163100006,40.07693743900012],[30.30749211200009,40.0790663680001],[30.31804012500004,40.08823829200031],[30.327858280000157,40.08854223000009],[30.324411793000024,40.09009520800015],[30.32446728800005,40.09021835000004],[30.324164315000132,40.09022277700046],[30.324185616000193,40.09053583900061],[30.322821500000146,40.090787490000025],[30.321620150000058,40.09332049000017],[30.32338531000005,40.096529680000174],[30.325973527000087,40.098542727000165],[30.326192637000077,40.09884501800008],[30.32609301900004,40.09887985600011],[30.32821792700014,40.10492901300046],[30.324777475389624,40.109298092062545],[30.319282667000152,40.11263838900027]]],"type":"Polygon"}},{"type":"Feature","properties":{"area_id":"TR-11-007-2005835","name_tr":"Küre Köyü","area_level":"neighbourhood","parent_id":"TR-11-007","endeksa_id":2005835},"geometry":{"coordinates":[[[30.132700000000284,40.123840000000484],[30.13240000000036,40.123870000000466],[30.130830000000287,40.123650000000566],[30.130430000000217,40.123350000000585],[30.130340000000274,40.1234300000001],[30.129540000000304,40.12321000000037],[30.129320000000234,40.123470000000566],[30.127800000000263,40.12357000000031],[30.12739000000022,40.123380000000225],[30.12713000000042,40.12309000000039],[30.126500000000306,40.12295000000017],[30.126230000000362,40.122790000000464],[30.126530000000344,40.12212000000045],[30.125500000000386,40.1216000000004],[30.125130000000297,40.12188000000049],[30.12497000000036,40.12182000000047],[30.124240000000214,40.12206000000043],[30.123800000000415,40.12205000000051],[30.12367000000029,40.12191000000081],[30.124200000000258,40.12170000000049],[30.124420000000327,40.12091000000049],[30.124430000000302,40.12001000000049],[30.123800000000415,40.12002000000041],[30.122900000000357,40.120190000000605],[30.122360000000242,40.11930000000052],[30.121130000000278,40.11961000000042],[30.120790000000397,40.11920000000043],[30.119060000000218,40.119410000000414],[30.11893000000032,40.119100000000515],[30.118630000000394,40.11897000000056],[30.118910000000255,40.11865000000057],[30.117630000000418,40.11835000000042],[30.117300000000284,40.11804000000035],[30.117270000000303,40.11792000000037],[30.116390000000308,40.11809000000022],[30.116300000000308,40.11793000000068],[30.115620000000376,40.11793000000068],[30.115090000000407,40.1173500000001],[30.1147500000003,40.117490000000316],[30.1136300000004,40.11730000000023],[30.111960000000238,40.116870000000176],[30.11096000000026,40.11578000000043],[30.11041000000023,40.116190000000415],[30.110140000000285,40.11615000000029],[30.110110000000304,40.115940000000535],[30.110210000000393,40.11581000000058],[30.11013000000031,40.115640000000724],[30.10957000000036,40.11537000000044],[30.109080000000347,40.11556000000053],[30.10800000000029,40.11559000000085],[30.1066900000003,40.11546000000004],[30.106240000000355,40.11524000000031],[30.106340000000273,40.11570000000057],[30.10557000000034,40.11580000000049],[30.105000000000246,40.116410000000485],[30.10453000000024,40.11645000000044],[30.10440000000034,40.11634000000038],[30.10399000000035,40.11664000000053],[30.100860000000353,40.115480000000275],[30.100600000000327,40.1153000000005],[30.099450000000218,40.11559000000085],[30.098680000000286,40.116010000000074],[30.098490000000368,40.11559000000085],[30.097882331763742,40.11588401309206],[30.09273255300036,40.11618456500025],[30.0925945420002,40.116096561000575],[30.092837350000195,40.112698303000286],[30.097659298000224,40.106853690000094],[30.098909175000358,40.10138376300057],[30.099304229000325,40.10127064200037],[30.099435907000213,40.10131590700064],[30.099330221000343,40.10118546100068],[30.102150324000206,40.10056810300023],[30.101844371000197,40.099299666000206],[30.101894984000353,40.099201856000604],[30.10202828000024,40.09919290100066],[30.102309170000353,40.09966897000021],[30.105102560000205,40.096245250000266],[30.103612333000285,40.09537379100033],[30.107998620000217,40.091445190000286],[30.10187852000024,40.07922666100035],[30.101727973000322,40.07903679700058],[30.09957812000033,40.07768780000043],[30.104396492000205,40.07422869300035],[30.104473660000224,40.07407982100028],[30.104404690000194,40.07253802000031],[30.102545463000297,40.072034760000236],[30.102237810000304,40.06745908000022],[30.100350910000316,40.06722296000072],[30.09957854000021,40.065165111000226],[30.100952730000245,40.06490002000072],[30.09604101000025,40.06060376000016],[30.09658869000026,40.05921615000028],[30.09358162000035,40.05945249100074],[30.094292469000266,40.05892035300059],[30.094304949000218,40.058810719000576],[30.092879639000273,40.058011079000494],[30.09142807800032,40.05503052100062],[30.090943454000353,40.053825979000294],[30.09261119900026,40.049298814000394],[30.09059981900026,40.0473430120004],[30.09289872100021,40.047721087000355],[30.0964880530002,40.048920718000375],[30.10099091000035,40.04867283000033],[30.100796432000266,40.047857195000574],[30.10335225200032,40.04415089600025],[30.104967660000227,40.04670150000061],[30.110239620000357,40.04624908000034],[30.111782480000272,40.04344169000001],[30.11452352000026,40.042508610000255],[30.115310920000354,40.03977663000052],[30.118999741000323,40.0408276900003],[30.119413733490717,40.04073403946671],[30.119520657363523,40.04083879803511],[30.119447760413152,40.04095787000608],[30.11714389900044,40.042127308000545],[30.117238125000426,40.0431973620004],[30.120235256000512,40.04508493400061],[30.12063325100047,40.04812798600051],[30.12352985000041,40.049928259000694],[30.1244070620005,40.05352132400054],[30.140581306626302,40.05182707203977],[30.140722054000207,40.05181656200017],[30.141973417000315,40.05629221500038],[30.143894505000276,40.057709264000835],[30.14146602600033,40.06110293000029],[30.144237443000236,40.06534905100034],[30.144406637000202,40.06538085100027],[30.148831304000282,40.06343213000059],[30.1489155550002,40.06351592200042],[30.149018345000343,40.0652239290003],[30.149311602000182,40.06593959400027],[30.155893571000263,40.06871206800065],[30.16138250100022,40.06757811200026],[30.16489040900035,40.06793705500024],[30.167109467000273,40.067598232000364],[30.172056031000295,40.06601356100026],[30.173934149698198,40.06531755576509],[30.17410372833558,40.065344979352574],[30.17414627115903,40.06547519551202],[30.174242289000347,40.06568317200015],[30.171531473000243,40.06693531000019],[30.171476739000354,40.06705410000029],[30.172732221000274,40.06917782900024],[30.184554958000206,40.07463083500022],[30.186357627000234,40.07727838800031],[30.18672229800029,40.08605923200031],[30.18691594900025,40.086141756000245],[30.18673188900027,40.08627478600056],[30.18679724000026,40.08816937900002],[30.184001981000335,40.09124457300027],[30.190004551000357,40.097826100000475],[30.188444795000237,40.100648547000844],[30.179472547000216,40.104264521000005],[30.17646223554715,40.10855876908761],[30.176251251000338,40.108860790999984],[30.175373928684394,40.10920000000044],[30.175280000000328,40.109000000000435],[30.175070000000346,40.10898000000054],[30.174920000000213,40.10920000000044],[30.17366000000021,40.10995000000031],[30.1729500000003,40.10985000000056],[30.169270000000267,40.11108000000041],[30.16920000000033,40.11094000000071],[30.165490000000318,40.112970000000075],[30.163730000000385,40.11324000000059],[30.163120000000333,40.11298000000022],[30.158180000000357,40.11450000000019],[30.15452000000022,40.1150800000006],[30.150500000000306,40.1139100000006],[30.132700000000284,40.123840000000484]]],"type":"Polygon"}},{"type":"Feature","properties":{"area_id":"TR-11-007-2005830","name_tr":"Hamitabat Köyü","area_level":"neighbourhood","parent_id":"TR-11-007","endeksa_id":2005830},"geometry":{"coordinates":[[[30.19860000000017,40.123220000000344],[30.196100000000115,40.12331000000012],[30.19181000000026,40.12326000000007],[30.186850000000163,40.12231000000037],[30.18323000000015,40.119380000000206],[30.18122000000011,40.114180000000545],[30.178560000000118,40.11211000000037],[30.177340000000072,40.10837000000015],[30.176652878068637,40.10873938647285],[30.176481149387428,40.10869941343037],[30.17646223554715,40.10855876908761],[30.179472547000216,40.104264521000005],[30.188444795000237,40.100648547000844],[30.190004551000357,40.097826100000475],[30.184001981000335,40.09124457300027],[30.18679724000026,40.08816937900002],[30.18673188900027,40.08627478600056],[30.18691594900025,40.086141756000245],[30.190029346000188,40.084758711999996],[30.19764871500007,40.085532831000194],[30.198170701000095,40.08238851900012],[30.20488655400004,40.07768852400068],[30.20840644600014,40.07831025400043],[30.210202878000075,40.07675439700006],[30.21986389100016,40.07819611000008],[30.224712453000052,40.07599481000034],[30.237050094000097,40.075200547000065],[30.23693707000018,40.07527155700012],[30.23698240900012,40.07537780300004],[30.2423424160001,40.078146835000496],[30.246170788000143,40.08052761100066],[30.24679258200007,40.08330729100044],[30.24655555069012,40.08354640999352],[30.24413000000004,40.08580000000018],[30.2437300000002,40.085990000000095],[30.243330000000128,40.0860200000003],[30.243080000000248,40.08619000000033],[30.24280000000016,40.08613000000031],[30.241170000000125,40.08643000000029],[30.237080000000105,40.09062000000023],[30.23599000000013,40.09140000000008],[30.23468000000014,40.09167000000042],[30.234160000000088,40.091650000000186],[30.232650000000035,40.09127000000069],[30.229470000000163,40.09115000000003],[30.22889000000015,40.09094000000039],[30.228370000000098,40.09096000000011],[30.22737000000012,40.091470000000186],[30.22724000000005,40.09170000000006],[30.227200000000096,40.09244000000018],[30.22557000000006,40.094200000000114],[30.225440000000162,40.09447000000006],[30.225510000000043,40.094820000000254],[30.22546000000017,40.09533000000016],[30.22588000000013,40.09580000000034],[30.226240000000075,40.09592000000032],[30.226800000000196,40.09653000000037],[30.22737000000012,40.096830000000296],[30.227970000000198,40.09700000000015],[30.229330000000118,40.097970000000146],[30.229500000000144,40.09815000000009],[30.229550000000188,40.09856000000008],[30.22944000000018,40.09895000000023],[30.2292300000002,40.09913000000017],[30.22774000000021,40.09985000000006],[30.226960000000133,40.10009000000019],[30.225930000000176,40.100270000000705],[30.225770000000068,40.100490000000434],[30.225470000000144,40.1006500000002],[30.223910000000217,40.10127000000034],[30.22272000000015,40.102060000000336],[30.222250000000145,40.102530000000115],[30.221840000000157,40.102750000000185],[30.21976000000018,40.10339000000022],[30.219270000000165,40.10350000000011],[30.218530000000044,40.10350000000011],[30.217670000000112,40.10401000000036],[30.216970000000117,40.10422000000017],[30.21641000000011,40.10450000000043],[30.214250000000106,40.105130000000145],[30.212640000000135,40.105810000000076],[30.212370000000192,40.10601000000031],[30.21207000000004,40.106310000000235],[30.212080000000128,40.10713000000004],[30.212540000000217,40.10757000000007],[30.212640000000135,40.10754000000003],[30.212970000000098,40.10802000000035],[30.213300000000174,40.10831000000019],[30.213380000000086,40.10862000000026],[30.21334000000013,40.108910000000094],[30.212990000000104,40.10915000000006],[30.211960000000147,40.10929000000027],[30.209540000000118,40.11025000000012],[30.207810000000165,40.1113100000004],[30.20777000000004,40.11141000000015],[30.20785000000012,40.11152000000004],[30.20777000000004,40.111880000000156],[30.208220000000154,40.112940000000265],[30.208340000000135,40.11388000000005],[30.20863000000014,40.11422000000033],[30.208750000000123,40.11493000000007],[30.208640000000116,40.115600000000086],[30.207380000000114,40.11651000000006],[30.206980000000044,40.116710000000296],[30.205520000000035,40.11685000000034],[30.20426000000009,40.1170900000003],[30.204090000000235,40.11720000000031],[30.203390000000184,40.11803000000009],[30.203220000000158,40.118550000000084],[30.203270000000032,40.11909000000037],[30.20302000000015,40.11958000000027],[30.202950000000044,40.11993000000024],[30.202890000000252,40.12002000000007],[30.202860000000044,40.11993000000024],[30.202790000000107,40.11995000000047],[30.20278000000019,40.12059000000016],[30.20260000000019,40.1212500000002],[30.20219000000003,40.12221000000005],[30.20203000000015,40.12222000000003],[30.20176000000015,40.12247000000008],[30.201650000000143,40.1228600000004],[30.20123000000018,40.12299000000047],[30.201020000000028,40.12289000000004],[30.20080000000013,40.123010000000704],[30.199610000000064,40.12318000000005],[30.19860000000017,40.123220000000344]]],"type":"Polygon"}},{"type":"Feature","properties":{"area_id":"TR-11-007-2005832","name_tr":"Kayabalı Köyü","area_level":"neighbourhood","parent_id":"TR-11-007","endeksa_id":2005832},"geometry":{"coordinates":[[[30.321499964000054,40.130438072000175],[30.312482839000097,40.127262135000365],[30.29574056100006,40.137896279000074],[30.28830168999997,40.13611080200002],[30.288144931643103,40.136159532394856],[30.288190000000156,40.136080000000675],[30.28105000000005,40.131460000000175],[30.267040000000065,40.12950000000052],[30.256480000000124,40.126290000000154],[30.25696000000005,40.12584000000038],[30.255830000000174,40.12481000000042],[30.25596000000013,40.12473000000023],[30.255730000000085,40.12395000000032],[30.255410000000097,40.121800000000064],[30.2562200000001,40.11998000000011],[30.256680000000188,40.11965000000015],[30.25639000000018,40.11924000000016],[30.256560000000206,40.11865000000023],[30.257020000000068,40.1185200000001],[30.257150000000138,40.117900000000134],[30.258120000000133,40.11818000000039],[30.258050000000196,40.117150000000436],[30.258490000000165,40.117240000000095],[30.258000000000152,40.11599000000041],[30.25863000000004,40.11463000000015],[30.258420000000058,40.11340000000013],[30.258610000000147,40.11271000000005],[30.258510000000058,40.112440000000106],[30.258520000000203,40.11214000000018],[30.257940000000133,40.11178000000024],[30.257460000000037,40.11075000000028],[30.256820000000232,40.11107000000044],[30.256380000000036,40.11079000000018],[30.25525000000016,40.110610000000065],[30.255790000000047,40.109810000000095],[30.25568000000004,40.109620000000405],[30.25559000000004,40.109070000000145],[30.255700000000104,40.10803000000044],[30.254020000000196,40.108070000000225],[30.253750000000196,40.10772000000037],[30.25388000000015,40.10772000000037],[30.25355000000019,40.10552000000024],[30.254140000000177,40.105480000000114],[30.25376000000017,40.10506000000055],[30.25361000000015,40.10500000000019],[30.2531800000001,40.10413000000034],[30.252910000000156,40.1038400000005],[30.253990000000158,40.104170000000124],[30.25473000000011,40.10467000000028],[30.255390000000034,40.10452000000009],[30.255610000000104,40.10487000000046],[30.25674000000015,40.1048100000001],[30.265150000000233,40.10375000000016],[30.266200000000197,40.099090000000274],[30.265240000000176,40.0967900000004],[30.265270000000214,40.096620000000144],[30.266860000000122,40.094290000000456],[30.268060000000105,40.093200000000365],[30.26811000000015,40.092620000000124],[30.26776983525542,40.09244218661087],[30.267971365000164,40.09202324000012],[30.263831170000174,40.090994408000086],[30.26123252300016,40.08657657800012],[30.260736226000063,40.08241604500006],[30.261846670000068,40.08236327000003],[30.264332668000065,40.0805628280001],[30.267189213999984,40.0819207350001],[30.267520669000135,40.08332109700018],[30.264512070000023,40.08410875000004],[30.26603089000008,40.085091660000046],[30.273966993999977,40.0811742460001],[30.274181551000083,40.0812221530004],[30.27552160300013,40.08202764400016],[30.289930702000106,40.07987545800012],[30.2909080230001,40.07992188100013],[30.290948306000132,40.080019776000654],[30.28707082000011,40.09225045000028],[30.301790546000177,40.097375564000174],[30.310871681000037,40.108341254000436],[30.31206561000016,40.11195649000007],[30.315825820000043,40.11400493000008],[30.318318407000163,40.11269726600011],[30.31868876900006,40.11286390300063],[30.319282667000152,40.11263838900027],[30.31946030000006,40.1126873980005],[30.323492634000047,40.11991211000003],[30.321681851000108,40.130362258000275],[30.321499964000054,40.130438072000175]]],"type":"Polygon"}},{"type":"Feature","properties":{"area_id":"TR-11-007-2005841","name_tr":"Tuzaklı Köyü","area_level":"neighbourhood","parent_id":"TR-11-007","endeksa_id":2005841},"geometry":{"coordinates":[[[30.256480000000124,40.126290000000154],[30.22452000000004,40.1357000000005],[30.224080000000072,40.1361500000001],[30.223380000000247,40.13639000000006],[30.223020000000076,40.136790000000076],[30.222680000000196,40.136880000000076],[30.222030000000075,40.136880000000076],[30.21900000000022,40.137590000000046],[30.21780000000018,40.13859000000019],[30.217700000000093,40.13910000000044],[30.21711000000016,40.139490000000194],[30.21684000000016,40.139790000000175],[30.21613000000025,40.140220000000056],[30.216010000000097,40.14065000000011],[30.215520000000197,40.14110000000039],[30.215000000000146,40.14123000000046],[30.214460000000088,40.14226000000042],[30.21269000000018,40.14285000000024],[30.21228000000019,40.14293000000043],[30.212090000000103,40.14288000000056],[30.21176000000014,40.14300000000054],[30.211520000000178,40.143230000000415],[30.208020000000147,40.14102000000014],[30.205300000000136,40.138120000000356],[30.204640000000097,40.13402000000008],[30.204330000000198,40.133720000000096],[30.204490000000078,40.133450000000494],[30.20377000000019,40.131830000000036],[30.203530000000057,40.13158000000067],[30.20352000000014,40.13138000000009],[30.19860000000017,40.123220000000344],[30.199610000000064,40.12318000000005],[30.20080000000013,40.123010000000704],[30.201020000000028,40.12289000000004],[30.20123000000018,40.12299000000047],[30.201650000000143,40.1228600000004],[30.20176000000015,40.12247000000008],[30.20203000000015,40.12222000000003],[30.20219000000003,40.12221000000005],[30.20260000000019,40.1212500000002],[30.20278000000019,40.12059000000016],[30.202790000000107,40.11995000000047],[30.202860000000044,40.11993000000024],[30.202890000000252,40.12002000000007],[30.202950000000044,40.11993000000024],[30.20302000000015,40.11958000000027],[30.203270000000032,40.11909000000037],[30.203220000000158,40.118550000000084],[30.203390000000184,40.11803000000009],[30.204090000000235,40.11720000000031],[30.20426000000009,40.1170900000003],[30.205520000000035,40.11685000000034],[30.206980000000044,40.116710000000296],[30.207380000000114,40.11651000000006],[30.208640000000116,40.115600000000086],[30.208750000000123,40.11493000000007],[30.20863000000014,40.11422000000033],[30.208340000000135,40.11388000000005],[30.208220000000154,40.112940000000265],[30.20777000000004,40.111880000000156],[30.20785000000012,40.11152000000004],[30.20777000000004,40.11141000000015],[30.207810000000165,40.1113100000004],[30.209540000000118,40.11025000000012],[30.211960000000147,40.10929000000027],[30.212990000000104,40.10915000000006],[30.21334000000013,40.108910000000094],[30.213380000000086,40.10862000000026],[30.213300000000174,40.10831000000019],[30.212970000000098,40.10802000000035],[30.212640000000135,40.10754000000003],[30.212540000000217,40.10757000000007],[30.212080000000128,40.10713000000004],[30.21207000000004,40.106310000000235],[30.212370000000192,40.10601000000031],[30.212640000000135,40.105810000000076],[30.214250000000106,40.105130000000145],[30.21641000000011,40.10450000000043],[30.216970000000117,40.10422000000017],[30.217670000000112,40.10401000000036],[30.218530000000044,40.10350000000011],[30.219270000000165,40.10350000000011],[30.21976000000018,40.10339000000022],[30.221840000000157,40.102750000000185],[30.222250000000145,40.102530000000115],[30.22272000000015,40.102060000000336],[30.223910000000217,40.10127000000034],[30.225470000000144,40.1006500000002],[30.225770000000068,40.100490000000434],[30.225930000000176,40.100270000000705],[30.226960000000133,40.10009000000019],[30.22774000000021,40.09985000000006],[30.2292300000002,40.09913000000017],[30.22944000000018,40.09895000000023],[30.229550000000188,40.09856000000008],[30.229500000000144,40.09815000000009],[30.229330000000118,40.097970000000146],[30.227970000000198,40.09700000000015],[30.22737000000012,40.096830000000296],[30.226800000000196,40.09653000000037],[30.226240000000075,40.09592000000032],[30.22588000000013,40.09580000000034],[30.22546000000017,40.09533000000016],[30.225510000000043,40.094820000000254],[30.225440000000162,40.09447000000006],[30.22557000000006,40.094200000000114],[30.227200000000096,40.09244000000018],[30.22724000000005,40.09170000000006],[30.22737000000012,40.091470000000186],[30.228370000000098,40.09096000000011],[30.22889000000015,40.09094000000039],[30.229470000000163,40.09115000000003],[30.232650000000035,40.09127000000069],[30.234160000000088,40.091650000000186],[30.23468000000014,40.09167000000042],[30.23599000000013,40.09140000000008],[30.237080000000105,40.09062000000023],[30.241170000000125,40.08643000000029],[30.24280000000016,40.08613000000031],[30.243080000000248,40.08619000000033],[30.243330000000128,40.0860200000003],[30.2437300000002,40.085990000000095],[30.24413000000004,40.08580000000018],[30.246810000000096,40.08331000000004],[30.253810000000044,40.08337000000006],[30.25506000000007,40.08257000000009],[30.25590000000011,40.082270000000676],[30.256480000000124,40.08226000000019],[30.257060000000195,40.08244000000053],[30.257520000000056,40.082670000000405],[30.25819000000007,40.083170000000166],[30.258910000000128,40.08418000000029],[30.260180000000048,40.08657000000011],[30.261550000000057,40.08827000000031],[30.262558828166846,40.08883136318411],[30.263831170000174,40.090994408000086],[30.267971365000164,40.09202324000012],[30.26776983525542,40.09244218661087],[30.26811000000015,40.092620000000124],[30.268060000000105,40.093200000000365],[30.266860000000122,40.094290000000456],[30.265270000000214,40.096620000000144],[30.265240000000176,40.0967900000004],[30.266200000000197,40.099090000000274],[30.265150000000233,40.10375000000016],[30.25674000000015,40.1048100000001],[30.255610000000104,40.10487000000046],[30.255390000000034,40.10452000000009],[30.25473000000011,40.10467000000028],[30.253990000000158,40.104170000000124],[30.252910000000156,40.1038400000005],[30.2531800000001,40.10413000000034],[30.25361000000015,40.10500000000019],[30.25376000000017,40.10506000000055],[30.254140000000177,40.105480000000114],[30.25355000000019,40.10552000000024],[30.25388000000015,40.10772000000037],[30.253750000000196,40.10772000000037],[30.254020000000196,40.108070000000225],[30.255700000000104,40.10803000000044],[30.25559000000004,40.109070000000145],[30.25568000000004,40.109620000000405],[30.255790000000047,40.109810000000095],[30.25525000000016,40.110610000000065],[30.256380000000036,40.11079000000018],[30.256820000000232,40.11107000000044],[30.257460000000037,40.11075000000028],[30.257940000000133,40.11178000000024],[30.258520000000203,40.11214000000018],[30.258510000000058,40.112440000000106],[30.258610000000147,40.11271000000005],[30.258420000000058,40.11340000000013],[30.25863000000004,40.11463000000015],[30.258000000000152,40.11599000000041],[30.258490000000165,40.117240000000095],[30.258050000000196,40.117150000000436],[30.258120000000133,40.11818000000039],[30.257150000000138,40.117900000000134],[30.257020000000068,40.1185200000001],[30.256560000000206,40.11865000000023],[30.25639000000018,40.11924000000016],[30.256680000000188,40.11965000000015],[30.2562200000001,40.11998000000011],[30.255410000000097,40.121800000000064],[30.255730000000085,40.12395000000032],[30.25596000000013,40.12473000000023],[30.255830000000174,40.12481000000042],[30.25696000000005,40.12584000000038],[30.256480000000124,40.126290000000154]]],"type":"Polygon"}},{"type":"Feature","properties":{"area_id":"TR-11-007-2005828","name_tr":"Geçitli Köyü","area_level":"neighbourhood","parent_id":"TR-11-007","endeksa_id":2005828},"geometry":{"coordinates":[[[30.192320000000166,40.15267000000006],[30.18927000000025,40.151040000000194],[30.18193000000008,40.159580000000346],[30.174490000000162,40.15997000000061],[30.17362000000014,40.16037000000034],[30.170950000000175,40.163090000000125],[30.169800000000066,40.161730000000205],[30.168930000000046,40.161040000000355],[30.16852000000023,40.16057000000052],[30.16793000000007,40.16079000000025],[30.165440000000103,40.16135000000003],[30.163990000000183,40.16113000000013],[30.164260000000183,40.15984000000037],[30.163520000000062,40.15883000000008],[30.162920000000156,40.1586200000001],[30.16279000000003,40.15887000000055],[30.160970000000077,40.1586200000001],[30.15963000000005,40.1586200000001],[30.15920000000017,40.15780000000012],[30.153780000000097,40.15388000000013],[30.153260000000046,40.15368000000029],[30.15226000000007,40.15310000000011],[30.152890000000184,40.15198000000032],[30.153420000000153,40.151780000000144],[30.153510000000153,40.15152000000012],[30.153200000000083,40.15040000000033],[30.15322000000009,40.149710000000084],[30.152980000000127,40.14929000000018],[30.152420000000177,40.14901000000043],[30.15247000000005,40.14869000000027],[30.155560000000094,40.14319000000012],[30.155590000000075,40.1429100000002],[30.155770000000075,40.1426400000006],[30.15638000000007,40.14257000000049],[30.15677000000005,40.14217000000008],[30.157040000000165,40.141280000000336],[30.15644000000009,40.1409900000005],[30.155740000000094,40.140450000000044],[30.153870000000097,40.14033000000006],[30.153330000000153,40.13962000000015],[30.152800000000184,40.139980000000094],[30.152080000000126,40.13932000000017],[30.152180000000044,40.13886000000048],[30.1514200000002,40.13786000000016],[30.15098000000006,40.13770000000005],[30.15096000000017,40.13779000000005],[30.150850000000105,40.13777000000039],[30.150790000000143,40.13807000000048],[30.150320000000136,40.13782000000026],[30.149910000000148,40.13731000000013],[30.148800000000165,40.137070000000165],[30.148190000000113,40.136600000000385],[30.14853000000022,40.13628000000017],[30.146480000000054,40.13424000000049],[30.14355000000006,40.13351000000034],[30.14216000000016,40.13262000000003],[30.141960000000154,40.13277000000039],[30.141740000000084,40.13237000000015],[30.139120000000162,40.1306800000001],[30.13788000000011,40.13030000000009],[30.138090000000034,40.129850000000374],[30.137180000000058,40.12783000000019],[30.136400000000037,40.12721000000005],[30.136080000000163,40.12708000000066],[30.13538000000017,40.1273300000002],[30.13518000000016,40.127250000000515],[30.135240000000124,40.12657000000041],[30.135130000000117,40.12637000000018],[30.13546000000025,40.12580000000008],[30.135480000000086,40.12559000000033],[30.13487000000009,40.125390000000095],[30.134520000000066,40.12516000000028],[30.134510000000148,40.12501000000009],[30.132970000000057,40.1240300000004],[30.13296000000014,40.12393000000009],[30.132700000000284,40.123840000000484],[30.150500000000306,40.1139100000006],[30.15452000000022,40.1150800000006],[30.158180000000357,40.11450000000019],[30.163120000000333,40.11298000000022],[30.163730000000385,40.11324000000059],[30.165490000000318,40.112970000000075],[30.16920000000033,40.11094000000071],[30.169270000000267,40.11108000000041],[30.1729500000003,40.10985000000056],[30.17366000000021,40.10995000000031],[30.174920000000213,40.10920000000044],[30.175070000000346,40.10898000000054],[30.175280000000328,40.109000000000435],[30.175373928684394,40.10920000000044],[30.176251251000338,40.108860790999984],[30.17646223554715,40.10855876908761],[30.176481149387428,40.10869941343037],[30.176652878068637,40.10873938647285],[30.177340000000072,40.10837000000015],[30.178560000000118,40.11211000000037],[30.18122000000011,40.114180000000545],[30.18323000000015,40.119380000000206],[30.186850000000163,40.12231000000037],[30.19181000000026,40.12326000000007],[30.196100000000115,40.12331000000012],[30.19860000000017,40.123220000000344],[30.20352000000014,40.13138000000009],[30.203530000000057,40.13158000000067],[30.20377000000019,40.131830000000036],[30.204490000000078,40.133450000000494],[30.204330000000198,40.133720000000096],[30.204640000000097,40.13402000000008],[30.205300000000136,40.138120000000356],[30.208020000000147,40.14102000000014],[30.211520000000178,40.143230000000415],[30.21114000000017,40.1439900000002],[30.209520000000055,40.14491000000015],[30.209270000000174,40.1454200000004],[30.20448000000016,40.14773000000042],[30.199140000000114,40.151130000000364],[30.192320000000166,40.15267000000006]]],"type":"Polygon"}}]}