{"type":"FeatureCollection","source_id":"endeksa","retrieved_at":"2026-08-23","features":[{"type":"Feature","properties":{"area_id":"TR-20-005-150157","name_tr":"Uzunoluk","area_level":"neighbourhood","parent_id":"TR-20-005","endeksa_id":150157},"geometry":{"coordinates":[[[28.995173074997865,37.21861018057052],[28.94545165400018,37.23290464400014],[28.946367720000126,37.2335224040001],[28.94402316200012,37.232210153000324],[28.941234364000138,37.228527863000295],[28.94064869200014,37.228134859000136],[28.94011064600005,37.22704412000019],[28.93536914800012,37.22576799000029],[28.935412515000053,37.226789428000075],[28.934750462000068,37.22804592100039],[28.934068062000108,37.22834385099998],[28.933899075000056,37.2285718280001],[28.933657111000116,37.22912423100007],[28.93385142800014,37.229807963000155],[28.933409114000142,37.23064110000007],[28.93255897600011,37.231021475000205],[28.932852336000053,37.231302169000514],[28.932677109000053,37.231432170000346],[28.932409722000045,37.231467265000674],[28.932196309000062,37.23115070800014],[28.931082372000162,37.23115787400002],[28.93032191400016,37.231027085000164],[28.929615883000054,37.23159298600018],[28.929594804000033,37.23149284200002],[28.928985685000157,37.231269926000095],[28.927354207000178,37.231348035000224],[28.926653392000162,37.23112749500012],[28.925853642999982,37.23103284500007],[28.925035869,37.230745173000116],[28.92434796900011,37.23026174200049],[28.923460325000065,37.23026851200052],[28.921480568000106,37.229696913000566],[28.92080499700006,37.229851233000545],[28.920759084999986,37.229958255000156],[28.91883626000015,37.2299867720003],[28.918194938000056,37.22953876300045],[28.916897861999985,37.22958669400009],[28.916472332000126,37.22944135100056],[28.916009705000135,37.22913165100016],[28.915554996000083,37.22807139800045],[28.910182073000044,37.227101038000455],[28.898724228000162,37.22705706400001],[28.898256156000173,37.22628351700007],[28.89810857500015,37.22627470100002],[28.897189283999978,37.22662526700026],[28.896616670458172,37.227058934289005],[28.89646803816754,37.22705506993003],[28.896389567691358,37.22695486669005],[28.89637651729271,37.22669932351744],[28.896532962866388,37.226553430085914],[28.89801674299997,37.226003432000084],[28.899287289000142,37.225103786000034],[28.899602824000056,37.22477228400015],[28.89966352099998,37.224415711000404],[28.899840005000044,37.224463044000174],[28.900056004000078,37.22431749200018],[28.900992156000086,37.22429785700007],[28.903917145000037,37.222471277000636],[28.904289555000105,37.22173825600015],[28.90470862400008,37.221662722000076],[28.903642885000068,37.219372146000126],[28.90316525600008,37.218669942000076],[28.902598920000116,37.218038196000066],[28.902194365000128,37.217154153000024],[28.902218778000133,37.2163394020007],[28.901144054000042,37.21405069700006],[28.900650053000106,37.213304786000435],[28.900522448999993,37.21216759500004],[28.90087108200015,37.2091535990001],[28.901714731000084,37.20679248100009],[28.901960666000093,37.206433537000066],[28.902012096000078,37.20614319900005],[28.906254720000106,37.20199990700007],[28.908718957000133,37.19893405000016],[28.910391689000164,37.19784852100014],[28.914260205000176,37.19407848300028],[28.91444958200009,37.19336391200022],[28.9150013040001,37.18855903500048],[28.914626678000047,37.18771922500008],[28.915099054000052,37.18669400499999],[28.915126703999988,37.186466799000016],[28.91648846800007,37.185223244999975],[28.916229019000184,37.18472977900001],[28.90997900800005,37.17736984500016],[28.909762608000108,37.1772153280001],[28.90849204800014,37.175725941000394],[28.9084015360001,37.17492277800011],[28.908693597000024,37.173699864000355],[28.915741347000164,37.16824414100023],[28.922129337000058,37.166743053000005],[28.92236086200012,37.166626668000106],[28.923602095000035,37.16441717600003],[28.923582814000156,37.16334580800003],[28.920561434999968,37.15345216800051],[28.920128643000055,37.152743570000325],[28.919487525000136,37.15012535400041],[28.91965661900008,37.149856345000444],[28.922562832000096,37.14112581400008],[28.92244227499998,37.14060721900006],[28.92300541900005,37.13982477300016],[28.92514184800018,37.14015594800014],[28.925791896000135,37.13836674100014],[28.934012142000086,37.13952423500052],[28.93862393300003,37.13676486800006],[28.94105354500016,37.137774284000045],[28.946969931000126,37.13572610200009],[28.954600964999997,37.12842856800057],[28.955160098000192,37.12574896000001],[28.962852683000108,37.12328399799998],[28.963355595204064,37.12331225714257],[28.965200000000095,37.127580000000194],[28.965200000000095,37.134550000000445],[28.972810000000038,37.13819000000035],[28.977750000000185,37.14122000000026],[28.992960000000153,37.14850000000007],[28.996770000000083,37.14698000000004],[29.004080000000044,37.14917000000008],[29.006270000000086,37.1513800000003],[29.006270000000086,37.15441000000021],[29.00570000000016,37.15683000000007],[29.005789234208635,37.15875088374952],[29.005534949894866,37.159992914984],[29.0048522190001,37.16313886400013],[29.004882958000053,37.167656329000124],[29.004200942000125,37.16932611800013],[29.004077944000073,37.171096003000116],[29.003414867000174,37.173361062000026],[29.002555014000166,37.17803784300037],[28.99881922200018,37.182506763000106],[28.998084194000114,37.186839273000146],[28.997580992000053,37.19072179800014],[28.99784232000013,37.19659941500032],[28.997469934000094,37.19912718800015],[28.997820376000107,37.20681337200017],[28.99846374200007,37.20944016600009],[28.999230890000092,37.21125449500016],[28.998969088000138,37.21396398700017],[28.997813925000003,37.21585237300013],[28.996979259000057,37.21748730000013],[28.995417994106333,37.21853471729685],[28.995173074997865,37.21861018057052]]],"type":"Polygon"}},{"type":"Feature","properties":{"area_id":"TR-20-005-20694","name_tr":"Zafer","area_level":"neighbourhood","parent_id":"TR-20-005","endeksa_id":20694},"geometry":{"coordinates":[[[28.898929435000184,37.23042916400016],[28.898912847000076,37.23152774400012],[28.898717915000077,37.23201573000017],[28.898313899000073,37.23269069600002],[28.897724883000024,37.23322363700015],[28.896919840000066,37.23427165600009],[28.896127580000098,37.23562181699998],[28.89619122800019,37.23615536800003],[28.896084846999997,37.23617652600018],[28.895971840000186,37.23564354600012],[28.895335568999997,37.23551057900005],[28.893964883000137,37.23494948800004],[28.89390881999998,37.23442635200013],[28.893094628000142,37.233665194000366],[28.89247290000003,37.233366849000106],[28.891257278000182,37.23311803000007],[28.890473782000186,37.23304792800013],[28.89021407700011,37.23284261400016],[28.88957117900003,37.23190473800037],[28.889149159000112,37.23153960000053],[28.888982751000185,37.231048279000106],[28.888057460000084,37.23014715800025],[28.88738912500014,37.23024369600006],[28.88649612500012,37.23014301400008],[28.884719379000046,37.230580162000194],[28.882789620000153,37.23077038000048],[28.881919980000134,37.231105125000056],[28.880303616000162,37.23149999800012],[28.879853411000113,37.23170468600051],[28.878613182000095,37.23197310300043],[28.876949082000067,37.232114189000015],[28.875181001000044,37.23209123700008],[28.87378811000019,37.232129661000045],[28.873269283000184,37.230887574000405],[28.872738594000054,37.230475606000425],[28.872495644000026,37.22985612400015],[28.87303988100018,37.22952248299998],[28.873598158000107,37.22977420000012],[28.874027698000134,37.22981862299997],[28.874129854000046,37.2296469580001],[28.874751712000148,37.229752310000265],[28.876011967000068,37.22956253800055],[28.87619976600007,37.229403136000144],[28.87642243600004,37.229404454000075],[28.877200759000004,37.22898682800019],[28.877128254000127,37.22871878100028],[28.877433422000024,37.22836106099999],[28.877441810000164,37.227885531000084],[28.874567685000102,37.2281146120003],[28.87025162800012,37.22661063400005],[28.86894992000009,37.22727300800011],[28.868267341000035,37.22663963300056],[28.867267814000172,37.226655042000175],[28.866118179000182,37.22568592400006],[28.864141543000073,37.2257314110002],[28.863141911000127,37.22198378100012],[28.863699114000156,37.22127995000005],[28.866126725000186,37.22048470300058],[28.867616081000108,37.219320427000525],[28.86810129100013,37.2179044450001],[28.867457330000036,37.21687619400035],[28.870282637000116,37.208271080000145],[28.869993831000045,37.206910626000024],[28.869850213000063,37.20550385600018],[28.87027241600009,37.20439360700004],[28.871611643000165,37.202985321000085],[28.87147961600016,37.20196977100022],[28.868270819000145,37.19818621899998],[28.865522097000053,37.19234075500003],[28.86533211700015,37.189621448000366],[28.86490557700006,37.18870809000015],[28.864694603000146,37.18782891100011],[28.863531291000186,37.18585787100045],[28.863356192000026,37.18400959000002],[28.861148417000038,37.18129207300018],[28.86136080099999,37.18051780700057],[28.85967333100018,37.177772044000164],[28.86001333600018,37.17658261700058],[28.85672373800014,37.17403410400016],[28.86007107900008,37.16847980700004],[28.860618478000163,37.16510570800017],[28.862991459000114,37.160792915000286],[28.864637959999982,37.15997929800005],[28.86313358800004,37.158864994000055],[28.862747922000096,37.156444390000104],[28.86305215700014,37.15477148300016],[28.859567320000053,37.14610904700004],[28.860255174000088,37.14440611700019],[28.860865883000088,37.14173152000012],[28.85932391500006,37.13781308299997],[28.858993124000108,37.13197884600015],[28.849514483000064,37.1287285090001],[28.839838711000084,37.128693799000075],[28.834350690999997,37.12738839300022],[28.827122722000183,37.12791307700013],[28.82183371300016,37.123390756000106],[28.817586171000073,37.118938192000485],[28.81634556012665,37.11137268579],[28.816227588007678,37.111270718332946],[28.816062800011252,37.11131899514362],[28.827120000000093,37.097810000000266],[28.83629000000019,37.08658000000048],[28.84305000000012,37.08731000000034],[28.844390000000146,37.091830000000186],[28.84778000000017,37.09438000000068],[28.854300000000137,37.09755000000007],[28.854780000000062,37.09953000000047],[28.861830000000225,37.0966200000002],[28.86349000000007,37.08996000000019],[28.86290095429058,37.0854747362842],[28.86481930300016,37.08576987200024],[28.86970463199998,37.086283712000125],[28.873226050000028,37.08891962299998],[28.873301436000077,37.093374823000204],[28.872093869000082,37.09513356300005],[28.87439056000011,37.09712857700009],[28.87715286500014,37.10004142300005],[28.879111046000048,37.10181391499998],[28.882123984000145,37.104765600000235],[28.88729353600013,37.106947130000435],[28.89128683600012,37.10903083100027],[28.893891803000088,37.10997605300014],[28.9016196660001,37.11222211200044],[28.905815799000095,37.11136572800012],[28.9103200510001,37.113504695000245],[28.91221479000012,37.11278040299999],[28.91564858300012,37.120561984000005],[28.919333553000172,37.12539778900003],[28.92470295100003,37.13128488700056],[28.92390301100005,37.135840208000104],[28.92300541900005,37.13982477300016],[28.92244227499998,37.14060721900006],[28.922562832000096,37.14112581400008],[28.91965661900008,37.149856345000444],[28.919487525000136,37.15012535400041],[28.920128643000055,37.152743570000325],[28.920561434999968,37.15345216800051],[28.923582814000156,37.16334580800003],[28.923602095000035,37.16441717600003],[28.92236086200012,37.166626668000106],[28.922129337000058,37.166743053000005],[28.915741347000164,37.16824414100023],[28.908693597000024,37.173699864000355],[28.9084015360001,37.17492277800011],[28.90849204800014,37.175725941000394],[28.909762608000108,37.1772153280001],[28.90997900800005,37.17736984500016],[28.916229019000184,37.18472977900001],[28.91648846800007,37.185223244999975],[28.915126703999988,37.186466799000016],[28.915099054000052,37.18669400499999],[28.914626678000047,37.18771922500008],[28.9150013040001,37.18855903500048],[28.91444958200009,37.19336391200022],[28.914260205000176,37.19407848300028],[28.910391689000164,37.19784852100014],[28.908718957000133,37.19893405000016],[28.906254720000106,37.20199990700007],[28.902012096000078,37.20614319900005],[28.901960666000093,37.206433537000066],[28.901714731000084,37.20679248100009],[28.90087108200015,37.2091535990001],[28.900522448999993,37.21216759500004],[28.900650053000106,37.213304786000435],[28.901144054000042,37.21405069700006],[28.902218778000133,37.2163394020007],[28.902194365000128,37.217154153000024],[28.902598920000116,37.218038196000066],[28.90316525600008,37.218669942000076],[28.903642885000068,37.219372146000126],[28.90470862400008,37.221662722000076],[28.904289555000105,37.22173825600015],[28.903917145000037,37.222471277000636],[28.900992156000086,37.22429785700007],[28.900056004000078,37.22431749200018],[28.899840005000044,37.224463044000174],[28.89966352099998,37.224415711000404],[28.899602824000056,37.22477228400015],[28.899287289000142,37.225103786000034],[28.89801674299997,37.226003432000084],[28.896532962866388,37.226553430085914],[28.89637651729271,37.22669932351744],[28.896389567691358,37.22695486669005],[28.896648367000125,37.22799248100023],[28.897037835000162,37.22816339900015],[28.897471843000005,37.22859307400063],[28.897938790000183,37.22863393800009],[28.898245935000148,37.22880815600013],[28.89836376200003,37.22992748600001],[28.898606729000107,37.23032076000004],[28.898933902000124,37.23036682900022],[28.898929435000184,37.23042916400016]]],"type":"Polygon"}},{"type":"Feature","properties":{"area_id":"TR-20-005-150161","name_tr":"Eşenler","area_level":"neighbourhood","parent_id":"TR-20-005","endeksa_id":150161},"geometry":{"coordinates":[[[28.98201450178709,37.23885952493197],[28.98172797500007,37.23903563900018],[28.9816730820001,37.238973121000186],[28.974269559999982,37.2407757310001],[28.958378168000024,37.238704207000296],[28.958389833000183,37.238769610000645],[28.95790251500017,37.23876689300033],[28.95722193800009,37.238553487000104],[28.95532782900011,37.23830658000003],[28.955153609000092,37.23834826899997],[28.954789914000116,37.23823702600009],[28.953052172000014,37.23727814199998],[28.952625774000126,37.23711988500048],[28.952061310000147,37.23675046600056],[28.950134888000093,37.23569493299999],[28.94873224800017,37.235109495000074],[28.94778380700012,37.23483575400007],[28.946288084000116,37.23379435000004],[28.946367720000126,37.2335224040001],[28.94545165400018,37.23290464400014],[28.995173074997865,37.21861018057052],[28.9953206628378,37.21871626220269],[28.994943457081206,37.219945626988476],[28.992736266000122,37.22331103100066],[28.994240982000065,37.22841661300015],[28.99530098400004,37.231573969000124],[28.99609575928241,37.2354783606533],[28.994980000000112,37.23589000000027],[28.991560000000106,37.23604000000057],[28.991540000000043,37.23585000000048],[28.990900000000238,37.235810000000185],[28.989510000000166,37.23595000000023],[28.988740000000178,37.23617000000013],[28.988620000000196,37.2362600000003],[28.988570000000152,37.23653000000007],[28.986950000000093,37.23744000000005],[28.986610000000155,37.23725000000036],[28.98643000000004,37.23725000000036],[28.98600000000016,37.23743000000047],[28.984560000000045,37.237670000000435],[28.984280000000126,37.23784000000029],[28.984090000000037,37.23778000000033],[28.983970000000056,37.23793000000012],[28.984010000000183,37.23806000000019],[28.98262000000011,37.23837000000009],[28.982510000000048,37.23836000000017],[28.982550000000174,37.23768000000041],[28.980720000000076,37.23784000000029],[28.98039000000017,37.237790000000416],[28.979970000000037,37.238200000000234],[28.98201450178709,37.23885952493197]]],"type":"Polygon"}},{"type":"Feature","properties":{"area_id":"TR-20-005-20693","name_tr":"Hürriyet","area_level":"neighbourhood","parent_id":"TR-20-005","endeksa_id":20693},"geometry":{"coordinates":[[[28.920310020000045,37.23741104100009],[28.915923210000187,37.239503264000064],[28.913211147000027,37.24062307300011],[28.911777113000085,37.24090605200013],[28.91110209500016,37.240852050000285],[28.909992139000167,37.240597528000364],[28.909916487000146,37.24157130500038],[28.91008674200009,37.24219708300046],[28.910115425000072,37.24317961000031],[28.909791221000035,37.244473717000176],[28.909580239000036,37.24487226500014],[28.90949144500013,37.24479942200003],[28.908462219000057,37.243555359000084],[28.906164937000028,37.24122812800067],[28.90519401600011,37.240095868000424],[28.904035397000087,37.2391388420001],[28.90392461100015,37.238990925000394],[28.90408503900011,37.23837166500016],[28.902594850000128,37.23766984800005],[28.90232150200012,37.23642022500013],[28.90215628300018,37.236048706000076],[28.902171647000046,37.235542255000155],[28.902600199000176,37.23487760100005],[28.902252201000124,37.2344613890001],[28.901986857000054,37.23429701099997],[28.90181809600017,37.23379367000018],[28.901600803000065,37.233682353999995],[28.901645943000062,37.233419898000136],[28.901525479000043,37.23316701100009],[28.901028660000065,37.23265053400007],[28.901192975000072,37.23240344600009],[28.90066073600019,37.23216098100016],[28.90076583200016,37.23197414500015],[28.899876775000052,37.231459550000125],[28.899918081000123,37.231041428000026],[28.89944022100019,37.23075534600048],[28.899203359000126,37.23044243800052],[28.898929435000184,37.23042916400016],[28.898933902000124,37.23036682900022],[28.898606729000107,37.23032076000004],[28.89836376200003,37.22992748600001],[28.898245935000148,37.22880815600013],[28.897938790000183,37.22863393800009],[28.897471843000005,37.22859307400063],[28.897037835000162,37.22816339900015],[28.896648367000125,37.22799248100023],[28.896389567691358,37.22695486669005],[28.89646803816754,37.22705506993003],[28.896616670458172,37.227058934289005],[28.897189283999978,37.22662526700026],[28.89810857500015,37.22627470100002],[28.898256156000173,37.22628351700007],[28.898724228000162,37.22705706400001],[28.910182073000044,37.227101038000455],[28.915554996000083,37.22807139800045],[28.916043463000108,37.22921036300028],[28.915937294000116,37.22918779700018],[28.915902814000106,37.22931179600005],[28.915913311000168,37.22953317400061],[28.916231457000038,37.23090348800048],[28.91638625200011,37.23125865600019],[28.916604292000045,37.231564198000115],[28.917559058000165,37.23216929200004],[28.917905411000163,37.232909131999975],[28.917845691000025,37.23402755800015],[28.917135172000087,37.23539684400015],[28.917944882000143,37.23580701100002],[28.918579327000145,37.23627571399999],[28.91889305700016,37.23694800000038],[28.919283420000056,37.237303845999975],[28.919853757000055,37.23756713600045],[28.920310020000045,37.23741104100009]]],"type":"Polygon"}},{"type":"Feature","properties":{"area_id":"TR-20-005-20697","name_tr":"Fatih","area_level":"neighbourhood","parent_id":"TR-20-005","endeksa_id":20697},"geometry":{"coordinates":[[[28.88629417200002,37.25145966299999],[28.886104881000108,37.251936796000166],[28.884445710000023,37.2532965310001],[28.884526652000147,37.25290773700044],[28.884432255999968,37.25172493400004],[28.8841534930001,37.250873943000386],[28.884429341000043,37.250377008000214],[28.88443802000012,37.2502519410001],[28.88498463300016,37.25002763800012],[28.884981213000003,37.24916891200007],[28.885135218000073,37.24850307000008],[28.88458053900007,37.24674893200023],[28.88463290500016,37.24647462500036],[28.88381646500011,37.245550091999974],[28.883641008000097,37.245115229000135],[28.883800776000157,37.24458912400007],[28.88444293100008,37.243550141000185],[28.88425527600009,37.243484369000214],[28.88399164600014,37.2431224070001],[28.883913749000158,37.24282941300038],[28.883123465000153,37.24226159800003],[28.880707522000023,37.24146362400012],[28.880285722999986,37.24107352700008],[28.87981874500008,37.24080225299997],[28.879680160000078,37.24040938700034],[28.879280473000165,37.24033481700002],[28.87879446700009,37.2398713820005],[28.878228031000106,37.23963701000014],[28.878117437000185,37.23940300200047],[28.87785421000018,37.2393562310001],[28.877556256000048,37.239039448000085],[28.876901747000147,37.238778891000436],[28.876289391000114,37.238325646000135],[28.87583179400019,37.23776030800008],[28.87576689900004,37.23755512399998],[28.875845673000185,37.237375272000065],[28.87554831000017,37.237092367000514],[28.87665575800014,37.236743637000075],[28.87723699600008,37.23624693900001],[28.87699189600005,37.23492425200027],[28.87611289200015,37.23434262100005],[28.875603609000052,37.233597849000034],[28.87548549000013,37.23277177799997],[28.875181001000044,37.23209123700008],[28.876949082000067,37.232114189000015],[28.878613182000095,37.23197310300043],[28.879853411000113,37.23170468600051],[28.880303616000162,37.23149999800012],[28.881919980000134,37.231105125000056],[28.882789620000153,37.23077038000048],[28.884719379000046,37.230580162000194],[28.88649612500012,37.23014301400008],[28.88738912500014,37.23024369600006],[28.888057460000084,37.23014715800025],[28.888982751000185,37.231048279000106],[28.889149159000112,37.23153960000053],[28.88957117900003,37.23190473800037],[28.89021407700011,37.23284261400016],[28.890473782000186,37.23304792800013],[28.891257278000182,37.23311803000007],[28.89247290000003,37.233366849000106],[28.893094628000142,37.233665194000366],[28.89390881999998,37.23442635200013],[28.893964883000137,37.23494948800004],[28.895335568999997,37.23551057900005],[28.895971840000186,37.23564354600012],[28.896084846999997,37.23617652600018],[28.89527587600014,37.23658754100012],[28.894547858000124,37.23715449500014],[28.89351887900017,37.23817939500003],[28.892441839000014,37.239532323000105],[28.892225824000036,37.24027230200028],[28.89211687500017,37.242457244000036],[28.891921856000067,37.24313020800031],[28.89114285300019,37.24432717300067],[28.890582828000163,37.24498811100011],[28.889666813000133,37.24583006500018],[28.88854788400016,37.247251026000015],[28.88711078900019,37.24844492100067],[28.886258866000162,37.24934385900008],[28.886211860000174,37.24970683700013],[28.886503855000058,37.25030987700006],[28.886544841000102,37.2506708250001],[28.88629417200002,37.25145966299999]]],"type":"Polygon"}},{"type":"Feature","properties":{"area_id":"TR-20-005-20692","name_tr":"Cumhuriyet","area_level":"neighbourhood","parent_id":"TR-20-005","endeksa_id":20692},"geometry":{"coordinates":[[[28.884426768000083,37.25038162500033],[28.884437340000034,37.25025978800011],[28.879021382000133,37.25328153000055],[28.878567660000044,37.25337845100012],[28.878030149000097,37.25265326700003],[28.877478568000186,37.252409395000086],[28.877429985000163,37.2522731100006],[28.874282179000147,37.25142354500002],[28.873103634000017,37.25074339100024],[28.87061849200012,37.2485750730001],[28.869411559000184,37.24713365299999],[28.86759660200005,37.24613854500012],[28.866532839,37.24457301500058],[28.863244948000045,37.24320120600032],[28.862499122000145,37.24204269500012],[28.862391545000037,37.24142131200017],[28.86046694600003,37.23956201000016],[28.85701219100008,37.23804682700012],[28.854823832000136,37.23821485300016],[28.853918921000115,37.237725820000435],[28.853035515000045,37.236202677999984],[28.85215651500016,37.235419310000054],[28.848877114000175,37.23481442600024],[28.845830612137092,37.23532510083123],[28.844055487000105,37.23311456200014],[28.84080737500011,37.229673110000135],[28.83822246300008,37.22879340800068],[28.83760168300006,37.22766436300026],[28.836542276000102,37.22620650100009],[28.833897221000143,37.22598816900012],[28.830559935000053,37.226030048000155],[28.828056996000043,37.227899858000114],[28.82613428400009,37.22739277200026],[28.82545438300008,37.227864090000025],[28.825062235000132,37.228884139000286],[28.82423258400013,37.22984817600002],[28.82216073000012,37.22981332400019],[28.821019279000097,37.23007046800012],[28.819603226000083,37.230873432000124],[28.81870666400016,37.231851211000105],[28.816821004000076,37.232757901000525],[28.81521799600017,37.232512786000086],[28.81411529900015,37.23154903000005],[28.813636118000034,37.231321224000226],[28.812802006000084,37.231372535000105],[28.811316394000073,37.23353381600015],[28.81099155200002,37.23526349600013],[28.810505264000142,37.23531152200019],[28.80981506200004,37.2348599340001],[28.80870787000009,37.23466325800052],[28.803303993000156,37.23593203900043],[28.802008124000167,37.236041319000094],[28.80061814800007,37.23603262400013],[28.79942307000016,37.236669694000625],[28.798768213000074,37.23668320300004],[28.79842008200012,37.235777923000114],[28.79773862100012,37.23563824900009],[28.793956767000054,37.237535687000104],[28.792571359000135,37.23805315100043],[28.791281053000148,37.23823167400019],[28.78935401400014,37.238199922000035],[28.78688806500014,37.237901173000466],[28.78430241914873,37.237245390097314],[28.78453000000013,37.236390000000426],[28.786280000000147,37.23476000000039],[28.786500000000046,37.2325400000002],[28.786500000000046,37.223360000000184],[28.785880000000134,37.21926000000008],[28.785720000000197,37.21455000000026],[28.78946000000019,37.20810000000023],[28.78884000000005,37.201770000000124],[28.788520000000062,37.19755000000055],[28.797950000000128,37.181720000000325],[28.800130000000195,37.17427000000009],[28.799820000000125,37.16682000000026],[28.798890000000085,37.157630000000154],[28.80263000000008,37.14472000000012],[28.805120000000045,37.13354000000004],[28.80761000000018,37.12062000000037],[28.816062800011252,37.11131899514362],[28.816227588007678,37.111270718332946],[28.81634556012665,37.11137268579],[28.817586171000073,37.118938192000485],[28.82183371300016,37.123390756000106],[28.827122722000183,37.12791307700013],[28.834350690999997,37.12738839300022],[28.839838711000084,37.128693799000075],[28.849514483000064,37.1287285090001],[28.858993124000108,37.13197884600015],[28.85932391500006,37.13781308299997],[28.860865883000088,37.14173152000012],[28.860255174000088,37.14440611700019],[28.859567320000053,37.14610904700004],[28.86305215700014,37.15477148300016],[28.862747922000096,37.156444390000104],[28.86313358800004,37.158864994000055],[28.864637959999982,37.15997929800005],[28.862991459000114,37.160792915000286],[28.860618478000163,37.16510570800017],[28.86007107900008,37.16847980700004],[28.85672373800014,37.17403410400016],[28.86001333600018,37.17658261700058],[28.85967333100018,37.177772044000164],[28.86136080099999,37.18051780700057],[28.861148417000038,37.18129207300018],[28.863356192000026,37.18400959000002],[28.863531291000186,37.18585787100045],[28.864694603000146,37.18782891100011],[28.86490557700006,37.18870809000015],[28.86533211700015,37.189621448000366],[28.865522097000053,37.19234075500003],[28.868270819000145,37.19818621899998],[28.87147961600016,37.20196977100022],[28.871611643000165,37.202985321000085],[28.87027241600009,37.20439360700004],[28.869850213000063,37.20550385600018],[28.869993831000045,37.206910626000024],[28.870282637000116,37.208271080000145],[28.867457330000036,37.21687619400035],[28.86810129100013,37.2179044450001],[28.867616081000108,37.219320427000525],[28.866126725000186,37.22048470300058],[28.863699114000156,37.22127995000005],[28.863141911000127,37.22198378100012],[28.864141543000073,37.2257314110002],[28.866118179000182,37.22568592400006],[28.867267814000172,37.226655042000175],[28.868267341000035,37.22663963300056],[28.86894992000009,37.22727300800011],[28.87025162800012,37.22661063400005],[28.874567685000102,37.2281146120003],[28.877441810000164,37.227885531000084],[28.877433422000024,37.22836106099999],[28.877128254000127,37.22871878100028],[28.877200759000004,37.22898682800019],[28.87642243600004,37.229404454000075],[28.87619976600007,37.229403136000144],[28.876011967000068,37.22956253800055],[28.874751712000148,37.229752310000265],[28.874129854000046,37.2296469580001],[28.874027698000134,37.22981862299997],[28.873598158000107,37.22977420000012],[28.87303988100018,37.22952248299998],[28.872495644000026,37.22985612400015],[28.872738594000054,37.230475606000425],[28.873269283000184,37.230887574000405],[28.87378811000019,37.232129661000045],[28.875181001000044,37.23209123700008],[28.87548549000013,37.23277177799997],[28.875603609000052,37.233597849000034],[28.87611289200015,37.23434262100005],[28.87699189600005,37.23492425200027],[28.87723699600008,37.23624693900001],[28.87665575800014,37.236743637000075],[28.87554831000017,37.237092367000514],[28.875845673000185,37.237375272000065],[28.87576689900004,37.23755512399998],[28.87583179400019,37.23776030800008],[28.876289391000114,37.238325646000135],[28.876901747000147,37.238778891000436],[28.877556256000048,37.239039448000085],[28.87785421000018,37.2393562310001],[28.878117437000185,37.23940300200047],[28.878228031000106,37.23963701000014],[28.87879446700009,37.2398713820005],[28.879280473000165,37.24033481700002],[28.879680160000078,37.24040938700034],[28.87981874500008,37.24080225299997],[28.880285722999986,37.24107352700008],[28.880707522000023,37.24146362400012],[28.883123465000153,37.24226159800003],[28.883913749000158,37.24282941300038],[28.88399164600014,37.2431224070001],[28.88425527600009,37.243484369000214],[28.88444293100008,37.243550141000185],[28.883800776000157,37.24458912400007],[28.883641008000097,37.245115229000135],[28.88381646500011,37.245550091999974],[28.88463290500016,37.24647462500036],[28.88458053900007,37.24674893200023],[28.885135218000073,37.24850307000008],[28.884981213000003,37.24916891200007],[28.88498463300016,37.25002763800012],[28.88443802000012,37.2502519410001],[28.884429341000043,37.250377008000214],[28.884426768000083,37.25038162500033]]],"type":"Polygon"}},{"type":"Feature","properties":{"area_id":"TR-20-005-20695","name_tr":"Yeni","area_level":"neighbourhood","parent_id":"TR-20-005","endeksa_id":20695},"geometry":{"coordinates":[[[28.904214099000114,37.25425991100008],[28.90317108000005,37.25431019300015],[28.902906566000183,37.25452307299997],[28.902730470000165,37.25437540000064],[28.901231369000072,37.25524045000009],[28.900803678000102,37.25563515400006],[28.9005973620001,37.25560211700008],[28.90048268800018,37.25516879200006],[28.900609164000173,37.25447413500001],[28.89973837000008,37.25436288800017],[28.89969031200019,37.25474628000006],[28.899504735000164,37.254810737000184],[28.89916068500014,37.25476264700012],[28.89902179000012,37.25556117700006],[28.898711163000087,37.256053333000295],[28.89873544700015,37.25588534000019],[28.898622926000144,37.255865874000506],[28.898651099000062,37.25531137500019],[28.897470834000046,37.255292107],[28.896865646000037,37.255370883000126],[28.89666083400016,37.25494520199999],[28.896115969000107,37.25499424700024],[28.89501419900006,37.25527798900009],[28.89476692100004,37.25475221000005],[28.89444852700018,37.25465840800007],[28.894109899000057,37.25468277300058],[28.89397595100013,37.25428502500017],[28.893623300000172,37.25432753200005],[28.89354085600013,37.25441710700045],[28.892757882000183,37.254294179000226],[28.892758058000027,37.25469184900027],[28.890554650000126,37.25486576399999],[28.890470387000164,37.25523520100046],[28.890277429000037,37.25544299300009],[28.889843509000173,37.25530603000004],[28.88986456900011,37.25569934900017],[28.889494256000148,37.255746532000046],[28.889455503000022,37.25540382800011],[28.88893608000012,37.254744666000136],[28.88920923400019,37.25431890700014],[28.889555946000087,37.25442317400018],[28.88968108400013,37.25431115900005],[28.889729136000028,37.25394807400028],[28.88938314100011,37.25383876400065],[28.889018183000076,37.2535483100001],[28.889717393000012,37.253338163000194],[28.8895850130001,37.2530200810005],[28.8897823530001,37.252862146000666],[28.8898557,37.25192858300011],[28.889628433000155,37.25186259000003],[28.889614557000073,37.2513943190001],[28.888231761000043,37.251095287000226],[28.88758531100018,37.25159330800017],[28.88629417200002,37.25145966299999],[28.886544841000102,37.2506708250001],[28.886503855000058,37.25030987700006],[28.886211860000174,37.24970683700013],[28.886258866000162,37.24934385900008],[28.88711078900019,37.24844492100067],[28.88854788400016,37.247251026000015],[28.889666813000133,37.24583006500018],[28.890582828000163,37.24498811100011],[28.89114285300019,37.24432717300067],[28.891921856000067,37.24313020800031],[28.89211687500017,37.242457244000036],[28.892225824000036,37.24027230200028],[28.892441839000014,37.239532323000105],[28.89351887900017,37.23817939500003],[28.894547858000124,37.23715449500014],[28.89527587600014,37.23658754100012],[28.896084846999997,37.23617652600018],[28.89619122800019,37.23615536800003],[28.896127580000098,37.23562181699998],[28.896919840000066,37.23427165600009],[28.897724883000024,37.23322363700015],[28.898313899000073,37.23269069600002],[28.898717915000077,37.23201573000017],[28.898912847000076,37.23152774400012],[28.898929435000184,37.23042916400016],[28.899203359000126,37.23044243800052],[28.89944022100019,37.23075534600048],[28.899918081000123,37.231041428000026],[28.899876775000052,37.231459550000125],[28.90076583200016,37.23197414500015],[28.90066073600019,37.23216098100016],[28.901192975000072,37.23240344600009],[28.901028660000065,37.23265053400007],[28.901525479000043,37.23316701100009],[28.901645943000062,37.233419898000136],[28.901600803000065,37.233682353999995],[28.90181809600017,37.23379367000018],[28.901986857000054,37.23429701099997],[28.902252201000124,37.2344613890001],[28.902600199000176,37.23487760100005],[28.902171647000046,37.235542255000155],[28.90215628300018,37.236048706000076],[28.90232150200012,37.23642022500013],[28.902594850000128,37.23766984800005],[28.90408503900011,37.23837166500016],[28.90392461100015,37.238990925000394],[28.904035397000087,37.2391388420001],[28.90519401600011,37.240095868000424],[28.906164937000028,37.24122812800067],[28.908462219000057,37.243555359000084],[28.90949144500013,37.24479942200003],[28.909580460000143,37.24487546100056],[28.909481652000125,37.2450461410001],[28.90955857900019,37.245438553999975],[28.90929658100015,37.246270767],[28.908918594000056,37.246452900000065],[28.908681435000062,37.247375660000216],[28.90798766300003,37.24859781200007],[28.90796745600005,37.248957134000136],[28.90784237600019,37.24922611000005],[28.90755301700017,37.24950854300039],[28.90627838600011,37.24987064800024],[28.90573564800013,37.25076625899999],[28.905529681000075,37.25082073200019],[28.90513283700011,37.25121045100019],[28.90493449500019,37.25171807900006],[28.904637628000046,37.25196186500034],[28.90459091500003,37.25217834500012],[28.904301596000153,37.25223303100006],[28.904228653000075,37.25247650000006],[28.90409243000005,37.25254382300017],[28.904254900000183,37.2527924080004],[28.90418012400005,37.252935771000125],[28.904600840000057,37.25327827700005],[28.90434162800011,37.25353814400029],[28.90451459000019,37.253772718000334],[28.904314739000085,37.25400470300008],[28.904471402000183,37.254262600000004],[28.904214099000114,37.25425991100008]]],"type":"Polygon"}},{"type":"Feature","properties":{"area_id":"TR-20-005-150159","name_tr":"Yeniçeşme","area_level":"neighbourhood","parent_id":"TR-20-005","endeksa_id":150159},"geometry":{"coordinates":[[[28.98201450178709,37.23885952493197],[28.98207000000008,37.23888000000039],[28.981680000000097,37.23914000000019],[28.981770000000097,37.24056000000013],[28.98350000000005,37.24300000000022],[28.98324000000025,37.244630000000086],[28.983380000000068,37.24646000000013],[28.9831200000001,37.24836000000033],[28.983300000000042,37.248510000000124],[28.98427000000021,37.24893000000003],[28.98476000000005,37.24933000000027],[28.985810000000072,37.25047000000012],[28.986360000000104,37.252010000000325],[28.985100000000102,37.25358000000023],[28.983940000000075,37.254730000000166],[28.982870000000162,37.25531000000052],[28.98207000000008,37.25606000000005],[28.981001115679987,37.25750497324793],[28.978354737000075,37.25449637800017],[28.977237088000038,37.252802057000224],[28.976453425000102,37.2520817660004],[28.975429841000164,37.25168639900011],[28.97151982400004,37.25115148900011],[28.969838261000064,37.250829608000174],[28.96842615300011,37.25074336000068],[28.96718583500018,37.25079195699999],[28.96465264500017,37.25111118800021],[28.963048381000135,37.25148356000011],[28.961329554000145,37.25207291100014],[28.95829650600018,37.25357221800044],[28.956167806000053,37.2544247460001],[28.954363695000097,37.25138125199999],[28.95282278400009,37.24849513400011],[28.952726004000056,37.24844657300008],[28.952645454000162,37.24805812900013],[28.95292866500006,37.24802227700019],[28.95250957200011,37.247859126000094],[28.952316644999996,37.24762350800012],[28.952296332000003,37.2472552280002],[28.952054115000124,37.24693772900031],[28.952087007000046,37.24655769200007],[28.951980384000024,37.24606281700039],[28.95178026400015,37.24579184300018],[28.95135889800008,37.24560590300007],[28.951151402000164,37.24541584900015],[28.95098502600007,37.24508622700006],[28.951312303000066,37.2446194260001],[28.951340277000043,37.244186226000465],[28.951009243000044,37.24412585400012],[28.95090279400017,37.244004961000655],[28.95054834399997,37.243356871000174],[28.95044944000017,37.24282692700035],[28.95033758600016,37.242653634000135],[28.950280825000164,37.24238797700008],[28.950456422000002,37.24204729900015],[28.95042052000008,37.24149981300013],[28.950483136999992,37.241284776000384],[28.95029011800011,37.24081757700003],[28.950250055000083,37.24043107099999],[28.950628920999975,37.239951057999974],[28.952055266000173,37.240022301000465],[28.95202520000015,37.23783697100066],[28.951678890000096,37.23722674300012],[28.952061310000147,37.23675046600056],[28.952625774000126,37.23711988500048],[28.953052172000014,37.23727814199998],[28.954789914000116,37.23823702600009],[28.955153609000092,37.23834826899997],[28.95532782900011,37.23830658000003],[28.95722193800009,37.238553487000104],[28.95790251500017,37.23876689300033],[28.958389833000183,37.238769610000645],[28.958378168000024,37.238704207000296],[28.974269559999982,37.2407757310001],[28.9816730820001,37.238973121000186],[28.98172797500007,37.23903563900018],[28.98201450178709,37.23885952493197]]],"type":"Polygon"}},{"type":"Feature","properties":{"area_id":"TR-20-005-150147","name_tr":"Geriçam","area_level":"neighbourhood","parent_id":"TR-20-005","endeksa_id":150147},"geometry":{"coordinates":[[[28.94709354300005,37.259804784000096],[28.941497342000048,37.25848205300019],[28.94047225700001,37.257730972000104],[28.939951813000107,37.257563523000044],[28.939094089000037,37.25756229500013],[28.938658417000056,37.257676290000006],[28.93792518400005,37.2573321160005],[28.93733871100011,37.25718562600014],[28.937156170000037,37.25655811700017],[28.93466243800009,37.257073043000105],[28.93444798300004,37.25746743200068],[28.934510617000058,37.25770524800009],[28.933863632000055,37.26039938500003],[28.933543165000117,37.25921868099999],[28.931842823000125,37.25885476799999],[28.93136723500004,37.25885116000006],[28.93083422900014,37.25633912100017],[28.928773621000175,37.25612675400009],[28.928696555000045,37.255801431000236],[28.928162527999973,37.25606469700017],[28.925320101000068,37.255776044000356],[28.924724040000058,37.255551329000184],[28.923450315000082,37.255348677000256],[28.922365082000113,37.25526940200018],[28.921769058000166,37.25540260100013],[28.919743516999972,37.253932481000675],[28.919854930000042,37.2541599740004],[28.919675857000072,37.25404737800068],[28.91878432900006,37.25340854300049],[28.91808217700003,37.252653459000044],[28.918276650000053,37.252278324000144],[28.918183597000052,37.2518001630001],[28.91958974200014,37.245749405000026],[28.919789725999976,37.24529464000034],[28.91965558400011,37.244338599],[28.919401634000053,37.2438369190001],[28.918767459000037,37.24385765300019],[28.917892790000053,37.243434717000184],[28.91842170700005,37.243237099],[28.91802145400004,37.242337406000615],[28.9203985420001,37.24158052399997],[28.921954524000057,37.240743898000574],[28.922028488000137,37.240036998000164],[28.922402040000122,37.239232733000506],[28.922243332000164,37.239005795000026],[28.9245443960001,37.23932610300005],[28.924908926000057,37.23908258400007],[28.924960085000123,37.23852949400032],[28.92492661700004,37.238365961000056],[28.9245679820001,37.238430153000536],[28.92364801800005,37.23648707299998],[28.92363834500003,37.236331524000036],[28.92351323700018,37.23629495700044],[28.92120288300015,37.23698667200006],[28.920310020000045,37.23741104100009],[28.919853757000055,37.23756713600045],[28.919283420000056,37.237303845999975],[28.91889305700016,37.23694800000038],[28.918579327000145,37.23627571399999],[28.917944882000143,37.23580701100002],[28.917135172000087,37.23539684400015],[28.917845691000025,37.23402755800015],[28.917905411000163,37.232909131999975],[28.917559058000165,37.23216929200004],[28.916604292000045,37.231564198000115],[28.91638625200011,37.23125865600019],[28.916231457000038,37.23090348800048],[28.915913311000168,37.22953317400061],[28.915902814000106,37.22931179600005],[28.915937294000116,37.22918779700018],[28.916043463000108,37.22921036300028],[28.916009705000135,37.22913165100016],[28.916472332000126,37.22944135100056],[28.916897861999985,37.22958669400009],[28.918194938000056,37.22953876300045],[28.91883626000015,37.2299867720003],[28.920759084999986,37.229958255000156],[28.92080499700006,37.229851233000545],[28.921480568000106,37.229696913000566],[28.923460325000065,37.23026851200052],[28.92434796900011,37.23026174200049],[28.925035869,37.230745173000116],[28.925853642999982,37.23103284500007],[28.926653392000162,37.23112749500012],[28.927354207000178,37.231348035000224],[28.928985685000157,37.231269926000095],[28.929594804000033,37.23149284200002],[28.929615883000054,37.23159298600018],[28.93032191400016,37.231027085000164],[28.931082372000162,37.23115787400002],[28.932196309000062,37.23115070800014],[28.932409722000045,37.231467265000674],[28.932677109000053,37.231432170000346],[28.932852336000053,37.231302169000514],[28.93255897600011,37.231021475000205],[28.933409114000142,37.23064110000007],[28.93385142800014,37.229807963000155],[28.933657111000116,37.22912423100007],[28.933899075000056,37.2285718280001],[28.934068062000108,37.22834385099998],[28.934750462000068,37.22804592100039],[28.935412515000053,37.226789428000075],[28.93536914800012,37.22576799000029],[28.94011064600005,37.22704412000019],[28.94064869200014,37.228134859000136],[28.941234364000138,37.228527863000295],[28.94402316200012,37.232210153000324],[28.946367720000126,37.2335224040001],[28.946288084000116,37.23379435000004],[28.94778380700012,37.23483575400007],[28.94873224800017,37.235109495000074],[28.950134888000093,37.23569493299999],[28.952061310000147,37.23675046600056],[28.951678890000096,37.23722674300012],[28.95202520000015,37.23783697100066],[28.952055266000173,37.240022301000465],[28.950628920999975,37.239951057999974],[28.950250055000083,37.24043107099999],[28.95029011800011,37.24081757700003],[28.950483136999992,37.241284776000384],[28.95042052000008,37.24149981300013],[28.950456422000002,37.24204729900015],[28.950280825000164,37.24238797700008],[28.95033758600016,37.242653634000135],[28.95044944000017,37.24282692700035],[28.95054834399997,37.243356871000174],[28.95090279400017,37.244004961000655],[28.951009243000044,37.24412585400012],[28.951340277000043,37.244186226000465],[28.951312303000066,37.2446194260001],[28.95098502600007,37.24508622700006],[28.951151402000164,37.24541584900015],[28.95135889800008,37.24560590300007],[28.95178026400015,37.24579184300018],[28.951980384000024,37.24606281700039],[28.952087007000046,37.24655769200007],[28.952054115000124,37.24693772900031],[28.952296332000003,37.2472552280002],[28.952316644999996,37.24762350800012],[28.95250957200011,37.247859126000094],[28.95292866500006,37.24802227700019],[28.952645454000162,37.24805812900013],[28.952726004000056,37.24844657300008],[28.95282278400009,37.24849513400011],[28.954363695000097,37.25138125199999],[28.956167806000053,37.2544247460001],[28.95364422000017,37.255612020000285],[28.95076457500005,37.25675575200006],[28.949400892000085,37.25764537500004],[28.947996273000115,37.25880217700018],[28.94709354300005,37.259804784000096]]],"type":"Polygon"}},{"type":"Feature","properties":{"area_id":"TR-20-005-20696","name_tr":"Subaşı","area_level":"neighbourhood","parent_id":"TR-20-005","endeksa_id":20696},"geometry":{"coordinates":[[[28.919675857000072,37.25404737800068],[28.919533799000078,37.253958056000215],[28.919420305000074,37.254120551000426],[28.919715358000076,37.254828349000036],[28.920718434000094,37.25590335000004],[28.918434301000048,37.25794589900039],[28.917058630000156,37.25684350300048],[28.91771754400014,37.25830051100024],[28.91818923000011,37.25842092900007],[28.918415018000132,37.25876044800037],[28.91831557000006,37.25886228800027],[28.91854966200009,37.25906316200019],[28.918237617000102,37.25959942700007],[28.918078358000173,37.25965040900002],[28.918623552000156,37.26115111100006],[28.91799054900008,37.26143548800019],[28.917623840000033,37.26135850400004],[28.917543834000185,37.26119129200009],[28.916654080000058,37.261224403000085],[28.91668185500015,37.26129680700018],[28.916471879000028,37.26133723900068],[28.916397994000192,37.26123393300048],[28.91605819000017,37.26132171500046],[28.915992644000085,37.2612490180004],[28.91490356300011,37.26128954800038],[28.914818759000184,37.26140913400013],[28.914503599000057,37.26130443200054],[28.914147476000153,37.26133106100019],[28.91367714900008,37.26210143300017],[28.913469238000175,37.26344623500006],[28.912676056000123,37.263779825000086],[28.91238247600012,37.26368942000016],[28.912254800000085,37.263465800000176],[28.910603229999992,37.26219426099999],[28.910413150000068,37.26226486400043],[28.909234514000104,37.26110317000041],[28.909112722000145,37.26045258100049],[28.909365208000054,37.260146540000164],[28.90980292000006,37.2600886230004],[28.91012612700007,37.26024808200003],[28.91164848400018,37.258719041000234],[28.90985674900014,37.25921202700016],[28.909795771000063,37.25641248800008],[28.90806109000016,37.25726924400027],[28.908001811000133,37.2569327150004],[28.90605181300009,37.25650886800008],[28.906434985000033,37.25462662700005],[28.905676207000113,37.25504182000003],[28.905553398000166,37.25575460600004],[28.905563138000105,37.256251069000314],[28.905436893,37.25640730700013],[28.90479196600006,37.25661820900012],[28.904635768000105,37.256545615000164],[28.904019266000034,37.255873537000184],[28.904131227000164,37.255811202000245],[28.904214099000114,37.25425991100008],[28.904471402000183,37.254262600000004],[28.904314739000085,37.25400470300008],[28.90451459000019,37.253772718000334],[28.90434162800011,37.25353814400029],[28.904600840000057,37.25327827700005],[28.90418012400005,37.252935771000125],[28.904254900000183,37.2527924080004],[28.90409243000005,37.25254382300017],[28.904228653000075,37.25247650000006],[28.904301596000153,37.25223303100006],[28.90459091500003,37.25217834500012],[28.904637628000046,37.25196186500034],[28.90493449500019,37.25171807900006],[28.90513283700011,37.25121045100019],[28.905529681000075,37.25082073200019],[28.90573564800013,37.25076625899999],[28.90627838600011,37.24987064800024],[28.90755301700017,37.24950854300039],[28.90784237600019,37.24922611000005],[28.90796745600005,37.248957134000136],[28.90798766300003,37.24859781200007],[28.908681435000062,37.247375660000216],[28.908918594000056,37.246452900000065],[28.90929658100015,37.246270767],[28.90955857900019,37.245438553999975],[28.909481652000125,37.2450461410001],[28.909580460000143,37.24487546100056],[28.90949144500013,37.24479942200003],[28.909580239000036,37.24487226500014],[28.909791221000035,37.244473717000176],[28.910115425000072,37.24317961000031],[28.91008674200009,37.24219708300046],[28.909916487000146,37.24157130500038],[28.909992139000167,37.240597528000364],[28.91110209500016,37.240852050000285],[28.911777113000085,37.24090605200013],[28.913211147000027,37.24062307300011],[28.915923210000187,37.239503264000064],[28.92120288300015,37.23698667200006],[28.92351323700018,37.23629495700044],[28.92363834500003,37.236331524000036],[28.92364801800005,37.23648707299998],[28.9245679820001,37.238430153000536],[28.92492661700004,37.238365961000056],[28.924960085000123,37.23852949400032],[28.924908926000057,37.23908258400007],[28.9245443960001,37.23932610300005],[28.922243332000164,37.239005795000026],[28.922402040000122,37.239232733000506],[28.922028488000137,37.240036998000164],[28.921954524000057,37.240743898000574],[28.9203985420001,37.24158052399997],[28.91802145400004,37.242337406000615],[28.91842170700005,37.243237099],[28.917892790000053,37.243434717000184],[28.918767459000037,37.24385765300019],[28.919401634000053,37.2438369190001],[28.91965558400011,37.244338599],[28.919789725999976,37.24529464000034],[28.91958974200014,37.245749405000026],[28.918183597000052,37.2518001630001],[28.918276650000053,37.252278324000144],[28.91808217700003,37.252653459000044],[28.91878432900006,37.25340854300049],[28.919675857000072,37.25404737800068]]],"type":"Polygon"}},{"type":"Feature","properties":{"area_id":"TR-20-005-20698","name_tr":"Çamlık","area_level":"neighbourhood","parent_id":"TR-20-005","endeksa_id":20698},"geometry":{"coordinates":[[[28.854555802000164,37.264871864000156],[28.85451396800005,37.264911637000125],[28.853202597000177,37.26364418400016],[28.851405514000078,37.26159050600023],[28.850669276000133,37.26098395100007],[28.850019226000143,37.26097191200006],[28.849682141000073,37.26105474900004],[28.849211659000048,37.26158551700007],[28.849091802000146,37.26161464400013],[28.849009975000058,37.2611739280004],[28.849144139000146,37.26070888300006],[28.849039094000034,37.260617010000146],[28.848692480000125,37.260606685000084],[28.848455453000156,37.260672754000325],[28.848305667000034,37.26082249400014],[28.84828379600009,37.26129144300012],[28.84693271200001,37.261465576000376],[28.848282861000087,37.25875730600029],[28.842126499000187,37.24907005800026],[28.8462176970001,37.24264052700005],[28.846923026000127,37.236685493000095],[28.845830612137092,37.23532510083123],[28.848877114000175,37.23481442600024],[28.85215651500016,37.235419310000054],[28.853035515000045,37.236202677999984],[28.853918921000115,37.237725820000435],[28.854823832000136,37.23821485300016],[28.85701219100008,37.23804682700012],[28.86046694600003,37.23956201000016],[28.862391545000037,37.24142131200017],[28.862499122000145,37.24204269500012],[28.863244948000045,37.24320120600032],[28.866532839,37.24457301500058],[28.86759660200005,37.24613854500012],[28.869411559000184,37.24713365299999],[28.87061849200012,37.2485750730001],[28.873103634000017,37.25074339100024],[28.87211414400008,37.25201193200013],[28.871139276000065,37.25285521400008],[28.870538227000168,37.253834263000044],[28.868661378000184,37.25577742200011],[28.867960051000182,37.25535661600014],[28.867574823000098,37.25561882800014],[28.866456080000148,37.25684602100051],[28.86534149400012,37.257038175000105],[28.864998852000042,37.257288702000096],[28.86469949400015,37.258075578000046],[28.86481409000004,37.25838568900036],[28.86393865700012,37.25906620000012],[28.86311094600012,37.25997098000016],[28.862611913000137,37.261999545000094],[28.861616176000098,37.26210680700041],[28.860782095000104,37.2618824040004],[28.858062234000045,37.26266695500021],[28.856732641000065,37.26280219700021],[28.854555802000164,37.264871864000156]]],"type":"Polygon"}},{"type":"Feature","properties":{"area_id":"TR-20-005-150155","name_tr":"Sazak","area_level":"neighbourhood","parent_id":"TR-20-005","endeksa_id":150155},"geometry":{"coordinates":[[[28.82430165900007,37.30284659900042],[28.818659280000134,37.30288800700015],[28.821104949000073,37.2949644360001],[28.81830224900017,37.29280031899998],[28.810161418999996,37.29368548600013],[28.803747563000115,37.28971290600009],[28.80101751400008,37.28948398200066],[28.799546249000116,37.28789052200011],[28.798166326000057,37.28619026600063],[28.796834503000127,37.285007587000564],[28.792912546000025,37.28215717700044],[28.79208437699998,37.28115945900049],[28.788863554000045,37.27847347200003],[28.78802358400003,37.27821753300026],[28.78321878300011,37.277232041000104],[28.78306685500013,37.27703441500006],[28.778674494000086,37.27620974300004],[28.777568875000156,37.27556999600017],[28.77642100000014,37.274189481000576],[28.77622583800013,37.273554205000096],[28.77543048100017,37.272286921000045],[28.774513090000028,37.26987175000011],[28.774076167000032,37.26905783200044],[28.77181901800003,37.26773035500014],[28.770727655000087,37.267216765000114],[28.771498247000068,37.25720955300039],[28.7634535200001,37.25473738900013],[28.762889363417685,37.255260945755765],[28.762701354561727,37.255242801704526],[28.76267352108931,37.255088998975395],[28.76353854000007,37.25388188800031],[28.76368468000004,37.25215529299999],[28.763323055000058,37.250200962000065],[28.763424592000035,37.24938388400011],[28.76249994200009,37.248624715999995],[28.761999343000127,37.247708417000126],[28.762389739000128,37.24733379800011],[28.765104754000163,37.24769977700015],[28.76684714100014,37.24693312200037],[28.76709153400003,37.24622816700003],[28.766792204000126,37.245136896000076],[28.767220067000096,37.24468210800046],[28.767779230000087,37.244799231000115],[28.768988606000164,37.245314490000055],[28.769605092000177,37.245391471999994],[28.770446401000072,37.245992971000476],[28.773100434000185,37.24684376700003],[28.774471697000024,37.24592343500041],[28.776334886000086,37.2444105350001],[28.777937319000102,37.243594254000186],[28.778895793000174,37.24282312300039],[28.780774039000164,37.23877946300013],[28.779773897000155,37.23762753200015],[28.781101061141783,37.23651807527472],[28.784240000000125,37.237480000000346],[28.78430241914873,37.237245390097314],[28.78688806500014,37.237901173000466],[28.78935401400014,37.238199922000035],[28.791281053000148,37.23823167400019],[28.792571359000135,37.23805315100043],[28.793956767000054,37.237535687000104],[28.79773862100012,37.23563824900009],[28.79842008200012,37.235777923000114],[28.798768213000074,37.23668320300004],[28.79942307000016,37.236669694000625],[28.80061814800007,37.23603262400013],[28.802008124000167,37.236041319000094],[28.803303993000156,37.23593203900043],[28.80870787000009,37.23466325800052],[28.80981506200004,37.2348599340001],[28.810505264000142,37.23531152200019],[28.81099155200002,37.23526349600013],[28.811316394000073,37.23353381600015],[28.812802006000084,37.231372535000105],[28.813636118000034,37.231321224000226],[28.81411529900015,37.23154903000005],[28.81521799600017,37.232512786000086],[28.816821004000076,37.232757901000525],[28.81870666400016,37.231851211000105],[28.819603226000083,37.230873432000124],[28.821019279000097,37.23007046800012],[28.82216073000012,37.22981332400019],[28.82423258400013,37.22984817600002],[28.825062235000132,37.228884139000286],[28.82545438300008,37.227864090000025],[28.82613428400009,37.22739277200026],[28.828056996000043,37.227899858000114],[28.830559935000053,37.226030048000155],[28.833897221000143,37.22598816900012],[28.836542276000102,37.22620650100009],[28.83760168300006,37.22766436300026],[28.83822246300008,37.22879340800068],[28.84080737500011,37.229673110000135],[28.844055487000105,37.23311456200014],[28.846923026000127,37.236685493000095],[28.8462176970001,37.24264052700005],[28.842126499000187,37.24907005800026],[28.848282861000087,37.25875730600029],[28.84693271200001,37.261465576000376],[28.84828379600009,37.26129144300012],[28.848305667000034,37.26082249400014],[28.848455453000156,37.260672754000325],[28.848692480000125,37.260606685000084],[28.849039094000034,37.260617010000146],[28.849144139000146,37.26070888300006],[28.849009975000058,37.2611739280004],[28.849091802000146,37.26161464400013],[28.849211659000048,37.26158551700007],[28.849682141000073,37.26105474900004],[28.850019226000143,37.26097191200006],[28.850669276000133,37.26098395100007],[28.851405514000078,37.26159050600023],[28.853202597000177,37.26364418400016],[28.85451396800005,37.264911637000125],[28.854555802000164,37.264871864000156],[28.856536624000114,37.268675594000115],[28.857880228000056,37.26997993100008],[28.858877997000093,37.27159241300012],[28.85960837100015,37.27248683400012],[28.859869884000034,37.27296446400038],[28.85987902000005,37.27329962500016],[28.859650637000072,37.27394957100012],[28.85916256000013,37.27484854100004],[28.8589798860001,37.27504282500013],[28.858953185000132,37.275278169000046],[28.858608956000126,37.275558172000046],[28.858625125000174,37.27593565000001],[28.858459881000158,37.27666525200016],[28.858624342000155,37.27693818500063],[28.859302723999974,37.277498165000054],[28.85949591400015,37.2778034910001],[28.859167577000107,37.27809531100013],[28.858806645000072,37.27892111000011],[28.85896147600016,37.279020986000035],[28.858571380000058,37.27960587400014],[28.858500466000066,37.280625491000364],[28.858145097000033,37.28250504900012],[28.857890125999972,37.28264404200013],[28.8580848900001,37.28310038500018],[28.85808566800017,37.28412107100007],[28.85867400100011,37.28415625400038],[28.85874270400018,37.28431784900016],[28.859616675000098,37.28422708500011],[28.859964173000094,37.28540936900009],[28.86039842200006,37.28536908000018],[28.86100872100019,37.28660366300011],[28.860699604000104,37.28685930700016],[28.861078507000116,37.28721735500011],[28.860771841000144,37.2872960520001],[28.859588000000144,37.28798174900027],[28.859179267000172,37.28839215300047],[28.85933620100019,37.28869468700009],[28.859546580000085,37.288817898000616],[28.860593457000107,37.28907613200016],[28.86169781100017,37.289826391000304],[28.862032206000038,37.29018927900012],[28.86135449200009,37.29035630700008],[28.861916048000012,37.29113361500009],[28.861650749000034,37.29121275300008],[28.861861754000188,37.291743388000555],[28.861126645000184,37.29189051900005],[28.861185317000036,37.2922224600004],[28.861020908000057,37.29243124400011],[28.859012791000055,37.29259579600006],[28.85782035500017,37.293057148],[28.857760238000083,37.29273756100048],[28.857819112000186,37.29239367100013],[28.85764370200002,37.292340298000056],[28.857584400999997,37.29196380500008],[28.855671177000147,37.29234046800008],[28.854703697000048,37.29264216200016],[28.854583366000156,37.29275293800009],[28.854367824000065,37.29365580300009],[28.854583986000023,37.294248011000036],[28.85433343900013,37.294844393000176],[28.85447734900015,37.29590097400012],[28.85419769100008,37.29613002800005],[28.85394607900008,37.29594369700004],[28.853808284000138,37.295441002000075],[28.853438657000027,37.29508634500013],[28.853322518000084,37.29465416600016],[28.853200429000026,37.294498230000045],[28.852867007000157,37.29441835],[28.852635388000067,37.29475261200014],[28.85255987000005,37.2946226720004],[28.852435707000154,37.29459675000021],[28.851951729000064,37.294666397000015],[28.851906866000036,37.2943341190001],[28.85152702700009,37.29449567],[28.851126914000133,37.29435265200044],[28.85110135200017,37.29416998900069],[28.850461887999984,37.29413930700014],[28.848280641000088,37.29485567600017],[28.842542558000048,37.29773947700045],[28.840040030000125,37.29880295700019],[28.831840785000168,37.30188510800053],[28.827306374000102,37.30252385600045],[28.82430165900007,37.30284659900042]]],"type":"Polygon"}},{"type":"Feature","properties":{"area_id":"TR-20-005-150153","name_tr":"Pınarönü","area_level":"neighbourhood","parent_id":"TR-20-005","endeksa_id":150153},"geometry":{"coordinates":[[[28.85782035500017,37.293057148],[28.85862076700016,37.293086773000596],[28.858723716000043,37.29369524100014],[28.859024674000068,37.294110770000145],[28.860747295000067,37.295371565000096],[28.86149362300017,37.29560354500029],[28.8623439160001,37.295426352000106],[28.863435849000098,37.29586210100018],[28.863316376000057,37.29618487500011],[28.86550804900014,37.298396377000074],[28.865995372000043,37.298555217000114],[28.86631948100012,37.298794882000095],[28.866516944000068,37.29915462200006],[28.867249357000162,37.299199038000154],[28.868400833000067,37.29958378600037],[28.871426129000042,37.301794670000334],[28.871995285000082,37.30209123200018],[28.872352642000067,37.30255248900005],[28.87342289500009,37.30337324900012],[28.874065547000157,37.30363965100031],[28.87384587100007,37.303826255000104],[28.874492018000183,37.30424112700018],[28.874130723000007,37.30494635400015],[28.873548106000044,37.30478749800034],[28.87301732399999,37.305479421000655],[28.872951591000174,37.305410103999975],[28.872855090000087,37.305522083000085],[28.872585975000106,37.30667157700003],[28.872875240000155,37.30663255900032],[28.873271141000146,37.30688347400002],[28.873169781000115,37.30722638599997],[28.873818531000154,37.307386663000045],[28.874086005000038,37.30737114000004],[28.874718846999997,37.307567421000044],[28.874205840000116,37.30848846400016],[28.874469749000184,37.3086512860001],[28.875202772000023,37.30877672400004],[28.87555633100004,37.309046335000005],[28.87557434700011,37.30943791200053],[28.875675510000008,37.3096716510006],[28.87704266200018,37.31071104300008],[28.87806709800003,37.311215780000055],[28.878414968000016,37.31186843100011],[28.879162737000172,37.31231420100022],[28.879786339000077,37.31558427000016],[28.87553975496968,37.32237604405833],[28.874765448000062,37.322178367000504],[28.874033354000062,37.32185808100047],[28.87259414000016,37.32032038400018],[28.871883546000163,37.31935184000014],[28.87117782400003,37.318075244000056],[28.867827307000027,37.31461456000039],[28.866827694000165,37.31337952600035],[28.866534297000157,37.312180985000055],[28.86622284700013,37.311639110000044],[28.858951466000065,37.30849356900029],[28.850291823000077,37.307215281000026],[28.84412981500003,37.30854829300006],[28.82430165900007,37.30284659900042],[28.827306374000102,37.30252385600045],[28.831840785000168,37.30188510800053],[28.840040030000125,37.29880295700019],[28.842542558000048,37.29773947700045],[28.848280641000088,37.29485567600017],[28.850461887999984,37.29413930700014],[28.85110135200017,37.29416998900069],[28.851126914000133,37.29435265200044],[28.85152702700009,37.29449567],[28.851906866000036,37.2943341190001],[28.851951729000064,37.294666397000015],[28.852435707000154,37.29459675000021],[28.85255987000005,37.2946226720004],[28.852635388000067,37.29475261200014],[28.852867007000157,37.29441835],[28.853200429000026,37.294498230000045],[28.853322518000084,37.29465416600016],[28.853438657000027,37.29508634500013],[28.853808284000138,37.295441002000075],[28.85394607900008,37.29594369700004],[28.85419769100008,37.29613002800005],[28.85447734900015,37.29590097400012],[28.85433343900013,37.294844393000176],[28.854583986000023,37.294248011000036],[28.854367824000065,37.29365580300009],[28.854583366000156,37.29275293800009],[28.854703697000048,37.29264216200016],[28.855671177000147,37.29234046800008],[28.857584400999997,37.29196380500008],[28.85764370200002,37.292340298000056],[28.857819112000186,37.29239367100013],[28.857760238000083,37.29273756100048],[28.85782035500017,37.293057148]]],"type":"Polygon"}},{"type":"Feature","properties":{"area_id":"TR-20-005-150151","name_tr":"Kızılcaağaç","area_level":"neighbourhood","parent_id":"TR-20-005","endeksa_id":150151},"geometry":{"coordinates":[[[28.884445710000023,37.2532965310001],[28.88460727800009,37.25337890300017],[28.88396972400011,37.25438717300028],[28.884248193000133,37.25546101400005],[28.88433109500005,37.25655933100006],[28.883828266000137,37.25881885600023],[28.88396309400008,37.26074478300018],[28.883971585000154,37.264886005000676],[28.88409230400009,37.26585936300006],[28.884299009000074,37.26652904100001],[28.88548749600011,37.2697677730003],[28.885803871000064,37.27288295400007],[28.88553289200013,37.27523341300008],[28.88545067500013,37.27722265000045],[28.88558198600009,37.2782707810004],[28.88548576100004,37.28054731800006],[28.885642065000184,37.28146775000033],[28.885515561000034,37.28200986900015],[28.885370498000157,37.28226775200062],[28.885614053000154,37.282641795000075],[28.88560922000005,37.28298428300013],[28.885496019000186,37.283287800000096],[28.885528536000095,37.28434267300008],[28.885622968999996,37.28444732300039],[28.885611326000003,37.28554078500008],[28.88622338400006,37.285948927000106],[28.886937740000178,37.28710314800031],[28.88704757200003,37.28785736400005],[28.886929619000114,37.288133663000224],[28.887913542000092,37.28936783900019],[28.888146184000163,37.28996076700008],[28.887879527000052,37.29034490000015],[28.888086550000025,37.29112729500014],[28.88796300000007,37.291655684000034],[28.888501884000107,37.29188646000017],[28.891345532000173,37.29177935700005],[28.891229413000076,37.29209719700043],[28.89171818000011,37.2926584440001],[28.892324013000064,37.2929211040003],[28.89253310600003,37.29285407300017],[28.893274486999985,37.29311323800039],[28.893778316000066,37.29315576300007],[28.894933594000065,37.29315179700029],[28.895572620000166,37.292953991000445],[28.895830007000086,37.29267834400014],[28.896491918000038,37.29263158200018],[28.897284606000085,37.29234745299999],[28.898429557000043,37.29222978800016],[28.899915968000187,37.292441953000036],[28.897334786000158,37.2943819410001],[28.89625846300015,37.295749147000436],[28.89650374600012,37.29623042600019],[28.896536508000167,37.29693610400068],[28.89630464200019,37.29777000500013],[28.896932418000063,37.29820525900044],[28.901617547,37.29968791100055],[28.90308631200014,37.30121140300048],[28.903679942000053,37.30158188900003],[28.904838654000173,37.30194685200013],[28.904423029000156,37.30294995600053],[28.905693637000127,37.30417416000057],[28.907059092000054,37.30424064800002],[28.906209007000143,37.30446647700069],[28.90513660400012,37.30537807000053],[28.905299557000035,37.308358983000346],[28.903048912000088,37.31091300300028],[28.89495760400007,37.31255005100019],[28.88826295500013,37.312511330999996],[28.888099304079788,37.31258183748599],[28.88844907659012,37.312636736709635],[28.88851408161122,37.31278058050128],[28.888446770217058,37.31292667323282],[28.888845719000017,37.31280670200056],[28.88908448500007,37.31305332100027],[28.890825367000048,37.31345941600006],[28.89092878100007,37.31380135400008],[28.891438014000187,37.31405819700012],[28.891772965000143,37.31446950000014],[28.89240095600013,37.315013436000356],[28.892611710000153,37.31538347300051],[28.892917855000178,37.31569981400048],[28.89341343600006,37.31601886300018],[28.89183041200016,37.331780645000435],[28.888651191000122,37.33143896600018],[28.88684203200006,37.33085907800012],[28.885370649000095,37.330015761000425],[28.884050725000122,37.32896650300012],[28.88263704900004,37.327570756],[28.87995990000013,37.324666378000074],[28.879026149000083,37.32390990000033],[28.876422655000113,37.322601497000164],[28.87553975496968,37.32237604405833],[28.879786339000077,37.31558427000016],[28.879162737000172,37.31231420100022],[28.878414968000016,37.31186843100011],[28.87806709800003,37.311215780000055],[28.87704266200018,37.31071104300008],[28.875675510000008,37.3096716510006],[28.87557434700011,37.30943791200053],[28.87555633100004,37.309046335000005],[28.875202772000023,37.30877672400004],[28.874469749000184,37.3086512860001],[28.874205840000116,37.30848846400016],[28.874718846999997,37.307567421000044],[28.874086005000038,37.30737114000004],[28.873818531000154,37.307386663000045],[28.873169781000115,37.30722638599997],[28.873271141000146,37.30688347400002],[28.872875240000155,37.30663255900032],[28.872585975000106,37.30667157700003],[28.872855090000087,37.305522083000085],[28.872951591000174,37.305410103999975],[28.87301732399999,37.305479421000655],[28.873548106000044,37.30478749800034],[28.874130723000007,37.30494635400015],[28.874492018000183,37.30424112700018],[28.87384587100007,37.303826255000104],[28.874065547000157,37.30363965100031],[28.87342289500009,37.30337324900012],[28.872352642000067,37.30255248900005],[28.871995285000082,37.30209123200018],[28.871426129000042,37.301794670000334],[28.868400833000067,37.29958378600037],[28.867249357000162,37.299199038000154],[28.866516944000068,37.29915462200006],[28.86631948100012,37.298794882000095],[28.865995372000043,37.298555217000114],[28.86550804900014,37.298396377000074],[28.863316376000057,37.29618487500011],[28.863435849000098,37.29586210100018],[28.8623439160001,37.295426352000106],[28.86149362300017,37.29560354500029],[28.860747295000067,37.295371565000096],[28.859024674000068,37.294110770000145],[28.858723716000043,37.29369524100014],[28.85862076700016,37.293086773000596],[28.85782035500017,37.293057148],[28.859012791000055,37.29259579600006],[28.861020908000057,37.29243124400011],[28.861185317000036,37.2922224600004],[28.861126645000184,37.29189051900005],[28.861861754000188,37.291743388000555],[28.861650749000034,37.29121275300008],[28.861916048000012,37.29113361500009],[28.86135449200009,37.29035630700008],[28.862032206000038,37.29018927900012],[28.86169781100017,37.289826391000304],[28.860593457000107,37.28907613200016],[28.859546580000085,37.288817898000616],[28.85933620100019,37.28869468700009],[28.859179267000172,37.28839215300047],[28.859588000000144,37.28798174900027],[28.860771841000144,37.2872960520001],[28.861078507000116,37.28721735500011],[28.860699604000104,37.28685930700016],[28.86100872100019,37.28660366300011],[28.86039842200006,37.28536908000018],[28.859964173000094,37.28540936900009],[28.859616675000098,37.28422708500011],[28.85874270400018,37.28431784900016],[28.85867400100011,37.28415625400038],[28.85808566800017,37.28412107100007],[28.8580848900001,37.28310038500018],[28.857890125999972,37.28264404200013],[28.858145097000033,37.28250504900012],[28.858500466000066,37.280625491000364],[28.858571380000058,37.27960587400014],[28.85896147600016,37.279020986000035],[28.858806645000072,37.27892111000011],[28.859167577000107,37.27809531100013],[28.85949591400015,37.2778034910001],[28.859302723999974,37.277498165000054],[28.858624342000155,37.27693818500063],[28.858459881000158,37.27666525200016],[28.858625125000174,37.27593565000001],[28.858608956000126,37.275558172000046],[28.858953185000132,37.275278169000046],[28.8589798860001,37.27504282500013],[28.85916256000013,37.27484854100004],[28.859650637000072,37.27394957100012],[28.85987902000005,37.27329962500016],[28.859869884000034,37.27296446400038],[28.85960837100015,37.27248683400012],[28.858877997000093,37.27159241300012],[28.857880228000056,37.26997993100008],[28.856536624000114,37.268675594000115],[28.854555802000164,37.264871864000156],[28.856732641000065,37.26280219700021],[28.858062234000045,37.26266695500021],[28.860782095000104,37.2618824040004],[28.861616176000098,37.26210680700041],[28.862611913000137,37.261999545000094],[28.86311094600012,37.25997098000016],[28.86393865700012,37.25906620000012],[28.86481409000004,37.25838568900036],[28.86469949400015,37.258075578000046],[28.864998852000042,37.257288702000096],[28.86534149400012,37.257038175000105],[28.866456080000148,37.25684602100051],[28.867574823000098,37.25561882800014],[28.867960051000182,37.25535661600014],[28.868661378000184,37.25577742200011],[28.870538227000168,37.253834263000044],[28.871139276000065,37.25285521400008],[28.87211414400008,37.25201193200013],[28.873103634000017,37.25074339100024],[28.874282179000147,37.25142354500002],[28.877429985000163,37.2522731100006],[28.877478568000186,37.252409395000086],[28.878030149000097,37.25265326700003],[28.878567660000044,37.25337845100012],[28.879021382000133,37.25328153000055],[28.884437340000034,37.25025978800011],[28.884426768000083,37.25038162500033],[28.8841534930001,37.250873943000386],[28.884432255999968,37.25172493400004],[28.884526652000147,37.25290773700044],[28.884445710000023,37.2532965310001]]],"type":"Polygon"}},{"type":"Feature","properties":{"area_id":"TR-20-005-150149","name_tr":"Kapuz","area_level":"neighbourhood","parent_id":"TR-20-005","endeksa_id":150149},"geometry":{"coordinates":[[[28.89574341000008,37.331365194000114],[28.893677666000087,37.331735826],[28.89183041200016,37.331780645000435],[28.89341343600006,37.31601886300018],[28.892917855000178,37.31569981400048],[28.892611710000153,37.31538347300051],[28.89240095600013,37.315013436000356],[28.891772965000143,37.31446950000014],[28.891438014000187,37.31405819700012],[28.89092878100007,37.31380135400008],[28.890825367000048,37.31345941600006],[28.88908448500007,37.31305332100027],[28.888845719000017,37.31280670200056],[28.888446770217058,37.31292667323282],[28.88851408161122,37.31278058050128],[28.88844907659012,37.312636736709635],[28.888099304079788,37.31258183748599],[28.88826295500013,37.312511330999996],[28.89495760400007,37.31255005100019],[28.903048912000088,37.31091300300028],[28.905299557000035,37.308358983000346],[28.90513660400012,37.30537807000053],[28.906209007000143,37.30446647700069],[28.907059092000054,37.30424064800002],[28.905693637000127,37.30417416000057],[28.904423029000156,37.30294995600053],[28.904838654000173,37.30194685200013],[28.903679942000053,37.30158188900003],[28.90308631200014,37.30121140300048],[28.901617547,37.29968791100055],[28.896932418000063,37.29820525900044],[28.89630464200019,37.29777000500013],[28.896536508000167,37.29693610400068],[28.89650374600012,37.29623042600019],[28.89625846300015,37.295749147000436],[28.897334786000158,37.2943819410001],[28.899915968000187,37.292441953000036],[28.898429557000043,37.29222978800016],[28.897284606000085,37.29234745299999],[28.896491918000038,37.29263158200018],[28.895830007000086,37.29267834400014],[28.895572620000166,37.292953991000445],[28.894933594000065,37.29315179700029],[28.893778316000066,37.29315576300007],[28.893274486999985,37.29311323800039],[28.89253310600003,37.29285407300017],[28.892324013000064,37.2929211040003],[28.89171818000011,37.2926584440001],[28.891229413000076,37.29209719700043],[28.891345532000173,37.29177935700005],[28.888501884000107,37.29188646000017],[28.88796300000007,37.291655684000034],[28.888086550000025,37.29112729500014],[28.887879527000052,37.29034490000015],[28.888146184000163,37.28996076700008],[28.887913542000092,37.28936783900019],[28.886929619000114,37.288133663000224],[28.88704757200003,37.28785736400005],[28.886937740000178,37.28710314800031],[28.88622338400006,37.285948927000106],[28.885611326000003,37.28554078500008],[28.885622968999996,37.28444732300039],[28.885528536000095,37.28434267300008],[28.885496019000186,37.283287800000096],[28.88560922000005,37.28298428300013],[28.885614053000154,37.282641795000075],[28.885370498000157,37.28226775200062],[28.885515561000034,37.28200986900015],[28.885642065000184,37.28146775000033],[28.88548576100004,37.28054731800006],[28.88558198600009,37.2782707810004],[28.88545067500013,37.27722265000045],[28.88553289200013,37.27523341300008],[28.885803871000064,37.27288295400007],[28.88548749600011,37.2697677730003],[28.884299009000074,37.26652904100001],[28.88409230400009,37.26585936300006],[28.883971585000154,37.264886005000676],[28.88396309400008,37.26074478300018],[28.883828266000137,37.25881885600023],[28.88433109500005,37.25655933100006],[28.884248193000133,37.25546101400005],[28.88396972400011,37.25438717300028],[28.88460727800009,37.25337890300017],[28.884445710000023,37.2532965310001],[28.886104881000108,37.251936796000166],[28.88629417200002,37.25145966299999],[28.88758531100018,37.25159330800017],[28.888231761000043,37.251095287000226],[28.889614557000073,37.2513943190001],[28.889628433000155,37.25186259000003],[28.8898557,37.25192858300011],[28.8897823530001,37.252862146000666],[28.8895850130001,37.2530200810005],[28.889717393000012,37.253338163000194],[28.889018183000076,37.2535483100001],[28.88938314100011,37.25383876400065],[28.889729136000028,37.25394807400028],[28.88968108400013,37.25431115900005],[28.889555946000087,37.25442317400018],[28.88920923400019,37.25431890700014],[28.88893608000012,37.254744666000136],[28.889455503000022,37.25540382800011],[28.889494256000148,37.255746532000046],[28.88986456900011,37.25569934900017],[28.889843509000173,37.25530603000004],[28.890277429000037,37.25544299300009],[28.890470387000164,37.25523520100046],[28.890554650000126,37.25486576399999],[28.892758058000027,37.25469184900027],[28.892757882000183,37.254294179000226],[28.89354085600013,37.25441710700045],[28.893623300000172,37.25432753200005],[28.89397595100013,37.25428502500017],[28.894109899000057,37.25468277300058],[28.89444852700018,37.25465840800007],[28.89476692100004,37.25475221000005],[28.89501419900006,37.25527798900009],[28.896115969000107,37.25499424700024],[28.89666083400016,37.25494520199999],[28.896865646000037,37.255370883000126],[28.897470834000046,37.255292107],[28.898651099000062,37.25531137500019],[28.898622926000144,37.255865874000506],[28.89873544700015,37.25588534000019],[28.898711163000087,37.256053333000295],[28.89902179000012,37.25556117700006],[28.89916068500014,37.25476264700012],[28.899504735000164,37.254810737000184],[28.89969031200019,37.25474628000006],[28.89973837000008,37.25436288800017],[28.900609164000173,37.25447413500001],[28.90048268800018,37.25516879200006],[28.9005973620001,37.25560211700008],[28.900803678000102,37.25563515400006],[28.901231369000072,37.25524045000009],[28.902730470000165,37.25437540000064],[28.902906566000183,37.25452307299997],[28.90317108000005,37.25431019300015],[28.904214099000114,37.25425991100008],[28.904131227000164,37.255811202000245],[28.904019266000034,37.255873537000184],[28.904635768000105,37.256545615000164],[28.90479196600006,37.25661820900012],[28.905436893,37.25640730700013],[28.905563138000105,37.256251069000314],[28.905553398000166,37.25575460600004],[28.905676207000113,37.25504182000003],[28.906434985000033,37.25462662700005],[28.90605181300009,37.25650886800008],[28.908001811000133,37.2569327150004],[28.90806109000016,37.25726924400027],[28.909795771000063,37.25641248800008],[28.90985674900014,37.25921202700016],[28.91164848400018,37.258719041000234],[28.91012612700007,37.26024808200003],[28.90980292000006,37.2600886230004],[28.909365208000054,37.260146540000164],[28.909112722000145,37.26045258100049],[28.909234514000104,37.26110317000041],[28.910413150000068,37.26226486400043],[28.910603229999992,37.26219426099999],[28.912254800000085,37.263465800000176],[28.91238247600012,37.26368942000016],[28.912676056000123,37.263779825000086],[28.913469238000175,37.26344623500006],[28.91367714900008,37.26210143300017],[28.914147476000153,37.26133106100019],[28.914503599000057,37.26130443200054],[28.914818759000184,37.26140913400013],[28.91490356300011,37.26128954800038],[28.915992644000085,37.2612490180004],[28.91605819000017,37.26132171500046],[28.916397994000192,37.26123393300048],[28.916471879000028,37.26133723900068],[28.91668185500015,37.26129680700018],[28.916654080000058,37.261224403000085],[28.917543834000185,37.26119129200009],[28.917623840000033,37.26135850400004],[28.91799054900008,37.26143548800019],[28.918623552000156,37.26115111100006],[28.918078358000173,37.25965040900002],[28.918237617000102,37.25959942700007],[28.91854966200009,37.25906316200019],[28.91831557000006,37.25886228800027],[28.918415018000132,37.25876044800037],[28.91818923000011,37.25842092900007],[28.91771754400014,37.25830051100024],[28.917058630000156,37.25684350300048],[28.918434301000048,37.25794589900039],[28.920718434000094,37.25590335000004],[28.919715358000076,37.254828349000036],[28.919420305000074,37.254120551000426],[28.919533799000078,37.253958056000215],[28.919854930000042,37.2541599740004],[28.919743516999972,37.253932481000675],[28.921769058000166,37.25540260100013],[28.922365082000113,37.25526940200018],[28.923450315000082,37.255348677000256],[28.924724040000058,37.255551329000184],[28.925320101000068,37.255776044000356],[28.928162527999973,37.25606469700017],[28.928696555000045,37.255801431000236],[28.928773621000175,37.25612675400009],[28.93083422900014,37.25633912100017],[28.93136723500004,37.25885116000006],[28.931842823000125,37.25885476799999],[28.933543165000117,37.25921868099999],[28.933863632000055,37.26039938500003],[28.934510617000058,37.25770524800009],[28.93444798300004,37.25746743200068],[28.93466243800009,37.257073043000105],[28.937156170000037,37.25655811700017],[28.93733871100011,37.25718562600014],[28.93792518400005,37.2573321160005],[28.938658417000056,37.257676290000006],[28.939094089000037,37.25756229500013],[28.939951813000107,37.257563523000044],[28.94047225700001,37.257730972000104],[28.941497342000048,37.25848205300019],[28.94709354300005,37.259804784000096],[28.943285869000135,37.26406703600014],[28.939291749000063,37.26772742700041],[28.937971343000072,37.269043415000226],[28.936774593000166,37.27038032700017],[28.936054007000052,37.27178397200004],[28.936486216000162,37.272196245000146],[28.936908764000123,37.27297184200046],[28.936893118000114,37.274090571000386],[28.936809481000182,37.27440274000037],[28.943424026999992,37.27392220700017],[28.943990770000084,37.27479020800013],[28.94916563873238,37.27371600585525],[28.94931705500585,37.27375866460147],[28.949343217612693,37.27388545854717],[28.936430253000083,37.278885484],[28.93645867400005,37.28064985900011],[28.936746952000078,37.28124193100007],[28.93729874200011,37.28202476800004],[28.937914793000175,37.28256510000017],[28.938939537000067,37.28324888000009],[28.94073979600006,37.283951777000425],[28.94219469500007,37.284335543000054],[28.944603530000165,37.285578622000116],[28.945679576000032,37.286408652000034],[28.946268893000024,37.28832818899997],[28.947035953000068,37.29004876900041],[28.94795608400011,37.29170386100003],[28.95106197300015,37.29481260200066],[28.953038152000147,37.297121215999994],[28.95419021400005,37.29852308400018],[28.956471115000056,37.301916056000096],[28.95754683100006,37.30334760200003],[28.950109785000052,37.30312358200018],[28.947639856000023,37.30294355100011],[28.945152264000114,37.30293954500047],[28.941619825000146,37.30257971600008],[28.938796283999977,37.30266371400012],[28.935305503999984,37.3025896930003],[28.928211792000184,37.302841404000105],[28.926690667000173,37.302815409000175],[28.92617992700019,37.303156309000144],[28.932517093000115,37.311244214000055],[28.92941846100007,37.3184038090003],[28.923924441000054,37.32090576000013],[28.91807394000017,37.31853444200004],[28.912821167000118,37.313224183000045],[28.90984939300006,37.31587836799997],[28.90788102500011,37.31782302300002],[28.90777423800006,37.318419762000644],[28.90722131900003,37.319473741000365],[28.90432744900005,37.32255441900003],[28.903157738000175,37.323977716000115],[28.90245092500004,37.32500945300012],[28.89851643000003,37.32915458200017],[28.89778629300008,37.330126154000084],[28.896781363000116,37.33096616600028],[28.89574341000008,37.331365194000114]]],"type":"Polygon"}}]}