{"type":"FeatureCollection","source_id":"endeksa","retrieved_at":"2026-08-23","features":[{"type":"Feature","properties":{"area_id":"TR-23-002-2011485","name_tr":"Çataklı Köyü","area_level":"neighbourhood","parent_id":"TR-23-002","endeksa_id":2011485},"geometry":{"coordinates":[[[39.867517611000096,38.41991246900017],[39.8674587700001,38.41981030400018],[39.86696101300004,38.419636124000135],[39.86574081300017,38.419421212000145],[39.86521286600009,38.41942936200007],[39.862973612000076,38.41882405600012],[39.861676174000024,38.417960778000065],[39.86109691700017,38.417067442000075],[39.85987078800002,38.416975065000315],[39.85504788000014,38.41731591500013],[39.854596504000085,38.41758931600009],[39.85443292400004,38.41806749400001],[39.85368584700018,38.41814796900019],[39.85348278000015,38.41863305400045],[39.85300351000012,38.41886651800007],[39.85249017100017,38.41951744300053],[39.85237848200006,38.41955979200003],[39.85084746800004,38.41922747700016],[39.850765856000066,38.41868402400007],[39.849507698000025,38.41813422600006],[39.84699243700004,38.41789802700015],[39.84607426100007,38.417370895000204],[39.845684966000135,38.41684971500007],[39.844467292000104,38.41617748800013],[39.84321349700019,38.41626594700011],[39.84282111600015,38.4167047800006],[39.84199606699997,38.41669101200017],[39.8416614840001,38.41617932000014],[39.841030966000176,38.41616260300009],[39.84091802500012,38.41621788500004],[39.84059918500003,38.41685296600025],[39.83935655000016,38.41736704800019],[39.83731313200019,38.417761849000044],[39.836818986000026,38.418142855000156],[39.836444868000115,38.418757409000705],[39.83505308100018,38.418716923000375],[39.833635352000044,38.419074968000245],[39.83187702700013,38.41899961900032],[39.83072429400005,38.419334098000036],[39.83023067500011,38.41924126000015],[39.8280669720001,38.42001905800038],[39.82801502100011,38.420151756000166],[39.82758368400005,38.418338005000464],[39.82639866000005,38.41739649300018],[39.82719193000014,38.41376366900016],[39.82631012700011,38.412794992000045],[39.82511210800004,38.41045778400064],[39.82515091900012,38.40994632700051],[39.824750484000106,38.40952806600012],[39.8244918310001,38.408116453000275],[39.82412950900016,38.407665382000346],[39.82356845600003,38.407446282000194],[39.823353878000034,38.407027663000065],[39.82332200300016,38.406185526000115],[39.82295051400007,38.40516705100049],[39.82220118700013,38.40461474000017],[39.82191962400003,38.404104753000524],[39.82196540600006,38.403983316000335],[39.8222063180001,38.40394838900005],[39.82357595000008,38.40211594800019],[39.82376576900009,38.40155775400001],[39.82235277800015,38.401294796000286],[39.82048039200015,38.40051579400017],[39.820247533000156,38.39869152300008],[39.81904960000003,38.396944844000075],[39.81822688900007,38.3962073320007],[39.817928754000036,38.395070776000125],[39.81600167800008,38.39489067300002],[39.81487757500008,38.39327411900007],[39.81461746300005,38.392697638000016],[39.814605153000116,38.391945023000005],[39.817003573000136,38.38719000000032],[39.81898795500018,38.38585898200017],[39.82185269800016,38.38459322800003],[39.82516034700018,38.38432361600047],[39.826735522000035,38.38382629900008],[39.829619707000006,38.38244730000048],[39.830250086000035,38.38197815100011],[39.83187711300013,38.378372810000144],[39.833345367000106,38.37628693300013],[39.83735415700016,38.37317254800047],[39.838004812000065,38.37296685100006],[39.852203357000064,38.371774553000705],[39.85737988300008,38.36961330600013],[39.85862837100018,38.36867188000008],[39.8597221710001,38.36630587500031],[39.86035815200006,38.36395313600042],[39.86027068500016,38.36357079100031],[39.86037229300007,38.363649131000045],[39.86050314900007,38.363601089000156],[39.86198192500018,38.361263987000086],[39.8638840480001,38.35878513200021],[39.864417089000085,38.35851422400003],[39.867779396000174,38.3576027040001],[39.87109424700009,38.357471342000395],[39.87261061800007,38.358282407000445],[39.873317548161936,38.35923258698085],[39.873210000000086,38.36304000000018],[39.87333000000007,38.36432000000025],[39.87358000000012,38.364860000000135],[39.874450000000195,38.3656100000004],[39.87490000000014,38.365880000000175],[39.87509000000023,38.36621000000031],[39.87516000000011,38.36716000000018],[39.87503000000004,38.36784000000017],[39.875100000000145,38.368490000000634],[39.87521000000021,38.36872000000011],[39.87574000000018,38.36890000000045],[39.876280000000065,38.36923000000007],[39.876460000000066,38.369790000000194],[39.8769200000001,38.370440000000144],[39.878230000000144,38.371920000000216],[39.87855000000013,38.37243000000035],[39.87861000000015,38.372730000000445],[39.87845000000004,38.37320000000028],[39.878660000000195,38.37386000000015],[39.88000000000022,38.37562000000014],[39.88267000000013,38.37643000000037],[39.88397000000003,38.37769000000014],[39.88444000000004,38.37896000000006],[39.8848500000002,38.37933000000015],[39.8860200000002,38.379350000000386],[39.88683000000009,38.37967000000003],[39.887210000000096,38.380160000000046],[39.88729000000012,38.38099000000034],[39.88781000000017,38.381930000000125],[39.889880000000176,38.383170000000234],[39.89053000000018,38.3841900000001],[39.89075000000008,38.38504000000006],[39.891730000000166,38.386640000000284],[39.89268000000004,38.387560000000406],[39.89355000000012,38.38786000000033],[39.8947500000001,38.388090000000204],[39.89681000000019,38.38792000000035],[39.89785000000006,38.38820000000004],[39.899450000000115,38.38922000000059],[39.90104062919579,38.389773262329015],[39.90135144700014,38.39110580200048],[39.902925725000046,38.39254788300019],[39.90368213600016,38.39457075000047],[39.90400450700014,38.39683214400003],[39.90560107800013,38.39874271700006],[39.90578405100007,38.399394341000516],[39.90568633100003,38.39946795900039],[39.90467157800015,38.39957379700007],[39.902562944000124,38.40073062700009],[39.90077092399997,38.40210748000038],[39.89906606700009,38.40292913800033],[39.89652529600005,38.40342849100017],[39.89615198900003,38.40367859700007],[39.89555170200015,38.40511774900017],[39.894451123000124,38.41017568500013],[39.893592833000184,38.41047824100065],[39.89240871200019,38.41047195100066],[39.891555735000054,38.41093794500017],[39.89095944700006,38.41208159700011],[39.89038396600017,38.412331849],[39.889953704000106,38.412876525000115],[39.888958991000095,38.41296914300051],[39.887472357000036,38.41255551900002],[39.884879097000066,38.41272784000017],[39.88249119699998,38.41204087300008],[39.879999515000065,38.41236892100005],[39.876721060000136,38.41394132500011],[39.87661294300017,38.41449399800047],[39.87589198000012,38.415519456000084],[39.87539483200004,38.41579354400017],[39.87273029200003,38.41585943300038],[39.87176540200011,38.41626120000012],[39.87017868800007,38.418717769000125],[39.86880309200012,38.41972172400011],[39.86762072700009,38.419827163000036],[39.867517611000096,38.41991246900017]]],"type":"Polygon"}},{"type":"Feature","properties":{"area_id":"TR-23-002-196395","name_tr":"Altıoluk","area_level":"neighbourhood","parent_id":"TR-23-002","endeksa_id":196395},"geometry":{"coordinates":[[[39.91603755300025,38.444254480000325],[39.91295882600019,38.44456441599999],[39.91233178900006,38.44491002000018],[39.91014942500016,38.4448603470006],[39.909832241000004,38.444383418000484],[39.90760832200016,38.44450313499999],[39.90541659500008,38.44427766600012],[39.90485398800013,38.444737560000476],[39.903995611000084,38.44509633700005],[39.90373157300007,38.44597551300018],[39.90140566800011,38.447839193000334],[39.90112240000013,38.44851371100003],[39.89755809400009,38.44938673300015],[39.89381077799999,38.44961754200011],[39.89289545500003,38.44950240600019],[39.89068826200008,38.44982585200012],[39.88654321400014,38.44777655000007],[39.883774863000156,38.44728684500046],[39.882279861000086,38.44668332700007],[39.8811647820001,38.44656260200031],[39.881036628000174,38.44666254000009],[39.880906743000025,38.446560636000186],[39.87908389299997,38.44672576100004],[39.87826793900018,38.446227432000114],[39.87769476800008,38.44621304100008],[39.875767263,38.44551985800018],[39.87534573800002,38.44516413100018],[39.87277075900005,38.44504861000013],[39.87204695600013,38.44481571500046],[39.86987168700017,38.444631028],[39.86667862400003,38.44514854500011],[39.86598960900017,38.44496591100045],[39.86598293000003,38.44403276600025],[39.866272687000105,38.44358073800015],[39.866039999000066,38.44243145800027],[39.86544839000004,38.44127620600011],[39.86418329300005,38.44031762999998],[39.8639090370001,38.43974711800007],[39.86391078500009,38.43773206900005],[39.863364986000136,38.437200111000095],[39.86337820300008,38.436696632000235],[39.86390462100013,38.4358203430001],[39.863906294000174,38.43527401700021],[39.863567646000035,38.4342085240001],[39.86299518200008,38.433937300000366],[39.86304040700003,38.43244867100003],[39.86242931200019,38.43165292600054],[39.86063077800003,38.43064059500017],[39.86018023100013,38.43019544800006],[39.85917914800018,38.428277102000095],[39.85912499800014,38.42765002400063],[39.86061044100006,38.42577021300008],[39.86165621400016,38.42519579100019],[39.86228164200003,38.42515356400048],[39.86554681700011,38.42345436000022],[39.866093653000064,38.422484965000024],[39.86693549200015,38.42157133200038],[39.867397042000164,38.42066144000006],[39.867517611000096,38.41991246900017],[39.86762072700009,38.419827163000036],[39.86880309200012,38.41972172400011],[39.87017868800007,38.418717769000125],[39.87176540200011,38.41626120000012],[39.87273029200003,38.41585943300038],[39.87539483200004,38.41579354400017],[39.87589198000012,38.415519456000084],[39.87661294300017,38.41449399800047],[39.876721060000136,38.41394132500011],[39.879999515000065,38.41236892100005],[39.88249119699998,38.41204087300008],[39.884879097000066,38.41272784000017],[39.887472357000036,38.41255551900002],[39.888958991000095,38.41296914300051],[39.889953704000106,38.412876525000115],[39.89038396600017,38.412331849],[39.89095944700006,38.41208159700011],[39.891555735000054,38.41093794500017],[39.89240871200019,38.41047195100066],[39.893592833000184,38.41047824100065],[39.894451123000124,38.41017568500013],[39.89555170200015,38.40511774900017],[39.89615198900003,38.40367859700007],[39.89652529600005,38.40342849100017],[39.89906606700009,38.40292913800033],[39.90077092399997,38.40210748000038],[39.902562944000124,38.40073062700009],[39.90467157800015,38.39957379700007],[39.90568633100003,38.39946795900039],[39.90578405100007,38.399394341000516],[39.90560107800013,38.39874271700006],[39.90400450700014,38.39683214400003],[39.90368213600016,38.39457075000047],[39.902925725000046,38.39254788300019],[39.90135144700014,38.39110580200048],[39.90104062919579,38.389773262329015],[39.901370000000156,38.38857000000013],[39.902080000000126,38.38753000000003],[39.90265000000005,38.38693000000012],[39.90390000000008,38.38689000000039],[39.905210000000125,38.38648000000018],[39.906730000000096,38.38591000000031],[39.91049000000015,38.38424000000066],[39.91157000000021,38.38343000000043],[39.91242000000017,38.38311000000027],[39.91375000000011,38.38307000000049],[39.91462000000013,38.38130000000041],[39.91495000000009,38.380880000000104],[39.916390000000035,38.380660000000034],[39.91769000000011,38.380190000000255],[39.91938000000016,38.37977000000029],[39.92006000000009,38.37975000000006],[39.9204400000001,38.37989000000027],[39.92145000000016,38.381370000000516],[39.92183000000017,38.38173000000046],[39.922840000000065,38.382200000000296],[39.923140000000046,38.38245000000035],[39.9230800000002,38.38303000000019],[39.92319000000009,38.38388000000003],[39.92341000000016,38.38469000000026],[39.92473275200018,38.38549256300047],[39.924941171000114,38.386945862000005],[39.925139970000146,38.38686570800013],[39.92516980100004,38.38792372500018],[39.92583951400013,38.38830378600028],[39.92616692600018,38.389119332000064],[39.92624499200008,38.39059633300019],[39.92575725800003,38.39328304700024],[39.9248832130001,38.394600159000504],[39.92445659800006,38.395864558000085],[39.92447365900017,38.39633620000035],[39.925194858000054,38.39803347700018],[39.9257512480001,38.39833186600009],[39.92807330400018,38.39802307900021],[39.93216551500012,38.39842153400008],[39.93281463800008,38.3986810140002],[39.93311022200004,38.399092427000085],[39.93655001700017,38.40130315600027],[39.936729093000054,38.40215498300017],[39.93711142700005,38.40262042400019],[39.939374253000096,38.40322167700015],[39.93951343100002,38.40318573700051],[39.93950201200005,38.40329808100057],[39.940807968000115,38.40494975100012],[39.942617863000066,38.408370787000536],[39.94321252100002,38.40877413300018],[39.943554715999994,38.40938810400024],[39.945588976000124,38.41053366199998],[39.947244769000065,38.411924100000135],[39.94792958600016,38.4182810800001],[39.94769314400014,38.418767880000416],[39.94696242400005,38.41912972900025],[39.94447442000006,38.41973072200017],[39.942186649000064,38.420559171000036],[39.938609338000106,38.42259185800009],[39.936645063000014,38.4271451620001],[39.93541311700005,38.42768166300016],[39.93520128200004,38.42856941000014],[39.935749694000094,38.42982478600027],[39.93688333200009,38.430597319000185],[39.937347343000056,38.43155871400006],[39.93720999400017,38.432958927000186],[39.93708428300016,38.43331795000046],[39.93669288600017,38.433979007000175],[39.936158560000194,38.43451014000016],[39.93498939100016,38.43448050100028],[39.934538171000156,38.43420651500003],[39.93397545900012,38.432928410000045],[39.93406147200005,38.431339173000424],[39.93329062700013,38.431047514],[39.93214788000017,38.43129797900002],[39.92994424099999,38.432211887000335],[39.92923710500014,38.43230871400044],[39.92786098800019,38.43193437700029],[39.92636465600003,38.431871597000054],[39.92459656000011,38.43235715100013],[39.922929350000175,38.43414792400006],[39.92185653800004,38.43482085300019],[39.921785118,38.435731498000166],[39.922470702000055,38.4368095750001],[39.92227766100018,38.43770195900004],[39.920739106000156,38.43819887400036],[39.9192720800001,38.43894761700005],[39.9173345750001,38.441120031000025],[39.917079713000135,38.441526590000365],[39.91694174400021,38.44357880700028],[39.91687889900027,38.44372075400054],[39.91603755300025,38.444254480000325]]],"type":"Polygon"}},{"type":"Feature","properties":{"area_id":"TR-23-002-21374","name_tr":"Gülaman","area_level":"neighbourhood","parent_id":"TR-23-002","endeksa_id":21374},"geometry":{"coordinates":[[[39.87615402100005,38.45249566800004],[39.876175321000005,38.45238979100009],[39.87606533200005,38.45233069800008],[39.870250345000045,38.45222527300018],[39.869802932000084,38.45253861600008],[39.869206597000016,38.45355203500014],[39.867849517000025,38.45400885100014],[39.865488282000115,38.45375765500029],[39.862424189000194,38.45375900900058],[39.860004322000066,38.454354723000165],[39.85974361600017,38.4552143690002],[39.85965826500012,38.45528080700001],[39.85611279700004,38.455135845000086],[39.85263902100007,38.45599544700019],[39.84619167000011,38.456303363000245],[39.845009287000096,38.45593932700018],[39.843936342000006,38.455288336000194],[39.84267902099998,38.45493147700006],[39.841463572000066,38.45497190900039],[39.841104423000104,38.45524132800006],[39.84089871500015,38.455235893000065],[39.84049393800012,38.45454782400003],[39.84001637000006,38.454155345000686],[39.838579074000165,38.45238480000012],[39.837874997000085,38.4520348110002],[39.83688443100016,38.45106890100004],[39.83605047399999,38.450890455000376],[39.8358452220001,38.44977722800019],[39.835547540000164,38.44918118400011],[39.83564148300019,38.44849938200019],[39.83500998400007,38.44701761300007],[39.833870514000125,38.44674533000051],[39.833410012,38.44631028500066],[39.833274361000065,38.44577763000001],[39.83355251500018,38.4448022520005],[39.834463013000004,38.4439548540002],[39.834572459000185,38.44313642100025],[39.832895584000084,38.44158350400028],[39.83293181800008,38.43893708600069],[39.8320844160001,38.43845307600026],[39.83160634500007,38.43843747600039],[39.831502759000045,38.43852599200011],[39.83147710900005,38.43840933100046],[39.83094149100015,38.4380395930001],[39.83050901600018,38.43740110400012],[39.82995851099997,38.43706336600002],[39.829987108000125,38.43657033800008],[39.83039248200009,38.4360646420007],[39.830011430000184,38.433977729000105],[39.82769895000018,38.43299757100033],[39.82708394000008,38.43222632900029],[39.82593033000006,38.431956632000265],[39.825363226000036,38.43004844800015],[39.82428098800017,38.429897424000046],[39.82418644800015,38.42981626100004],[39.824285321000104,38.42932063000012],[39.82465659600018,38.42904285200041],[39.824754726000094,38.42784041800007],[39.82629932000003,38.4271269350001],[39.82726216600008,38.426243033000105],[39.82735211500017,38.4253272520001],[39.82715027800009,38.424670412000296],[39.827384997000024,38.42417746000018],[39.82895510500009,38.422860815000035],[39.829318422000085,38.42219126200018],[39.82801502100011,38.420151756000166],[39.8280669720001,38.42001905800038],[39.83023067500011,38.41924126000015],[39.83072429400005,38.419334098000036],[39.83187702700013,38.41899961900032],[39.833635352000044,38.419074968000245],[39.83505308100018,38.418716923000375],[39.836444868000115,38.418757409000705],[39.836818986000026,38.418142855000156],[39.83731313200019,38.417761849000044],[39.83935655000016,38.41736704800019],[39.84059918500003,38.41685296600025],[39.84091802500012,38.41621788500004],[39.841030966000176,38.41616260300009],[39.8416614840001,38.41617932000014],[39.84199606699997,38.41669101200017],[39.84282111600015,38.4167047800006],[39.84321349700019,38.41626594700011],[39.844467292000104,38.41617748800013],[39.845684966000135,38.41684971500007],[39.84607426100007,38.417370895000204],[39.84699243700004,38.41789802700015],[39.849507698000025,38.41813422600006],[39.850765856000066,38.41868402400007],[39.85084746800004,38.41922747700016],[39.85237848200006,38.41955979200003],[39.85249017100017,38.41951744300053],[39.85300351000012,38.41886651800007],[39.85348278000015,38.41863305400045],[39.85368584700018,38.41814796900019],[39.85443292400004,38.41806749400001],[39.854596504000085,38.41758931600009],[39.85504788000014,38.41731591500013],[39.85987078800002,38.416975065000315],[39.86109691700017,38.417067442000075],[39.861676174000024,38.417960778000065],[39.862973612000076,38.41882405600012],[39.86521286600009,38.41942936200007],[39.86574081300017,38.419421212000145],[39.86696101300004,38.419636124000135],[39.8674587700001,38.41981030400018],[39.867517611000096,38.41991246900017],[39.867397042000164,38.42066144000006],[39.86693549200015,38.42157133200038],[39.866093653000064,38.422484965000024],[39.86554681700011,38.42345436000022],[39.86228164200003,38.42515356400048],[39.86165621400016,38.42519579100019],[39.86061044100006,38.42577021300008],[39.85912499800014,38.42765002400063],[39.85917914800018,38.428277102000095],[39.86018023100013,38.43019544800006],[39.86063077800003,38.43064059500017],[39.86242931200019,38.43165292600054],[39.86304040700003,38.43244867100003],[39.86299518200008,38.433937300000366],[39.863567646000035,38.4342085240001],[39.863906294000174,38.43527401700021],[39.86390462100013,38.4358203430001],[39.86337820300008,38.436696632000235],[39.863364986000136,38.437200111000095],[39.86391078500009,38.43773206900005],[39.8639090370001,38.43974711800007],[39.86418329300005,38.44031762999998],[39.86544839000004,38.44127620600011],[39.866039999000066,38.44243145800027],[39.866272687000105,38.44358073800015],[39.86598293000003,38.44403276600025],[39.86598960900017,38.44496591100045],[39.86667862400003,38.44514854500011],[39.86987168700017,38.444631028],[39.87204695600013,38.44481571500046],[39.87277075900005,38.44504861000013],[39.87534573800002,38.44516413100018],[39.875767263,38.44551985800018],[39.87769476800008,38.44621304100008],[39.87826793900018,38.446227432000114],[39.87908389299997,38.44672576100004],[39.880906743000025,38.446560636000186],[39.881036628000174,38.44666254000009],[39.881063735,38.44896114200003],[39.880350019000105,38.449773382000046],[39.87985142600019,38.450993706000304],[39.876356210000154,38.452327928000386],[39.87615402100005,38.45249566800004]]],"type":"Polygon"}},{"type":"Feature","properties":{"area_id":"TR-23-002-140390","name_tr":"Gündoğdu","area_level":"neighbourhood","parent_id":"TR-23-002","endeksa_id":140390},"geometry":{"coordinates":[[[39.86141449100012,38.461081310000054],[39.86092338600008,38.46080572800054],[39.86015026200005,38.46085776500013],[39.85882381900018,38.46149258800017],[39.85790135200017,38.46135506800016],[39.85718908000018,38.46084155500057],[39.85678981000001,38.45995858800006],[39.856266715000174,38.459634554000445],[39.853373683000086,38.45936873500057],[39.85096789600004,38.45946923299999],[39.8500087220001,38.458705230000646],[39.849458701000174,38.458546234000096],[39.84675776500018,38.45885001600004],[39.84505629700004,38.45848884600014],[39.84421354800003,38.45853431300009],[39.84413445300015,38.458680217999984],[39.841418846000124,38.45612064300008],[39.84107351600011,38.45533688300003],[39.841104423000104,38.45524132800006],[39.841463572000066,38.45497190900039],[39.84267902099998,38.45493147700006],[39.843936342000006,38.455288336000194],[39.845009287000096,38.45593932700018],[39.84619167000011,38.456303363000245],[39.85263902100007,38.45599544700019],[39.85611279700004,38.455135845000086],[39.85965826500012,38.45528080700001],[39.85974361600017,38.4552143690002],[39.860004322000066,38.454354723000165],[39.862424189000194,38.45375900900058],[39.865488282000115,38.45375765500029],[39.867849517000025,38.45400885100014],[39.869206597000016,38.45355203500014],[39.869802932000084,38.45253861600008],[39.870250345000045,38.45222527300018],[39.87606533200005,38.45233069800008],[39.876175321000005,38.45238979100009],[39.87615402100005,38.45249566800004],[39.873548004000156,38.454788501000166],[39.871760089000134,38.45518888200013],[39.87025154900016,38.45653692700006],[39.86814090800004,38.45721512800009],[39.86720578300003,38.45777406500025],[39.86639741600004,38.458599106000065],[39.86443253599998,38.45924197900001],[39.86402505100011,38.46061880700012],[39.863557859000025,38.46103402900019],[39.86141449100012,38.461081310000054]]],"type":"Polygon"}},{"type":"Feature","properties":{"area_id":"TR-23-002-2011484","name_tr":"Çanakça Köyü","area_level":"neighbourhood","parent_id":"TR-23-002","endeksa_id":2011484},"geometry":{"coordinates":[[[39.80202907800003,38.41006345500011],[39.80265408200006,38.41259185000047],[39.80251633000006,38.41328958700001],[39.80297916900008,38.41518377199998],[39.80353197900013,38.415332931000194],[39.803776085000095,38.41580393000049],[39.804763784000045,38.41593471500039],[39.80502658900019,38.41654999800005],[39.80563212900017,38.41721011700008],[39.807023003000154,38.417605267000056],[39.80597916800002,38.42034235000011],[39.805611624000164,38.42067081300007],[39.80468608399997,38.421005864000165],[39.80464042900019,38.422553782000136],[39.80596393000019,38.42409497500006],[39.80596680800011,38.42485113300006],[39.80574484900012,38.42531058600014],[39.804894478000165,38.425884803000145],[39.803347072000065,38.426118389000465],[39.803252563000115,38.42620369400015],[39.80332307900011,38.426801176000026],[39.80367906300006,38.427219471000114],[39.80573630300012,38.428450417000136],[39.80576442500012,38.42857587700007],[39.80263640600003,38.42910932700016],[39.80205865700009,38.4294196620005],[39.80099761000014,38.43102861300031],[39.79997494800011,38.432096269],[39.79888859900018,38.43241877300022],[39.79815859700017,38.43375320000041],[39.79758185800017,38.436792583000624],[39.79772657100011,38.43743078300014],[39.79753871200012,38.43783959800015],[39.79664564300003,38.438363634000495],[39.79618527100013,38.438990131000196],[39.793906167000046,38.43993477700019],[39.79318220400012,38.441245797000136],[39.79114406700012,38.44190497400041],[39.78790538600015,38.44334605400013],[39.78717175300011,38.44389242100027],[39.78680678600017,38.44500071300013],[39.786716086000126,38.4493136050001],[39.786396836000165,38.44989119900015],[39.785243040000125,38.451346090000186],[39.784025340000085,38.45197710600013],[39.782730691000154,38.45302476600017],[39.78129928100003,38.45360899500042],[39.780836561000115,38.45401184100018],[39.78027060300019,38.45513081600012],[39.777763790000165,38.45727255800006],[39.77574533100005,38.4585719640001],[39.77470707399999,38.46042408200003],[39.77307404300018,38.46218917900052],[39.771957290000046,38.46424345700012],[39.77089767400014,38.46506365100032],[39.76986146700011,38.465473366000026],[39.76609317000015,38.465221727000255],[39.76424230700002,38.465686785],[39.76371340300017,38.46594398400009],[39.76280564400008,38.46701406300008],[39.76044660500003,38.46861098400046],[39.759883617000185,38.468515046000164],[39.759251863000145,38.468393865000166],[39.758169956000074,38.46844804000011],[39.75625932200006,38.46767793100008],[39.755029105000176,38.46675215900041],[39.75269614300004,38.466246225000646],[39.75220285200015,38.4646590910001],[39.75020852799997,38.463482152000154],[39.749944489000086,38.4630773520002],[39.74994544300017,38.46253677300018],[39.75020382600013,38.462071738000304],[39.751867059000176,38.46015756100064],[39.75154081400012,38.45953731300011],[39.74887590600002,38.45916173200004],[39.747088373000054,38.458681350999996],[39.74700737300009,38.45861129400015],[39.74681409300007,38.45771931100052],[39.74630041700004,38.45720408200043],[39.74569625300012,38.45693559900019],[39.74522409000008,38.45599457200018],[39.74415869300009,38.45524825000007],[39.743752697000104,38.454319358000134],[39.74181585300005,38.45295606400049],[39.74187549400011,38.45228598000011],[39.742404297000064,38.45141396500003],[39.742662125000095,38.45023908800022],[39.74261387700017,38.44956164100006],[39.74214043900008,38.44920386400054],[39.74206993800004,38.44828466399997],[39.742246781000176,38.44755827600045],[39.74154382200004,38.44428878300005],[39.74144131100013,38.44301772200009],[39.74168776300013,38.44147675700009],[39.74134284700017,38.44091184700039],[39.74148874000008,38.44013744800003],[39.742245706000176,38.43931495000015],[39.74373184900014,38.43837463500006],[39.743848129000185,38.43788204300017],[39.74365114700004,38.43685396500001],[39.74492074800003,38.436183106000044],[39.7460735570001,38.433740111000304],[39.747549886000115,38.43309067000013],[39.75027960500012,38.43244514600036],[39.750742508000144,38.432163169000034],[39.75177149000018,38.431018344999984],[39.75249341300014,38.429430254000124],[39.75375700300003,38.428103190000286],[39.76094598800006,38.42334673600055],[39.76317726400009,38.420403212],[39.764725207000026,38.417260952000106],[39.76574276100018,38.41700510900017],[39.76900283900011,38.417749897000476],[39.769660139000166,38.41769434700018],[39.77108261000018,38.41702892899997],[39.77302350300005,38.416685427000175],[39.774288136000166,38.416743237000674],[39.77641977000013,38.41754512300008],[39.77957062700017,38.417856141000016],[39.780881707000106,38.418661724000515],[39.78200517300019,38.41881849599997],[39.78240517200015,38.4191034800001],[39.78303286200003,38.42004490500011],[39.78392886900019,38.420674513000165],[39.78418757600019,38.42205934000026],[39.78462671699998,38.42233952600003],[39.78531981500015,38.42242144500011],[39.78652846300014,38.4217322450001],[39.78786940400016,38.42136804300003],[39.78900989600004,38.421474493999995],[39.79036550400008,38.42222309400012],[39.79237016600007,38.42221909600033],[39.79305908300012,38.42149011200041],[39.79387162800015,38.4212582290005],[39.795078538000155,38.4221788120002],[39.79577567900003,38.42232429600051],[39.79674491800017,38.422180591000256],[39.79776598300003,38.42119550800055],[39.797759902000166,38.41963685400037],[39.79858866600017,38.419042463000665],[39.79854242900012,38.41785675199998],[39.799999338000134,38.417141648000154],[39.800337580000075,38.41668838700008],[39.80008085800017,38.416103541000325],[39.79905774500014,38.41572605200008],[39.798781314999985,38.41529479200011],[39.79875021999999,38.41290729400009],[39.79896551000007,38.41238631100009],[39.799234659000035,38.41188260200005],[39.800688111000056,38.410880272999975],[39.801157109000144,38.41030290200007],[39.80186237700019,38.40998925700069],[39.80202907800003,38.41006345500011]]],"type":"Polygon"}},{"type":"Feature","properties":{"area_id":"TR-23-002-140386","name_tr":"Altınçanak","area_level":"neighbourhood","parent_id":"TR-23-002","endeksa_id":140386},"geometry":{"coordinates":[[[39.87155835900012,38.477230453000345],[39.87121927300012,38.477097619000006],[39.87012150000015,38.4771509040001],[39.86808933000003,38.47764701500017],[39.864634283999976,38.47773202700046],[39.86415283000014,38.47743140800003],[39.86447874900017,38.475408886000025],[39.86538554700007,38.47337409800002],[39.86523287400013,38.470477680000045],[39.86554106300014,38.46929835700007],[39.865433629000165,38.46786107200023],[39.86497053400012,38.466337082999985],[39.86294286900011,38.46566515200044],[39.86288495800005,38.46431830400002],[39.8632369450001,38.46384035900036],[39.862440984000045,38.46211336900046],[39.86175390400007,38.46172816300003],[39.86141449100012,38.461081310000054],[39.863557859000025,38.46103402900019],[39.86402505100011,38.46061880700012],[39.86443253599998,38.45924197900001],[39.86639741600004,38.458599106000065],[39.86720578300003,38.45777406500025],[39.86814090800004,38.45721512800009],[39.87025154900016,38.45653692700006],[39.871760089000134,38.45518888200013],[39.873548004000156,38.454788501000166],[39.87615402100005,38.45249566800004],[39.876356210000154,38.452327928000386],[39.87985142600019,38.450993706000304],[39.880350019000105,38.449773382000046],[39.881063735,38.44896114200003],[39.881036628000174,38.44666254000009],[39.8811647820001,38.44656260200031],[39.882279861000086,38.44668332700007],[39.883774863000156,38.44728684500046],[39.88654321400014,38.44777655000007],[39.89068826200008,38.44982585200012],[39.89289545500003,38.44950240600019],[39.89381077799999,38.44961754200011],[39.89755809400009,38.44938673300015],[39.90112240000013,38.44851371100003],[39.90140566800011,38.447839193000334],[39.90373157300007,38.44597551300018],[39.903995611000084,38.44509633700005],[39.90485398800013,38.444737560000476],[39.90541659500008,38.44427766600012],[39.90760832200016,38.44450313499999],[39.909832241000004,38.444383418000484],[39.91014942500016,38.4448603470006],[39.91233178900006,38.44491002000018],[39.91295882600019,38.44456441599999],[39.916544617000284,38.444203433999974],[39.9166865710003,38.444303461000345],[39.91642013400036,38.447290057000544],[39.91589854600022,38.44933275100027],[39.91514218200035,38.45013271900024],[39.91504455300014,38.45078421900064],[39.91612760500027,38.45299207000062],[39.91580535900022,38.45428102100027],[39.91381943200031,38.45458940000009],[39.912604160000285,38.45517489500048],[39.91138356600004,38.45698426700045],[39.90893502500006,38.45809123700002],[39.90701972400012,38.46121054800028],[39.904125889000056,38.46283420400033],[39.90293474100008,38.46398437400046],[39.90228107700017,38.46424542400007],[39.898535976000176,38.46404984700064],[39.89697259200011,38.464742545000036],[39.89635000400011,38.46563358100008],[39.89562715300008,38.46783714600002],[39.894922045000044,38.46863606700032],[39.89292678400005,38.46982971900013],[39.89150606499999,38.47000365800005],[39.88727439000007,38.46955609100041],[39.8865637720001,38.469395282000164],[39.88414733700006,38.46787071000017],[39.88314906400018,38.46745762000006],[39.8805072240001,38.46750068699998],[39.87963882400015,38.46874871300008],[39.8781243520001,38.46966538000015],[39.87684372000018,38.470175450000056],[39.87532447400008,38.47164092800034],[39.87430275700018,38.47215909300013],[39.873809230999996,38.47252496600015],[39.87341635600012,38.472956461000024],[39.87295163900012,38.474238653999976],[39.87285125900013,38.47664952600019],[39.871771921000004,38.47726728600014],[39.87155835900012,38.477230453000345]]],"type":"Polygon"}},{"type":"Feature","properties":{"area_id":"TR-23-002-140388","name_tr":"Merkez","area_level":"neighbourhood","parent_id":"TR-23-002","endeksa_id":140388},"geometry":{"coordinates":[[[39.86415283000014,38.47743140800003],[39.86406797900014,38.47751289700011],[39.859661465000045,38.4786290830001],[39.85940384100002,38.478108792000455],[39.857605223000064,38.47796349000015],[39.85713513800016,38.477514077000365],[39.85632062900004,38.47718198399997],[39.85504193100007,38.47570535400018],[39.85295569700014,38.474996795000095],[39.849777760000165,38.47484522300016],[39.84762450599999,38.47383907600067],[39.84755773100011,38.47370843900006],[39.84690398200007,38.47117772500047],[39.84702819200004,38.46930004900037],[39.8461258590001,38.46765424900008],[39.8461258590001,38.466550177000215],[39.846385969000096,38.465904430000194],[39.84648629800017,38.4646290350006],[39.84624359200018,38.464015693000476],[39.84471659900004,38.46304307400038],[39.84472166900008,38.46241258900017],[39.84509949799997,38.46153296300008],[39.84506085800018,38.46064625300022],[39.844719364000184,38.45947451900008],[39.84413445300015,38.458680217999984],[39.84421354800003,38.45853431300009],[39.84505629700004,38.45848884600014],[39.84675776500018,38.45885001600004],[39.849458701000174,38.458546234000096],[39.8500087220001,38.458705230000646],[39.85096789600004,38.45946923299999],[39.853373683000086,38.45936873500057],[39.856266715000174,38.459634554000445],[39.85678981000001,38.45995858800006],[39.85718908000018,38.46084155500057],[39.85790135200017,38.46135506800016],[39.85882381900018,38.46149258800017],[39.86015026200005,38.46085776500013],[39.86092338600008,38.46080572800054],[39.86141449100012,38.461081310000054],[39.86175390400007,38.46172816300003],[39.862440984000045,38.46211336900046],[39.8632369450001,38.46384035900036],[39.86288495800005,38.46431830400002],[39.86294286900011,38.46566515200044],[39.86497053400012,38.466337082999985],[39.865433629000165,38.46786107200023],[39.86554106300014,38.46929835700007],[39.86523287400013,38.470477680000045],[39.86538554700007,38.47337409800002],[39.86447874900017,38.475408886000025],[39.86415283000014,38.47743140800003]]],"type":"Polygon"}},{"type":"Feature","properties":{"area_id":"TR-23-002-2011490","name_tr":"Kayranlı Köyü","area_level":"neighbourhood","parent_id":"TR-23-002","endeksa_id":2011490},"geometry":{"coordinates":[[[39.831502759000045,38.43852599200011],[39.831325494000055,38.43997597600014],[39.83056621300017,38.441072276000114],[39.83013179200003,38.44136744900061],[39.829889341000126,38.44198216700016],[39.829287128000146,38.44223025100041],[39.829063835000056,38.44280326600011],[39.82851728000003,38.443233559000646],[39.82795991900019,38.44464051400007],[39.826572263000116,38.44510664100005],[39.82609738700012,38.445469218000085],[39.82457370500015,38.445885170000395],[39.824328286000025,38.44660944000009],[39.822295383000096,38.447527748000084],[39.82199913900013,38.447968383000045],[39.820992466000064,38.44855341600004],[39.819832996,38.448833647000185],[39.81909004200003,38.45013826900049],[39.819499940000185,38.4510547430001],[39.81947003800019,38.45193881500006],[39.818828153000084,38.45304542499997],[39.81821442700016,38.453310666000164],[39.817924355000116,38.45431543799998],[39.81706208900016,38.455076610000106],[39.81691604700018,38.455517205000035],[39.81519891200014,38.45644664800011],[39.814822866999975,38.457900677000055],[39.81420643000007,38.45814026300053],[39.81339678000006,38.4588564770001],[39.810404550999976,38.460013404000165],[39.80882018000011,38.46099941400007],[39.80796015300007,38.46117893500042],[39.80785946999998,38.46169215100025],[39.80712305200018,38.46277475200003],[39.806637724000154,38.46302866600007],[39.80638080400007,38.463998796000055],[39.805889026000045,38.46452254300016],[39.80528239100005,38.46501300000011],[39.80274200100018,38.46562733999997],[39.80241325300011,38.46614105800006],[39.80175600700011,38.468366375000016],[39.800020050000114,38.47112263800011],[39.798765935000176,38.47187792200009],[39.7984658900001,38.47254044600015],[39.79845621000004,38.473499656000115],[39.79892027000005,38.47473071900009],[39.79719636800007,38.475343652000106],[39.79681764700007,38.4761798990001],[39.79676191300007,38.477091277000056],[39.79544292200012,38.47778978399998],[39.794682408000085,38.47885102900017],[39.79400795000004,38.4789182950002],[39.79204651200013,38.47860260400046],[39.78908767000007,38.47929985800005],[39.789002308000136,38.47938830700036],[39.78903297900007,38.47853425100004],[39.78832645800014,38.47855028300012],[39.786354644000085,38.47745424900006],[39.785016552,38.47764338700023],[39.784503922000056,38.47752824000003],[39.78406632600007,38.47706652200037],[39.783552083000075,38.475896443000124],[39.77971456800009,38.47376335800027],[39.776752079000005,38.47281036800047],[39.77246674200012,38.47007412300013],[39.77151974300017,38.46994334000021],[39.768742738000185,38.47010785600014],[39.76368776500016,38.47093384300018],[39.76214505800016,38.47037748499997],[39.7602724840001,38.46871712000018],[39.75950881000017,38.46868348400005],[39.759883617000185,38.468515046000164],[39.76044660500003,38.46861098400046],[39.76280564400008,38.46701406300008],[39.76371340300017,38.46594398400009],[39.76424230700002,38.465686785],[39.76609317000015,38.465221727000255],[39.76986146700011,38.465473366000026],[39.77089767400014,38.46506365100032],[39.771957290000046,38.46424345700012],[39.77307404300018,38.46218917900052],[39.77470707399999,38.46042408200003],[39.77574533100005,38.4585719640001],[39.777763790000165,38.45727255800006],[39.78027060300019,38.45513081600012],[39.780836561000115,38.45401184100018],[39.78129928100003,38.45360899500042],[39.782730691000154,38.45302476600017],[39.784025340000085,38.45197710600013],[39.785243040000125,38.451346090000186],[39.786396836000165,38.44989119900015],[39.786716086000126,38.4493136050001],[39.78680678600017,38.44500071300013],[39.78717175300011,38.44389242100027],[39.78790538600015,38.44334605400013],[39.79114406700012,38.44190497400041],[39.79318220400012,38.441245797000136],[39.793906167000046,38.43993477700019],[39.79618527100013,38.438990131000196],[39.79664564300003,38.438363634000495],[39.79753871200012,38.43783959800015],[39.79772657100011,38.43743078300014],[39.79758185800017,38.436792583000624],[39.79815859700017,38.43375320000041],[39.79888859900018,38.43241877300022],[39.79997494800011,38.432096269],[39.80099761000014,38.43102861300031],[39.80205865700009,38.4294196620005],[39.80263640600003,38.42910932700016],[39.80576442500012,38.42857587700007],[39.80573630300012,38.428450417000136],[39.80367906300006,38.427219471000114],[39.80332307900011,38.426801176000026],[39.803252563000115,38.42620369400015],[39.803347072000065,38.426118389000465],[39.804894478000165,38.425884803000145],[39.80574484900012,38.42531058600014],[39.80596680800011,38.42485113300006],[39.80596393000019,38.42409497500006],[39.80464042900019,38.422553782000136],[39.80468608399997,38.421005864000165],[39.805611624000164,38.42067081300007],[39.80597916800002,38.42034235000011],[39.807023003000154,38.417605267000056],[39.80563212900017,38.41721011700008],[39.80502658900019,38.41654999800005],[39.804763784000045,38.41593471500039],[39.803776085000095,38.41580393000049],[39.80353197900013,38.415332931000194],[39.80297916900008,38.41518377199998],[39.80251633000006,38.41328958700001],[39.80265408200006,38.41259185000047],[39.80202907800003,38.41006345500011],[39.802019999000095,38.409899395000025],[39.802793725000186,38.409057949000044],[39.802848259000086,38.40842185100013],[39.803381177999995,38.40823293800008],[39.80357810500004,38.40774472100043],[39.804397948000144,38.40727267900013],[39.804810401000054,38.40654842700002],[39.80598564400003,38.405719763000036],[39.80698673800009,38.405565935000084],[39.80941973300003,38.40632733400048],[39.8100184220001,38.40631003800047],[39.81037294800012,38.405936627000074],[39.81181131300002,38.40579516100041],[39.81371017700013,38.404857454000364],[39.81494881900011,38.404710487000045],[39.81594015100006,38.40490993000009],[39.816242343000056,38.40545973000013],[39.81682437800015,38.405432935000135],[39.817768972000124,38.40406968000019],[39.81916625800011,38.40395120700043],[39.81976052100015,38.40419648400007],[39.8217696050001,38.40399306600011],[39.82191962400003,38.404104753000524],[39.82220118700013,38.40461474000017],[39.82295051400007,38.40516705100049],[39.82332200300016,38.406185526000115],[39.823353878000034,38.407027663000065],[39.82356845600003,38.407446282000194],[39.82412950900016,38.407665382000346],[39.8244918310001,38.408116453000275],[39.824750484000106,38.40952806600012],[39.82515091900012,38.40994632700051],[39.82511210800004,38.41045778400064],[39.82631012700011,38.412794992000045],[39.82719193000014,38.41376366900016],[39.82639866000005,38.41739649300018],[39.82758368400005,38.418338005000464],[39.82801502100011,38.420151756000166],[39.829318422000085,38.42219126200018],[39.82895510500009,38.422860815000035],[39.827384997000024,38.42417746000018],[39.82715027800009,38.424670412000296],[39.82735211500017,38.4253272520001],[39.82726216600008,38.426243033000105],[39.82629932000003,38.4271269350001],[39.824754726000094,38.42784041800007],[39.82465659600018,38.42904285200041],[39.824285321000104,38.42932063000012],[39.82418644800015,38.42981626100004],[39.82428098800017,38.429897424000046],[39.825363226000036,38.43004844800015],[39.82593033000006,38.431956632000265],[39.82708394000008,38.43222632900029],[39.82769895000018,38.43299757100033],[39.830011430000184,38.433977729000105],[39.83039248200009,38.4360646420007],[39.829987108000125,38.43657033800008],[39.82995851099997,38.43706336600002],[39.83050901600018,38.43740110400012],[39.83094149100015,38.4380395930001],[39.83147710900005,38.43840933100046],[39.831502759000045,38.43852599200011]]],"type":"Polygon"}},{"type":"Feature","properties":{"area_id":"TR-23-002-2011482","name_tr":"Bakladamlar Köyü","area_level":"neighbourhood","parent_id":"TR-23-002","endeksa_id":2011482},"geometry":{"coordinates":[[[39.84755773100011,38.47370843900006],[39.84739539200007,38.47386599700013],[39.84713170000009,38.47375080600011],[39.846809415000166,38.474003756000116],[39.84502685000018,38.47458132899999],[39.84436097600019,38.47552265400003],[39.841682891000175,38.47797167500039],[39.83478674200006,38.483078843000044],[39.83400700400006,38.485694867999996],[39.82578085900019,38.48788735700032],[39.825168009000095,38.48789008600028],[39.824816667000164,38.48814434000053],[39.82277164600015,38.48868939300024],[39.820367224000165,38.48788760800011],[39.81869322400007,38.48667416900048],[39.81645076500007,38.486359487000016],[39.814874294000106,38.486715773000185],[39.81258300200005,38.486768937000136],[39.81048860400011,38.487106641000025],[39.808377678000056,38.486923876000446],[39.8076715040001,38.48656282600024],[39.80519875800013,38.48656485100014],[39.80467257600009,38.48736378800061],[39.8039359820001,38.48783475800013],[39.80377992200016,38.48828891700015],[39.80030329900018,38.489576231000115],[39.79848300500004,38.49328700700033],[39.798233463000145,38.49276243600036],[39.798104358000046,38.492703851000044],[39.79712675200017,38.49312070399998],[39.79456268900003,38.492786443000114],[39.795194009,38.4936814740002],[39.794024481000065,38.493681035000066],[39.79297348300014,38.49339304100005],[39.792582040000184,38.492737775000364],[39.79044637000004,38.49245316600053],[39.78772812600005,38.490999142000305],[39.7876401530001,38.49047773500024],[39.78806799800009,38.48997655800025],[39.78844049200018,38.488941949000036],[39.79003185300013,38.48816879500015],[39.79024184700006,38.4871832390005],[39.78969909500012,38.48635702800044],[39.78945067100017,38.483651584000086],[39.78882511500012,38.48198286100012],[39.789002308000136,38.47938830700036],[39.78908767000007,38.47929985800005],[39.79204651200013,38.47860260400046],[39.79400795000004,38.4789182950002],[39.794682408000085,38.47885102900017],[39.79544292200012,38.47778978399998],[39.79676191300007,38.477091277000056],[39.79681764700007,38.4761798990001],[39.79719636800007,38.475343652000106],[39.79892027000005,38.47473071900009],[39.79845621000004,38.473499656000115],[39.7984658900001,38.47254044600015],[39.798765935000176,38.47187792200009],[39.800020050000114,38.47112263800011],[39.80175600700011,38.468366375000016],[39.80241325300011,38.46614105800006],[39.80274200100018,38.46562733999997],[39.80528239100005,38.46501300000011],[39.805889026000045,38.46452254300016],[39.80638080400007,38.463998796000055],[39.806637724000154,38.46302866600007],[39.80712305200018,38.46277475200003],[39.80785946999998,38.46169215100025],[39.80796015300007,38.46117893500042],[39.80882018000011,38.46099941400007],[39.810404550999976,38.460013404000165],[39.81339678000006,38.4588564770001],[39.81420643000007,38.45814026300053],[39.814822866999975,38.457900677000055],[39.81519891200014,38.45644664800011],[39.81691604700018,38.455517205000035],[39.81706208900016,38.455076610000106],[39.817924355000116,38.45431543799998],[39.81821442700016,38.453310666000164],[39.818828153000084,38.45304542499997],[39.81947003800019,38.45193881500006],[39.819499940000185,38.4510547430001],[39.81909004200003,38.45013826900049],[39.819832996,38.448833647000185],[39.820992466000064,38.44855341600004],[39.82199913900013,38.447968383000045],[39.822295383000096,38.447527748000084],[39.824328286000025,38.44660944000009],[39.82457370500015,38.445885170000395],[39.82609738700012,38.445469218000085],[39.826572263000116,38.44510664100005],[39.82795991900019,38.44464051400007],[39.82851728000003,38.443233559000646],[39.829063835000056,38.44280326600011],[39.829287128000146,38.44223025100041],[39.829889341000126,38.44198216700016],[39.83013179200003,38.44136744900061],[39.83056621300017,38.441072276000114],[39.831325494000055,38.43997597600014],[39.831502759000045,38.43852599200011],[39.83160634500007,38.43843747600039],[39.8320844160001,38.43845307600026],[39.83293181800008,38.43893708600069],[39.832895584000084,38.44158350400028],[39.834572459000185,38.44313642100025],[39.834463013000004,38.4439548540002],[39.83355251500018,38.4448022520005],[39.833274361000065,38.44577763000001],[39.833410012,38.44631028500066],[39.833870514000125,38.44674533000051],[39.83500998400007,38.44701761300007],[39.83564148300019,38.44849938200019],[39.835547540000164,38.44918118400011],[39.8358452220001,38.44977722800019],[39.83605047399999,38.450890455000376],[39.83688443100016,38.45106890100004],[39.837874997000085,38.4520348110002],[39.838579074000165,38.45238480000012],[39.84001637000006,38.454155345000686],[39.84049393800012,38.45454782400003],[39.84089871500015,38.455235893000065],[39.841104423000104,38.45524132800006],[39.84107351600011,38.45533688300003],[39.841418846000124,38.45612064300008],[39.84413445300015,38.458680217999984],[39.844719364000184,38.45947451900008],[39.84506085800018,38.46064625300022],[39.84509949799997,38.46153296300008],[39.84472166900008,38.46241258900017],[39.84471659900004,38.46304307400038],[39.84624359200018,38.464015693000476],[39.84648629800017,38.4646290350006],[39.846385969000096,38.465904430000194],[39.8461258590001,38.466550177000215],[39.8461258590001,38.46765424900008],[39.84702819200004,38.46930004900037],[39.84690398200007,38.47117772500047],[39.84755773100011,38.47370843900006]]],"type":"Polygon"}},{"type":"Feature","properties":{"area_id":"TR-23-002-2011487","name_tr":"Gürçubuk Köyü","area_level":"neighbourhood","parent_id":"TR-23-002","endeksa_id":2011487},"geometry":{"coordinates":[[[39.92523760100033,38.51724196100031],[39.92518266400009,38.51733756100009],[39.92467680100009,38.51752322100032],[39.92412008800011,38.517478526000104],[39.923713914000075,38.51687713400008],[39.92288152300006,38.51666588100011],[39.920895534000124,38.517084282000326],[39.92040857500007,38.51821968200011],[39.915862636999975,38.5187482190006],[39.91486055900003,38.51899598000023],[39.91421289900012,38.51972060800017],[39.91398556200005,38.52030303400005],[39.912135978000094,38.520684734000156],[39.91172336300019,38.52100867800016],[39.91020669599999,38.52150575200005],[39.90678132000011,38.52140745500003],[39.904287350000175,38.52223010100039],[39.90232155700011,38.52256415700032],[39.89972116700011,38.52146112000008],[39.89969441300019,38.521305749000135],[39.90083311800015,38.520398260000434],[39.90202333300016,38.51908345700008],[39.904588386,38.51873171200003],[39.90629299,38.517834655000684],[39.906264198000144,38.51677957400034],[39.90598165500012,38.51611262400007],[39.906135977000076,38.515520464000076],[39.907246422000014,38.514554476000114],[39.907242702000076,38.513570271000276],[39.90714776100015,38.51319245500014],[39.907044201000076,38.51313143900006],[39.9048995230001,38.51321767600018],[39.90428056500002,38.51349624800014],[39.90353542500003,38.513566915000354],[39.90263906900009,38.51339001400004],[39.901901788000146,38.513446224000404],[39.902003625000134,38.51326460500002],[39.901926389000096,38.513249362000124],[39.901474431000054,38.51224631700018],[39.900657044000184,38.51124665100008],[39.89796266500008,38.51036353400025],[39.896824783000056,38.50951003500006],[39.89660664100012,38.50771752800034],[39.895122603999994,38.50540429800026],[39.895134539000026,38.505085371000064],[39.894372674000124,38.50478365400005],[39.89277797600016,38.50339150500025],[39.89091010900006,38.50341239300002],[39.890242207000085,38.503147888000115],[39.889001187000076,38.50343374100055],[39.88850452499997,38.50001335400043],[39.89083178800007,38.492992605000154],[39.888467455000125,38.489882046000105],[39.88848888700011,38.489612359000034],[39.88812829400001,38.48755508600027],[39.88239189900014,38.48671678700009],[39.881169880000186,38.486303759000066],[39.88027924100015,38.48565257100017],[39.87931578000007,38.485498308000444],[39.877607133000026,38.4857013350001],[39.87552458400012,38.485623907000445],[39.87447044400011,38.48503439000007],[39.87265998300012,38.48341544200059],[39.86930983400015,38.48249461800043],[39.869153986000015,38.482538560000194],[39.869176548000155,38.48241443200004],[39.86904931700019,38.48229005900015],[39.87409124200019,38.478928386000234],[39.87105153400017,38.47776135200013],[39.87158744900006,38.47738819500006],[39.87155835900012,38.477230453000345],[39.871771921000004,38.47726728600014],[39.87285125900013,38.47664952600019],[39.87295163900012,38.474238653999976],[39.87341635600012,38.472956461000024],[39.873809230999996,38.47252496600015],[39.87430275700018,38.47215909300013],[39.87532447400008,38.47164092800034],[39.87684372000018,38.470175450000056],[39.8781243520001,38.46966538000015],[39.87963882400015,38.46874871300008],[39.8805072240001,38.46750068699998],[39.88314906400018,38.46745762000006],[39.88414733700006,38.46787071000017],[39.8865637720001,38.469395282000164],[39.88727439000007,38.46955609100041],[39.89150606499999,38.47000365800005],[39.89292678400005,38.46982971900013],[39.894922045000044,38.46863606700032],[39.89562715300008,38.46783714600002],[39.89635000400011,38.46563358100008],[39.89697259200011,38.464742545000036],[39.898535976000176,38.46404984700064],[39.90228107700017,38.46424542400007],[39.90293474100008,38.46398437400046],[39.904125889000056,38.46283420400033],[39.90701972400012,38.46121054800028],[39.90893502500006,38.45809123700002],[39.91138356600004,38.45698426700045],[39.91237428800031,38.455515650000166],[39.91386483900027,38.455585844000325],[39.91677920600023,38.45810034100026],[39.92068156600021,38.463531712000304],[39.92237662800028,38.46695162300074],[39.928756507000344,38.474770554000315],[39.92773699600025,38.47614893400032],[39.92911543200029,38.480683760000204],[39.926475023000364,38.484239559000116],[39.927018046000285,38.48748863800063],[39.925624754000296,38.48976375100034],[39.926231820000226,38.49448387100006],[39.924141699000245,38.49991502700021],[39.92001892100035,38.5023080940004],[39.923653974000274,38.505947907000234],[39.923702656000216,38.50619870600008],[39.9267227860002,38.509398641000075],[39.92296125900026,38.51410086900012],[39.92341309300036,38.514377273000605],[39.92329928800024,38.51449329600052],[39.923853746000304,38.51503854100025],[39.92493934600026,38.51555824800022],[39.92523760100033,38.51724196100031]]],"type":"Polygon"}},{"type":"Feature","properties":{"area_id":"TR-23-002-140803","name_tr":"Sularbaşı","area_level":"neighbourhood","parent_id":"TR-23-002","endeksa_id":140803},"geometry":{"coordinates":[[[39.84704688195063,38.52160777927486],[39.84700513257155,38.521718634476485],[39.84687171987201,38.521756781874274],[39.84568238700018,38.52150085500011],[39.84607198400016,38.52200594400023],[39.82631281100015,38.51781411800016],[39.82414749200012,38.51475708400051],[39.81844309200011,38.51289812400017],[39.82124016900019,38.51101912800016],[39.81642109100005,38.51222997500008],[39.81071618100003,38.509019587000694],[39.812400319999995,38.507971490000216],[39.812531234000176,38.5055223280001],[39.81157665500018,38.506772595000086],[39.81023250600009,38.50656365800012],[39.80937946900008,38.50760817700012],[39.80887467000014,38.50789317800013],[39.808242397000186,38.50790127900018],[39.80809479600009,38.50814438900022],[39.80781478200004,38.50758846500008],[39.807187768000006,38.50708149500002],[39.80719490700017,38.506357803000185],[39.80638890800003,38.504757619000486],[39.800169700000026,38.505590703000166],[39.79989118499998,38.50064245200008],[39.799778365000066,38.50049310200018],[39.799872730000175,38.500314566000156],[39.79739170100015,38.496797175000154],[39.796985925000115,38.49644267500031],[39.79698474100002,38.496220221000044],[39.79456268900003,38.492786443000114],[39.79712675200017,38.49312070399998],[39.798104358000046,38.492703851000044],[39.798233463000145,38.49276243600036],[39.79848300500004,38.49328700700033],[39.80030329900018,38.489576231000115],[39.80377992200016,38.48828891700015],[39.8039359820001,38.48783475800013],[39.80467257600009,38.48736378800061],[39.80519875800013,38.48656485100014],[39.8076715040001,38.48656282600024],[39.808377678000056,38.486923876000446],[39.81048860400011,38.487106641000025],[39.81258300200005,38.486768937000136],[39.814874294000106,38.486715773000185],[39.81645076500007,38.486359487000016],[39.81869322400007,38.48667416900048],[39.820367224000165,38.48788760800011],[39.82277164600015,38.48868939300024],[39.824816667000164,38.48814434000053],[39.825168009000095,38.48789008600028],[39.82578085900019,38.48788735700032],[39.83400700400006,38.485694867999996],[39.83478674200006,38.483078843000044],[39.841682891000175,38.47797167500039],[39.84436097600019,38.47552265400003],[39.84502685000018,38.47458132899999],[39.846809415000166,38.474003756000116],[39.84713170000009,38.47375080600011],[39.84739539200007,38.47386599700013],[39.84755773100011,38.47370843900006],[39.84762450599999,38.47383907600067],[39.849777760000165,38.47484522300016],[39.85295569700014,38.474996795000095],[39.85504193100007,38.47570535400018],[39.85632062900004,38.47718198399997],[39.85713513800016,38.477514077000365],[39.857605223000064,38.47796349000015],[39.85940384100002,38.478108792000455],[39.859661465000045,38.4786290830001],[39.86406797900014,38.47751289700011],[39.86415283000014,38.47743140800003],[39.864634283999976,38.47773202700046],[39.86808933000003,38.47764701500017],[39.87012150000015,38.4771509040001],[39.87121927300012,38.477097619000006],[39.87155835900012,38.477230453000345],[39.87158744900006,38.47738819500006],[39.87105153400017,38.47776135200013],[39.87409124200019,38.478928386000234],[39.86904931700019,38.48229005900015],[39.869176548000155,38.48241443200004],[39.869153986000015,38.482538560000194],[39.86594137400016,38.48486121000013],[39.863922806999994,38.48590518300011],[39.86309169800006,38.486872883000046],[39.86167231600007,38.48996316300065],[39.86092138400011,38.49079815300013],[39.86043829400012,38.49206057900011],[39.85850812100017,38.493159563999995],[39.85627227200018,38.493335517000105],[39.85379079400002,38.49406104399998],[39.85374634100003,38.494146326000646],[39.853920713000036,38.495059826000556],[39.853671693000024,38.495573973000376],[39.851631544999975,38.497107893000134],[39.84961927200004,38.49932589300016],[39.84825075100002,38.50025209000029],[39.84555080200005,38.50082897400006],[39.84436674200009,38.50066611300019],[39.83943959300001,38.50180935000003],[39.838928072000044,38.50284392700024],[39.838751577000096,38.50359814900014],[39.838874514000054,38.50405134300013],[39.840166544000056,38.504710740000064],[39.840855248000025,38.505534797000166],[39.843102400000134,38.50645853300017],[39.8434694660001,38.50730310200015],[39.84359951100015,38.50804666300013],[39.84318742500017,38.50944815900027],[39.842971030000115,38.5168094280005],[39.843887515000176,38.518641543000115],[39.84515731300007,38.51936648400033],[39.845704511000065,38.520015286000046],[39.846817367000085,38.520687489000295],[39.84704688195063,38.52160777927486]]],"type":"Polygon"}},{"type":"Feature","properties":{"area_id":"TR-23-002-2011489","name_tr":"İncebayır Köyü","area_level":"neighbourhood","parent_id":"TR-23-002","endeksa_id":2011489},"geometry":{"coordinates":[[[39.80814905196712,38.515357728330684],[39.808184588000074,38.515996507000295],[39.80715000000009,38.51690000000053],[39.80706000000009,38.517230000000154],[39.80684000000019,38.51740000000018],[39.80637000000024,38.51745000000005],[39.80504000000013,38.51814000000013],[39.804850000000044,38.518410000000415],[39.80470000000008,38.518930000000125],[39.80473000000006,38.519150000000536],[39.804330000000164,38.51933000000014],[39.80384000000015,38.51979000000023],[39.80352000000016,38.52062000000012],[39.804020000000094,38.52103000000034],[39.803980000000195,38.52140000000054],[39.80378000000013,38.52159000000063],[39.8024200000001,38.521820000000105],[39.80189000000007,38.522220000000175],[39.80131000000006,38.52248000000037],[39.79982000000007,38.523800000000165],[39.79802000000018,38.524630000000116],[39.79154000000011,38.526710000000094],[39.78646000000009,38.52899000000042],[39.77946000000014,38.52961000000005],[39.77852067398425,38.529440921317416],[39.76501208900015,38.524889998000106],[39.75844688400008,38.52563677800026],[39.73859873200007,38.52033592099997],[39.73194950300012,38.52560239700017],[39.725819115000036,38.52558839400052],[39.724736034000045,38.525282089000314],[39.724007431000075,38.52445822000027],[39.720713248000095,38.52351771000008],[39.71751736200014,38.52122399800004],[39.71735344100017,38.52086868700019],[39.71765482600017,38.52002075400014],[39.717740253000045,38.51675782200016],[39.72218883100004,38.51258753900032],[39.722644872000046,38.5106652260007],[39.722529598999984,38.50824261899999],[39.72221926400016,38.5075765560004],[39.72223284700016,38.50689997800038],[39.72293022400004,38.50372741000007],[39.721884779000106,38.502296378000324],[39.72037087700011,38.500905685000134],[39.71925557600008,38.500513327000135],[39.72302619700008,38.49104803600062],[39.72277412700015,38.484312584000065],[39.72289323200016,38.48400572400004],[39.72509464100011,38.482738994000044],[39.7258405180001,38.4820303030001],[39.72763898200009,38.481314937000434],[39.728495213000144,38.480380713000045],[39.72841249300001,38.47904331000018],[39.72663925100005,38.47674707400023],[39.72646905100015,38.475818109000045],[39.72677920700005,38.474552369000094],[39.72658453400004,38.473980495000205],[39.725457078000034,38.473403796000184],[39.72571292200007,38.47249989200003],[39.72512799600014,38.47109162600054],[39.72524583600011,38.4703137450004],[39.72625163400005,38.467825199],[39.72529775400017,38.46614902300024],[39.725068582000006,38.464930132000006],[39.72498180100001,38.464828245000206],[39.72505247800012,38.46468488800019],[39.72545187100019,38.46412012000013],[39.726474793000136,38.46334768000054],[39.73165561900015,38.46230988900038],[39.73333640900012,38.46142482900018],[39.73566035800013,38.46069290700035],[39.73741047800013,38.460230117000606],[39.73887414500018,38.46012760500014],[39.74095323900008,38.46084117200013],[39.74142661899998,38.46065958500026],[39.74300585700013,38.459104215000025],[39.74477254599998,38.45879215500014],[39.747088373000054,38.458681350999996],[39.74887590600002,38.45916173200004],[39.75154081400012,38.45953731300011],[39.751867059000176,38.46015756100064],[39.75020382600013,38.462071738000304],[39.74994544300017,38.46253677300018],[39.749944489000086,38.4630773520002],[39.75020852799997,38.463482152000154],[39.75220285200015,38.4646590910001],[39.75269614300004,38.466246225000646],[39.755029105000176,38.46675215900041],[39.75625932200006,38.46767793100008],[39.758169956000074,38.46844804000011],[39.759251863000145,38.468393865000166],[39.759883617000185,38.468515046000164],[39.75950881000017,38.46868348400005],[39.7602724840001,38.46871712000018],[39.76214505800016,38.47037748499997],[39.76368776500016,38.47093384300018],[39.768742738000185,38.47010785600014],[39.77151974300017,38.46994334000021],[39.77246674200012,38.47007412300013],[39.776752079000005,38.47281036800047],[39.77971456800009,38.47376335800027],[39.783552083000075,38.475896443000124],[39.78406632600007,38.47706652200037],[39.784503922000056,38.47752824000003],[39.785016552,38.47764338700023],[39.786354644000085,38.47745424900006],[39.78832645800014,38.47855028300012],[39.78903297900007,38.47853425100004],[39.789002308000136,38.47938830700036],[39.78882511500012,38.48198286100012],[39.78945067100017,38.483651584000086],[39.78969909500012,38.48635702800044],[39.79024184700006,38.4871832390005],[39.79003185300013,38.48816879500015],[39.78844049200018,38.488941949000036],[39.78806799800009,38.48997655800025],[39.7876401530001,38.49047773500024],[39.78772812600005,38.490999142000305],[39.79044637000004,38.49245316600053],[39.792582040000184,38.492737775000364],[39.79297348300014,38.49339304100005],[39.794024481000065,38.493681035000066],[39.795194009,38.4936814740002],[39.79698474100002,38.496220221000044],[39.796985925000115,38.49644267500031],[39.79739170100015,38.496797175000154],[39.799872730000175,38.500314566000156],[39.799778365000066,38.50049310200018],[39.79989118499998,38.50064245200008],[39.800169700000026,38.505590703000166],[39.80638890800003,38.504757619000486],[39.80719490700017,38.506357803000185],[39.807187768000006,38.50708149500002],[39.80781478200004,38.50758846500008],[39.80809479600009,38.50814438900022],[39.808242397000186,38.50790127900018],[39.80887467000014,38.50789317800013],[39.80937946900008,38.50760817700012],[39.81023250600009,38.50656365800012],[39.81157665500018,38.506772595000086],[39.80793667199998,38.51154008800006],[39.80814905196712,38.515357728330684]]],"type":"Polygon"}},{"type":"Feature","properties":{"area_id":"TR-23-002-2011486","name_tr":"Esenlik Köyü","area_level":"neighbourhood","parent_id":"TR-23-002","endeksa_id":2011486},"geometry":{"coordinates":[[[39.96273261800036,38.527672095000526],[39.96251481100035,38.52754335200029],[39.9616275810003,38.527665196000044],[39.959712242000364,38.52829507000047],[39.95893828600026,38.528982993000454],[39.9582235340003,38.530217298000196],[39.95701394500031,38.531557904000294],[39.95583238800032,38.532264107000685],[39.95455863000029,38.532658978000256],[39.95124582900036,38.53255266400049],[39.949817094000196,38.53276432300015],[39.94624839900024,38.53271330400031],[39.94505913600034,38.53307432300022],[39.94051396800029,38.533125693000386],[39.938663498000324,38.5326326310003],[39.92997621100034,38.53188051300003],[39.92976036000033,38.53195205000071],[39.92892541100025,38.53190005500005],[39.92862278700028,38.53176040000034],[39.926814859000274,38.53159995000021],[39.92661513800033,38.525958551000144],[39.92640483600036,38.52540403100045],[39.92696458000029,38.52436120300035],[39.927265105000174,38.52412079300035],[39.92854573400035,38.52049986700075],[39.928174063000256,38.51989029600014],[39.92781635800026,38.51879339400051],[39.92523760100033,38.51724196100031],[39.92493934600026,38.51555824800022],[39.923853746000304,38.51503854100025],[39.92329928800024,38.51449329600052],[39.92341309300036,38.514377273000605],[39.92296125900026,38.51410086900012],[39.9267227860002,38.509398641000075],[39.923702656000216,38.50619870600008],[39.923653974000274,38.505947907000234],[39.92001892100035,38.5023080940004],[39.924141699000245,38.49991502700021],[39.926231820000226,38.49448387100006],[39.925624754000296,38.48976375100034],[39.927018046000285,38.48748863800063],[39.926475023000364,38.484239559000116],[39.92911543200029,38.480683760000204],[39.92773699600025,38.47614893400032],[39.928756507000344,38.474770554000315],[39.92237662800028,38.46695162300074],[39.92068156600021,38.463531712000304],[39.91677920600023,38.45810034100026],[39.91386483900027,38.455585844000325],[39.91237428800031,38.455515650000166],[39.912604160000285,38.45517489500048],[39.91381943200031,38.45458940000009],[39.91580535900022,38.45428102100027],[39.91612760500027,38.45299207000062],[39.91504455300014,38.45078421900064],[39.91514218200035,38.45013271900024],[39.91589854600022,38.44933275100027],[39.91642013400036,38.447290057000544],[39.9166865710003,38.444303461000345],[39.916544617000284,38.444203433999974],[39.91603755300025,38.444254480000325],[39.91687889900027,38.44372075400054],[39.91694174400021,38.44357880700028],[39.91706774400035,38.4436828810002],[39.92263305500029,38.443670303000715],[39.92409638400028,38.443291581000324],[39.92613888600016,38.44230752300058],[39.927178777000336,38.443507099000215],[39.92847461600036,38.44361736000036],[39.931341152000186,38.442559435000305],[39.931913193000355,38.442548304000695],[39.93224826900024,38.44291363400055],[39.93230357400029,38.44335706900023],[39.93215274500028,38.445622325000045],[39.93244750300033,38.44632322400025],[39.9329406180002,38.4466703340002],[39.933682601000214,38.44673250900024],[39.93452614000029,38.44648184100032],[39.93586563200029,38.44573953400027],[39.93688726900035,38.44611253800019],[39.93914867400031,38.44595993200022],[39.93974819100026,38.446160268000256],[39.94151029500023,38.44572452100033],[39.94335628600032,38.44577938700007],[39.94434225300023,38.446139817000585],[39.94451859500026,38.44684110600008],[39.944061177000265,38.447803725000256],[39.944051641000215,38.448721947000536],[39.944549854000286,38.448970423000844],[39.947277425000266,38.44876675600028],[39.94982490400031,38.44897275500068],[39.95180621100036,38.44886346000061],[39.95235012400036,38.44850899500068],[39.95313756200028,38.44725289000024],[39.95608667400023,38.44445158299999],[39.9576085190003,38.444186663000096],[39.9598714090003,38.44346367500032],[39.96214160500023,38.443356898000275],[39.963417258000334,38.443567715000256],[39.9652080960002,38.44398156700021],[39.96662661300019,38.44473694300035],[39.96759004600028,38.4448404100001],[39.96917561500027,38.444564086000355],[39.97294919800032,38.44296361100015],[39.97411157800036,38.44265748500027],[39.97561077300031,38.44265654500015],[39.97909565900022,38.44453507300068],[39.98036231100036,38.444731530000354],[39.980480715000226,38.44466632800044],[39.980444776000354,38.44455751200036],[39.97501520500026,38.44081792300028],[39.97839293800024,38.43864016300023],[39.9872531770003,38.44690178200034],[39.987006811000356,38.45130347800017],[39.99340909600028,38.45591695800033],[39.995832198000244,38.460459351000225],[39.9881233170002,38.45959614400027],[39.98351146200025,38.46001726700075],[39.97879278900035,38.458551353000246],[39.972542029000294,38.45785142100044],[39.972238834000336,38.45803327900023],[39.972473782000236,38.45957367600073],[39.972315007000304,38.46042548300028],[39.972191514000315,38.46046448600072],[39.970913895000365,38.460243197000295],[39.969855463000215,38.462490621000256],[39.96982489300035,38.463182554000184],[39.97018585400025,38.464856601000236],[39.97090794200034,38.46640724400055],[39.97123879400033,38.46685951500058],[39.97194643100022,38.46744310300039],[39.972513947000266,38.46845486300077],[39.97343072500024,38.46907180500034],[39.97401229200034,38.47011824800029],[39.975702788000206,38.47131421800066],[39.97647472500023,38.47262035600022],[39.97417180000036,38.47391735400021],[39.972994921000236,38.475018438000234],[39.9727869200002,38.475944078000396],[39.97298425800034,38.47678828800025],[39.974159849000216,38.47827608800026],[39.97529947300035,38.49200292400042],[39.96720259500029,38.50421022900031],[39.97456677600036,38.508982060000335],[39.974601439862,38.50925382875863],[39.9744840540003,38.509298758000284],[39.97292396221599,38.51137021201288],[39.972622578011794,38.512829005411106],[39.97119305388463,38.513787758892704],[39.96843291800036,38.51519187900033],[39.96783775900025,38.51631701000025],[39.96762818800022,38.51721142500031],[39.96789495700034,38.51775912900047],[39.96789687300031,38.51835383100047],[39.967590777000225,38.518919923000055],[39.967732398000294,38.51992921400034],[39.96866985600025,38.52095102200036],[39.96943456700035,38.52218061700023],[39.96929609000017,38.522942409000166],[39.96894879000024,38.52351770800027],[39.96690707900035,38.52425988300064],[39.966214809000235,38.52522074000029],[39.96601928700022,38.52603404600029],[39.96555104300023,38.52666380100027],[39.9645395830002,38.52727123200049],[39.96278595300021,38.52750646000027],[39.96269873300031,38.527578025000025],[39.96273261800036,38.527672095000526]]],"type":"Polygon"}},{"type":"Feature","properties":{"area_id":"TR-23-002-2011483","name_tr":"Çakmakkaya Köyü","area_level":"neighbourhood","parent_id":"TR-23-002","endeksa_id":2011483},"geometry":{"coordinates":[[[39.89969441300019,38.521305749000135],[39.89954564500016,38.52140367100003],[39.898123883000096,38.5216108340004],[39.89530869600014,38.52146250000038],[39.894178108000006,38.52192127100005],[39.89318140900008,38.52262267500004],[39.89181052700013,38.522994370000106],[39.89138457600018,38.52360667199997],[39.89109259300005,38.52535871900011],[39.88972183600009,38.52605172600016],[39.88754727800011,38.52655080000039],[39.88707926000012,38.526903549],[39.88679060300012,38.52905490100005],[39.8843000490001,38.532312423000064],[39.883478170000046,38.53310728500014],[39.8833562260001,38.53515034400016],[39.88227667400008,38.535731840000096],[39.88075644900016,38.538237947000255],[39.87988182000004,38.53909270300028],[39.87913247400019,38.53939259200013],[39.87724307000019,38.53990842799999],[39.87378813200013,38.54133708300003],[39.873544200000026,38.54132715400033],[39.87341480400016,38.54151206500012],[39.873414786000126,38.53884375200005],[39.87278502800007,38.53794532100005],[39.87048405200011,38.53699726799999],[39.86911970600005,38.53568947000019],[39.86905497800018,38.533445183000026],[39.86741890600018,38.53276627400004],[39.86558751000018,38.53254795700019],[39.86395309800014,38.53174888899997],[39.86220151500004,38.5314342370001],[39.859176668000146,38.52993223000004],[39.855948254000054,38.52987092500007],[39.850061888000084,38.52841827500009],[39.850007500000174,38.528296395000496],[39.85099573200006,38.52665652100035],[39.8510821480001,38.52569031000007],[39.84847945200005,38.52391914200007],[39.84816830800008,38.522896183000114],[39.847079967000184,38.52174044100019],[39.846817367000085,38.520687489000295],[39.845704511000065,38.520015286000046],[39.84515731300007,38.51936648400033],[39.843887515000176,38.518641543000115],[39.842971030000115,38.5168094280005],[39.84318742500017,38.50944815900027],[39.84359951100015,38.50804666300013],[39.8434694660001,38.50730310200015],[39.843102400000134,38.50645853300017],[39.840855248000025,38.505534797000166],[39.840166544000056,38.504710740000064],[39.838874514000054,38.50405134300013],[39.838751577000096,38.50359814900014],[39.838928072000044,38.50284392700024],[39.83943959300001,38.50180935000003],[39.84436674200009,38.50066611300019],[39.84555080200005,38.50082897400006],[39.84825075100002,38.50025209000029],[39.84961927200004,38.49932589300016],[39.851631544999975,38.497107893000134],[39.853671693000024,38.495573973000376],[39.853920713000036,38.495059826000556],[39.85374634100003,38.494146326000646],[39.85379079400002,38.49406104399998],[39.85627227200018,38.493335517000105],[39.85850812100017,38.493159563999995],[39.86043829400012,38.49206057900011],[39.86092138400011,38.49079815300013],[39.86167231600007,38.48996316300065],[39.86309169800006,38.486872883000046],[39.863922806999994,38.48590518300011],[39.86594137400016,38.48486121000013],[39.869153986000015,38.482538560000194],[39.86930983400015,38.48249461800043],[39.87265998300012,38.48341544200059],[39.87447044400011,38.48503439000007],[39.87552458400012,38.485623907000445],[39.877607133000026,38.4857013350001],[39.87931578000007,38.485498308000444],[39.88027924100015,38.48565257100017],[39.881169880000186,38.486303759000066],[39.88239189900014,38.48671678700009],[39.88812829400001,38.48755508600027],[39.88848888700011,38.489612359000034],[39.888467455000125,38.489882046000105],[39.89083178800007,38.492992605000154],[39.88850452499997,38.50001335400043],[39.889001187000076,38.50343374100055],[39.890242207000085,38.503147888000115],[39.89091010900006,38.50341239300002],[39.89277797600016,38.50339150500025],[39.894372674000124,38.50478365400005],[39.895134539000026,38.505085371000064],[39.895122603999994,38.50540429800026],[39.89660664100012,38.50771752800034],[39.896824783000056,38.50951003500006],[39.89796266500008,38.51036353400025],[39.900657044000184,38.51124665100008],[39.901474431000054,38.51224631700018],[39.901926389000096,38.513249362000124],[39.902003625000134,38.51326460500002],[39.901901788000146,38.513446224000404],[39.90263906900009,38.51339001400004],[39.90353542500003,38.513566915000354],[39.90428056500002,38.51349624800014],[39.9048995230001,38.51321767600018],[39.907044201000076,38.51313143900006],[39.90714776100015,38.51319245500014],[39.907242702000076,38.513570271000276],[39.907246422000014,38.514554476000114],[39.906135977000076,38.515520464000076],[39.90598165500012,38.51611262400007],[39.906264198000144,38.51677957400034],[39.90629299,38.517834655000684],[39.904588386,38.51873171200003],[39.90202333300016,38.51908345700008],[39.90083311800015,38.520398260000434],[39.89969441300019,38.521305749000135]]],"type":"Polygon"}},{"type":"Feature","properties":{"area_id":"TR-23-002-2011488","name_tr":"Halkalı Köyü","area_level":"neighbourhood","parent_id":"TR-23-002","endeksa_id":2011488},"geometry":{"coordinates":[[[39.892919372000165,38.56289269900009],[39.89267897700006,38.56302268700017],[39.89214763500013,38.56362804000008],[39.88478398500018,38.559275635999995],[39.87581690700006,38.55655227000011],[39.86928187800015,38.55659556800015],[39.868973875000165,38.556042048000506],[39.86881865100008,38.555315741000186],[39.8696591100001,38.54883567400003],[39.86856690900004,38.54715278500015],[39.86925953800005,38.54500434500005],[39.87046878400014,38.54326879800004],[39.87341480400016,38.54151206500012],[39.873544200000026,38.54132715400033],[39.87378813200013,38.54133708300003],[39.87724307000019,38.53990842799999],[39.87913247400019,38.53939259200013],[39.87988182000004,38.53909270300028],[39.88075644900016,38.538237947000255],[39.88227667400008,38.535731840000096],[39.8833562260001,38.53515034400016],[39.883478170000046,38.53310728500014],[39.8843000490001,38.532312423000064],[39.88679060300012,38.52905490100005],[39.88707926000012,38.526903549],[39.88754727800011,38.52655080000039],[39.88972183600009,38.52605172600016],[39.89109259300005,38.52535871900011],[39.89138457600018,38.52360667199997],[39.89181052700013,38.522994370000106],[39.89318140900008,38.52262267500004],[39.894178108000006,38.52192127100005],[39.89530869600014,38.52146250000038],[39.898123883000096,38.5216108340004],[39.89954564500016,38.52140367100003],[39.89969441300019,38.521305749000135],[39.89972116700011,38.52146112000008],[39.90232155700011,38.52256415700032],[39.904287350000175,38.52223010100039],[39.90678132000011,38.52140745500003],[39.91020669599999,38.52150575200005],[39.91172336300019,38.52100867800016],[39.912135978000094,38.520684734000156],[39.91398556200005,38.52030303400005],[39.91421289900012,38.51972060800017],[39.91486055900003,38.51899598000023],[39.915862636999975,38.5187482190006],[39.92040857500007,38.51821968200011],[39.920895534000124,38.517084282000326],[39.92288152300006,38.51666588100011],[39.923713914000075,38.51687713400008],[39.92412008800011,38.517478526000104],[39.92467680100009,38.51752322100032],[39.92518266400009,38.51733756100009],[39.92523760100033,38.51724196100031],[39.92781635800026,38.51879339400051],[39.928174063000256,38.51989029600014],[39.92854573400035,38.52049986700075],[39.927265105000174,38.52412079300035],[39.92696458000029,38.52436120300035],[39.92640483600036,38.52540403100045],[39.92661513800033,38.525958551000144],[39.926814859000274,38.53159995000021],[39.92862278700028,38.53176040000034],[39.92892541100025,38.53190005500005],[39.92976036000033,38.53195205000071],[39.92997621100034,38.53188051300003],[39.938663498000324,38.5326326310003],[39.94051396800029,38.533125693000386],[39.94505913600034,38.53307432300022],[39.94624839900024,38.53271330400031],[39.949817094000196,38.53276432300015],[39.95124582900036,38.53255266400049],[39.95455863000029,38.532658978000256],[39.95583238800032,38.532264107000685],[39.95701394500031,38.531557904000294],[39.9582235340003,38.530217298000196],[39.95893828600026,38.528982993000454],[39.959712242000364,38.52829507000047],[39.9616275810003,38.527665196000044],[39.96251481100035,38.52754335200029],[39.96273261800036,38.527672095000526],[39.965500512000006,38.529816805000166],[39.96741904100003,38.53042564900028],[39.96749202400014,38.53051549300011],[39.967320209000036,38.531041030000154],[39.96696195900006,38.531523930000105],[39.966401982000036,38.53175447199999],[39.96576514600008,38.53273031500004],[39.96376752700007,38.53802722100005],[39.96293905900012,38.53933310700063],[39.96020441200005,38.54049556800027],[39.95900137200016,38.542107945],[39.95763393300007,38.542895073000295],[39.95337531500019,38.54379142500056],[39.95051864400017,38.545434521999994],[39.947173824000174,38.54935142500017],[39.93508094900011,38.55552348400005],[39.93041291000014,38.5557925760001],[39.92648664300009,38.55537978300015],[39.92561766600005,38.55520451700022],[39.92020003400012,38.55320269100014],[39.91744484800006,38.55259985400045],[39.91663835200012,38.55259943000004],[39.91265233900015,38.553039452000405],[39.91183930400007,38.55330287400017],[39.90762417000019,38.555688744000406],[39.902095769000084,38.55753363800011],[39.89927807800012,38.55919559100022],[39.89758081400004,38.561207831000445],[39.89364926000013,38.562501021000685],[39.892919372000165,38.56289269900009]]],"type":"Polygon"}},{"type":"Feature","properties":{"area_id":"TR-23-002-2011492","name_tr":"Yalnızdamlar Köyü","area_level":"neighbourhood","parent_id":"TR-23-002","endeksa_id":2011492},"geometry":{"coordinates":[[[39.97964825600019,38.587927481000065],[39.981766213000185,38.58976027400024],[39.98181171900006,38.58990449600009],[39.98105343300017,38.590680102000135],[39.98102763100019,38.591177560999995],[39.98248169800013,38.592317527000034],[39.98307614200013,38.59454918400053],[39.98318808400012,38.59572568700008],[39.983885390000125,38.59728313699998],[39.98403576200013,38.59934348600001],[39.98381777100013,38.5997476980001],[39.983716663999985,38.599797009000326],[39.980279752,38.599441748000686],[39.97907196700004,38.59959263600001],[39.97775268900011,38.60018016100008],[39.976416370000095,38.601202233000095],[39.97640205800019,38.60225608400049],[39.97738560900012,38.60289923600004],[39.977411907000146,38.60299228100001],[39.97732683900006,38.60305951300012],[39.97245658400004,38.60419657400064],[39.97181212200019,38.604188161000025],[39.97075338500008,38.60357211300004],[39.9695557070001,38.603212147000136],[39.96804191700005,38.60311756900012],[39.96760178799997,38.60344839300046],[39.96595134500012,38.60594677100005],[39.961962043000085,38.609028029000115],[39.96182769800009,38.60904973200002],[39.960198404000096,38.607862063000255],[39.95950103700005,38.60585859600013],[39.95750035800012,38.605469367000524],[39.955676369000116,38.604792997000516],[39.954612114999975,38.60437651600006],[39.95374338500005,38.60364224100016],[39.95352080600003,38.60308251400011],[39.95398798100007,38.602161567000394],[39.95403962600017,38.601444322000134],[39.95317655200017,38.59989981000007],[39.950106283000025,38.59835942300003],[39.94889247500015,38.59666285200012],[39.94656199700006,38.595022411000514],[39.94274159400004,38.59348858300007],[39.940262960000155,38.59293199400048],[39.93837244500014,38.59283790100005],[39.934649271000126,38.5934850910005],[39.93330156800005,38.59399763800019],[39.93219608900017,38.59529092500003],[39.931739951000054,38.59561989800011],[39.93040233900007,38.59593072299998],[39.929133400000126,38.597097513999984],[39.92837649500012,38.59730467300017],[39.92737451100004,38.597255169000334],[39.925844441000095,38.59691421500037],[39.92297562500005,38.595450574000324],[39.920831214000145,38.59526591700023],[39.92002258700012,38.594713150000416],[39.91892825100018,38.593384687000366],[39.915442985000084,38.59173310900013],[39.911047478000114,38.59078916800013],[39.90973483900012,38.589613328000155],[39.908361418000084,38.58710865700016],[39.90805382900015,38.58584114700005],[39.90800224700013,38.58416324000024],[39.90840115399999,38.58139257500005],[39.90823181800005,38.58128074900003],[39.90836757500017,38.58115669799997],[39.9062991990001,38.575073648000625],[39.90502607500008,38.57442972900037],[39.90368435700009,38.57255952800011],[39.90149505000005,38.56744659200052],[39.899943606000136,38.565695261000656],[39.89744345300011,38.563858295000045],[39.89295744300017,38.56306997100069],[39.89286647900013,38.56299161800018],[39.892919372000165,38.56289269900009],[39.89364926000013,38.562501021000685],[39.89758081400004,38.561207831000445],[39.89927807800012,38.55919559100022],[39.902095769000084,38.55753363800011],[39.90762417000019,38.555688744000406],[39.91183930400007,38.55330287400017],[39.91265233900015,38.553039452000405],[39.91663835200012,38.55259943000004],[39.91744484800006,38.55259985400045],[39.92020003400012,38.55320269100014],[39.92561766600005,38.55520451700022],[39.92648664300009,38.55537978300015],[39.93041291000014,38.5557925760001],[39.93508094900011,38.55552348400005],[39.947173824000174,38.54935142500017],[39.95051864400017,38.545434521999994],[39.95337531500019,38.54379142500056],[39.95763393300007,38.542895073000295],[39.95900137200016,38.542107945],[39.96020441200005,38.54049556800027],[39.96293905900012,38.53933310700063],[39.96376752700007,38.53802722100005],[39.96576514600008,38.53273031500004],[39.966401982000036,38.53175447199999],[39.96696195900006,38.531523930000105],[39.967320209000036,38.531041030000154],[39.96749202400014,38.53051549300011],[39.96741904100003,38.53042564900028],[39.965500512000006,38.529816805000166],[39.96273261800036,38.527672095000526],[39.96269873300031,38.527578025000025],[39.96278595300021,38.52750646000027],[39.9645395830002,38.52727123200049],[39.96555104300023,38.52666380100027],[39.96601928700022,38.52603404600029],[39.966214809000235,38.52522074000029],[39.96690707900035,38.52425988300064],[39.96894879000024,38.52351770800027],[39.96929609000017,38.522942409000166],[39.96943456700035,38.52218061700023],[39.96866985600025,38.52095102200036],[39.967732398000294,38.51992921400034],[39.967590777000225,38.518919923000055],[39.96789687300031,38.51835383100047],[39.96789495700034,38.51775912900047],[39.96762818800022,38.51721142500031],[39.96783775900025,38.51631701000025],[39.96843291800036,38.51519187900033],[39.97119305388463,38.513787758892704],[39.972622578011794,38.512829005411106],[39.97292396221599,38.51137021201288],[39.9744840540003,38.509298758000284],[39.97460493500023,38.50925249100027],[39.975589330000275,38.509442334000255],[39.9766118670002,38.51006952400007],[39.978223470000216,38.51209970400072],[39.980184713000256,38.512517667000395],[39.9808297430003,38.51235094700081],[39.981917154000314,38.51158372100025],[39.98269966900034,38.511626191000175],[39.98306848900029,38.512759655000195],[39.98659042100036,38.51374336500038],[39.99177906700032,38.51587141300024],[39.99416193900032,38.517494003000024],[39.9949826480003,38.51862493500016],[39.99516202100028,38.51866079800055],[39.995150651000074,38.51896117300009],[39.99503913000018,38.519037595000384],[39.99435035300007,38.52158295500067],[39.991723041000114,38.52334720800036],[39.991075414000136,38.52466619500069],[39.99068126300011,38.52496332300041],[39.990732912,38.52641183700035],[39.99088400800008,38.52731732800004],[39.99135442100004,38.529036413000085],[39.991868086000125,38.529542764000325],[39.994346983000185,38.530618245000085],[39.99467821300004,38.53104781800033],[39.99508511300013,38.53231286000005],[39.99462523300008,38.533389684000156],[39.994640198000184,38.53540544600014],[39.99641716900004,38.536744790000114],[39.997366567000086,38.54173623600025],[39.998354610000035,38.542301052000084],[39.999118087000056,38.54375291000031],[39.99901604100012,38.5454944010001],[39.99934923500018,38.54632044900006],[39.99928920300016,38.546827640000515],[39.99860728800013,38.548852212000156],[39.997516045,38.54995583900012],[39.99319174300018,38.55100364700013],[39.990318968000054,38.550392921000366],[39.988964975000044,38.55066848100006],[39.98865449000016,38.551286448000155],[39.98844259200007,38.55310126900014],[39.98597415600011,38.55334933100005],[39.98500405500005,38.55371099400037],[39.98279640000004,38.554770691000385],[39.981975242000146,38.555637153000134],[39.980972423000026,38.55625673400033],[39.978738944999975,38.5566533060001],[39.97563024699997,38.55676130100005],[39.96560523700009,38.56019838100008],[39.96482870100016,38.560259335000126],[39.96375343700015,38.559975613999995],[39.96016223500004,38.559979361000046],[39.95880130800015,38.560859877999974],[39.95801896300014,38.56172204200027],[39.957936572000165,38.56256935700014],[39.9592186270001,38.56324843499999],[39.95949287600018,38.56383739400013],[39.959503052000116,38.56598138600026],[39.96026914200007,38.56646679400012],[39.96356559900005,38.56724011800031],[39.96454749100013,38.56983307300004],[39.96738601700014,38.57127331800007],[39.96759379700012,38.573220228000025],[39.96786708300016,38.573633107000035],[39.96911888300019,38.57428986800011],[39.96947290800006,38.57468091200013],[39.96992323600006,38.576114714000255],[39.971585035000146,38.576772361000224],[39.972631106999984,38.57770908700013],[39.97283579100008,38.578210275000174],[39.97278796500018,38.58030622900009],[39.97342610100003,38.58116208100034],[39.97379914600009,38.582179967],[39.973771338999995,38.583145301000116],[39.972966335000194,38.5847660930001],[39.97299714000019,38.585435684000174],[39.97363512000004,38.58634809000017],[39.97471442300008,38.58669706000012],[39.97681199800019,38.58669917899999],[39.97859615900006,38.587017039000045],[39.97964825600019,38.587927481000065]]],"type":"Polygon"}}]}