{"type":"FeatureCollection","source_id":"endeksa","retrieved_at":"2026-08-23","features":[{"type":"Feature","properties":{"area_id":"TR-26-008-191187","name_tr":"Demirciler","area_level":"neighbourhood","parent_id":"TR-26-008","endeksa_id":191187},"geometry":{"coordinates":[[[30.55811999512457,40.015870030414874],[30.557910000000163,40.01718000000034],[30.557500000000175,40.01714000000004],[30.55572000000018,40.01749000000041],[30.55563000000018,40.01801000000006],[30.55482000000012,40.019790000000285],[30.555000000000064,40.01996000000014],[30.554340000000195,40.020040000000336],[30.554090000000087,40.02015000000023],[30.55429000000015,40.0202400000004],[30.55445000000003,40.020440000000065],[30.553690000000074,40.02104000000065],[30.553170000000193,40.021000000000186],[30.553100000000086,40.02129000000019],[30.55355000000003,40.02203000000014],[30.553300000000092,40.022110000000396],[30.551990000000103,40.02213000000006],[30.551990000000103,40.02259000000032],[30.551420000000178,40.022730000000365],[30.55153000000024,40.022860000000605],[30.55160000000012,40.02329000000066],[30.55197000000004,40.02381000000037],[30.551448634123176,40.02399557090547],[30.550689898000144,40.02237337700058],[30.550285172000088,40.02206195400015],[30.548843757999975,40.021427521000476],[30.54614253300008,40.02083603300002],[30.54411357700002,40.02093924800016],[30.540921589000106,40.02164372900006],[30.53632728100007,40.01823046000004],[30.532547567565587,40.01737527444868],[30.531760000000133,40.016880000000356],[30.530220000000043,40.01652000000041],[30.529880000000162,40.016540000000646],[30.529030000000205,40.01682000000039],[30.528980000000104,40.016910000000166],[30.528730000000053,40.016480000000115],[30.528350000000046,40.01667000000003],[30.527580000000114,40.01588000000004],[30.5268200000001,40.014870000000315],[30.525560000000155,40.01392000000004],[30.525230000000192,40.01324000000045],[30.523830000000146,40.01308000000017],[30.522400000000175,40.01253000000014],[30.522010000000193,40.012660000000096],[30.521020000000192,40.01252000000056],[30.520800000000122,40.011890000000335],[30.520850000000166,40.01179000000019],[30.52006000000017,40.010650000000055],[30.519860000000108,40.010040000000174],[30.519550000000038,40.01015000000007],[30.51901000000015,40.00902000000019],[30.51910000000015,40.00881000000004],[30.519560000000183,40.008760000000166],[30.519800000000146,40.008980000000406],[30.52016000000009,40.00884000000019],[30.51985000000019,40.00818000000032],[30.51982000000004,40.007190000000094],[30.519580000000076,40.007030000000384],[30.520000000000152,40.006440000000566],[30.522970000000043,39.995790000000454],[30.523330000000158,39.99181000000016],[30.520430000000033,39.987920000000145],[30.516540000000077,39.985690000000375],[30.529690000000073,39.985060000000146],[30.540010000000052,39.98418000000049],[30.54460000000006,39.98286000000019],[30.55358000000018,39.98242000000039],[30.560250000000167,39.98499000000004],[30.56043000000011,39.98258000000027],[30.55916258928562,39.98100934377794],[30.560436097000036,39.96996496500037],[30.560656126000026,39.96987938400031],[30.560747781000032,39.96999115800014],[30.56179750400014,39.970086027000264],[30.56190084900004,39.97017669200039],[30.561146302000054,39.98194417700017],[30.562629316000027,39.9904903690001],[30.556172656000115,40.007853826000485],[30.558316875000173,40.010671194],[30.558006444107775,40.015745566982105],[30.55811999512457,40.015870030414874]]],"type":"Polygon"}},{"type":"Feature","properties":{"area_id":"TR-26-008-191191","name_tr":"Sakarıılıca","area_level":"neighbourhood","parent_id":"TR-26-008","endeksa_id":191191},"geometry":{"coordinates":[[[30.57261391980012,40.02369878458302],[30.57176000000021,40.02477000000022],[30.57114000000007,40.02538000000021],[30.57019000000014,40.0257500000003],[30.569520000000125,40.02573000000007],[30.568680000000086,40.02537000000012],[30.56647000000021,40.025770000000136],[30.565150000000244,40.02617000000021],[30.561840000000075,40.0269600000002],[30.559940000000097,40.02702000000022],[30.558270000000107,40.0269600000002],[30.556780000000117,40.02708000000018],[30.55525000000017,40.02706000000012],[30.554490000000158,40.02677000000011],[30.55365000000012,40.02622000000008],[30.552450000000135,40.02588000000037],[30.551820000000248,40.02552000000043],[30.55147000000005,40.02470000000011],[30.55138000000005,40.02402000000012],[30.55197000000004,40.02381000000037],[30.55160000000012,40.02329000000066],[30.55153000000024,40.022860000000605],[30.551420000000178,40.022730000000365],[30.551990000000103,40.02259000000032],[30.551990000000103,40.02213000000006],[30.553300000000092,40.022110000000396],[30.55355000000003,40.02203000000014],[30.553100000000086,40.02129000000019],[30.553170000000193,40.021000000000186],[30.553690000000074,40.02104000000065],[30.55445000000003,40.020440000000065],[30.55429000000015,40.0202400000004],[30.554090000000087,40.02015000000023],[30.554340000000195,40.020040000000336],[30.555000000000064,40.01996000000014],[30.55482000000012,40.019790000000285],[30.55563000000018,40.01801000000006],[30.55572000000018,40.01749000000041],[30.557500000000175,40.01714000000004],[30.557910000000163,40.01718000000034],[30.55811999512457,40.015870030414874],[30.56021000000004,40.016480000000115],[30.56070000000011,40.016850000000034],[30.56061000000011,40.01749000000041],[30.5609300000001,40.017410000000154],[30.561040000000162,40.01800000000014],[30.560790000000054,40.01808000000017],[30.560590000000047,40.01857000000024],[30.56080000000003,40.018680000000074],[30.560680000000048,40.01873000000012],[30.56101000000018,40.01879000000065],[30.561190000000124,40.01860000000056],[30.5621900000001,40.01882000000029],[30.562020000000075,40.01924000000025],[30.56253000000015,40.019520000000114],[30.563230000000146,40.0194900000003],[30.56386000000009,40.0192200000007],[30.564840000000174,40.01969000000014],[30.566690000000108,40.01934000000017],[30.566880000000197,40.01884000000052],[30.567090000000178,40.01887000000016],[30.567600000000084,40.018590000000074],[30.567290000000185,40.01780000000031],[30.566420000000164,40.01721000000066],[30.566370000000063,40.016880000000356],[30.566230000000246,40.01677000000012],[30.566430000000082,40.0162900000002],[30.566580000000044,40.01621000000034],[30.56582000000003,40.01608000000027],[30.56587000000013,40.01584000000031],[30.566370000000063,40.01542000000035],[30.566390000000126,40.01525000000049],[30.56619000000012,40.01500000000004],[30.566300000000183,40.01500000000004],[30.566350000000227,40.014120000000105],[30.566290000000038,40.01355000000052],[30.564780000000155,40.01181000000008],[30.56545000000017,40.01196000000027],[30.56557000000015,40.01172000000031],[30.56690000000026,40.01165000000037],[30.568160000000034,40.01173000000006],[30.56789000000009,40.01193000000006],[30.568130000000053,40.01209000000051],[30.56854000000004,40.01203000000015],[30.56886000000003,40.01167000000004],[30.56892000000005,40.01176000000021],[30.569020000000137,40.01167000000004],[30.568590000000086,40.01130000000052],[30.568180000000098,40.01135000000039],[30.568040000000053,40.01040000000012],[30.568160000000034,40.01042000000018],[30.568260000000123,40.01018000000022],[30.567720000000065,40.009910000000104],[30.567130000000077,40.009390000000224],[30.567140000000222,40.00931000000071],[30.568120000000135,40.00934000000035],[30.568260000000123,40.00956000000008],[30.568690000000174,40.00971000000027],[30.56891000000013,40.00971000000027],[30.56925000000018,40.00943000000018],[30.5692600000001,40.00918000000007],[30.56895000000003,40.008890000000065],[30.568810000000155,40.00899000000038],[30.567920000000072,40.00851000000006],[30.56932000000012,40.00769000000025],[30.570700000000045,40.00630000000035],[30.570820000000197,40.005910000000085],[30.57074000000017,40.0050100000002],[30.571620000000166,40.00479000000047],[30.572520000000168,40.00401000000005],[30.572620000000143,40.003620000000296],[30.572440000000142,40.00342000000012],[30.57295000000005,40.0028300000003],[30.573520000000144,40.00249000000008],[30.573730000000126,40.00171000000017],[30.575120000000027,40.00066000000038],[30.577720000000227,39.99914000000052],[30.57799000000017,39.998760000000345],[30.57833000000005,39.998510000000294],[30.57865000000004,39.99847000000051],[30.57960000000014,39.99722000000014],[30.579990000000066,39.997430000000065],[30.580240000000174,39.99725000000046],[30.579800000000205,39.9970100000005],[30.580360000000155,39.99603000000042],[30.581000000000188,39.99530000000027],[30.581070000000125,39.99534000000017],[30.581440000000157,39.99480000000028],[30.57561000000004,39.992040000000145],[30.573550000000125,39.99005000000017],[30.57276000000013,39.988660000000266],[30.572830000000067,39.98737000000011],[30.57137000000006,39.98382000000055],[30.5705200000001,39.983490000000245],[30.57108000000005,39.98201000000017],[30.56991000000005,39.981010000000026],[30.569270000000245,39.98093000000017],[30.567870000000028,39.98010000000005],[30.571590000000185,39.9789600000006],[30.572120000000155,39.97838000000024],[30.573310000000163,39.97789000000017],[30.57378000000017,39.978040000000135],[30.5744600000001,39.977690000000166],[30.575120000000027,39.97734000000014],[30.576490000000035,39.976080000000366],[30.57685000000015,39.97606000000013],[30.57913000000019,39.97418000000016],[30.578050000000133,39.97174000000007],[30.57830000000007,39.96984000000009],[30.577570000000037,39.96905000000061],[30.579090000000065,39.968520000000126],[30.57969000000014,39.96792000000022],[30.579750000000104,39.9666500000003],[30.57865000000004,39.96578000000005],[30.58633000000009,39.954190000000324],[30.58602000000019,39.953650000000266],[30.58629000000019,39.953380000000095],[30.586130000000082,39.95302000000015],[30.584570000000156,39.95238000000012],[30.58282000000014,39.94987000000032],[30.582250000000045,39.94943000000012],[30.581640000000164,39.94540000000063],[30.58085000000017,39.94453000000004],[30.579630000000122,39.94385000000028],[30.572890000000086,39.939030000000116],[30.56903000000011,39.93664000000058],[30.5703400000001,39.93657000000047],[30.572790000000168,39.93621000000053],[30.575950000000148,39.93608000000029],[30.579750000000104,39.93574000000018],[30.581810000000246,39.93549000000064],[30.58540000000005,39.93474000000026],[30.589710000000196,39.935570000000155],[30.590080000000057,39.93572000000012],[30.592810000000156,39.93627000000038],[30.59524000000016,39.93661000000026],[30.60516000000007,39.93753000000032],[30.61848000000009,39.93961000000047],[30.624220000000037,39.943590000000086],[30.625770000000045,39.94485000000009],[30.63136194399999,39.94637269855684],[30.631970000000194,39.94653000000034],[30.631590000000188,39.958280000000514],[30.630290000000116,39.959980000000485],[30.61938000000015,39.978290000000584],[30.60665000000006,39.99347000000034],[30.595640000000174,40.003590000000145],[30.590860000000134,40.0075200000004],[30.58917000000008,40.00993000000017],[30.58633000000009,40.01481000000035],[30.58400000000006,40.01969000000014],[30.583550000000116,40.021930000000395],[30.58279630922368,40.022565642823736],[30.581410000000176,40.02275000000003],[30.579870000000085,40.023110000000145],[30.578961144040704,40.02341480932694],[30.577970000000107,40.02349000000015],[30.576950000000068,40.023380000000316],[30.575210000000027,40.02294000000012],[30.573890000000233,40.02284000000037],[30.573360000000037,40.022980000000075],[30.57261391980012,40.02369878458302]]],"type":"Polygon"}},{"type":"Feature","properties":{"area_id":"TR-26-008-30285","name_tr":"Cumhuriyet","area_level":"neighbourhood","parent_id":"TR-26-008","endeksa_id":30285},"geometry":{"coordinates":[[[30.579044281999984,40.02640236300016],[30.57890140899997,40.02650238000035],[30.577056692000042,40.026244501000065],[30.575606203000177,40.02676132200014],[30.5754400350001,40.026721108000174],[30.57446371500015,40.02527077500014],[30.573330754000153,40.02414701100042],[30.573289224000064,40.023741770000015],[30.57315687200014,40.02364793400011],[30.57261391980012,40.02369878458302],[30.573360000000037,40.022980000000075],[30.573890000000233,40.02284000000037],[30.575210000000027,40.02294000000012],[30.576950000000068,40.023380000000316],[30.577970000000107,40.02349000000015],[30.578961144040704,40.02341480932694],[30.579044281999984,40.02640236300016]]],"type":"Polygon"}},{"type":"Feature","properties":{"area_id":"TR-26-008-30288","name_tr":"İstiklal","area_level":"neighbourhood","parent_id":"TR-26-008","endeksa_id":30288},"geometry":{"coordinates":[[[30.579044281999984,40.02640236300016],[30.579633494000063,40.02764565600012],[30.580516248000094,40.030208017999996],[30.580701133000048,40.03150529000004],[30.57744149000007,40.03206179400007],[30.57699962400011,40.03155557700006],[30.57649916700018,40.03054643500002],[30.575940489000118,40.02787433300011],[30.5755244180001,40.02687166500044],[30.575606203000177,40.02676132200014],[30.577056692000042,40.026244501000065],[30.57890140899997,40.02650238000035],[30.579044281999984,40.02640236300016]]],"type":"Polygon"}},{"type":"Feature","properties":{"area_id":"TR-26-008-191183","name_tr":"Alpagut","area_level":"neighbourhood","parent_id":"TR-26-008","endeksa_id":191183},"geometry":{"coordinates":[[[30.48353732122854,40.03795001051054],[30.483310000000245,40.038250000000176],[30.482530000000168,40.038600000000145],[30.481800000000135,40.03768000000042],[30.480960000000096,40.03793000000013],[30.480560000000253,40.03718000000026],[30.481800000000135,40.03661000000017],[30.48140000000012,40.03589000000011],[30.482790000000193,40.035370000000285],[30.483900000000176,40.03511000000026],[30.48054000000019,40.033760000000086],[30.475670000000093,40.030880000000536],[30.4729200000001,40.02915000000024],[30.469490000000178,40.02737000000019],[30.461990000000128,40.02532000000025],[30.461560000000077,40.02461000000045],[30.46115000000009,40.02451000000019],[30.460390000000075,40.024500000000046],[30.461530000000096,40.02296000000035],[30.463760000000036,40.02083000000033],[30.46428000000003,40.02043000000009],[30.464880000000164,40.02005000000031],[30.46580000000006,40.0197500000005],[30.466000000000065,40.01866000000041],[30.466820000000098,40.01830000000007],[30.46740000000011,40.01782000000014],[30.4677200000001,40.01739000000009],[30.468010000000106,40.01573000000042],[30.468270000000132,40.015490000000455],[30.468970000000127,40.01528000000013],[30.469220000000064,40.0149100000001],[30.46961000000016,40.013750000000186],[30.47066000000018,40.01293000000038],[30.471880000000056,40.0121300000003],[30.47237000000007,40.0116900000001],[30.472870000000057,40.01103000000023],[30.47351000000009,40.00943000000018],[30.473890000000097,40.00918000000007],[30.475540000000194,40.008580000000165],[30.47543000000013,40.007990000000234],[30.473840000000052,40.007810000000234],[30.472530000000177,40.00724000000014],[30.472130000000107,40.007190000000094],[30.471770000000163,40.00727000000035],[30.471290000000067,40.00769000000025],[30.470950000000187,40.00785000000019],[30.46969000000024,40.00782000000038],[30.469840000000033,40.00758000000042],[30.46979000000016,40.00701000000015],[30.469590000000096,40.006750000000125],[30.469620000000134,40.00629000000026],[30.46982000000014,40.006040000000155],[30.469880000000103,40.00503000000043],[30.470080000000166,40.00476000000015],[30.470390000000066,40.004520000000184],[30.470990000000143,40.00426000000016],[30.47118000000006,40.003870000000404],[30.471510000000194,40.003810000000385],[30.472250000000088,40.00343000000021],[30.472660000000133,40.00308000000041],[30.47299000000004,40.00249000000008],[30.473140000000228,40.00239000000016],[30.474850000000117,40.00191000000024],[30.476100000000145,40.00108000000046],[30.47552000000013,40.000870000000134],[30.474790000000155,40.00038000000012],[30.483620000000087,39.993580000000236],[30.495460000000094,39.988220000000126],[30.510220000000118,39.98867000000041],[30.51440000000008,39.98579000000012],[30.516540000000077,39.985690000000375],[30.520430000000033,39.987920000000145],[30.523330000000158,39.99181000000016],[30.522970000000043,39.995790000000454],[30.520000000000152,40.006440000000566],[30.519580000000076,40.007030000000384],[30.51982000000004,40.007190000000094],[30.51985000000019,40.00818000000032],[30.52016000000009,40.00884000000019],[30.519800000000146,40.008980000000406],[30.519560000000183,40.008760000000166],[30.51910000000015,40.00881000000004],[30.51901000000015,40.00902000000019],[30.519550000000038,40.01015000000007],[30.519860000000108,40.010040000000174],[30.52006000000017,40.010650000000055],[30.520850000000166,40.01179000000019],[30.520800000000122,40.011890000000335],[30.521020000000192,40.01252000000056],[30.522010000000193,40.012660000000096],[30.522400000000175,40.01253000000014],[30.523830000000146,40.01308000000017],[30.525230000000192,40.01324000000045],[30.525560000000155,40.01392000000004],[30.5268200000001,40.014870000000315],[30.527580000000114,40.01588000000004],[30.528350000000046,40.01667000000003],[30.528730000000053,40.016480000000115],[30.528980000000104,40.016910000000166],[30.529030000000205,40.01682000000039],[30.529880000000162,40.016540000000646],[30.530220000000043,40.01652000000041],[30.531760000000133,40.016880000000356],[30.532730000000072,40.01749000000041],[30.53125000000017,40.0171600000001],[30.527950000000146,40.01767000000035],[30.527020000000164,40.01934000000017],[30.525060000000167,40.019920000000354],[30.523150000000044,40.0197500000005],[30.520390000000134,40.01913000000036],[30.514870000000087,40.0182800000004],[30.51372000000015,40.0182800000004],[30.512030000000095,40.01900000000029],[30.51136000000008,40.02009000000021],[30.510910000000194,40.02302000000037],[30.50873000000007,40.02353000000062],[30.50718000000012,40.02349000000015],[30.5017900000002,40.022370000000194],[30.49801000000025,40.02377000000058],[30.495390000000157,40.027380000000164],[30.492270000000133,40.028430000000355],[30.491160000000093,40.029390000000205],[30.489470000000097,40.03140000000025],[30.4873300000001,40.033170000000325],[30.485442327492024,40.0356369582513],[30.484528346160516,40.03664229025651],[30.48353732122854,40.03795001051054]]],"type":"Polygon"}},{"type":"Feature","properties":{"area_id":"TR-26-008-191185","name_tr":"Bozaniç","area_level":"neighbourhood","parent_id":"TR-26-008","endeksa_id":191185},"geometry":{"coordinates":[[[30.616223728625073,40.03320085659118],[30.616008835000002,40.03260976600012],[30.615246379000155,40.03213451500051],[30.610339462000184,40.031201608000174],[30.607349790000058,40.036034261000054],[30.60267395200009,40.03482632600003],[30.603406984000173,40.03668476100023],[30.602384992000168,40.03727445800007],[30.601850065000008,40.04180648300019],[30.601778269000135,40.04493283000011],[30.6013132220001,40.04635473500008],[30.601070713000183,40.04840933100007],[30.599144034000062,40.05339509100031],[30.597228557000108,40.05298534600007],[30.594766565000157,40.052769485000056],[30.59419998000004,40.05250645000024],[30.592169562000095,40.05066146600035],[30.59203842800008,40.050112405000164],[30.593202462000136,40.04661548300015],[30.593202462000136,40.04565261400052],[30.592902462000154,40.04452492400014],[30.590863691000152,40.04196480900015],[30.59065660000016,40.04055943000009],[30.590758166000057,40.039387742000144],[30.59044983900003,40.038118992000136],[30.589474216000042,40.037171401000705],[30.58694099400003,40.035883116000605],[30.58625281400009,40.03454054400004],[30.586088383999993,40.0338176960006],[30.58670338200011,40.033520866],[30.587820814000168,40.03237143200016],[30.585455312000192,40.03026460899997],[30.584515202000034,40.02340014100008],[30.58279630922368,40.022565642823736],[30.583550000000116,40.021930000000395],[30.58400000000006,40.01969000000014],[30.58633000000009,40.01481000000035],[30.58917000000008,40.00993000000017],[30.590860000000134,40.0075200000004],[30.595640000000174,40.003590000000145],[30.60665000000006,39.99347000000034],[30.61938000000015,39.978290000000584],[30.630290000000116,39.959980000000485],[30.632560000000183,39.96451000000013],[30.634570000000224,39.966200000000185],[30.637950000000103,39.96928000000008],[30.641880000000185,39.971100000000035],[30.647580000000175,39.97402000000005],[30.650610000000086,39.9833900000005],[30.652190000000076,39.99023000000017],[30.643830000000037,39.99667000000011],[30.63617000000005,40.00525000000016],[30.632680000000164,40.009540000000186],[30.62990000000019,40.017590000000155],[30.626410000000078,40.02564000000041],[30.61875000000009,40.03207000000026],[30.616223728625073,40.03320085659118]]],"type":"Polygon"}},{"type":"Feature","properties":{"area_id":"TR-26-008-30287","name_tr":"Hürriyet","area_level":"neighbourhood","parent_id":"TR-26-008","endeksa_id":30287},"geometry":{"coordinates":[[[30.58338,40.064144],[30.583187328560406,40.06357285237697],[30.583014941000158,40.06306238500065],[30.583068646000072,40.0620191900004],[30.583630948000064,40.0609589500001],[30.583579603029133,40.06059621326182],[30.583172,40.057719],[30.583824,40.056213],[30.58347310536435,40.05411143443944],[30.583359951000148,40.05343398600024],[30.584927058000005,40.051775685999985],[30.585086852607944,40.051493733663676],[30.585717,40.050381],[30.585950109057986,40.049388184120836],[30.58607570600003,40.04885234700032],[30.585593765984214,40.04677285696313],[30.585511034522852,40.046416148851186],[30.58510752100011,40.045525647000034],[30.5828326425945,40.04281409175655],[30.582476,40.042389],[30.58231033753703,40.041210425469934],[30.58220482402901,40.040460733942865],[30.582180013078837,40.040423221300706],[30.581577591999974,40.03951333800023],[30.580390139097943,40.03908700539599],[30.579654,40.038823],[30.577071,40.03887],[30.577070987656608,40.03886996450619],[30.57707085100003,40.03886996700038],[30.576746782984184,40.03793768995483],[30.576645042304655,40.03764512165289],[30.575555697000084,40.036451784000405],[30.575621740000145,40.03632124100017],[30.575621896324883,40.03632120577962],[30.575622,40.036321],[30.576532,40.036116],[30.577363958548933,40.03219319545925],[30.57699962400011,40.03155557700006],[30.577000012843406,40.03155602247631],[30.577,40.031556],[30.577004416263538,40.03156106723227],[30.57744149000007,40.03206179400007],[30.578357819395716,40.0319053634028],[30.580701,40.031505],[30.580516,40.030208],[30.579633,40.027646],[30.579044,40.026402],[30.578961,40.023415],[30.57896114796486,40.02341495035356],[30.578961144040704,40.02341480932694],[30.57987,40.02311],[30.58141,40.02275],[30.58279630922368,40.022565642823736],[30.58438086458959,40.02333492373418],[30.584515,40.0234],[30.584515006296737,40.02340004599171],[30.584515202000034,40.02340014100008],[30.585455312000192,40.03026460899997],[30.58670450474931,40.03137721873628],[30.587821,40.032371],[30.587820688601138,40.03237132031894],[30.587820814000168,40.03237143200016],[30.58670338200011,40.033520866],[30.586519725090433,40.033609508981506],[30.586088408299364,40.03381780282339],[30.586227646941804,40.03442990852054],[30.58625296169025,40.03454083213538],[30.586543123958748,40.035106917332406],[30.586941,40.035883],[30.589474,40.037171],[30.59045,40.038119],[30.590576340615645,40.03863954555636],[30.590758166000057,40.039387742000144],[30.590729350024247,40.03972017361638],[30.590657,40.040559],[30.590864,40.041965],[30.591334645609294,40.042556213942554],[30.592902462000154,40.04452492400014],[30.593202462000136,40.04565261400052],[30.593202462000136,40.04661548300015],[30.59203842800008,40.050112405000164],[30.592087658812904,40.050318536572405],[30.59217,40.050661],[30.5942,40.052506],[30.594767,40.052769],[30.597229,40.052985],[30.599144,40.053395],[30.599727908218,40.0518842519761],[30.601070713000183,40.04840933100007],[30.601207780359626,40.0472480778388],[30.601313,40.046355],[30.601778,40.044933],[30.60185,40.041806],[30.602385,40.037274],[30.60304542000083,40.03689338831412],[30.603406920261957,40.03668479777803],[30.603181876360686,40.03611406332773],[30.60267395200009,40.03482632600003],[30.602674148560872,40.03482637678363],[30.602674,40.034826],[30.607349958164075,40.03603398919313],[30.6078910900231,40.0351593334654],[30.610339,40.031202],[30.610339196408848,40.03120203734921],[30.610339462000184,40.031201608000174],[30.615246379000155,40.03213451500051],[30.616008835000002,40.03260976600012],[30.61600889668942,40.03260993568536],[30.616009,40.03261],[30.616224,40.033201],[30.613880000000165,40.034250000000156],[30.61145000000009,40.03842999999998],[30.610709999999937,40.04078000000014],[30.609422,40.04244],[30.609220000000107,40.04270000000014],[30.60921995285131,40.04270009554707],[30.604604,40.052053],[30.60309002557782,40.055119948187894],[30.603090000000236,40.05512000000033],[30.600080000000048,40.071000000000424],[30.598805,40.070369],[30.596870000000195,40.069410000000346],[30.595511,40.069499],[30.59442,40.06957],[30.590340000000253,40.06941000000052],[30.589956,40.069094],[30.58892000000037,40.068240000000685],[30.588403,40.067402],[30.588260000000275,40.0671700000006],[30.587820000000157,40.0668900000001],[30.586670000000368,40.066440000000455],[30.58564000000041,40.06616000000071],[30.584990000000232,40.06619000000052],[30.584936046997484,40.06628441775558],[30.584132726003617,40.06517925952114],[30.58338,40.064144]]],"type":"Polygon"}},{"type":"Feature","properties":{"area_id":"TR-26-008-30286","name_tr":"Dokuz Mayıs","area_level":"neighbourhood","parent_id":"TR-26-008","endeksa_id":30286},"geometry":{"coordinates":[[[30.519876,40.076976],[30.51951,40.072158],[30.518534,40.070437],[30.52173,40.070973],[30.524511,40.070596],[30.52663,40.068903],[30.524549,40.067775],[30.523005,40.067327],[30.522245,40.068559],[30.521117,40.068291],[30.521223,40.066607],[30.523998,40.065548],[30.524761,40.064544],[30.523277,40.064095],[30.52463,40.062952],[30.530634,40.060519],[30.530639,40.060518],[30.535923,40.064387],[30.554681,40.069623],[30.553555,40.061938],[30.551405,40.057762],[30.548925,40.053206],[30.547602,40.050168],[30.545453,40.04751],[30.544461,40.046245],[30.539819,40.042641],[30.539845,40.042896],[30.539658,40.04311],[30.539249,40.042626],[30.539686,40.042705],[30.539119,40.04179],[30.53918,40.041122],[30.540617,40.040168],[30.541233,40.040082],[30.541273,40.039946],[30.541681,40.040024],[30.54173,40.039671],[30.541909,40.039578],[30.542002,40.039318],[30.542135,40.039696],[30.542379,40.039958],[30.542293,40.040191],[30.542355,40.040375],[30.544019,40.040446],[30.544537,40.040604],[30.544697,40.040403],[30.545031,40.04023],[30.544631,40.039873],[30.543615,40.039477],[30.544684,40.039355],[30.544743,40.039033],[30.544283,40.03899],[30.544246,40.038818],[30.544873,40.03878],[30.545262,40.038958],[30.545124,40.038727],[30.545347,40.038546],[30.543627,40.038127],[30.543522,40.03803],[30.543601,40.037899],[30.543863,40.037882],[30.544706,40.038107],[30.545032,40.037649],[30.544648,40.037235],[30.544788,40.037099],[30.544628,40.036893],[30.54441,40.037052],[30.543235,40.036676],[30.543054,40.036811],[30.543058,40.036701],[30.543278,40.036464],[30.543187,40.036186],[30.543071,40.036312],[30.543093,40.035645],[30.543293,40.036407],[30.543521,40.036355],[30.543681,40.035946],[30.543648,40.035458],[30.543803,40.035262],[30.543643,40.035013],[30.544528,40.035539],[30.545101,40.03465],[30.544266,40.033888],[30.543506,40.033511],[30.543606,40.033309],[30.543884,40.033432],[30.54418895329622,40.03259512816876],[30.543829102000018,40.032458421000115],[30.542319802809473,40.02984198013998],[30.537039,40.02931],[30.536786859074102,40.02922937870044],[30.53640073200006,40.02910625700008],[30.536351105000108,40.028990253000075],[30.536351,40.02899],[30.538389,40.024652],[30.540581,40.021719],[30.540581258761623,40.02171894308815],[30.540581350000082,40.02171882100009],[30.543147419375025,40.021152494285],[30.544114,40.020939],[30.546143,40.020836],[30.546793920620864,40.02097867420782],[30.548843757999975,40.021427521000476],[30.550285172000088,40.02206195400015],[30.55039895854415,40.02214950933594],[30.55069,40.022373],[30.551449,40.023996],[30.55138000000005,40.02402000000012],[30.551470000000005,40.02470000000025],[30.55147964287498,40.024722592156934],[30.551820000000227,40.02552000000013],[30.55245,40.02588],[30.55365,40.02621999999997],[30.55449,40.02677],[30.55525,40.02706],[30.55678,40.02708],[30.558269999999954,40.02696000000014],[30.55994,40.02702],[30.5618400000001,40.0269600000001],[30.56515000000026,40.02617000000011],[30.56647,40.02577],[30.568680000000015,40.02537000000012],[30.56952,40.02573],[30.57019,40.02575],[30.57114,40.02538],[30.57176,40.02477],[30.57261391980012,40.02369878458302],[30.57315687200014,40.02364793400011],[30.57315696917374,40.02364800289532],[30.573157,40.023648],[30.573164899892667,40.02365362569256],[30.573289224000064,40.023741770000015],[30.573310018832494,40.02394468220148],[30.573331,40.024147],[30.574464,40.025271],[30.57544,40.026721],[30.575606,40.026761],[30.575605828991776,40.02676123148719],[30.575606203000177,40.02676132200014],[30.5755244180001,40.02687166500044],[30.575940489000118,40.02787433300011],[30.576499131460515,40.03054626502429],[30.577,40.031556],[30.577364,40.032193],[30.577363958548933,40.03219319545925],[30.577363980000086,40.032193233000214],[30.576532129000043,40.03611612200052],[30.575621896324883,40.03632120577962],[30.575556,40.036452],[30.576645,40.037645],[30.576645042304655,40.03764512165289],[30.576645112000108,40.037645198000064],[30.576746782984184,40.03793768995483],[30.577070987656608,40.03886996450619],[30.579654243000107,40.038822787000015],[30.580390139097943,40.03908700539599],[30.581578,40.039513],[30.582180013078837,40.040423221300706],[30.582204817000104,40.040460684000095],[30.58220482402901,40.040460733942865],[30.582205,40.040461],[30.58231033753703,40.041210425469934],[30.58247625600012,40.042389271000104],[30.5828326425945,40.04281409175655],[30.585108,40.045526],[30.585511,40.046416],[30.585511034522852,40.046416148851186],[30.58551116600006,40.04641643900021],[30.585593765984214,40.04677285696313],[30.586076,40.048852],[30.585950109057986,40.049388184120836],[30.58571733800005,40.050381238000114],[30.585086852607944,40.051493733663676],[30.584927,40.051776],[30.58336,40.053434],[30.58347310536435,40.05411143443944],[30.583824177000167,40.05621319300025],[30.583172292000143,40.057718546000046],[30.583579603029133,40.06059621326182],[30.583631,40.060959],[30.583069,40.062019],[30.583015,40.063062],[30.583187328560406,40.06357285237697],[30.583380186000113,40.06414392500011],[30.584132726003617,40.06517925952114],[30.584936,40.066284],[30.584989,40.066191],[30.58499,40.06619],[30.585438,40.066169],[30.58564,40.06616],[30.58667,40.06644],[30.58782,40.06689],[30.58826,40.06717],[30.588403,40.067402],[30.58892,40.06824],[30.589956,40.069094],[30.59034,40.06941],[30.58676,40.07196],[30.586727,40.071988],[30.58357,40.07468],[30.579311,40.079999],[30.577485,40.092485],[30.57365,40.094956],[30.57121,40.096528],[30.559695,40.105378],[30.554648,40.117892],[30.554304,40.123163],[30.554132,40.125808],[30.553996,40.127891],[30.554007,40.128718],[30.553925,40.128804],[30.55379,40.128784],[30.545976,40.123178],[30.545975,40.123178],[30.544662,40.122235],[30.544121,40.121558],[30.539838,40.1131],[30.539448,40.112665],[30.539412,40.112061],[30.535804,40.101627],[30.526858,40.088734],[30.519876,40.076976]]],"type":"Polygon"}},{"type":"Feature","properties":{"area_id":"TR-26-008-191189","name_tr":"Karaoğlan","area_level":"neighbourhood","parent_id":"TR-26-008","endeksa_id":191189},"geometry":{"coordinates":[[[30.473372,40.058133],[30.473490226364074,40.05578008357145],[30.474030967000147,40.04499707500037],[30.47403099677643,40.044997064301306],[30.474031,40.044997],[30.47593178745597,40.04431405353399],[30.47905974700018,40.04318998700006],[30.480156951000026,40.03930309300051],[30.480156975532246,40.03930308670203],[30.480157,40.039303],[30.482085,40.038808],[30.48262532981077,40.0386693051661],[30.483281077133963,40.03850092286674],[30.48347583016407,40.03830617078241],[30.48373157348024,40.03805008053205],[30.483589,40.038077],[30.483581727463086,40.0380586272834],[30.48355189582644,40.03798565972927],[30.483537,40.03795],[30.484528,40.036642],[30.485243328355516,40.03585585010408],[30.485438816195934,40.03564082056515],[30.485442,40.035637],[30.48622775545563,40.03461052488569],[30.486569535858397,40.03416385924138],[30.486638,40.034074],[30.486673,40.034028],[30.48733,40.03317],[30.489470000000004,40.031400000000076],[30.49116,40.02939],[30.49227,40.02843],[30.495390000000096,40.027380000000086],[30.49801,40.02377],[30.50179,40.02237],[30.50718,40.02349],[30.50873,40.02353],[30.51091,40.02302],[30.511360000000057,40.02009000000014],[30.51203,40.019],[30.51372,40.01828],[30.51487,40.01828],[30.52039,40.01913],[30.52315,40.01975],[30.52506,40.01992],[30.52702,40.01934],[30.52795,40.01767],[30.53125,40.01716],[30.532729999999354,40.017489999999874],[30.532547567565587,40.01737527444868],[30.532548917907505,40.01737557999817],[30.532548,40.017375],[30.536327,40.01823],[30.540922,40.021644],[30.540581258761623,40.02171894308815],[30.538389011000163,40.02465228800003],[30.536351107113088,40.02899024850281],[30.536401,40.029106],[30.536786859074102,40.02922937870044],[30.53703873900014,40.02930969300019],[30.5423195570001,40.029841554000086],[30.542319802809473,40.02984198013998],[30.54232,40.029842],[30.543829,40.032458],[30.544189,40.032595],[30.543884,40.033432],[30.543883827758542,40.033431923792875],[30.543883800000287,40.03343200000012],[30.54360596873259,40.033309063160296],[30.543506,40.033511],[30.54408755051089,40.03379948048164],[30.544266200000322,40.033887900000536],[30.545101200000317,40.034649600000364],[30.545100963527112,40.034649966716195],[30.545101,40.03465],[30.544528,40.035539],[30.544318842256853,40.03541468837606],[30.543643400000292,40.035013500000275],[30.543666820400066,40.035050070626724],[30.543803,40.035262],[30.543802747948888,40.03526231872382],[30.54380280000015,40.03526240000059],[30.543757200152783,40.03531991478436],[30.543648,40.035458],[30.543679877420352,40.03592939954402],[30.54368100000022,40.035945900000286],[30.543680994237594,40.03594591478787],[30.543681,40.035946],[30.543670893207892,40.035971835638925],[30.543521500000338,40.0363552000004],[30.543292800000245,40.0364073000008],[30.543175421293526,40.03595902723297],[30.543093277948344,40.03564605899554],[30.543071460004008,40.03629805364803],[30.543071006840975,40.03631179259569],[30.54312358351857,40.03625488349148],[30.543187,40.036186],[30.54318705829875,40.03618617810034],[30.543187500000272,40.03618570000026],[30.543247386640413,40.036370478129605],[30.543278,40.036464],[30.543058,40.036701],[30.5430564598848,40.03674335321104],[30.543054200000256,40.03681060000042],[30.543234900000243,40.03667550000063],[30.544410200000357,40.03705170000012],[30.544627600000183,40.036892700000465],[30.544627893670896,40.03689307755221],[30.544628,40.036893],[30.544742291100235,40.03704014994102],[30.544788300000334,40.037099300000364],[30.54465105227773,40.03723203493788],[30.544648405573973,40.037234606014984],[30.54503240000031,40.03764900000016],[30.544893684032957,40.037843322068305],[30.544706,40.038107],[30.544431486860894,40.03803373220243],[30.54386340000019,40.03788230000032],[30.54361117919581,40.03789833952898],[30.543601326845554,40.037898978792825],[30.543548574766312,40.037985933044865],[30.543522,40.03803],[30.54355150082863,40.03805725318389],[30.543627249283077,40.038126641241206],[30.545347378652195,40.038545878476384],[30.545124211379598,40.038727353832314],[30.545262,40.038958],[30.54526152518584,40.03895778273439],[30.545261813034642,40.0389582651315],[30.54487264674466,40.03878002141035],[30.544835172564035,40.038782292668856],[30.54424608102595,40.038818376662014],[30.54428103120471,40.03898084778516],[30.54428300000029,40.038989900000615],[30.544670376557846,40.0390262114115],[30.544743,40.039033],[30.544684,40.039355],[30.544462214726,40.03938031216565],[30.543616104728784,40.039477430590495],[30.544631,40.039873],[30.54463140801775,40.039873364158616],[30.54463150000015,40.039873400000545],[30.544658149548415,40.03989723113388],[30.545031,40.04023],[30.544982628190944,40.04025505497301],[30.544697100000292,40.04040330000032],[30.544537400000195,40.040604200000246],[30.544018800000288,40.04044610000068],[30.543672487290713,40.04043121687677],[30.542355,40.040375],[30.542304383500824,40.04022478336991],[30.54229280000027,40.040190700000494],[30.542378992047652,40.039957991461144],[30.542135,40.039696],[30.542021491557406,40.039373397329555],[30.542002100000218,40.03931840100017],[30.541972858012155,40.03939947244525],[30.541909,40.039578],[30.541834227624815,40.03961684828152],[30.541730200000302,40.0396714000002],[30.54168110000029,40.04002400100029],[30.541681002441543,40.04002398241189],[30.541681,40.040024],[30.54165276691371,40.04001860255008],[30.54127330000034,40.03994630000017],[30.541233200000363,40.040082100000575],[30.540982171851425,40.04011701863548],[30.540617,40.040168],[30.540173523330274,40.04046242140349],[30.53918030000034,40.04112210000011],[30.539140835228313,40.041550887860446],[30.539119,40.04179],[30.539686,40.042705],[30.5396854100184,40.04270489334557],[30.53968560000021,40.0427052],[30.5392490537453,40.042626063601496],[30.539658,40.04311],[30.539845,40.042896],[30.539819,40.042641],[30.544461,40.046245],[30.545453,40.04751],[30.547602,40.050168],[30.548925,40.053206],[30.551405,40.057762],[30.553555,40.061938],[30.554681,40.069623],[30.535923,40.064387],[30.530639,40.060518],[30.53063665812711,40.06051846837444],[30.53063414769963,40.06051948520076],[30.53030937512417,40.06028168034314],[30.530106,40.060133],[30.528600000000154,40.05903000000052],[30.51418000000018,40.053060000000414],[30.50718000000012,40.05187000000069],[30.49778999999994,40.053519999999956],[30.49318000000011,40.0561100000005],[30.49317997441893,40.05611000245588],[30.489586,40.056455],[30.48922000000016,40.05649000000017],[30.479380000000106,40.06013000000007],[30.478422,40.060176],[30.47708,40.06024],[30.47644314814812,40.06015430739615],[30.476443283492337,40.06015403801653],[30.476443,40.060154],[30.477343,40.058363],[30.475044,40.05823],[30.473372,40.058133]]],"type":"Polygon"}}]}