{"type":"FeatureCollection","source_id":"endeksa","retrieved_at":"2026-08-23","features":[{"type":"Feature","properties":{"area_id":"TR-23-001-2011477","name_tr":"Saraycık Köyü","area_level":"neighbourhood","parent_id":"TR-23-001","endeksa_id":2011477},"geometry":{"coordinates":[[[38.6591416480004,38.88768971100046],[38.65881672600017,38.88804712400008],[38.657000003000064,38.88872246100027],[38.655151327000056,38.888876639000046],[38.65354600500007,38.88838520600035],[38.652688844000124,38.888328902000126],[38.65140930700005,38.888437837000026],[38.65043411900018,38.88877317800029],[38.6487995560002,38.88865686350039],[38.648647100000005,38.88855259999997],[38.648425566000185,38.8885418270001],[38.647263000000066,38.88788460000012],[38.6467373000001,38.88770920000019],[38.64539075900018,38.88766419300009],[38.64517090000015,38.88735010000016],[38.644935810000106,38.88723338300019],[38.64417129200007,38.886509429000114],[38.64394396900019,38.88602439600004],[38.64396930000004,38.885846900000104],[38.643561600000055,38.8856047000005],[38.64332777300018,38.88556830800019],[38.64315986900016,38.88515652000018],[38.6426970440001,38.88487690400018],[38.64256901300007,38.88404654700008],[38.6428093670001,38.88391471000011],[38.64095726200003,38.88330434700015],[38.637720829000045,38.88201765200017],[38.63645017600015,38.88181903100053],[38.634184982000136,38.88107253400017],[38.63382562300018,38.880754651000075],[38.63297505000003,38.87950676700035],[38.6315383270001,38.87873134200004],[38.626052322000135,38.87387850300007],[38.6265510930001,38.873139099000355],[38.626684442000055,38.871403215999976],[38.62730381700004,38.869600160000005],[38.627310466000154,38.866360610000015],[38.62783157299998,38.8620639670001],[38.62848094300011,38.86088801200037],[38.629927120000104,38.855462633000116],[38.634567463999986,38.85245810000009],[38.634948117000135,38.85154226100008],[38.634768055000166,38.8505527750001],[38.634885537000116,38.85044743399999],[38.64406504900006,38.84883872600011],[38.645493027999976,38.848060525000164],[38.646613849999994,38.84649653300022],[38.64768831900017,38.84587384300039],[38.6562320110001,38.844047233000424],[38.65638829600033,38.84411694600027],[38.65661148900023,38.84460305100026],[38.65871080400029,38.845274683000014],[38.66175806000035,38.84583522300056],[38.662806062000186,38.84639874300029],[38.66275233400023,38.84655554700083],[38.661559886000305,38.84677700200024],[38.661552309000285,38.8468851260003],[38.6618282030002,38.8470809060002],[38.6618484720002,38.84717679900001],[38.6610166180003,38.84791060800006],[38.66084899000026,38.84841161000048],[38.6609320630003,38.84849824400072],[38.66197214400029,38.848718201000224],[38.66198106500025,38.849203864000344],[38.662463299000365,38.85013291600029],[38.66311291100027,38.850143727000216],[38.66321419700034,38.85025144300039],[38.66291471600033,38.852474148],[38.66333330400033,38.852642244000265],[38.664223776000256,38.85466972000012],[38.664508600000204,38.85578941600039],[38.657222907000175,38.85807672100037],[38.65646224600022,38.86558083600016],[38.658327764000205,38.87323427700005],[38.65938765500027,38.874860413000306],[38.659270849000336,38.87505318300009],[38.65821075300022,38.8755424820007],[38.65597490000022,38.87630070000023],[38.65583016200031,38.877327106000564],[38.65610360000022,38.87914880000034],[38.65632890000023,38.879850400000294],[38.65658692500034,38.8802344460006],[38.656879836000314,38.88101937600021],[38.657736749000264,38.882645880000325],[38.65820650000029,38.8838008000003],[38.658318045000215,38.88374923500021],[38.658438353000236,38.88397759200069],[38.65908748500027,38.884078424000506],[38.65937093700029,38.8843739600008],[38.659086200000274,38.88463590000009],[38.659644100000264,38.885220500000344],[38.65978649200031,38.88558054400045],[38.65965191500027,38.88614032800058],[38.65915060000026,38.886439800000346],[38.65920420000026,38.88721650000031],[38.6591416480004,38.88768971100046]]],"type":"Polygon"}},{"type":"Feature","properties":{"area_id":"TR-23-001-2011471","name_tr":"Dibekli Köyü","area_level":"neighbourhood","parent_id":"TR-23-001","endeksa_id":2011471},"geometry":{"coordinates":[[[38.6426970440001,38.88487690400018],[38.642456500000094,38.88494490000062],[38.64170550000017,38.88486140000009],[38.64131930000019,38.88518710000005],[38.64001030000003,38.884986700000525],[38.63957050000005,38.88500340000013],[38.63851900000009,38.88563810000005],[38.638454700000125,38.88607230000014],[38.63810060000014,38.88621430000012],[38.63675949999998,38.886381300000096],[38.63654489999999,38.8871747],[38.63622310000005,38.887558900000045],[38.63629760100008,38.887684573],[38.636117133000084,38.888043999000445],[38.63580949100003,38.88817093000006],[38.63491395900019,38.88829054800033],[38.633573000000126,38.88779269999998],[38.63257530000004,38.88806830000004],[38.630805000000066,38.889003600000706],[38.62946390000013,38.89039820000028],[38.62908840000017,38.8905819000002],[38.62800480000004,38.89062360000008],[38.62782240000007,38.89051510000036],[38.62704990000009,38.889462900000694],[38.62545130000012,38.88902860000064],[38.62435700000003,38.88903700000009],[38.62379910000004,38.88918730000012],[38.62325190000007,38.889120500000104],[38.62195370000012,38.89017270000045],[38.62058601900003,38.89169291000064],[38.620086119000064,38.891984378000245],[38.61900330000009,38.89140030000004],[38.61725110700013,38.890739749000204],[38.61716870000015,38.89038150000067],[38.61297370000017,38.89018110000006],[38.61254450000018,38.889963900000225],[38.61082790000006,38.88951300000008],[38.60561360000014,38.88882830000006],[38.60123630000015,38.887091300000066],[38.59660140000017,38.88902870000015],[38.59355254000013,38.890478880000046],[38.59344665499998,38.890437344000134],[38.590864812610164,38.8913248899359],[38.590129586013404,38.89143739244935],[38.58991284037256,38.89132598506825],[38.590023453635695,38.89116943190777],[38.586771688246984,38.89189456468722],[38.58969284000017,38.886107619000086],[38.59091386800014,38.88411637500019],[38.592386831000056,38.88431768300018],[38.59363514500012,38.8846081800001],[38.59373299200013,38.88450166000018],[38.59619860700013,38.884838631000264],[38.593938279000156,38.886809862000064],[38.59143312100019,38.88579636300028],[38.59234523700019,38.8880642900001],[38.597313633000056,38.88718527200018],[38.596928515000116,38.885822176000374],[38.60224617000006,38.88285869400016],[38.60598310700004,38.88258621500006],[38.606008205000194,38.88110444500006],[38.60135753500015,38.88086046300009],[38.59843231800011,38.877777343000105],[38.59845820000015,38.87678804300015],[38.60251156700008,38.87345514500004],[38.60235981700009,38.872797891000005],[38.60241256800015,38.87275375900009],[38.609215065000114,38.87351381100012],[38.61757180000012,38.871016215000054],[38.61795176500004,38.871077123000134],[38.61837495600014,38.87098533200009],[38.621754488000136,38.871558379000305],[38.62246832800008,38.871801123000125],[38.62397735600007,38.8720430190001],[38.624742087000186,38.87264498300033],[38.626052322000135,38.87387850300007],[38.6315383270001,38.87873134200004],[38.63297505000003,38.87950676700035],[38.63382562300018,38.880754651000075],[38.634184982000136,38.88107253400017],[38.63645017600015,38.88181903100053],[38.637720829000045,38.88201765200017],[38.64095726200003,38.88330434700015],[38.6428093670001,38.88391471000011],[38.64256901300007,38.88404654700008],[38.6426970440001,38.88487690400018]]],"type":"Polygon"}},{"type":"Feature","properties":{"area_id":"TR-23-001-2011478","name_tr":"Yedibağ Köyü","area_level":"neighbourhood","parent_id":"TR-23-001","endeksa_id":2011478},"geometry":{"coordinates":[[[38.66379955600087,38.88880023700085],[38.66345008612012,38.8891448129894],[38.66073750084672,38.88878789391396],[38.6580249150735,38.88878789391396],[38.66145133899761,38.8900728028857],[38.66494914683693,38.89142909577225],[38.6662340558085,38.893285075064625],[38.665306065912375,38.89706841806424],[38.665734368902974,38.89785364013005],[38.666376823138705,38.89978100383746],[38.665377449827474,38.90070899373376],[38.66630543972343,38.90213667003542],[38.665734368902974,38.90299327601639],[38.66430669210109,38.90349296292209],[38.66080888476188,38.904420952818214],[38.66116580383715,38.90549171004443],[38.66195102590319,38.90720492200654],[38.662522096723876,38.910488578100626],[38.66480637900662,38.91170210365709],[38.66337870270502,38.913700850779605],[38.662379328893735,38.914343305015336],[38.65966674312034,38.91534267882662],[38.65888152105447,38.91598513306241],[38.65816768290358,38.91855495100555],[38.65768612213185,38.91987924204807],[38.65750066400034,38.919866087000344],[38.657410228000344,38.91973913500033],[38.65780964800018,38.9187842500001],[38.65812419800005,38.91843020200008],[38.656554359000154,38.91602446100006],[38.656501641000034,38.91510633200005],[38.65669124100043,38.914417431983225],[38.65701893987824,38.91442150004286],[38.6570756029509,38.914311167926996],[38.65698384210822,38.914210667696295],[38.65696190000017,38.91355950000013],[38.65747690000018,38.91235730000017],[38.657455400000174,38.91199000000012],[38.656897500000184,38.911722900000086],[38.65586760000008,38.91185640000009],[38.65419390000011,38.91175630000015],[38.653378499999974,38.911088400000494],[38.652863500000194,38.91050400000046],[38.652327000000014,38.91058750000008],[38.65002040000013,38.90753190000004],[38.64975210000017,38.906580100000156],[38.64968780000015,38.90566180000002],[38.64808920000007,38.90491030000055],[38.648464700000034,38.904209000000435],[38.648486100000184,38.9038250000001],[38.64838960000003,38.90338240000011],[38.6486256,38.903207100000316],[38.64946249999997,38.90313200000014],[38.64944099999997,38.90298170000017],[38.649795000000154,38.90290650000031],[38.64985940000014,38.902029900000116],[38.649022600000194,38.90199650000034],[38.6486256,38.9024306],[38.645385500000145,38.903324000000396],[38.644688099999996,38.90381660000014],[38.64114760000018,38.903941799999984],[38.63848680000012,38.903875100000164],[38.63689900000003,38.90419230000015],[38.63464590000012,38.90487700000028],[38.630783500000064,38.90671370000001],[38.62637400000011,38.90735660000013],[38.61847760000012,38.90929350000016],[38.61814500000014,38.908809200000064],[38.61862780000007,38.90837510000017],[38.61833810000013,38.90765710000045],[38.61772660000014,38.90739830000035],[38.61763000000013,38.906905700000095],[38.615527100000065,38.905532300000175],[38.61509260000014,38.905649200000084],[38.61465270000019,38.90530690000014],[38.61495850000006,38.90440100000069],[38.61492630000009,38.9035619],[38.61410560000019,38.902860600000054],[38.614014400000144,38.90207580000015],[38.61388560000012,38.901867000000095],[38.61279129999997,38.90117820000012],[38.61213680000003,38.900468500000386],[38.610935200000085,38.89956670000038],[38.610549000000105,38.9000343000007],[38.60878940000015,38.90041840000015],[38.60833880000018,38.90071900000015],[38.60713720000007,38.900936100000024],[38.60634320000008,38.901253400000314],[38.60544200000015,38.90148710000011],[38.603596700000026,38.90162070000014],[38.60286710000008,38.901587300000074],[38.60237360000008,38.90128680000009],[38.60194440000009,38.90068560000009],[38.60155820000011,38.9004518000001],[38.60104320000016,38.900585400000466],[38.60039949999998,38.90053530000023],[38.59932660000004,38.89948320000008],[38.59885450000007,38.89874850000018],[38.59842540000011,38.898297600000035],[38.5982537000001,38.89757950000012],[38.5982752000001,38.89684470000003],[38.598146400000076,38.89534170000002],[38.59745980000014,38.89570910000009],[38.59720230000016,38.894840700000145],[38.59634399999999,38.89363820000011],[38.59582900000004,38.893103800000176],[38.59497070000009,38.89260280000008],[38.593060000000094,38.89069749999999],[38.59355254000013,38.890478880000046],[38.59660140000017,38.88902870000015],[38.60123630000015,38.887091300000066],[38.60561360000014,38.88882830000006],[38.61082790000006,38.88951300000008],[38.61254450000018,38.889963900000225],[38.61297370000017,38.89018110000006],[38.61716870000015,38.89038150000067],[38.61725110700013,38.890739749000204],[38.61900330000009,38.89140030000004],[38.620086119000064,38.891984378000245],[38.62058601900003,38.89169291000064],[38.62195370000012,38.89017270000045],[38.62325190000007,38.889120500000104],[38.62379910000004,38.88918730000012],[38.62435700000003,38.88903700000009],[38.62545130000012,38.88902860000064],[38.62704990000009,38.889462900000694],[38.62782240000007,38.89051510000036],[38.62800480000004,38.89062360000008],[38.62908840000017,38.8905819000002],[38.62946390000013,38.89039820000028],[38.630805000000066,38.889003600000706],[38.63257530000004,38.88806830000004],[38.633573000000126,38.88779269999998],[38.63491395900019,38.88829054800033],[38.63580949100003,38.88817093000006],[38.636117133000084,38.888043999000445],[38.63629760100008,38.887684573],[38.63622310000005,38.887558900000045],[38.63654489999999,38.8871747],[38.63675949999998,38.886381300000096],[38.63810060000014,38.88621430000012],[38.638454700000125,38.88607230000014],[38.63851900000009,38.88563810000005],[38.63957050000005,38.88500340000013],[38.64001030000003,38.884986700000525],[38.64131930000019,38.88518710000005],[38.64170550000017,38.88486140000009],[38.642456500000094,38.88494490000062],[38.6426970440001,38.88487690400018],[38.64315986900016,38.88515652000018],[38.64332777300018,38.88556830800019],[38.643561600000055,38.8856047000005],[38.64396930000004,38.885846900000104],[38.64394396900019,38.88602439600004],[38.64417129200007,38.886509429000114],[38.644935810000106,38.88723338300019],[38.64517090000015,38.88735010000016],[38.64539075900018,38.88766419300009],[38.6467373000001,38.88770920000019],[38.647263000000066,38.88788460000012],[38.648425566000185,38.8885418270001],[38.648647100000005,38.88855259999997],[38.6487995560002,38.88865686350039],[38.65043411900018,38.88877317800029],[38.65140930700005,38.888437837000026],[38.652688844000124,38.888328902000126],[38.65354600500007,38.88838520600035],[38.655151327000056,38.888876639000046],[38.657000003000064,38.88872246100027],[38.65881672600017,38.88804712400008],[38.6591416480004,38.88768971100046],[38.6611995560005,38.88760023700053],[38.66189955600055,38.887700237000445],[38.66239955600048,38.88790023700062],[38.66379955600087,38.88880023700085]]],"type":"Polygon"}},{"type":"Feature","properties":{"area_id":"TR-23-001-2011464","name_tr":"Altınayva Köyü","area_level":"neighbourhood","parent_id":"TR-23-001","endeksa_id":2011464},"geometry":{"coordinates":[[[38.59798550000011,38.912607800000444],[38.59590410000004,38.91250760000014],[38.594638100000054,38.912707900000555],[38.593565200000114,38.91242410000052],[38.591784200000006,38.912707900000555],[38.59059330000008,38.91314200000005],[38.58852270000017,38.91352610000007],[38.58709570000008,38.91373480000061],[38.584671000000185,38.913868300000104],[38.583920000000035,38.91405200000003],[38.58314750000005,38.914018600000645],[38.582418000000075,38.91412710000003],[38.5817206000001,38.914352500000064],[38.57966060000018,38.91567150000009],[38.578652100000056,38.916573000000255],[38.576957000000164,38.91694030000008],[38.573684700000115,38.91836780000011],[38.56535910000014,38.919336100000066],[38.5619473000001,38.92055480000005],[38.56085300000012,38.9196366000001],[38.55661670000012,38.91752050000014],[38.55849260000008,38.915212400000655],[38.561239201000035,38.912874999999985],[38.56354497400014,38.91063223500032],[38.56460272600009,38.909813947000146],[38.56474550400014,38.909805389000155],[38.56480729500004,38.909906994000266],[38.56487508300012,38.909504171000094],[38.56582366600003,38.90871300000009],[38.57097108700003,38.90510130000018],[38.57102044600009,38.90461629900011],[38.57117370000003,38.90444812800018],[38.57147593900004,38.90457801000059],[38.57199184000018,38.90435921000011],[38.57365111900009,38.90319727300016],[38.57960938700012,38.89767418000014],[38.58641619300005,38.89225668000006],[38.58647382700019,38.892052745000115],[38.58662446800014,38.89216158000016],[38.58680015090215,38.89208742933698],[38.58684398289154,38.891986516689144],[38.586771688246984,38.89189456468722],[38.590023453635695,38.89116943190777],[38.58991284037256,38.89132598506825],[38.590129586013404,38.89143739244935],[38.590864812610164,38.8913248899359],[38.59344665499998,38.890437344000134],[38.59355254000013,38.890478880000046],[38.593060000000094,38.89069749999999],[38.59497070000009,38.89260280000008],[38.59582900000004,38.893103800000176],[38.59634399999999,38.89363820000011],[38.59720230000016,38.894840700000145],[38.59745980000014,38.89570910000009],[38.598146400000076,38.89534170000002],[38.5982752000001,38.89684470000003],[38.5982537000001,38.89757950000012],[38.59842540000011,38.898297600000035],[38.59885450000007,38.89874850000018],[38.59932660000004,38.89948320000008],[38.60039949999998,38.90053530000023],[38.60104320000016,38.900585400000466],[38.60155820000011,38.9004518000001],[38.60194440000009,38.90068560000009],[38.60237360000008,38.90128680000009],[38.60286710000008,38.901587300000074],[38.603596700000026,38.90162070000014],[38.60544200000015,38.90148710000011],[38.60634320000008,38.901253400000314],[38.60713720000007,38.900936100000024],[38.60833880000018,38.90071900000015],[38.60878940000015,38.90041840000015],[38.610549000000105,38.9000343000007],[38.610935200000085,38.89956670000038],[38.61213680000003,38.900468500000386],[38.61279129999997,38.90117820000012],[38.61388560000012,38.901867000000095],[38.614014400000144,38.90207580000015],[38.61410560000019,38.902860600000054],[38.61492630000009,38.9035619],[38.61495850000006,38.90440100000069],[38.61465270000019,38.90530690000014],[38.61509260000014,38.905649200000084],[38.615527100000065,38.905532300000175],[38.61763000000013,38.906905700000095],[38.61772660000014,38.90739830000035],[38.61833810000013,38.90765710000045],[38.61862780000007,38.90837510000017],[38.61814500000014,38.908809200000064],[38.61847760000012,38.90929350000016],[38.61498000000006,38.909335200000385],[38.611654000000044,38.91201500000005],[38.61117120000006,38.9119816000005],[38.61055970000007,38.911722800000405],[38.605270400000165,38.91053740000001],[38.60427260000017,38.910437200000615],[38.60371470000001,38.91051230000011],[38.59798550000011,38.912607800000444]]],"type":"Polygon"}},{"type":"Feature","properties":{"area_id":"TR-23-001-2011470","name_tr":"Demirçarık Köyü","area_level":"neighbourhood","parent_id":"TR-23-001","endeksa_id":2011470},"geometry":{"coordinates":[[[38.657410228000344,38.91973913500033],[38.657253320000336,38.91996953500035],[38.65422694600022,38.92008465900028],[38.65403216904406,38.92005957302399],[38.65411082800057,38.91991442000085],[38.651919400000224,38.9199538000002],[38.65094300000027,38.91962820000026],[38.6501276000003,38.91950300000025],[38.649773600000344,38.919336100000294],[38.64821790000019,38.918493000000126],[38.64601850000031,38.91700710000032],[38.64566440000033,38.91733270000026],[38.6449671000002,38.91667320000022],[38.64497780000033,38.91616399999998],[38.64511730000015,38.915821700000436],[38.64455940000022,38.91532920000054],[38.64430190000019,38.91558800000064],[38.6417162000003,38.917015500000446],[38.639742100000205,38.918284300000266],[38.63899110000028,38.91896040000029],[38.636620000000164,38.92014570000009],[38.634688800000276,38.92088870000032],[38.63386270000029,38.92086360000036],[38.63327260000034,38.92068830000022],[38.632639600000346,38.92105560000027],[38.63183500000025,38.92127260000029],[38.630375900000274,38.92213240000069],[38.62906690000034,38.92235770000036],[38.62826230000036,38.9226082000003],[38.627393200000256,38.9226833000003],[38.62703920000024,38.92279180000054],[38.626792400000284,38.92289190000065],[38.6263847000003,38.92337610000021],[38.625655200000324,38.92328430000043],[38.6239922000002,38.92344280000026],[38.623498700000255,38.923325999999975],[38.62300510000023,38.92373500000042],[38.62273690000029,38.92379340000031],[38.62209320000028,38.9237183000003],[38.621825000000285,38.92386850000031],[38.6217391000003,38.92412730000024],[38.62029070000017,38.92545440000026],[38.61982940000024,38.92623060000034],[38.619260800000234,38.92643930000071],[38.61853120000029,38.92655620000079],[38.61740470000035,38.926981800000476],[38.61620310000018,38.92703190000071],[38.61432550000029,38.92769960000021],[38.61379980000032,38.92805850000025],[38.61360670000033,38.9283340000008],[38.613091700000325,38.92826720000028],[38.61299510000032,38.92802510000047],[38.61294150000032,38.92758280000032],[38.612716200000364,38.92702360000038],[38.61278060000035,38.92668140000035],[38.61260890000034,38.92575490000024],[38.61106390000026,38.925830000000246],[38.610377300000266,38.92603040000063],[38.6095619000003,38.926097100000106],[38.608231500000215,38.9269318000006],[38.607501900000216,38.92686500000076],[38.60439060000016,38.925671400000056],[38.60440130000018,38.92486180000003],[38.60289930000005,38.92370990000012],[38.60259890000009,38.92337610000004],[38.602684700000054,38.921781800000645],[38.60283490000006,38.921180800000116],[38.602169700000104,38.92041290000003],[38.60134360000012,38.91982860000019],[38.601064700000165,38.91945290000018],[38.601032500000144,38.9191775000001],[38.60110760000015,38.91895210000064],[38.60102180000018,38.91875170000003],[38.59984160000005,38.917015500000275],[38.59933730000006,38.916564700000094],[38.599230000000034,38.91608050000036],[38.59894040000006,38.91579670000033],[38.59853270000008,38.91497019999997],[38.59839320000009,38.91449440000008],[38.59840390000011,38.91412710000003],[38.59798550000011,38.912607800000444],[38.60371470000001,38.91051230000011],[38.60427260000017,38.910437200000615],[38.605270400000165,38.91053740000001],[38.61055970000007,38.911722800000405],[38.61117120000006,38.9119816000005],[38.611654000000044,38.91201500000005],[38.61498000000006,38.909335200000385],[38.61847760000012,38.90929350000016],[38.62637400000011,38.90735660000013],[38.630783500000064,38.90671370000001],[38.63464590000012,38.90487700000028],[38.63689900000003,38.90419230000015],[38.63848680000012,38.903875100000164],[38.64114760000018,38.903941799999984],[38.644688099999996,38.90381660000014],[38.645385500000145,38.903324000000396],[38.6486256,38.9024306],[38.649022600000194,38.90199650000034],[38.64985940000014,38.902029900000116],[38.649795000000154,38.90290650000031],[38.64944099999997,38.90298170000017],[38.64946249999997,38.90313200000014],[38.6486256,38.903207100000316],[38.64838960000003,38.90338240000011],[38.648486100000184,38.9038250000001],[38.648464700000034,38.904209000000435],[38.64808920000007,38.90491030000055],[38.64968780000015,38.90566180000002],[38.64975210000017,38.906580100000156],[38.65002040000013,38.90753190000004],[38.652327000000014,38.91058750000008],[38.652863500000194,38.91050400000046],[38.653378499999974,38.911088400000494],[38.65419390000011,38.91175630000015],[38.65586760000008,38.91185640000009],[38.656897500000184,38.911722900000086],[38.657455400000174,38.91199000000012],[38.65747690000018,38.91235730000017],[38.65696190000017,38.91355950000013],[38.65698384210822,38.914210667696295],[38.6570756029509,38.914311167926996],[38.65701893987824,38.91442150004286],[38.65669124100043,38.914417431983225],[38.656501641000034,38.91510633200005],[38.656554359000154,38.91602446100006],[38.65812419800005,38.91843020200008],[38.65780964800018,38.9187842500001],[38.657410228000344,38.91973913500033]]],"type":"Polygon"}},{"type":"Feature","properties":{"area_id":"TR-23-001-2011472","name_tr":"Kaşpınar Köyü","area_level":"neighbourhood","parent_id":"TR-23-001","endeksa_id":2011472},"geometry":{"coordinates":[[[38.69698185999874,38.90396025502616],[38.69750017311685,38.90399264982784],[38.70256842508803,38.91141656799692],[38.713989838002135,38.91412915377015],[38.71598858512442,38.91255870913824],[38.7241977258596,38.91084549767629],[38.726339240812194,38.91234455789288],[38.71991469595429,38.916056516977505],[38.72027161502973,38.92119615286384],[38.721246042056464,38.92111658191436],[38.722251442039976,38.918793761277016],[38.723583940203184,38.918032333755434],[38.72710554249187,38.918032333755434],[38.72910428973677,38.920126259440565],[38.72944636064665,38.92044695085622],[38.732977936915404,38.91919740574133],[38.73424392563214,38.92260089891522],[38.73081750174583,38.92469482442925],[38.73212133093426,38.925907485759524],[38.734191461971875,38.92654993999548],[38.73347762382093,38.92804900071229],[38.731907179689074,38.92961944484421],[38.73069183102342,38.93011215323452],[38.730722323220675,38.930310352545746],[38.72986571725869,38.93135731538803],[38.72805732689409,38.93164285070873],[38.727977592858394,38.93162070226458],[38.72669615988764,38.93254618186279],[38.724337929953606,38.93342366287476],[38.7228978090003,38.933307425000464],[38.72230297400034,38.93288416800016],[38.72197739800043,38.93180023700063],[38.72289955600053,38.93180023700063],[38.723691412105325,38.931998201027],[38.72318697222698,38.931846976891165],[38.723103677694496,38.931720289695136],[38.72313968317184,38.93157238523139],[38.723296550088264,38.931472691608576],[38.724563787767295,38.93122469062172],[38.722942053000565,38.93154102600079],[38.722221058000684,38.931132989001014],[38.722537026000566,38.930164011000954],[38.72343400500063,38.92960695800065],[38.72343801900058,38.929378041000405],[38.723911031000625,38.92807302500114],[38.72452492700063,38.92797634800087],[38.72459955600067,38.927600237000775],[38.725199556000575,38.927200237001045],[38.72639955600056,38.92610023700098],[38.72651975977283,38.92585982945644],[38.72695000000044,38.92374000000029],[38.72592182863889,38.92396026522982],[38.725270000000535,38.92436000000043],[38.724490000000515,38.92527000000041],[38.723290000000475,38.92640000000051],[38.722510000000455,38.92627000000073],[38.72247007411437,38.925915657762516],[38.72076000200059,38.928077039000584],[38.719951861576135,38.92868254072579],[38.71977680279696,38.928026069989926],[38.71949126713656,38.92517071688644],[38.720584119040154,38.92264585201764],[38.718887365000285,38.92267942200033],[38.71804530000031,38.9222112610002],[38.71865925900022,38.9196673170004],[38.71855596600034,38.918433937000486],[38.71747140000048,38.9169127720005],[38.715644507000206,38.91584651100027],[38.712259825000274,38.91577249800031],[38.70639766000028,38.9139713150002],[38.70516393900027,38.91326354600034],[38.702499267000235,38.91250064400032],[38.6986280710002,38.91034220100033],[38.69936515600034,38.90827060100031],[38.69907098300024,38.90663064000029],[38.69746373900034,38.905232144000365],[38.69698185999874,38.90396025502616]]],"type":"Polygon"}},{"type":"Feature","properties":{"area_id":"TR-23-001-2011468","name_tr":"Balkayası Köyü","area_level":"neighbourhood","parent_id":"TR-23-001","endeksa_id":2011468},"geometry":{"coordinates":[[[38.564791000000355,38.9355980000002],[38.56098170000013,38.937380800000255],[38.55591770000018,38.941720200000475],[38.54759210000003,38.93958390000029],[38.54201310000008,38.93891630000047],[38.53634830000016,38.94018480000011],[38.533773300000064,38.94018480000011],[38.531370100000174,38.93978420000019],[38.52845180000014,38.93871610000025],[38.52821269500015,38.935804283000095],[38.530041818000086,38.93619856000049],[38.54194537300009,38.929603182000164],[38.542079808000096,38.92959944700044],[38.54234407300004,38.929774548000125],[38.54246974200004,38.929212447000396],[38.55100851000009,38.9216174550001],[38.55480190000003,38.91975350000018],[38.55661670000012,38.91752050000014],[38.56085300000012,38.9196366000001],[38.5619473000001,38.92055480000005],[38.56535910000014,38.919336100000066],[38.573684700000115,38.91836780000011],[38.576957000000164,38.91694030000008],[38.578652100000056,38.916573000000255],[38.57966060000018,38.91567150000009],[38.5817206000001,38.914352500000064],[38.582418000000075,38.91412710000003],[38.58314750000005,38.914018600000645],[38.583920000000035,38.91405200000003],[38.584671000000185,38.913868300000104],[38.58709570000008,38.91373480000061],[38.58852270000017,38.91352610000007],[38.59059330000008,38.91314200000005],[38.591784200000006,38.912707900000555],[38.593565200000114,38.91242410000052],[38.594638100000054,38.912707900000555],[38.59590410000004,38.91250760000014],[38.59798550000011,38.912607800000444],[38.59840390000011,38.91412710000003],[38.59839320000009,38.91449440000008],[38.59853270000008,38.91497019999997],[38.59894040000006,38.91579670000033],[38.599230000000034,38.91608050000036],[38.59933730000006,38.916564700000094],[38.59984160000005,38.917015500000275],[38.60102180000018,38.91875170000003],[38.60110760000015,38.91895210000064],[38.601032500000144,38.9191775000001],[38.601064700000165,38.91945290000018],[38.60134360000012,38.91982860000019],[38.602169700000104,38.92041290000003],[38.60283490000006,38.921180800000116],[38.602684700000054,38.921781800000645],[38.60259890000009,38.92337610000004],[38.60289930000005,38.92370990000012],[38.60440130000018,38.92486180000003],[38.60439060000016,38.925671400000056],[38.60248080000025,38.92556290000067],[38.59947680000022,38.92586340000031],[38.59771720000032,38.92623070000036],[38.59591480000017,38.927032000000224],[38.59464880000024,38.927032000000224],[38.5922884000002,38.92728240000048],[38.59044310000024,38.92768290000026],[38.58986380000027,38.92793330000069],[38.5893702000003,38.928317300000344],[38.5880827000002,38.92855100000031],[38.58190290000027,38.92795010000066],[38.57990730000034,38.927032000000224],[38.578104900000255,38.926614600000335],[38.575701700000195,38.92643100000038],[38.57495060000025,38.92589680000026],[38.57334130000032,38.92556300000035],[38.57076640000025,38.92603040000063],[38.56896390000031,38.92656460000006],[38.56750480000022,38.92683170000049],[38.56501570000029,38.92683170000049],[38.56081000000029,38.92656460000006],[38.564791000000355,38.9355980000002]]],"type":"Polygon"}},{"type":"Feature","properties":{"area_id":"TR-23-001-2011473","name_tr":"Modanlı Köyü","area_level":"neighbourhood","parent_id":"TR-23-001","endeksa_id":2011473},"geometry":{"coordinates":[[[38.63486685419656,38.94691741116395],[38.63481385539228,38.946878085512935],[38.6346560140002,38.94693987600033],[38.63360407400023,38.94669307500044],[38.632155218000264,38.94680441700024],[38.63101685300029,38.947174049000296],[38.62729358100023,38.94752287100016],[38.625927457000216,38.94797746700033],[38.62569346800029,38.94857433500033],[38.62458467600021,38.94882847100018],[38.62147679900016,38.95022434800035],[38.62011413200031,38.95060898500026],[38.61909374700036,38.95129242200022],[38.61856062098184,38.951282649954294],[38.618972034000535,38.951117673000454],[38.61889955500067,38.95068925000061],[38.618016200000284,38.95066520000023],[38.61404083100024,38.95277035200047],[38.61371197200032,38.952697989000285],[38.612698698000315,38.95348107700039],[38.609704739000335,38.955066524000244],[38.60859011900027,38.95518657400055],[38.60825778000026,38.95552114400016],[38.59797470000029,38.95667240000074],[38.59799647000028,38.95948341100035],[38.597778592000225,38.95981556300035],[38.595936057000245,38.957120720000205],[38.59039762200024,38.947822407000615],[38.575763941000275,38.94130602600035],[38.56566130100032,38.935190665000334],[38.564791000000355,38.9355980000002],[38.56081000000029,38.92656460000006],[38.56501570000029,38.92683170000049],[38.56750480000022,38.92683170000049],[38.56896390000031,38.92656460000006],[38.57076640000025,38.92603040000063],[38.57334130000032,38.92556300000035],[38.57495060000025,38.92589680000026],[38.575701700000195,38.92643100000038],[38.578104900000255,38.926614600000335],[38.57990730000034,38.927032000000224],[38.58190290000027,38.92795010000066],[38.5880827000002,38.92855100000031],[38.5893702000003,38.928317300000344],[38.58986380000027,38.92793330000069],[38.59044310000024,38.92768290000026],[38.5922884000002,38.92728240000048],[38.59464880000024,38.927032000000224],[38.59591480000017,38.927032000000224],[38.59771720000032,38.92623070000036],[38.59947680000022,38.92586340000031],[38.60248080000025,38.92556290000067],[38.60439060000016,38.925671400000056],[38.607501900000216,38.92686500000076],[38.608231500000215,38.9269318000006],[38.6095619000003,38.926097100000106],[38.610377300000266,38.92603040000063],[38.61106390000026,38.925830000000246],[38.61260890000034,38.92575490000024],[38.61278060000035,38.92668140000035],[38.612716200000364,38.92702360000038],[38.61294150000032,38.92758280000032],[38.61299510000032,38.92802510000047],[38.613091700000325,38.92826720000028],[38.61360670000033,38.9283340000008],[38.61379980000032,38.92805850000025],[38.61432550000029,38.92769960000021],[38.61620310000018,38.92703190000071],[38.61740470000035,38.926981800000476],[38.61853120000029,38.92655620000079],[38.619260800000234,38.92643930000071],[38.61982940000024,38.92623060000034],[38.62029070000017,38.92545440000026],[38.6217391000003,38.92412730000024],[38.621825000000285,38.92386850000031],[38.62209320000028,38.9237183000003],[38.62273690000029,38.92379340000031],[38.62300510000023,38.92373500000042],[38.623498700000255,38.923325999999975],[38.6239922000002,38.92344280000026],[38.625655200000324,38.92328430000043],[38.6263847000003,38.92337610000021],[38.626792400000284,38.92289190000065],[38.62703920000024,38.92279180000054],[38.627393200000256,38.9226833000003],[38.62826230000036,38.9226082000003],[38.62906690000034,38.92235770000036],[38.630375900000274,38.92213240000069],[38.63183500000025,38.92127260000029],[38.632639600000346,38.92105560000027],[38.63327260000034,38.92068830000022],[38.63386270000029,38.92086360000036],[38.634688800000276,38.92088870000032],[38.636620000000164,38.92014570000009],[38.63899110000028,38.91896040000029],[38.639742100000205,38.918284300000266],[38.6417162000003,38.917015500000446],[38.64430190000019,38.91558800000064],[38.64455940000022,38.91532920000054],[38.64511730000015,38.915821700000436],[38.64497780000033,38.91616399999998],[38.6449671000002,38.91667320000022],[38.64566440000033,38.91733270000026],[38.64601850000031,38.91700710000032],[38.64821790000019,38.918493000000126],[38.649773600000344,38.919336100000294],[38.6501276000003,38.91950300000025],[38.65094300000027,38.91962820000026],[38.651919400000224,38.9199538000002],[38.65411082800057,38.91991442000085],[38.65403216904406,38.92005957302399],[38.65422694600022,38.92008465900028],[38.657253320000336,38.91996953500035],[38.657410228000344,38.91973913500033],[38.65750066400034,38.919866087000344],[38.65768612213185,38.91987924204807],[38.6575966120829,38.92012539513763],[38.656026167950984,38.92105338503376],[38.6539560369136,38.92262382966567],[38.65409880474368,38.92440842504277],[38.65417018865878,38.92612163700488],[38.65252836011172,38.926692707825566],[38.6507437647345,38.92597886967485],[38.65002627981835,38.92480823610293],[38.64972623400121,38.92503949900117],[38.647599556001126,38.92470023700116],[38.64623019678288,38.924941888374406],[38.644999556001096,38.92540023700133],[38.648745017112105,38.925836101844425],[38.649173320102705,38.92662132391047],[38.64881640102726,38.929405293098796],[38.645720652474495,38.9313867138967],[38.6456481330012,38.93179532900132],[38.64502304700119,38.93263594000132],[38.644508752122306,38.933554660797085],[38.64496167411255,38.936900595683085],[38.64346261389562,38.940755322097914],[38.6403931090469,38.94232576672971],[38.63917958399048,38.945395271078326],[38.63486685419656,38.94691741116395]]],"type":"Polygon"}},{"type":"Feature","properties":{"area_id":"TR-23-001-99724","name_tr":"Merkez","area_level":"neighbourhood","parent_id":"TR-23-001","endeksa_id":99724},"geometry":{"coordinates":[[[38.72010544200026,38.96407265600055],[38.71633626700026,38.96402326500032],[38.71569886400033,38.96409521900023],[38.71336023500021,38.96313406300061],[38.713665553000226,38.961898242000586],[38.71361063500029,38.96180080000016],[38.70961641900021,38.96126814300027],[38.709223788000145,38.961082859000214],[38.70908492000024,38.960667079000416],[38.70863195000021,38.9605633040008],[38.70546630400031,38.961062541000274],[38.70324187200032,38.96094567900002],[38.70313167800026,38.96083180000028],[38.70298883500021,38.9593753220002],[38.70369480400029,38.956579328000316],[38.70360168100029,38.95481670000032],[38.70162043600027,38.95433554500039],[38.701193952000324,38.953569220000304],[38.70029726600035,38.95288728100064],[38.699180759000285,38.95120432700048],[38.69937347400031,38.949193044000424],[38.70027671400027,38.94765189100036],[38.700260758000354,38.94715275900063],[38.6987680660003,38.94657955500031],[38.69890842900031,38.94598560100053],[38.697898144000305,38.94510523800028],[38.69862376800029,38.94411944300083],[38.69857807700032,38.9438732010002],[38.698804904000326,38.94354215300035],[38.69896388600034,38.94356197900038],[38.69912569200022,38.94336604400041],[38.7003626890002,38.942814511000506],[38.702101234000224,38.9412733300008],[38.702112485000214,38.94115824900024],[38.70015466600029,38.93979988800021],[38.69921572500033,38.93883010100035],[38.695803944000204,38.9345637370003],[38.69337946500025,38.93321021900027],[38.69227108500036,38.93339826300053],[38.691800377000334,38.93404957400031],[38.69044102800024,38.93516681500029],[38.689568160000306,38.93561473800031],[38.688171546000206,38.93616928300048],[38.68648399600016,38.93628541300029],[38.68530643800028,38.937218764000875],[38.684618747000286,38.93723680300036],[38.6836924940003,38.9365570140003],[38.6827118250003,38.93507056600026],[38.681738507000205,38.93256177600051],[38.680321764000325,38.93187551400024],[38.67875166600027,38.93173108500059],[38.67814731100026,38.93136612300043],[38.67735125600018,38.93041528400016],[38.67667636400034,38.92872811300032],[38.67696228000034,38.92757322400024],[38.676860692000275,38.92698325500032],[38.67592338200035,38.92332083000025],[38.67539647100023,38.92222143700053],[38.674413664000326,38.921658524000236],[38.672576455000296,38.92128125000045],[38.672070294000264,38.91891418500029],[38.67160285600028,38.91859938600027],[38.66820907100026,38.91726275500025],[38.66643058800025,38.91696515300032],[38.666379335000215,38.915315370000485],[38.66600623988131,38.914313242932565],[38.66640033389791,38.91362059294221],[38.66670830800052,38.91343806500066],[38.66702057900051,38.91288485400048],[38.667020254777526,38.912531035873826],[38.668304186846115,38.91027442685544],[38.669374944072445,38.91034581077059],[38.6712309238647,38.910774113760965],[38.673158287072056,38.90898951788387],[38.67679886274141,38.90848983097834],[38.68051082182609,38.91063134593105],[38.6871495179293,38.91191625490245],[38.69007625494771,38.91148795191191],[38.696429415890464,38.90984612386484],[38.69600111290009,38.90784737674255],[38.69414513310784,38.905705861789784],[38.69407374969256,38.9037784980826],[38.69698185999874,38.90396025502616],[38.69746373900034,38.905232144000365],[38.69907098300024,38.90663064000029],[38.69936515600034,38.90827060100031],[38.6986280710002,38.91034220100033],[38.702499267000235,38.91250064400032],[38.70516393900027,38.91326354600034],[38.70639766000028,38.9139713150002],[38.712259825000274,38.91577249800031],[38.715644507000206,38.91584651100027],[38.71747140000048,38.9169127720005],[38.71855596600034,38.918433937000486],[38.71865925900022,38.9196673170004],[38.71804530000031,38.9222112610002],[38.718887365000285,38.92267942200033],[38.720584119040154,38.92264585201764],[38.71949126713656,38.92517071688644],[38.71977680279696,38.928026069989926],[38.719951861576135,38.92868254072579],[38.72076000200059,38.928077039000584],[38.72247007411437,38.925915657762516],[38.722510000000455,38.92627000000073],[38.723290000000475,38.92640000000051],[38.724490000000515,38.92527000000041],[38.725270000000535,38.92436000000043],[38.72592182863889,38.92396026522982],[38.72695000000044,38.92374000000029],[38.72651975977283,38.92585982945644],[38.72639955600056,38.92610023700098],[38.725199556000575,38.927200237001045],[38.72459955600067,38.927600237000775],[38.72452492700063,38.92797634800087],[38.723911031000625,38.92807302500114],[38.72343801900058,38.929378041000405],[38.72343400500063,38.92960695800065],[38.722537026000566,38.930164011000954],[38.722221058000684,38.931132989001014],[38.722942053000565,38.93154102600079],[38.724563787767295,38.93122469062172],[38.723296550088264,38.931472691608576],[38.72313968317184,38.93157238523139],[38.723103677694496,38.931720289695136],[38.72318697222698,38.931846976891165],[38.723691412105325,38.931998201027],[38.72289955600053,38.93180023700063],[38.72197739800043,38.93180023700063],[38.72230297400034,38.93288416800016],[38.7228978090003,38.933307425000464],[38.724337929953606,38.93342366287476],[38.72362665503874,38.933688323004276],[38.722299555001086,38.93450023700149],[38.722499556001196,38.93500023700108],[38.72238598700113,38.93522737400133],[38.7222749448743,38.93524478938514],[38.72219897873714,38.937543049918816],[38.72619647298205,38.93375970691926],[38.72905182608554,38.93204649495709],[38.73397731072669,38.931546808051735],[38.73754650198106,38.93197511104211],[38.740830158075084,38.93318863609858],[38.7418295318862,38.93618675703232],[38.74033047166944,38.93768581774913],[38.74425658199925,38.94011286786201],[38.74853961190456,38.9413263929186],[38.750181439951405,38.94246853406008],[38.749711768137274,38.94528656302316],[38.74602933600028,38.94629367100043],[38.7449539940003,38.94693140400034],[38.74458150400022,38.947410043000275],[38.740899895000325,38.94871913900056],[38.740220273000205,38.94890393500026],[38.73954362500035,38.94874169300033],[38.73918972600029,38.94971702600026],[38.73866513000024,38.950209021000376],[38.738392514000225,38.951114866000296],[38.737341930000355,38.952585010000234],[38.73658229200021,38.95452174299999],[38.735254094000254,38.95572698500041],[38.73222211300032,38.9559453360003],[38.73171133800025,38.95572354900048],[38.730913447000205,38.954400446000875],[38.73094271600024,38.953498270000125],[38.73124383700036,38.95287039100049],[38.73092567500032,38.952554429000315],[38.72975072600036,38.9520756150003],[38.729041210000275,38.951175294000336],[38.728642794000166,38.951281352000194],[38.72780658500017,38.954225962000294],[38.72720760500022,38.95518225800055],[38.72726259000024,38.956468421000295],[38.72685276700031,38.95783072100039],[38.72374177000023,38.95997805600069],[38.72261588100025,38.96136035000035],[38.72196745200034,38.96262784800024],[38.72010544200026,38.96407265600055]]],"type":"Polygon"}},{"type":"Feature","properties":{"area_id":"TR-23-001-21364","name_tr":"Akpınar","area_level":"neighbourhood","parent_id":"TR-23-001","endeksa_id":21364},"geometry":{"coordinates":[[[38.70313167800026,38.96083180000028],[38.70305112800031,38.960931761000325],[38.702405586000225,38.96105498100036],[38.7014724510002,38.96060753200055],[38.69956508900026,38.96076792900027],[38.69946388000034,38.9608419650005],[38.69938277300031,38.96148170100014],[38.6993088870002,38.9615551680003],[38.69713656800036,38.961609308000334],[38.696880364000265,38.96212788700035],[38.696917722000364,38.96286996800052],[38.69603651900036,38.96341619000026],[38.69585400200026,38.964729871000486],[38.69501476300036,38.9653756890001],[38.69455987000032,38.96584728400035],[38.692285842000274,38.96669531800035],[38.68996862300031,38.96652312000009],[38.68918097400024,38.966672419000304],[38.689064329000246,38.96655618300025],[38.68878842200024,38.96457398200033],[38.68888781700019,38.9633834940002],[38.688538310000354,38.96299351100021],[38.6887938820002,38.962136331000124],[38.688713084000256,38.961703417000365],[38.68755043500022,38.960474318000365],[38.685726735000344,38.958792762000144],[38.68530701700024,38.95852843100039],[38.684740362000355,38.958505008000316],[38.683574910000345,38.957766602000504],[38.68228791600029,38.95818931200034],[38.680784777000326,38.9577838950006],[38.678149311000254,38.9577791240003],[38.67718711900022,38.956138104000274],[38.6758674970003,38.9551997680004],[38.67528947300025,38.95282151500021],[38.67450058500032,38.95305973699999],[38.67263123000026,38.95482459000044],[38.6700592210002,38.956038529000296],[38.66866428100025,38.955780877999985],[38.66811389400027,38.95546200299998],[38.667624774000274,38.95544778600049],[38.66753481000029,38.955337825000186],[38.667661276000274,38.95465634800024],[38.66708603800032,38.95279241300028],[38.66744787400023,38.94821879800031],[38.667907011000295,38.94664062300018],[38.66841134800035,38.945770948000074],[38.66893584600024,38.942572776000134],[38.66970926600027,38.94120283800032],[38.67075256400028,38.94016550000026],[38.67180862400028,38.93856460900025],[38.67192010600024,38.937287145000255],[38.67126420500023,38.93569279900032],[38.67035512400025,38.93484900700031],[38.66993132900029,38.934630965000224],[38.669580223000196,38.93324992800041],[38.669063789000234,38.93228652100021],[38.66800395300032,38.93122682900008],[38.667144186000314,38.930900915000336],[38.66685566100034,38.930193207],[38.66662036800034,38.92891217100026],[38.66586503500025,38.927396127000236],[38.665862529000265,38.925605798000845],[38.66545159100036,38.92348428200029],[38.66448804500021,38.922230500000296],[38.66438377300028,38.921559060000334],[38.66441819000022,38.92130099200011],[38.66480834500021,38.921261999000365],[38.66526212002759,38.92102455289154],[38.666805126129304,38.9214103041092],[38.66202240981846,38.91912602182623],[38.662807631884334,38.91641343605295],[38.66480637900685,38.91534267882679],[38.66559160107283,38.91677035512839],[38.66594852064816,38.91441468893066],[38.66600623988131,38.914313242932565],[38.666379335000215,38.915315370000485],[38.66643058800025,38.91696515300032],[38.66820907100026,38.91726275500025],[38.67160285600028,38.91859938600027],[38.672070294000264,38.91891418500029],[38.672576455000296,38.92128125000045],[38.674413664000326,38.921658524000236],[38.67539647100023,38.92222143700053],[38.67592338200035,38.92332083000025],[38.676860692000275,38.92698325500032],[38.67696228000034,38.92757322400024],[38.67667636400034,38.92872811300032],[38.67735125600018,38.93041528400016],[38.67814731100026,38.93136612300043],[38.67875166600027,38.93173108500059],[38.680321764000325,38.93187551400024],[38.681738507000205,38.93256177600051],[38.6827118250003,38.93507056600026],[38.6836924940003,38.9365570140003],[38.684618747000286,38.93723680300036],[38.68530643800028,38.937218764000875],[38.68648399600016,38.93628541300029],[38.688171546000206,38.93616928300048],[38.689568160000306,38.93561473800031],[38.69044102800024,38.93516681500029],[38.691800377000334,38.93404957400031],[38.69227108500036,38.93339826300053],[38.69337946500025,38.93321021900027],[38.695803944000204,38.9345637370003],[38.69921572500033,38.93883010100035],[38.70015466600029,38.93979988800021],[38.702112485000214,38.94115824900024],[38.702101234000224,38.9412733300008],[38.7003626890002,38.942814511000506],[38.69912569200022,38.94336604400041],[38.69896388600034,38.94356197900038],[38.698804904000326,38.94354215300035],[38.69857807700032,38.9438732010002],[38.69862376800029,38.94411944300083],[38.697898144000305,38.94510523800028],[38.69890842900031,38.94598560100053],[38.6987680660003,38.94657955500031],[38.700260758000354,38.94715275900063],[38.70027671400027,38.94765189100036],[38.69937347400031,38.949193044000424],[38.699180759000285,38.95120432700048],[38.70029726600035,38.95288728100064],[38.701193952000324,38.953569220000304],[38.70162043600027,38.95433554500039],[38.70360168100029,38.95481670000032],[38.70369480400029,38.956579328000316],[38.70298883500021,38.9593753220002],[38.70313167800026,38.96083180000028]]],"type":"Polygon"}},{"type":"Feature","properties":{"area_id":"TR-23-001-2011479","name_tr":"Yenipayam Köyü","area_level":"neighbourhood","parent_id":"TR-23-001","endeksa_id":2011479},"geometry":{"coordinates":[[[38.66753481000029,38.955337825000186],[38.666788495000105,38.95712582400006],[38.66636975900013,38.957451089000074],[38.66486107700018,38.957990973000335],[38.664065999000115,38.959769302000154],[38.664011713000036,38.96222926300004],[38.66445860000016,38.96379582000003],[38.66435310900005,38.964860461000285],[38.662542434000045,38.96617424100009],[38.66123303800009,38.96640463700015],[38.66057557800002,38.967095891000326],[38.66011567200019,38.967115000000035],[38.655880577000175,38.96706921100025],[38.65211999700006,38.96632207199997],[38.6512766350001,38.96658163500041],[38.648567117000084,38.96706980100015],[38.64792676000013,38.966877913000076],[38.64654140600004,38.96563637200012],[38.64561982300012,38.96529973200012],[38.645082417000026,38.964320241000166],[38.6437404008272,38.96360589682723],[38.644615057560884,38.96273123987078],[38.644599556001026,38.96270023700134],[38.644699556000944,38.9619002370012],[38.64529955600102,38.96030023700155],[38.64599955600107,38.957800237001095],[38.6475995560009,38.955600237000965],[38.647699556001044,38.95500023700106],[38.647499555000934,38.954300237001235],[38.647303416900456,38.95410409828281],[38.64653211874429,38.954104098719085],[38.644890290697276,38.95346164398342],[38.64688903781973,38.95103459387036],[38.64838809803666,38.949464149738276],[38.64909955500093,38.947400237001204],[38.647404896927014,38.94610432116684],[38.645961047923606,38.94675156396505],[38.643819532971065,38.945823574068925],[38.646389350914035,38.94168331199387],[38.64840111584789,38.94067742927723],[38.6496064774895,38.93850777852231],[38.64838809803666,38.93525876713602],[38.64981577483837,38.93176095979675],[38.65474125897941,38.929619444844036],[38.65731107692261,38.92976221267429],[38.658938212093744,38.9303395829844],[38.65969955600093,38.92990023700156],[38.661299556000984,38.92810023700076],[38.66052334910148,38.924122889882426],[38.66187964198821,38.92298074874094],[38.662522096723876,38.920339546882815],[38.66526212002759,38.92102455289154],[38.66480834500021,38.921261999000365],[38.66441819000022,38.92130099200011],[38.66438377300028,38.921559060000334],[38.66448804500021,38.922230500000296],[38.66545159100036,38.92348428200029],[38.665862529000265,38.925605798000845],[38.66586503500025,38.927396127000236],[38.66662036800034,38.92891217100026],[38.66685566100034,38.930193207],[38.667144186000314,38.930900915000336],[38.66800395300032,38.93122682900008],[38.669063789000234,38.93228652100021],[38.669580223000196,38.93324992800041],[38.66993132900029,38.934630965000224],[38.67035512400025,38.93484900700031],[38.67126420500023,38.93569279900032],[38.67192010600024,38.937287145000255],[38.67180862400028,38.93856460900025],[38.67075256400028,38.94016550000026],[38.66970926600027,38.94120283800032],[38.66893584600024,38.942572776000134],[38.66841134800035,38.945770948000074],[38.667907011000295,38.94664062300018],[38.66744787400023,38.94821879800031],[38.66708603800032,38.95279241300028],[38.667661276000274,38.95465634800024],[38.66753481000029,38.955337825000186]]],"type":"Polygon"}},{"type":"Feature","properties":{"area_id":"TR-23-001-21370","name_tr":"Şenpınar","area_level":"neighbourhood","parent_id":"TR-23-001","endeksa_id":21370},"geometry":{"coordinates":[[[38.760653602021534,38.973001991121635],[38.75905351300008,38.97374958000012],[38.75684612000015,38.97441011600006],[38.75412493700014,38.97486619900002],[38.75320855299998,38.97524889300007],[38.75136500400015,38.97551986500014],[38.74885629600004,38.97557084199997],[38.74754963800012,38.97603344800024],[38.74657780399997,38.97604228500035],[38.74444250900018,38.97712664100004],[38.742786811000144,38.97740018500008],[38.741320749000124,38.97826269400048],[38.74090666700016,38.97869470100011],[38.73988908899997,38.978780867000125],[38.73831051800005,38.97806728300003],[38.73629107700003,38.97746722000056],[38.73228974800014,38.977670110000474],[38.72683172800009,38.98011062700016],[38.72248821800008,38.98027397300018],[38.721596525999985,38.98000457500012],[38.720619358000135,38.97838957800013],[38.72019658700009,38.97639831700013],[38.71871868400012,38.97445156000009],[38.71791429200016,38.9725294130003],[38.71846935900015,38.97022560500011],[38.71995465500015,38.96765305300005],[38.72023008299999,38.964176297000165],[38.72010544200026,38.96407265600055],[38.72196745200034,38.96262784800024],[38.72261588100025,38.96136035000035],[38.72374177000023,38.95997805600069],[38.72685276700031,38.95783072100039],[38.72726259000024,38.956468421000295],[38.72720760500022,38.95518225800055],[38.72780658500017,38.954225962000294],[38.728642794000166,38.951281352000194],[38.729041210000275,38.951175294000336],[38.72975072600036,38.9520756150003],[38.73092567500032,38.952554429000315],[38.73124383700036,38.95287039100049],[38.73094271600024,38.953498270000125],[38.730913447000205,38.954400446000875],[38.73171133800025,38.95572354900048],[38.73222211300032,38.9559453360003],[38.735254094000254,38.95572698500041],[38.73658229200021,38.95452174299999],[38.737341930000355,38.952585010000234],[38.738392514000225,38.951114866000296],[38.73866513000024,38.950209021000376],[38.73918972600029,38.94971702600026],[38.73954362500035,38.94874169300033],[38.740220273000205,38.94890393500026],[38.740899895000325,38.94871913900056],[38.74458150400022,38.947410043000275],[38.7449539940003,38.94693140400034],[38.74602933600028,38.94629367100043],[38.749711768137274,38.94528656302316],[38.74968175304571,38.94546665499348],[38.75110942984753,38.94525250374829],[38.75582076274327,38.94418174602191],[38.7568201360545,38.94489558467268],[38.75260849006429,38.95217673501185],[38.75432170202629,38.95231950284193],[38.75160911675306,38.95510347203026],[38.75532107583757,38.955817310681255],[38.756748752139345,38.95910096677528],[38.755677994913015,38.96131386564298],[38.759461337912796,38.959886188841324],[38.76131731770505,38.9602431079166],[38.75924718666744,38.963669531840765],[38.75881888367684,38.96509720864259],[38.76317329699725,38.96416921874629],[38.763387448742435,38.96424060266162],[38.762316691016224,38.96716733968003],[38.760746246884366,38.9688805516422],[38.762102539770865,38.96873778381189],[38.76417267080848,38.96809532907611],[38.76595726668563,38.96823809690636],[38.76717079174222,38.969023318972404],[38.76452958988392,38.97109345001002],[38.75853334801667,38.9733777327927],[38.760653602021534,38.973001991121635]]],"type":"Polygon"}},{"type":"Feature","properties":{"area_id":"TR-23-001-21366","name_tr":"Başpınar","area_level":"neighbourhood","parent_id":"TR-23-001","endeksa_id":21366},"geometry":{"coordinates":[[[38.67810435700005,38.98122446500031],[38.67782419800005,38.981206156000155],[38.67709870500016,38.98077914400017],[38.67586703500007,38.98078612400019],[38.67518226800013,38.98181327800012],[38.67510998600005,38.9815714610001],[38.672330402000114,38.98422826600006],[38.672127904000035,38.98424543200042],[38.67101881900004,38.983922056000665],[38.66939504500016,38.981093446000216],[38.66696986400012,38.97877221600004],[38.66636902000016,38.97765985200016],[38.664741610000135,38.976051252000104],[38.663541959999975,38.973139588000095],[38.66271955200017,38.96978579500012],[38.661592237000036,38.96873692300039],[38.660742009000046,38.96823568500031],[38.66045883700008,38.96777712300002],[38.66044843500009,38.96717653200034],[38.66011567200019,38.967115000000035],[38.66057557800002,38.967095891000326],[38.66123303800009,38.96640463700015],[38.662542434000045,38.96617424100009],[38.66435310900005,38.964860461000285],[38.66445860000016,38.96379582000003],[38.664011713000036,38.96222926300004],[38.664065999000115,38.959769302000154],[38.66486107700018,38.957990973000335],[38.66636975900013,38.957451089000074],[38.666788495000105,38.95712582400006],[38.66753481000029,38.955337825000186],[38.667624774000274,38.95544778600049],[38.66811389400027,38.95546200299998],[38.66866428100025,38.955780877999985],[38.6700592210002,38.956038529000296],[38.67263123000026,38.95482459000044],[38.67450058500032,38.95305973699999],[38.67528947300025,38.95282151500021],[38.6758674970003,38.9551997680004],[38.67718711900022,38.956138104000274],[38.678149311000254,38.9577791240003],[38.680784777000326,38.9577838950006],[38.68228791600029,38.95818931200034],[38.683574910000345,38.957766602000504],[38.684740362000355,38.958505008000316],[38.68530701700024,38.95852843100039],[38.685726735000344,38.958792762000144],[38.68755043500022,38.960474318000365],[38.688713084000256,38.961703417000365],[38.6887938820002,38.962136331000124],[38.688538310000354,38.96299351100021],[38.68888781700019,38.9633834940002],[38.68878842200024,38.96457398200033],[38.689064329000246,38.96655618300025],[38.68903868500007,38.96679131100035],[38.68868516100014,38.96737907300013],[38.688612696999996,38.96834243300026],[38.688227415000085,38.96864289700011],[38.68661111300014,38.968730128999994],[38.68494653199997,38.967971527000145],[38.68325140200005,38.968625329000076],[38.68241187600006,38.96936415400069],[38.68125290299997,38.97242265400007],[38.68159390800008,38.97424813600031],[38.68160816799997,38.97815815400003],[38.6807413410001,38.97890204200007],[38.67934766000019,38.98057522500005],[38.67847984300005,38.98121535900009],[38.67810435700005,38.98122446500031]]],"type":"Polygon"}},{"type":"Feature","properties":{"area_id":"TR-23-001-2011465","name_tr":"Aşağıyabanlı Köyü","area_level":"neighbourhood","parent_id":"TR-23-001","endeksa_id":2011465},"geometry":{"coordinates":[[[38.63486685419656,38.94691741116395],[38.634325483764485,38.947108483040665],[38.638608513669624,38.94639464488978],[38.641321098943024,38.94696571571046],[38.64374814905608,38.948179240766876],[38.64567551276332,38.94939276582335],[38.64331984606548,38.95024937180432],[38.64182078584855,38.95124874511572],[38.64182078584855,38.952605038002275],[38.641249715028096,38.95503208811533],[38.639822038726265,38.95760190605847],[38.63932235182057,38.96031449183175],[38.639393735735666,38.963241228850165],[38.63846574583954,38.96638211711428],[38.637038069037715,38.96659626885952],[38.63582454398124,38.968380864736616],[38.635753160066145,38.971807288660955],[38.63461101892483,38.97416295485874],[38.63246950397223,38.97587616682085],[38.6319202239485,38.97620276591283],[38.63184351000024,38.97620725400026],[38.63184643698685,38.97624663897784],[38.62982830211399,38.97744661095277],[38.628757544887605,38.98051611580149],[38.627239868824574,38.982346963854525],[38.62691569000032,38.9824582880002],[38.6256507610002,38.98357871000036],[38.625382532000344,38.98438949100034],[38.62537615591043,38.98459525192561],[38.62426036373711,38.98594128684812],[38.623189606010726,38.988582488706356],[38.623189606010726,38.991794760885284],[38.621885753963966,38.99286115695594],[38.6210508930003,38.99314273600032],[38.619220875000224,38.99432731600024],[38.619145028000275,38.994236643000306],[38.618634455000176,38.994116369000324],[38.61565844800026,38.99223212900034],[38.60882247200021,38.98734889500042],[38.600903280000296,38.978845589000116],[38.59973059700036,38.97707951700022],[38.5991018440003,38.9758780480002],[38.59858179900033,38.96981851000044],[38.597778592000225,38.95981556300035],[38.59799647000028,38.95948341100035],[38.59797470000029,38.95667240000074],[38.60825778000026,38.95552114400016],[38.60859011900027,38.95518657400055],[38.609704739000335,38.955066524000244],[38.612698698000315,38.95348107700039],[38.61371197200032,38.952697989000285],[38.61404083100024,38.95277035200047],[38.618016200000284,38.95066520000023],[38.61889955500067,38.95068925000061],[38.618972034000535,38.951117673000454],[38.61856062098184,38.951282649954294],[38.61909374700036,38.95129242200022],[38.62011413200031,38.95060898500026],[38.62147679900016,38.95022434800035],[38.62458467600021,38.94882847100018],[38.62569346800029,38.94857433500033],[38.625927457000216,38.94797746700033],[38.62729358100023,38.94752287100016],[38.63101685300029,38.947174049000296],[38.632155218000264,38.94680441700024],[38.63360407400023,38.94669307500044],[38.6346560140002,38.94693987600033],[38.63481385539228,38.946878085512935],[38.63486685419656,38.94691741116395]]],"type":"Polygon"}},{"type":"Feature","properties":{"area_id":"TR-23-001-2011469","name_tr":"Beyelması Köyü","area_level":"neighbourhood","parent_id":"TR-23-001","endeksa_id":2011469},"geometry":{"coordinates":[[[38.68597239000013,38.99509246900004],[38.685844436000025,38.99519200200001],[38.68582795200007,38.99512084000003],[38.68574145600002,38.99514080800009],[38.68338406100014,38.995794692000686],[38.68195377300009,38.99568833400008],[38.681196403000115,38.994125800999996],[38.68013731800016,38.993163035000634],[38.679643995000106,38.99309765200064],[38.67770738900009,38.99372483900004],[38.67731746300018,38.99410451600011],[38.67715965400015,38.99114567099997],[38.675798672000155,38.99151739900003],[38.675639781000086,38.98984147400034],[38.675833953000165,38.98882608600053],[38.67801342300004,38.98698115200011],[38.67818511500019,38.98612018200009],[38.67803196700015,38.98511166600014],[38.67717342200007,38.983150945000034],[38.677266367000186,38.98256512600011],[38.67821444000003,38.981367325000406],[38.67810435700005,38.98122446500031],[38.67847984300005,38.98121535900009],[38.67934766000019,38.98057522500005],[38.6807413410001,38.97890204200007],[38.68160816799997,38.97815815400003],[38.68159390800008,38.97424813600031],[38.68125290299997,38.97242265400007],[38.68241187600006,38.96936415400069],[38.68325140200005,38.968625329000076],[38.68494653199997,38.967971527000145],[38.68661111300014,38.968730128999994],[38.688227415000085,38.96864289700011],[38.688612696999996,38.96834243300026],[38.68868516100014,38.96737907300013],[38.68903868500007,38.96679131100035],[38.689064329000246,38.96655618300025],[38.68918097400024,38.966672419000304],[38.68996862300031,38.96652312000009],[38.692285842000274,38.96669531800035],[38.69455987000032,38.96584728400035],[38.69501476300036,38.9653756890001],[38.69585400200026,38.964729871000486],[38.69603651900036,38.96341619000026],[38.696917722000364,38.96286996800052],[38.696880364000265,38.96212788700035],[38.69713656800036,38.961609308000334],[38.6993088870002,38.9615551680003],[38.69938277300031,38.96148170100014],[38.69946388000034,38.9608419650005],[38.69956508900026,38.96076792900027],[38.7014724510002,38.96060753200055],[38.702405586000225,38.96105498100036],[38.70305112800031,38.960931761000325],[38.70313167800026,38.96083180000028],[38.70324187200032,38.96094567900002],[38.70546630400031,38.961062541000274],[38.70863195000021,38.9605633040008],[38.70908492000024,38.960667079000416],[38.709223788000145,38.961082859000214],[38.70961641900021,38.96126814300027],[38.71361063500029,38.96180080000016],[38.713665553000226,38.961898242000586],[38.71336023500021,38.96313406300061],[38.71569886400033,38.96409521900023],[38.71633626700026,38.96402326500032],[38.72010544200026,38.96407265600055],[38.72023008299999,38.964176297000165],[38.71995465500015,38.96765305300005],[38.71846935900015,38.97022560500011],[38.71791429200016,38.9725294130003],[38.71871868400012,38.97445156000009],[38.72019658700009,38.97639831700013],[38.720619358000135,38.97838957800013],[38.721596525999985,38.98000457500012],[38.72248821800008,38.98027397300018],[38.72683172800009,38.98011062700016],[38.73228974800014,38.977670110000474],[38.73629107700003,38.97746722000056],[38.73831051800005,38.97806728300003],[38.73988908899997,38.978780867000125],[38.74090666700016,38.97869470100011],[38.741320749000124,38.97826269400048],[38.742786811000144,38.97740018500008],[38.74444250900018,38.97712664100004],[38.74657780399997,38.97604228500035],[38.74754963800012,38.97603344800024],[38.74885629600004,38.97557084199997],[38.75136500400015,38.97551986500014],[38.75320855299998,38.97524889300007],[38.75412493700014,38.97486619900002],[38.75684612000015,38.97441011600006],[38.75905351300008,38.97374958000012],[38.760653602021534,38.973001991121635],[38.76417267080848,38.97237835898159],[38.7676704786478,38.97237835898159],[38.768669851958975,38.97202143990614],[38.76953707900026,38.97202143993741],[38.77083704600028,38.97564025400021],[38.770723187000215,38.97576559700036],[38.76661220700021,38.97598749399998],[38.7654174570003,38.97712968000036],[38.76379591800014,38.97790860100025],[38.76335359600034,38.9780609510002],[38.760727854750314,38.97892300325043],[38.758604673000264,38.97923663700033],[38.757733705000305,38.9795494570003],[38.75736046000026,38.97979227300033],[38.75732066800032,38.98040471700034],[38.75707549000032,38.98076450000036],[38.75623694800021,38.981392599],[38.75550309000022,38.98154866200025],[38.75486895195132,38.98151425600736],[38.75477194700039,38.98085404300042],[38.7543055050005,38.980265286000474],[38.75015113400025,38.98048887300001],[38.74230220500033,38.984432965000565],[38.74214773400024,38.98443829700034],[38.74119900800031,38.98498732300078],[38.741096991999996,38.98495166900068],[38.738625991000106,38.98565738000036],[38.73563927000015,38.985867703999986],[38.73040466600014,38.98900944100069],[38.72520614200005,38.99031602100007],[38.723979539000084,38.989847462000114],[38.72332809500017,38.98994114699997],[38.72162672000019,38.99085499000017],[38.71940560500019,38.99168255300003],[38.716838849000055,38.99163589300008],[38.71078635400016,38.992283267000175],[38.70825103700008,38.99228363900016],[38.70589300300003,38.99186918400011],[38.702513515000135,38.990702137000085],[38.70145145700002,38.990752963000034],[38.69820313300005,38.991421861000276],[38.69539275200009,38.991323723000505],[38.69071853000008,38.99303399700011],[38.68880333300018,38.9934358270001],[38.68843543500009,38.99437480500018],[38.68597239000013,38.99509246900004]]],"type":"Polygon"}},{"type":"Feature","properties":{"area_id":"TR-23-001-2011467","name_tr":"Bahadırlar Köyü","area_level":"neighbourhood","parent_id":"TR-23-001","endeksa_id":2011467},"geometry":{"coordinates":[[[38.76953707900026,38.97202143993741],[38.77066859908149,38.97202143990614],[38.770811366911744,38.9734491167078],[38.77388087176041,38.97758937878285],[38.776093770128114,38.98015919672599],[38.77794974992037,38.982657630754204],[38.77873497198641,38.98415669097096],[38.778449436826065,38.9870834279896],[38.77618419058234,38.98946169917616],[38.77609955600121,38.989800237001305],[38.77569955600114,38.99010023700106],[38.77565144795773,38.99011335728551],[38.77445194208104,38.9915806091401],[38.770383063921145,38.99415042708324],[38.76659972092153,38.99457873007384],[38.763744367818106,38.99486426573401],[38.76017517606368,38.994507346658565],[38.75860473193177,38.99272275078141],[38.75660598480931,38.991723376970185],[38.7563204496488,38.994507346658565],[38.75346509604549,38.996077790790594],[38.74741452900588,38.99914520801144],[38.74743848700024,38.99900694600001],[38.74716095100035,38.998441125],[38.74662549400023,38.99801524500032],[38.7462753450003,38.997072739000316],[38.746092915000304,38.9960281620003],[38.74477328900036,38.992102884000246],[38.74448164500035,38.99176748000053],[38.74430901500028,38.990721885000085],[38.74131027000027,38.98822125100048],[38.74109152100016,38.98504133500063],[38.74119900800031,38.98498732300078],[38.74214773400024,38.98443829700034],[38.74230220500033,38.984432965000565],[38.75015113400025,38.98048887300001],[38.7543055050005,38.980265286000474],[38.75477194700039,38.98085404300042],[38.75486895195132,38.98151425600736],[38.75550309000022,38.98154866200025],[38.75623694800021,38.981392599],[38.75707549000032,38.98076450000036],[38.75732066800032,38.98040471700034],[38.75736046000026,38.97979227300033],[38.757733705000305,38.9795494570003],[38.758604673000264,38.97923663700033],[38.760727854750314,38.97892300325043],[38.76335359600034,38.9780609510002],[38.76379591800014,38.97790860100025],[38.7654174570003,38.97712968000036],[38.76661220700021,38.97598749399998],[38.770723187000215,38.97576559700036],[38.77083704600028,38.97564025400021],[38.76953707900026,38.97202143993741]]],"type":"Polygon"}},{"type":"Feature","properties":{"area_id":"TR-23-001-2011476","name_tr":"Samançay Köyü","area_level":"neighbourhood","parent_id":"TR-23-001","endeksa_id":2011476},"geometry":{"coordinates":[[[38.675798672000155,38.99151739900003],[38.67126622700005,38.99275535600003],[38.65886795200015,38.99961389000032],[38.65665369600009,39.00214939600016],[38.654563341000085,39.004109191000055],[38.654027337000116,39.00515679400064],[38.65240292499999,39.00701688000004],[38.650598491000096,39.00727801000011],[38.646202305000145,39.012449504000074],[38.644537900000046,39.01131450000014],[38.632307000000026,39.00464500000004],[38.629995950000136,39.00271383100039],[38.628584920000094,39.00119721400023],[38.62369926900004,38.99727776800012],[38.61958736700052,38.99474096400053],[38.621333626718524,38.99393627583788],[38.62426036373711,38.99279413469657],[38.626259110859394,38.988154185715814],[38.630256605104364,38.985227448697174],[38.631327362830746,38.983228701074836],[38.63196981706653,38.980730267046624],[38.634039948103975,38.97758937878285],[38.637252220782955,38.97423433877384],[38.63932235182057,38.972878045887114],[38.641106947697665,38.96930885413275],[38.642177704923995,38.96759564267063],[38.64324846265043,38.96409783483131],[38.6437404008272,38.96360589682723],[38.645082417000026,38.964320241000166],[38.64561982300012,38.96529973200012],[38.64654140600004,38.96563637200012],[38.64792676000013,38.966877913000076],[38.648567117000084,38.96706980100015],[38.6512766350001,38.96658163500041],[38.65211999700006,38.96632207199997],[38.655880577000175,38.96706921100025],[38.66011567200019,38.967115000000035],[38.66044843500009,38.96717653200034],[38.66045883700008,38.96777712300002],[38.660742009000046,38.96823568500031],[38.661592237000036,38.96873692300039],[38.66271955200017,38.96978579500012],[38.663541959999975,38.973139588000095],[38.664741610000135,38.976051252000104],[38.66636902000016,38.97765985200016],[38.66696986400012,38.97877221600004],[38.66939504500016,38.981093446000216],[38.67101881900004,38.983922056000665],[38.672127904000035,38.98424543200042],[38.672330402000114,38.98422826600006],[38.67510998600005,38.9815714610001],[38.67518226800013,38.98181327800012],[38.67586703500007,38.98078612400019],[38.67709870500016,38.98077914400017],[38.67782419800005,38.981206156000155],[38.67810435700005,38.98122446500031],[38.67821444000003,38.981367325000406],[38.677266367000186,38.98256512600011],[38.67717342200007,38.983150945000034],[38.67803196700015,38.98511166600014],[38.67818511500019,38.98612018200009],[38.67801342300004,38.98698115200011],[38.675833953000165,38.98882608600053],[38.675639781000086,38.98984147400034],[38.675798672000155,38.99151739900003]]],"type":"Polygon"}},{"type":"Feature","properties":{"area_id":"TR-23-001-2011466","name_tr":"Bademli Köyü","area_level":"neighbourhood","parent_id":"TR-23-001","endeksa_id":2011466},"geometry":{"coordinates":[[[38.68334392900016,39.01262587600013],[38.683358123999994,39.013211275000174],[38.68069331200013,39.01157235600016],[38.679375757000116,39.01199677200009],[38.677871646000085,39.012043519000144],[38.6760546110001,39.01245547000008],[38.67466836500017,39.013158275000194],[38.673302568000054,39.01339836000011],[38.66658974800009,39.01611544700012],[38.65495373300001,39.01841734800007],[38.646202305000145,39.012449504000074],[38.650598491000096,39.00727801000011],[38.65240292499999,39.00701688000004],[38.654027337000116,39.00515679400064],[38.654563341000085,39.004109191000055],[38.65665369600009,39.00214939600016],[38.65886795200015,38.99961389000032],[38.67126622700005,38.99275535600003],[38.67715965400015,38.99114567099997],[38.67731746300018,38.99410451600011],[38.67770738900009,38.99372483900004],[38.679643995000106,38.99309765200064],[38.68013731800016,38.993163035000634],[38.681196403000115,38.994125800999996],[38.68195377300009,38.99568833400008],[38.68338406100014,38.995794692000686],[38.68574145600002,38.99514080800009],[38.68582795200007,38.99512084000003],[38.685844436000025,38.99519200200001],[38.68597239000013,38.99509246900004],[38.6861321130001,38.99569714000006],[38.68654543700001,38.99598678300015],[38.68663781400011,38.99732517700022],[38.687338851000106,38.99898067800018],[38.687781604000065,38.999139286000116],[38.687516954000046,38.9996285580001],[38.68751854900006,39.000017745000605],[38.68683227400004,39.000894362000395],[38.68514390200016,39.00401574300014],[38.68458386200018,39.00566071700018],[38.68384272000014,39.006018438000524],[38.68343980500009,39.006819836000034],[38.68333152000014,39.00873825400032],[38.68325518800003,39.00896617500007],[38.68334392900016,39.01262587600013]]],"type":"Polygon"}},{"type":"Feature","properties":{"area_id":"TR-23-001-2011474","name_tr":"Öğrendik Köyü","area_level":"neighbourhood","parent_id":"TR-23-001","endeksa_id":2011474},"geometry":{"coordinates":[[[38.74741452900588,38.99914520801144],[38.741829531886026,39.0020026487428],[38.7383317240467,39.00335894112948],[38.73561913877336,39.00464385010105],[38.732478250009706,39.004929385761386],[38.730193967726905,39.0060715269027],[38.72755276586861,39.006000142987716],[38.72641062472729,39.00507215309142],[38.72505433184057,39.00521492092173],[38.723126968133215,39.00457246668594],[38.7214137566711,39.00485800184623],[38.72219897873697,39.005357688751815],[38.72305558471811,39.00657121380823],[38.71977192812403,39.007070900713984],[38.71820148399212,39.00778473886487],[38.71563166604898,39.00742781978943],[38.71463229273775,39.00564322391227],[38.71363291892669,39.005571839997174],[38.713989838001964,39.007499203704526],[38.71334738376618,39.008784112675926],[38.71163417180418,39.00956933474214],[38.70906435386104,39.00935518299673],[38.708064980049755,39.01021178897793],[38.70649955600072,39.0106002370012],[38.70609405800093,39.01108815200098],[38.705362642652005,39.01140281266453],[38.70256842508803,39.01349544507178],[38.70071244579583,39.01549419269435],[38.69950882116615,39.013857263126454],[38.69951589200093,39.013900237001224],[38.699150008730555,39.013900237001224],[38.6997844558997,39.016279414760334],[38.698856466003576,39.01777847497709],[38.69735740578682,39.01927753569407],[38.69428863169293,39.018383686125844],[38.69571557773958,39.01927753569407],[38.69537207387066,39.02055340696529],[38.69476858900009,39.02027740700021],[38.69418042600017,39.01918440200012],[38.69293440000013,39.01811726800025],[38.69235222600008,39.01691226300011],[38.691520012000126,39.01601763600007],[38.68763913100008,39.014315868000494],[38.68355608600007,39.01326825400014],[38.68340149700015,39.013156658000185],[38.68334392900016,39.01262587600013],[38.68325518800003,39.00896617500007],[38.68333152000014,39.00873825400032],[38.68343980500009,39.006819836000034],[38.68384272000014,39.006018438000524],[38.68458386200018,39.00566071700018],[38.68514390200016,39.00401574300014],[38.68683227400004,39.000894362000395],[38.68751854900006,39.000017745000605],[38.687516954000046,38.9996285580001],[38.687781604000065,38.999139286000116],[38.687338851000106,38.99898067800018],[38.68663781400011,38.99732517700022],[38.68654543700001,38.99598678300015],[38.6861321130001,38.99569714000006],[38.68597239000013,38.99509246900004],[38.68843543500009,38.99437480500018],[38.68880333300018,38.9934358270001],[38.69071853000008,38.99303399700011],[38.69539275200009,38.991323723000505],[38.69820313300005,38.991421861000276],[38.70145145700002,38.990752963000034],[38.702513515000135,38.990702137000085],[38.70589300300003,38.99186918400011],[38.70825103700008,38.99228363900016],[38.71078635400016,38.992283267000175],[38.716838849000055,38.99163589300008],[38.71940560500019,38.99168255300003],[38.72162672000019,38.99085499000017],[38.72332809500017,38.98994114699997],[38.723979539000084,38.989847462000114],[38.72520614200005,38.99031602100007],[38.73040466600014,38.98900944100069],[38.73563927000015,38.985867703999986],[38.738625991000106,38.98565738000036],[38.741096991999996,38.98495166900068],[38.74119900800031,38.98498732300078],[38.74109152100016,38.98504133500063],[38.74131027000027,38.98822125100048],[38.74430901500028,38.990721885000085],[38.74448164500035,38.99176748000053],[38.74477328900036,38.992102884000246],[38.746092915000304,38.9960281620003],[38.7462753450003,38.997072739000316],[38.74662549400023,38.99801524500032],[38.74716095100035,38.998441125],[38.74743848700024,38.99900694600001],[38.74741452900588,38.99914520801144]]],"type":"Polygon"}},{"type":"Feature","properties":{"area_id":"TR-23-001-2011475","name_tr":"Pulköy Köyü","area_level":"neighbourhood","parent_id":"TR-23-001","endeksa_id":2011475},"geometry":{"coordinates":[[[38.68977589104156,39.02845265827864],[38.68582886400054,39.03300414600045],[38.685306848000664,39.03677908100076],[38.68278264200052,39.037066929000446],[38.678562609000494,39.041716710000514],[38.678359610000314,39.041718116000425],[38.677981096947576,39.041332979952415],[38.677843297701656,39.041484859234174],[38.67758130297898,39.04146938327267],[38.67238990000004,39.03481960000056],[38.659644100000094,39.03151939999998],[38.6585712000001,39.02088420000007],[38.65495373300001,39.01841734800007],[38.66658974800009,39.01611544700012],[38.673302568000054,39.01339836000011],[38.67466836500017,39.013158275000194],[38.6760546110001,39.01245547000008],[38.677871646000085,39.012043519000144],[38.679375757000116,39.01199677200009],[38.68069331200013,39.01157235600016],[38.683358123999994,39.013211275000174],[38.68334392900016,39.01262587600013],[38.68340149700015,39.013156658000185],[38.68355608600007,39.01326825400014],[38.68763913100008,39.014315868000494],[38.691520012000126,39.01601763600007],[38.69235222600008,39.01691226300011],[38.69293440000013,39.01811726800025],[38.69418042600017,39.01918440200012],[38.69476858900009,39.02027740700021],[38.69537207387066,39.02055340696529],[38.69521589083405,39.02113351498633],[38.69343129495695,39.022347040042916],[38.69164669907963,39.022347040042916],[38.69243192164572,39.024488554995344],[38.68977589104156,39.02845265827864]]],"type":"Polygon"}},{"type":"Feature","properties":{"area_id":"TR-23-001-0","name_tr":"Keban Barajı","area_level":"neighbourhood","parent_id":"TR-23-001","endeksa_id":0},"geometry":{"coordinates":[[[38.75075557500202,39.01469088900194],[38.747629220001386,39.015666827001326],[38.7416169450014,39.0135992300016],[38.740232732001346,39.011594942002034],[38.73444088500128,39.01186564400189],[38.73187219400131,39.009141644001545],[38.731757024001354,39.00910285500163],[38.72964779000125,39.01070584000183],[38.727377652001394,39.00984706100138],[38.72681567500132,39.01276791300165],[38.723247161001325,39.01359852400208],[38.72053094700129,39.01289136100138],[38.71555592200133,39.01461875200158],[38.708737157001394,39.01303946300192],[38.70530201400129,39.01787537800192],[38.70033631600131,39.021582006001836],[38.70018762800123,39.02158780200159],[38.70018817600129,39.021678922001854],[38.69358748900129,39.026618154001426],[38.69355581900135,39.02671555900122],[38.69373292000131,39.027014216001874],[38.69363714500133,39.02711678800148],[38.69036074000138,39.027778244001865],[38.68977589104156,39.02845265827864],[38.69243192164572,39.024488554995344],[38.69164669907963,39.022347040042916],[38.69343129495695,39.022347040042916],[38.69521589083405,39.02113351498633],[38.69571557773958,39.01927753569407],[38.69428863169293,39.018383686125844],[38.69735740578682,39.01927753569407],[38.698856466003576,39.01777847497709],[38.6997844558997,39.016279414760334],[38.699150008730555,39.013900237001224],[38.69951589200093,39.013900237001224],[38.69950882116615,39.013857263126454],[38.70071244579583,39.01549419269435],[38.70256842508803,39.01349544507178],[38.705362642652005,39.01140281266453],[38.70609405800093,39.01108815200098],[38.70649955600072,39.0106002370012],[38.708064980049755,39.01021178897793],[38.70906435386104,39.00935518299673],[38.71163417180418,39.00956933474214],[38.71334738376618,39.008784112675926],[38.713989838001964,39.007499203704526],[38.71363291892669,39.005571839997174],[38.71463229273775,39.00564322391227],[38.71563166604898,39.00742781978943],[38.71820148399212,39.00778473886487],[38.71977192812403,39.007070900713984],[38.72305558471811,39.00657121380823],[38.72219897873697,39.005357688751815],[38.7214137566711,39.00485800184623],[38.723126968133215,39.00457246668594],[38.72505433184057,39.00521492092173],[38.72641062472729,39.00507215309142],[38.72755276586861,39.006000142987716],[38.730193967726905,39.0060715269027],[38.732478250009706,39.004929385761386],[38.73561913877336,39.00464385010105],[38.7383317240467,39.00335894112948],[38.741829531886026,39.0020026487428],[38.74796854108371,38.99886175997898],[38.75346509604549,38.996077790790594],[38.7563204496488,38.994507346658565],[38.75660598480931,38.991723376970185],[38.75860473193177,38.99272275078141],[38.76017517606368,38.994507346658565],[38.763744367818106,38.99486426573401],[38.76659972092153,38.99457873007384],[38.770383063921145,38.99415042708324],[38.77445194208104,38.9915806091401],[38.77565144795773,38.99011335728551],[38.77569955600114,38.99010023700106],[38.77609955600121,38.989800237001305],[38.77618419058234,38.98946169917616],[38.778449436826065,38.9870834279896],[38.77873497198641,38.98415669097096],[38.77794974992037,38.982657630754204],[38.776093770128114,38.98015919672599],[38.77388087176041,38.97758937878285],[38.770811366911744,38.9734491167078],[38.77066859908149,38.97202143990614],[38.768669851958975,38.97202143990614],[38.7676704786478,38.97237835898159],[38.76417267080848,38.97237835898159],[38.75853334801667,38.9733777327927],[38.76452958988392,38.97109345001002],[38.76717079174222,38.969023318972404],[38.76595726668563,38.96823809690636],[38.76417267080848,38.96809532907611],[38.762102539770865,38.96873778381189],[38.760746246884366,38.9688805516422],[38.762316691016224,38.96716733968003],[38.763387448742435,38.96424060266162],[38.76317329699725,38.96416921874629],[38.75881888367684,38.96509720864259],[38.75924718666744,38.963669531840765],[38.76131731770505,38.9602431079166],[38.759461337912796,38.959886188841324],[38.755677994913015,38.96131386564298],[38.756748752139345,38.95910096677528],[38.75532107583757,38.955817310681255],[38.75160911675306,38.95510347203026],[38.75432170202629,38.95231950284193],[38.75260849006429,38.95217673501185],[38.7568201360545,38.94489558467268],[38.75582076274327,38.94418174602191],[38.75110942984753,38.94525250374829],[38.74968175304571,38.94546665499348],[38.750181439951405,38.94246853406008],[38.74853961190456,38.9413263929186],[38.74425658199925,38.94011286786201],[38.74033047166944,38.93768581774913],[38.7418295318862,38.93618675703232],[38.740830158075084,38.93318863609858],[38.73754650198106,38.93197511104211],[38.73397731072669,38.931546808051735],[38.72905182608554,38.93204649495709],[38.72619647298205,38.93375970691926],[38.72219897873714,38.937543049918816],[38.7222749448743,38.93524478938514],[38.72238598700113,38.93522737400133],[38.722499556001196,38.93500023700108],[38.722299555001086,38.93450023700149],[38.72362665503874,38.933688323004276],[38.72669615988764,38.93254618186279],[38.727977592858394,38.93162070226458],[38.72805732689409,38.93164285070873],[38.72986571725869,38.93135731538803],[38.730722323220675,38.930310352545746],[38.73069183102342,38.93011215323452],[38.731907179689074,38.92961944484421],[38.73347762382093,38.92804900071229],[38.734191461971875,38.92654993999548],[38.73212133093426,38.925907485759524],[38.73081750174583,38.92469482442925],[38.73424392563214,38.92260089891522],[38.732977936915404,38.91919740574133],[38.72944636064665,38.92044695085622],[38.72910428973677,38.920126259440565],[38.72710554249187,38.918032333755434],[38.723583940203184,38.918032333755434],[38.722251442039976,38.918793761277016],[38.721246042056464,38.92111658191436],[38.72027161502973,38.92119615286384],[38.71991469595429,38.916056516977505],[38.726339240812194,38.91234455789288],[38.7241977258596,38.91084549767629],[38.71598858512442,38.91255870913824],[38.713989838002135,38.91412915377015],[38.70256842508803,38.91141656799692],[38.69750017311685,38.90399264982784],[38.69407374969256,38.9037784980826],[38.69414513310784,38.905705861789784],[38.69600111290009,38.90784737674255],[38.696429415890464,38.90984612386484],[38.69007625494771,38.91148795191191],[38.6871495179293,38.91191625490245],[38.68051082182609,38.91063134593105],[38.67679886274141,38.90848983097834],[38.673158287072056,38.90898951788387],[38.6712309238647,38.910774113760965],[38.669374944072445,38.91034581077059],[38.668304186846115,38.91027442685544],[38.667020254777526,38.912531035873826],[38.66702057900051,38.91288485400048],[38.66670830800052,38.91343806500066],[38.66640033389791,38.91362059294221],[38.66594852064816,38.91441468893066],[38.66559160107283,38.91677035512839],[38.66480637900685,38.91534267882679],[38.662807631884334,38.91641343605295],[38.66202240981846,38.91912602182623],[38.666805126129304,38.9214103041092],[38.662522096723876,38.920339546882815],[38.66187964198821,38.92298074874094],[38.66052334910148,38.924122889882426],[38.661299556000984,38.92810023700076],[38.65969955600093,38.92990023700156],[38.658938212093744,38.9303395829844],[38.65731107692261,38.92976221267429],[38.65474125897941,38.929619444844036],[38.64981577483837,38.93176095979675],[38.64838809803666,38.93525876713602],[38.6496064774895,38.93850777852231],[38.64840111584789,38.94067742927723],[38.646389350914035,38.94168331199387],[38.643819532971065,38.945823574068925],[38.645961047923606,38.94675156396505],[38.647404896927014,38.94610432116684],[38.64909955500093,38.947400237001204],[38.64838809803666,38.949464149738276],[38.64688903781973,38.95103459387036],[38.644890290697276,38.95346164398342],[38.64653211874429,38.954104098719085],[38.647303416900456,38.95410409828281],[38.647499555000934,38.954300237001235],[38.647699556001044,38.95500023700106],[38.6475995560009,38.955600237000965],[38.64599955600107,38.957800237001095],[38.64529955600102,38.96030023700155],[38.644699556000944,38.9619002370012],[38.644599556001026,38.96270023700134],[38.644615057560884,38.96273123987078],[38.64324846265043,38.96409783483131],[38.642177704923995,38.96759564267063],[38.641106947697665,38.96930885413275],[38.63932235182057,38.972878045887114],[38.637252220782955,38.97423433877384],[38.634039948103975,38.97758937878285],[38.63196981706653,38.980730267046624],[38.631327362830746,38.983228701074836],[38.630256605104364,38.985227448697174],[38.626259110859394,38.988154185715814],[38.62426036373711,38.99279413469657],[38.621333626718524,38.99393627583788],[38.61958736700052,38.99474096400053],[38.61924229600032,38.99447839100026],[38.619220875000224,38.99432731600024],[38.6210508930003,38.99314273600032],[38.621885753963966,38.99286115695594],[38.623189606010726,38.991794760885284],[38.623189606010726,38.988582488706356],[38.62426036373711,38.98594128684812],[38.62537615591043,38.98459525192561],[38.625382532000344,38.98438949100034],[38.6256507610002,38.98357871000036],[38.62691569000032,38.9824582880002],[38.627239868824574,38.982346963854525],[38.628757544887605,38.98051611580149],[38.62982830211399,38.97744661095277],[38.63184643698685,38.97624663897784],[38.63184351000024,38.97620725400026],[38.6319202239485,38.97620276591283],[38.63246950397223,38.97587616682085],[38.63461101892483,38.97416295485874],[38.635753160066145,38.971807288660955],[38.63582454398124,38.968380864736616],[38.637038069037715,38.96659626885952],[38.63846574583954,38.96638211711428],[38.639393735735666,38.963241228850165],[38.63932235182057,38.96031449183175],[38.639822038726265,38.95760190605847],[38.641249715028096,38.95503208811533],[38.64182078584855,38.952605038002275],[38.64182078584855,38.95124874511572],[38.64331984606548,38.95024937180432],[38.64567551276332,38.94939276582335],[38.64374814905608,38.948179240766876],[38.641321098943024,38.94696571571046],[38.638608513669624,38.94639464488978],[38.634325483764485,38.947108483040665],[38.63917958399048,38.945395271078326],[38.6403931090469,38.94232576672971],[38.64346261389562,38.940755322097914],[38.64496167411255,38.936900595683085],[38.644508752122306,38.933554660797085],[38.64502304700119,38.93263594000132],[38.6456481330012,38.93179532900132],[38.645720652474495,38.9313867138967],[38.64881640102726,38.929405293098796],[38.649173320102705,38.92662132391047],[38.648745017112105,38.925836101844425],[38.644999556001096,38.92540023700133],[38.64623019678288,38.924941888374406],[38.647599556001126,38.92470023700116],[38.64972623400121,38.92503949900117],[38.65002627981835,38.92480823610293],[38.6507437647345,38.92597886967485],[38.65252836011172,38.926692707825566],[38.65417018865878,38.92612163700488],[38.65409880474368,38.92440842504277],[38.6539560369136,38.92262382966567],[38.656026167950984,38.92105338503376],[38.6575966120829,38.92012539513763],[38.65816768290358,38.91855495100555],[38.65888152105447,38.91598513306241],[38.65966674312034,38.91534267882662],[38.662379328893735,38.914343305015336],[38.66337870270502,38.913700850779605],[38.66480637900662,38.91170210365709],[38.662522096723876,38.910488578100626],[38.66195102590319,38.90720492200654],[38.66116580383715,38.90549171004443],[38.66080888476188,38.904420952818214],[38.66430669210109,38.90349296292209],[38.665734368902974,38.90299327601639],[38.66630543972343,38.90213667003542],[38.665377449827474,38.90070899373376],[38.666376823138705,38.89978100383746],[38.665734368902974,38.89785364013005],[38.665306065912375,38.89706841806424],[38.6662340558085,38.893285075064625],[38.66494914683693,38.89142909577225],[38.66145133899761,38.8900728028857],[38.6580249150735,38.88878789391396],[38.66073750084672,38.88878789391396],[38.66345008612012,38.8891448129894],[38.66379955600087,38.88880023700085],[38.664199555001176,38.88880023700119],[38.66427528568477,38.8887749936697],[38.665377449827474,38.88871650999897],[38.667661732110275,38.888430974838684],[38.66851921800571,38.8880801850251],[38.66923217673957,38.8881898710157],[38.66923217674224,38.88914481298957],[38.67201614593057,38.889287580819826],[38.673872125722994,38.88935896473481],[38.674657347788866,38.89028695413106],[38.67551395376984,38.89157186310263],[38.67772685213771,38.892071550008154],[38.68071464871315,38.89304832912819],[38.68068238000171,38.89311086900187],[38.679900165001754,38.894013166002026],[38.679913843001486,38.89445602000171],[38.68017739500158,38.89471876000181],[38.68017739500158,38.89481784800199],[38.67838631900156,38.89588979700159],[38.67884997400165,38.89655167000194],[38.680265547001454,38.897627214001545],[38.680433119001634,38.89888565500166],[38.68060529000172,38.89896874300143],[38.6846577360015,38.89906790600173],[38.69123250900168,38.898758648002115],[38.69412543400148,38.899020812001936],[38.69413896600156,38.89887149000185],[38.694579186001704,38.89897896700194],[38.694505436001634,38.89911733000156],[38.69483724200177,38.899294187001715],[38.695011149001516,38.899298808001845],[38.695207210001456,38.89945853800174],[38.69522045300175,38.89930436900204],[38.69540150800157,38.89923094400211],[38.69636831500168,38.89917213000166],[38.69940890000146,38.89948011900185],[38.70127428800146,38.900444302001574],[38.702390539001556,38.90044340900198],[38.70464552700139,38.89998520500188],[38.70527679900158,38.90018988900158],[38.705550301001495,38.90086995900208],[38.706691550001494,38.90130585000145],[38.70929678000175,38.90181988800191],[38.71486167571061,38.90155455015082],[38.716706652994674,38.90216954257886],[38.726924425775394,38.90168298197034],[38.73698001168674,38.899087992057616],[38.74590028951104,38.896330815275576],[38.748521072372,38.89518720093639],[38.74859038900195,38.89532775700252],[38.74617193400263,38.90732932400249],[38.74850385500258,38.91881966600232],[38.76247112900256,38.933130750002306],[38.763648586002546,38.935400972002924],[38.76368997000259,38.93610308500297],[38.76378637500267,38.935999952002874],[38.76393313000261,38.93605716300294],[38.76878953863394,38.94534212045397],[38.78153865730087,38.968994276474064],[38.78553615179061,38.980415689302504],[38.784013296746764,38.9869830016782],[38.778968839414574,38.993359957173766],[38.77068831511417,38.99859477138665],[38.76963675640104,38.99898735330618],[38.769543181002405,38.99916800600249],[38.769634102002385,38.999310463002644],[38.769137282002475,38.9997704810022],[38.76740622100232,39.00290074100275],[38.75610829400233,39.012819833002425],[38.75571652000241,39.013110804002736],[38.75214952000232,39.014246804002426],[38.751980254002376,39.014140212002644],[38.751900758002364,39.01431008500276],[38.75075557500202,39.01469088900194]]],"type":"Polygon"}}]}