{"type":"FeatureCollection","source_id":"endeksa","retrieved_at":"2026-08-23","features":[{"type":"Feature","properties":{"area_id":"TR-26-005-191117","name_tr":"Gökçeyayla","area_level":"neighbourhood","parent_id":"TR-26-005","endeksa_id":191117},"geometry":{"coordinates":[[[30.78489322676785,39.09838517850841],[30.784881986000073,39.098478516000114],[30.778394860000162,39.09739572100017],[30.77654344299998,39.09728616800004],[30.769341463000103,39.09858167600015],[30.760639201000174,39.099206754000136],[30.758989337000116,39.0992069350001],[30.758870934000186,39.09911604700005],[30.75881023300019,39.09716177700068],[30.75868398500006,39.097074367000005],[30.75856946900018,39.097130453000034],[30.757443706000004,39.09907296900036],[30.757336136000163,39.09913103800028],[30.753481171000146,39.09876956200003],[30.75257456300011,39.09815916100007],[30.75167780600009,39.098688912000114],[30.749135242000193,39.09869145100009],[30.745204908000062,39.099309575000575],[30.732910695999976,39.09847834300018],[30.73279454400017,39.09838000500008],[30.732786123999972,39.096552667000196],[30.736502979000136,39.058971119000375],[30.737359325000114,39.054555195000034],[30.737303743000098,39.05364539100026],[30.733982811000146,39.04413523000022],[30.733868513999994,39.044062410000095],[30.733681556000192,39.04412346800012],[30.73798352200015,39.04123610400018],[30.739582791000032,39.041013658000224],[30.74017335700006,39.04073255800006],[30.742204375000085,39.04140799800052],[30.74254006600006,39.043295001000104],[30.743260863000103,39.043985007000174],[30.74339296500017,39.04393696900007],[30.7446853940001,39.042036784000175],[30.745266589000096,39.041704121000066],[30.746244015000173,39.04160838700017],[30.749357477000046,39.04212763100014],[30.75100364000008,39.045761181000046],[30.751100978000125,39.04582487300013],[30.75174698000012,39.045848183000146],[30.753672340000094,39.045361642000444],[30.75442527500013,39.04497786200017],[30.75571587100012,39.04358601800061],[30.75619641200001,39.04340901500012],[30.757132590000026,39.04324313200016],[30.758744113000034,39.04360925700013],[30.75912004500009,39.044201772000065],[30.759922488000143,39.0471748330001],[30.759928634999994,39.04798167399997],[30.75954085500007,39.04907530600008],[30.75929848400017,39.05309411000002],[30.759422798000173,39.05319314700017],[30.759961636000185,39.0531074540001],[30.761220636000076,39.0519233060005],[30.76203135500009,39.05055230600004],[30.764605173000064,39.049370355000065],[30.76932558300018,39.04674075500009],[30.77190602200011,39.04611721700019],[30.77261092300006,39.041700184000035],[30.773102352000137,39.035754361000045],[30.773179112000093,39.03584376500015],[30.77781996100009,39.03740835000019],[30.778808882000135,39.038839496000094],[30.77907900500003,39.0397863340001],[30.78043425600015,39.0423945440001],[30.78398045700004,39.044087838000564],[30.78660316100013,39.04447004500048],[30.788865315000066,39.04551498400019],[30.793892552000102,39.051173301000176],[30.796547816000043,39.05183873500016],[30.79801541600017,39.05242298200028],[30.79842550800015,39.05333398500011],[30.7999762230001,39.05467838700014],[30.801158351000083,39.0549194200006],[30.801233476000164,39.05499931100019],[30.801186430004577,39.05508755667762],[30.80115584479222,39.055258828383955],[30.798430000000167,39.05676000000011],[30.794000000000096,39.05855000000008],[30.793030000000158,39.064120000000514],[30.794530000000066,39.069970000000126],[30.78922000000017,39.07327000000015],[30.786910000000034,39.08126000000044],[30.784780000000183,39.09832000000017],[30.78489322676785,39.09838517850841]]],"type":"Polygon"}},{"type":"Feature","properties":{"area_id":"TR-26-005-191111","name_tr":"Akhisar","area_level":"neighbourhood","parent_id":"TR-26-005","endeksa_id":191111},"geometry":{"coordinates":[[[30.711298405671585,39.14527782482372],[30.69428163913335,39.146367973096744],[30.69439287700004,39.14620398200009],[30.69416349200003,39.146136003000095],[30.692637126000193,39.14223408099997],[30.68989273600016,39.13729406900052],[30.69056687800014,39.129069859000026],[30.68823218800003,39.12883934100017],[30.688129794000133,39.12874218600018],[30.688746351000077,39.120963186000154],[30.69193776800006,39.114141826000605],[30.69199442300004,39.11363851100026],[30.691731156000174,39.111339393000094],[30.690507232000186,39.1106943970002],[30.69140673200019,39.1085061980001],[30.69077136400017,39.10295752600018],[30.68807589300019,39.1002685040001],[30.687628048000136,39.087433123000096],[30.681819856000118,39.086211991000084],[30.66490393300012,39.08677076900017],[30.664905720000036,39.08631493199999],[30.665320190000045,39.08466565000032],[30.664597599000047,39.082655023000314],[30.66464685200009,39.081327849000104],[30.66490551999999,39.080330061000325],[30.67489016800016,39.083198401000686],[30.679137698000034,39.07652518900028],[30.69059598000007,39.07110930099998],[30.68865544100015,39.0684160190001],[30.68405468800006,39.066445730000055],[30.685203039000157,39.063322412000105],[30.68685757200018,39.062987728999985],[30.688115759000084,39.06535225100009],[30.691407579000156,39.064877821000096],[30.692595738000136,39.066606273000616],[30.697949582000092,39.06401575900014],[30.701079563000178,39.06009117200006],[30.7074432120001,39.05836230300008],[30.706926571000054,39.05644750000056],[30.715500249000172,39.05032880100015],[30.718431261000035,39.050517421999984],[30.72092103300014,39.04910168500004],[30.721807770000055,39.04891443900033],[30.7227707510001,39.04814457700007],[30.72627875800015,39.049488947999976],[30.72743709200006,39.04915357200031],[30.72887740200008,39.04829531900026],[30.73216747300006,39.04488519100005],[30.733681556000192,39.04412346800012],[30.733868513999994,39.044062410000095],[30.733982811000146,39.04413523000022],[30.737303743000098,39.05364539100026],[30.737359325000114,39.054555195000034],[30.736502979000136,39.058971119000375],[30.732786123999972,39.096552667000196],[30.73279454400017,39.09838000500008],[30.732472305000044,39.09890806600015],[30.73078619800009,39.103716119000126],[30.728341092000107,39.10446347600009],[30.724826670000084,39.10128764900014],[30.721476357000085,39.10116258600033],[30.718220679000183,39.10344393400044],[30.718252345000167,39.10356869800046],[30.719425952000165,39.104119467000146],[30.718126534000135,39.10596177300016],[30.71395586300008,39.106892150000135],[30.713095862000102,39.11015469800003],[30.709713809000107,39.113068297000154],[30.70657230900008,39.11308405800048],[30.696844551000083,39.11909560200013],[30.697322783000175,39.12101232500004],[30.70117742700012,39.12046987500025],[30.69710351200007,39.12495147600009],[30.696954429000073,39.127895440000145],[30.694677861000002,39.13017798600015],[30.694663290000165,39.13027773100032],[30.698450831000116,39.13652205100004],[30.704910354000162,39.13857456700009],[30.711298405671585,39.14527782482372]]],"type":"Polygon"}},{"type":"Feature","properties":{"area_id":"TR-26-005-191125","name_tr":"Peçene","area_level":"neighbourhood","parent_id":"TR-26-005","endeksa_id":191125},"geometry":{"coordinates":[[[30.80325000000022,39.12970000000024],[30.734810000000095,39.152860000000146],[30.71704000000011,39.14491000000032],[30.711298405671585,39.14527782482372],[30.704910354000162,39.13857456700009],[30.698450831000116,39.13652205100004],[30.694663290000165,39.13027773100032],[30.694677861000002,39.13017798600015],[30.696954429000073,39.127895440000145],[30.69710351200007,39.12495147600009],[30.70117742700012,39.12046987500025],[30.697322783000175,39.12101232500004],[30.696844551000083,39.11909560200013],[30.70657230900008,39.11308405800048],[30.709713809000107,39.113068297000154],[30.713095862000102,39.11015469800003],[30.71395586300008,39.106892150000135],[30.718126534000135,39.10596177300016],[30.719425952000165,39.104119467000146],[30.718252345000167,39.10356869800046],[30.718220679000183,39.10344393400044],[30.721476357000085,39.10116258600033],[30.724826670000084,39.10128764900014],[30.728341092000107,39.10446347600009],[30.73078619800009,39.103716119000126],[30.732472305000044,39.09890806600015],[30.73279454400017,39.09838000500008],[30.732910695999976,39.09847834300018],[30.745204908000062,39.099309575000575],[30.749135242000193,39.09869145100009],[30.75167780600009,39.098688912000114],[30.75257456300011,39.09815916100007],[30.753481171000146,39.09876956200003],[30.757336136000163,39.09913103800028],[30.757443706000004,39.09907296900036],[30.75856946900018,39.097130453000034],[30.75868398500006,39.097074367000005],[30.75881023300019,39.09716177700068],[30.758870934000186,39.09911604700005],[30.758989337000116,39.0992069350001],[30.760639201000174,39.099206754000136],[30.769341463000103,39.09858167600015],[30.77654344299998,39.09728616800004],[30.778394860000162,39.09739572100017],[30.784881986000073,39.098478516000114],[30.78489322676785,39.09838517850841],[30.787490000000048,39.0998800000001],[30.787570000000073,39.10156000000035],[30.788680000000113,39.102190000000064],[30.791660000000093,39.10248000000007],[30.80207000000007,39.10681000000005],[30.815910000000144,39.11178000000041],[30.818440000000066,39.11293000000035],[30.821570000000065,39.114890000000514],[30.823610000000087,39.11642000000063],[30.8243700000001,39.11661000000004],[30.825110000000052,39.117520000000695],[30.82472000000007,39.118040000000406],[30.824300000000164,39.118080000000134],[30.819050000000118,39.12045000000012],[30.817120000000102,39.121540000000095],[30.813770000000034,39.12172000000004],[30.806110000000047,39.12131000000022],[30.80542000000014,39.12067000000019],[30.80300000000011,39.12512000000015],[30.80325000000022,39.12970000000024]]],"type":"Polygon"}},{"type":"Feature","properties":{"area_id":"TR-26-005-30275","name_tr":"Hüsrevpaşa","area_level":"neighbourhood","parent_id":"TR-26-005","endeksa_id":30275},"geometry":{"coordinates":[[[30.900180000000148,39.164420000000234],[30.892750000000206,39.17235000000039],[30.8893700000001,39.18134000000043],[30.88837000000018,39.18720000000019],[30.888217386962594,39.187132942756534],[30.88639000000012,39.18633000000034],[30.884570000000167,39.185390000000154],[30.88327000000004,39.18445000000054],[30.88085000000018,39.18180000000012],[30.879940000000204,39.17930000000007],[30.878130000000056,39.176250000000095],[30.876520000000255,39.17508000000032],[30.874600000000157,39.17227000000031],[30.874300000000062,39.169930000000136],[30.873600000000238,39.165870000000155],[30.872190000000103,39.16462000000007],[30.869180000000085,39.16363000000024],[30.867580000000032,39.16298000000046],[30.869330000000048,39.1612700000004],[30.8669000000001,39.1605600000006],[30.86548000000016,39.159980000000246],[30.864590000000078,39.1594400000003],[30.86344000000014,39.15889000000027],[30.863490000000183,39.15868000000012],[30.862000000000194,39.158560000000136],[30.860660000000166,39.15824000000049],[30.859700000000146,39.15738000000039],[30.85944000000012,39.157390000000134],[30.858630000000062,39.157130000000336],[30.858100000000093,39.1564000000003],[30.85693000000009,39.15631000000013],[30.854070000000092,39.15641000000028],[30.853480000000104,39.15635000000043],[30.851380000000063,39.15665000000041],[30.851220000000183,39.1550100000004],[30.850130000000036,39.15517000000017],[30.848620000000153,39.15673000000061],[30.848520000000065,39.15830000000011],[30.846200000000124,39.16001000000006],[30.844190000000083,39.16165000000018],[30.842980000000125,39.16337000000004],[30.842220000000168,39.1659600000001],[30.83962000000014,39.16633000000053],[30.836030000000108,39.167260000000056],[30.83376000000004,39.16740000000027],[30.831050000000175,39.168010000000265],[30.82847000000004,39.16826000000037],[30.826840000000175,39.1688900000006],[30.82499000000007,39.16989000000024],[30.82332000000008,39.172410000000525],[30.821880000000135,39.174020000000155],[30.821260000000166,39.1742900000001],[30.819190000000106,39.17480000000006],[30.817600000000027,39.17502000000047],[30.81719000000004,39.17525000000035],[30.816410000000133,39.17623000000043],[30.81574000000012,39.1765400000001],[30.81551000000013,39.176750000000084],[30.815530000000194,39.17701000000028],[30.815790000000163,39.17732000000035],[30.815900000000056,39.17827000000011],[30.815800000000138,39.17858000000018],[30.815450000000112,39.17899000000068],[30.81226000000015,39.18055000000044],[30.810330000000135,39.1809300000001],[30.807760000000144,39.170240000000035],[30.80406000000005,39.144810000000575],[30.80325000000022,39.12970000000024],[30.80300000000011,39.12512000000015],[30.80542000000014,39.12067000000019],[30.806110000000047,39.12131000000022],[30.813770000000034,39.12172000000004],[30.817120000000102,39.121540000000095],[30.819050000000118,39.12045000000012],[30.824300000000164,39.118080000000134],[30.82472000000007,39.118040000000406],[30.831250000000182,39.11872000000051],[30.846540000000175,39.121080000000404],[30.861180000000218,39.112350000000674],[30.86861000000016,39.11676000000034],[30.87143000000009,39.122100000000216],[30.876270000000147,39.12713000000019],[30.879500000000064,39.13373000000041],[30.88676000000015,39.13875000000013],[30.88676000000015,39.1557200000002],[30.893220000000156,39.16043000000036],[30.900180000000148,39.164420000000234]]],"type":"Polygon"}},{"type":"Feature","properties":{"area_id":"TR-26-005-191113","name_tr":"Başara","area_level":"neighbourhood","parent_id":"TR-26-005","endeksa_id":191113},"geometry":{"coordinates":[[[30.921870000000126,39.157010000000355],[30.920300000000054,39.15671000000037],[30.918310000000076,39.15604000000036],[30.9173600000002,39.155620000000056],[30.916370000000143,39.15504000000004],[30.915180000000134,39.15461000000016],[30.913290000000245,39.153540000000305],[30.900180000000148,39.164420000000234],[30.893220000000156,39.16043000000036],[30.88676000000015,39.1557200000002],[30.88676000000015,39.13875000000013],[30.879500000000064,39.13373000000041],[30.876270000000147,39.12713000000019],[30.87143000000009,39.122100000000216],[30.86861000000016,39.11676000000034],[30.861180000000218,39.112350000000674],[30.867380000000196,39.098250000000064],[30.877600000000257,39.10013000000015],[30.887180000000114,39.10167000000024],[30.895480000000134,39.102090000000146],[30.910260000000164,39.10126000000042],[30.92167000000012,39.11304000000024],[30.9243400000002,39.11329000000029],[30.92557000000022,39.12391000000008],[30.924510000000055,39.12457000000012],[30.923890000000085,39.13078000000007],[30.92442000000011,39.13154000000003],[30.924510000000055,39.132570000000385],[30.92471000000012,39.13329000000027],[30.924970000000144,39.13340000000011],[30.924840000000188,39.134650000000136],[30.92514000000017,39.13483000000048],[30.925470000000075,39.13541000000015],[30.925720000000183,39.136290000000486],[30.92570000000012,39.13656000000009],[30.92526000000015,39.13772000000017],[30.92520000000013,39.139010000000326],[30.925780000000145,39.14068000000009],[30.925770000000057,39.14132000000029],[30.925720000000183,39.14146000000051],[30.92539000000005,39.14154000000019],[30.925150000000087,39.14176000000032],[30.9248300000001,39.14275000000066],[30.925330000000088,39.143760000000384],[30.925230000000113,39.14449000000042],[30.92536000000007,39.14581000000021],[30.925060000000087,39.14683000000019],[30.925030000000106,39.14799000000011],[30.925310000000195,39.14901000000009],[30.925850000000082,39.15015000000045],[30.92560000000003,39.150450000000035],[30.925990000000127,39.1511100000003],[30.925750000000164,39.15136000000041],[30.92557000000022,39.15141000000028],[30.925590000000057,39.151560000000586],[30.92579000000012,39.15171000000021],[30.926030000000083,39.15162000000004],[30.92614000000009,39.15172000000035],[30.92619000000019,39.15195000000017],[30.92601000000019,39.152390000000366],[30.925680000000057,39.15266000000065],[30.925800000000038,39.15277000000037],[30.925640000000158,39.1530900000007],[30.924820000000125,39.154130000000066],[30.924540000000093,39.1546800000001],[30.924360000000092,39.1546800000001],[30.924320000000137,39.15480000000008],[30.92499000000015,39.15522000000004],[30.92504000000025,39.15566000000018],[30.925960000000146,39.1564000000003],[30.925370000000157,39.157010000000355],[30.924510000000055,39.156390000000215],[30.924310000000048,39.15654000000052],[30.923490000000072,39.15600000000006],[30.923340000000053,39.156200000000126],[30.92316000000011,39.15615000000025],[30.922610000000077,39.15569000000039],[30.921930000000145,39.15603000000027],[30.92202000000009,39.15644000000009],[30.922310000000095,39.1566600000005],[30.921870000000126,39.157010000000355]]],"type":"Polygon"}},{"type":"Feature","properties":{"area_id":"TR-26-005-191107","name_tr":"Ağlarca","area_level":"neighbourhood","parent_id":"TR-26-005","endeksa_id":191107},"geometry":{"coordinates":[[[30.814760000000035,39.19760000000019],[30.8107500000001,39.19692000000009],[30.802020000000027,39.198520000000144],[30.79560000000015,39.201160000000414],[30.793820000000153,39.20610000000005],[30.793380000000127,39.205520000000206],[30.79350000000011,39.2053600000001],[30.793070000000057,39.20489000000066],[30.792280000000062,39.20445000000012],[30.79139000000015,39.20445000000012],[30.790290000000084,39.204310000000305],[30.78897000000012,39.20340000000033],[30.788510000000088,39.20284000000015],[30.787870000000055,39.20231000000035],[30.78727000000015,39.201620000000105],[30.787150000000167,39.20055000000042],[30.78699000000006,39.20033000000012],[30.786440000000027,39.2003400000001],[30.786140000000103,39.20046000000008],[30.785610000000133,39.20040000000006],[30.785450000000196,39.20024000000035],[30.785340000000133,39.199910000000045],[30.78435000000013,39.19944000000021],[30.784290000000112,39.19916000000035],[30.78228000000007,39.199080000000265],[30.78107000000017,39.19835000000029],[30.780340000000137,39.197690000000364],[30.779240000000073,39.19643000000042],[30.778950000000066,39.19565000000068],[30.77484000000021,39.19284000000039],[30.774390000000096,39.192110000000525],[30.7678200000002,39.19097000000016],[30.766120000000058,39.19103000000018],[30.76759000000004,39.19169000000005],[30.769040000000075,39.19299000000018],[30.768040000000155,39.19332000000031],[30.768380000000036,39.194000000000074],[30.767340000000104,39.194530000000384],[30.767000000000053,39.195670000000234],[30.76834000000008,39.195580000000064],[30.770610000000147,39.196630000000084],[30.766210000000058,39.1971200000001],[30.76329000000004,39.1982000000001],[30.763020000000097,39.197870000000364],[30.759990000000187,39.198960000000284],[30.759710000000155,39.19839000000019],[30.758810000000096,39.19859000000025],[30.758840000000077,39.19943000000012],[30.756520000000137,39.19983000000036],[30.75413000000009,39.199880000000405],[30.751930000000186,39.201460000000395],[30.74886000000015,39.20130000000063],[30.748750000000143,39.20108000000022],[30.74767000000014,39.2013500000005],[30.747700000000123,39.20203000000009],[30.745740000000126,39.201710000000446],[30.746210000000133,39.202550000000315],[30.74623000000014,39.203700000000254],[30.745410000000163,39.20375000000013],[30.745420000000138,39.20481000000029],[30.74095000000011,39.20420000000041],[30.73894000000007,39.20231000000035],[30.737880000000132,39.20165000000031],[30.737080000000162,39.19966000000011],[30.73601000000008,39.198520000000144],[30.73516000000012,39.197340000000395],[30.73442000000017,39.19603000000018],[30.73250000000013,39.19480000000016],[30.730070000000126,39.19383000000005],[30.723780000000204,39.19223000000051],[30.72770000000014,39.16781000000009],[30.734810000000095,39.152860000000146],[30.80325000000022,39.12970000000024],[30.80406000000005,39.144810000000575],[30.807760000000144,39.170240000000035],[30.810330000000135,39.1809300000001],[30.811990000000208,39.18786000000006],[30.814760000000035,39.19760000000019]]],"type":"Polygon"}},{"type":"Feature","properties":{"area_id":"TR-26-005-30274","name_tr":"Hacılar","area_level":"neighbourhood","parent_id":"TR-26-005","endeksa_id":30274},"geometry":{"coordinates":[[[30.84797287053283,39.21314330667377],[30.847870000000114,39.21303000000057],[30.843190000000106,39.213270000000534],[30.82521000000014,39.209170000000256],[30.82106000000016,39.206140000000346],[30.82119000000006,39.203690000000165],[30.819240000000207,39.20059000000015],[30.814760000000035,39.19760000000019],[30.811990000000208,39.18786000000006],[30.810330000000135,39.1809300000001],[30.81226000000015,39.18055000000044],[30.815450000000112,39.17899000000068],[30.815800000000138,39.17858000000018],[30.815900000000056,39.17827000000011],[30.815790000000163,39.17732000000035],[30.815530000000194,39.17701000000028],[30.81551000000013,39.176750000000084],[30.81574000000012,39.1765400000001],[30.816410000000133,39.17623000000043],[30.81719000000004,39.17525000000035],[30.817600000000027,39.17502000000047],[30.819190000000106,39.17480000000006],[30.821260000000166,39.1742900000001],[30.821880000000135,39.174020000000155],[30.82332000000008,39.172410000000525],[30.82499000000007,39.16989000000024],[30.826840000000175,39.1688900000006],[30.82847000000004,39.16826000000037],[30.831050000000175,39.168010000000265],[30.83376000000004,39.16740000000027],[30.836030000000108,39.167260000000056],[30.83962000000014,39.16633000000053],[30.842220000000168,39.1659600000001],[30.842980000000125,39.16337000000004],[30.844190000000083,39.16165000000018],[30.846200000000124,39.16001000000006],[30.848520000000065,39.15830000000011],[30.848620000000153,39.15673000000061],[30.850130000000036,39.15517000000017],[30.851220000000183,39.1550100000004],[30.851380000000063,39.15665000000041],[30.853480000000104,39.15635000000043],[30.854070000000092,39.15641000000028],[30.85693000000009,39.15631000000013],[30.858100000000093,39.1564000000003],[30.858630000000062,39.157130000000336],[30.85944000000012,39.157390000000134],[30.859700000000146,39.15738000000039],[30.860660000000166,39.15824000000049],[30.862000000000194,39.158560000000136],[30.863490000000183,39.15868000000012],[30.86344000000014,39.15889000000027],[30.864590000000078,39.1594400000003],[30.86548000000016,39.159980000000246],[30.8669000000001,39.1605600000006],[30.869330000000048,39.1612700000004],[30.867580000000032,39.16298000000046],[30.869180000000085,39.16363000000024],[30.872190000000103,39.16462000000007],[30.873600000000238,39.165870000000155],[30.874300000000062,39.169930000000136],[30.874600000000157,39.17227000000031],[30.876520000000255,39.17508000000032],[30.878130000000056,39.176250000000095],[30.879940000000204,39.17930000000007],[30.88085000000018,39.18180000000012],[30.88327000000004,39.18445000000054],[30.884570000000167,39.185390000000154],[30.88639000000012,39.18633000000034],[30.888217386962594,39.187132942756534],[30.888131661000045,39.18919103600024],[30.893257130000052,39.194790296000065],[30.893382891000044,39.19483846200018],[30.89324836300011,39.194879965000155],[30.89269270700015,39.19574217300004],[30.884731132000184,39.20507796800007],[30.875923963000048,39.208294969000065],[30.875459407000164,39.20926117500022],[30.859736694000162,39.21238714500004],[30.848048299000027,39.213062545000184],[30.84797287053283,39.21314330667377]]],"type":"Polygon"}},{"type":"Feature","properties":{"area_id":"TR-26-005-191127","name_tr":"Yazılı","area_level":"neighbourhood","parent_id":"TR-26-005","endeksa_id":191127},"geometry":{"coordinates":[[[30.723380000000134,39.225380000000655],[30.72321000000011,39.22526000000016],[30.722780000000057,39.2256600000004],[30.720780000000104,39.22642000000019],[30.720780000000104,39.22651000000036],[30.7173600000001,39.22648000000072],[30.71555000000012,39.22567000000049],[30.710240000000056,39.224230000000034],[30.70788000000016,39.22303000000022],[30.708970000000136,39.2195100000003],[30.70946000000015,39.218530000000214],[30.70939000000004,39.21845000000013],[30.70955000000015,39.21837000000045],[30.710190000000182,39.216950000000224],[30.71008000000012,39.216770000000224],[30.710220000000163,39.21649000000036],[30.71039000000019,39.216450000000066],[30.711230000000057,39.212330000000236],[30.711180000000184,39.21149000000037],[30.712970000000155,39.19469000000015],[30.713160000000073,39.19477000000035],[30.71407000000005,39.1944100000004],[30.714420000000246,39.19448000000051],[30.71473000000009,39.19411000000008],[30.715700000000083,39.19379000000026],[30.716370000000097,39.19346000000013],[30.716750000000104,39.1935500000003],[30.71714000000003,39.193470000000104],[30.719170000000133,39.19284000000039],[30.723780000000204,39.19223000000051],[30.730070000000126,39.19383000000005],[30.73250000000013,39.19480000000016],[30.73442000000017,39.19603000000018],[30.73516000000012,39.197340000000395],[30.73601000000008,39.198520000000144],[30.737080000000162,39.19966000000011],[30.737880000000132,39.20165000000031],[30.73746000000017,39.202050000000156],[30.737440000000106,39.20253000000008],[30.737940000000094,39.20281000000051],[30.738050000000158,39.203390000000184],[30.738250000000164,39.203470000000436],[30.738470000000063,39.20376000000027],[30.73820000000012,39.204350000000034],[30.738500000000045,39.204430000000286],[30.73808000000014,39.20504000000028],[30.738060000000075,39.20544000000018],[30.737630000000195,39.20594000000017],[30.737470000000087,39.20630000000011],[30.737510000000043,39.206540000000075],[30.7382300000001,39.206630000000416],[30.738130000000183,39.20696000000015],[30.737870000000157,39.207290000000285],[30.738550000000146,39.207690000000184],[30.73851000000019,39.20779000000044],[30.737940000000094,39.20779000000044],[30.73730000000006,39.20824000000073],[30.730190000000107,39.21526000000034],[30.728370000000155,39.21815000000004],[30.728450000000237,39.21892000000048],[30.729100000000187,39.218960000000266],[30.729140000000086,39.21917000000042],[30.728990000000124,39.219310000000064],[30.727590000000134,39.21950000000015],[30.727130000000045,39.21984000000003],[30.726020000000062,39.21937000000008],[30.726020000000062,39.2195500000002],[30.725940000000037,39.219590000000494],[30.72597000000019,39.21994000000035],[30.72575000000012,39.22048000000024],[30.72497000000004,39.22128000000038],[30.725600000000156,39.221660000000384],[30.724930000000143,39.222560000000385],[30.725550000000055,39.222990000000436],[30.72547000000003,39.22334000000029],[30.72588000000019,39.223520000000235],[30.724280000000135,39.225290000000314],[30.72376000000014,39.225060000000326],[30.723380000000134,39.225380000000655]]],"type":"Polygon"}},{"type":"Feature","properties":{"area_id":"TR-26-005-30276","name_tr":"Tepeköy","area_level":"neighbourhood","parent_id":"TR-26-005","endeksa_id":30276},"geometry":{"coordinates":[[[30.854897646810173,39.22762113153135],[30.85440000000017,39.22824000000014],[30.854160000000036,39.22977000000009],[30.854200000000162,39.23499000000015],[30.852580000000046,39.235290000000646],[30.85186000000016,39.23574000000025],[30.851250000000164,39.23438000000067],[30.850030000000118,39.23485000000011],[30.849820000000136,39.23503000000045],[30.84649000000013,39.234700000000146],[30.845380000000148,39.234700000000146],[30.844630000000052,39.23500000000013],[30.844000000000165,39.235600000000034],[30.84250000000003,39.23567000000014],[30.841360000000236,39.23639000000071],[30.837920000000167,39.23825000000005],[30.837440000000072,39.23860000000025],[30.83645000000024,39.23871000000014],[30.8355200000002,39.23864000000003],[30.835100000000068,39.23809000000017],[30.83417000000003,39.23781000000025],[30.83345000000014,39.23781000000025],[30.831590000000062,39.237920000000145],[30.829220000000078,39.23820000000018],[30.827580000000125,39.23894000000013],[30.826380000000142,39.23918000000009],[30.82332000000008,39.239010000000064],[30.822750000000156,39.238920000000064],[30.822090000000117,39.238570000000095],[30.82128000000006,39.2384600000002],[30.818730000000073,39.23834000000005],[30.81636000000009,39.23834000000005],[30.814480000000174,39.23785000000004],[30.813390000000197,39.237430000000074],[30.813370000000134,39.23730000000069],[30.812860000000057,39.23698000000036],[30.810670000000243,39.23607000000038],[30.810010000000148,39.23590000000013],[30.807760000000144,39.236130000000514],[30.80554000000012,39.236740000000395],[30.80331000000018,39.23896000000019],[30.798690000000192,39.22703000000007],[30.802220000000034,39.220850000000326],[30.80306000000013,39.22113000000019],[30.813730000000078,39.21895000000012],[30.820730000000196,39.212520000000325],[30.82106000000016,39.206140000000346],[30.82521000000014,39.209170000000256],[30.843190000000106,39.213270000000534],[30.847870000000114,39.21303000000057],[30.850630000000194,39.21607000000006],[30.851890000000196,39.21807000000035],[30.852360000000147,39.220110000000204],[30.853500000000167,39.221510000000194],[30.854100000000074,39.22285000000022],[30.85368000000011,39.2248000000003],[30.85452000000015,39.2260100000002],[30.855180000000075,39.22727000000003],[30.854897646810173,39.22762113153135]]],"type":"Polygon"}},{"type":"Feature","properties":{"area_id":"TR-26-005-191123","name_tr":"Kayı","area_level":"neighbourhood","parent_id":"TR-26-005","endeksa_id":191123},"geometry":{"coordinates":[[[30.798120000000097,39.21120000000013],[30.797810000000197,39.21099000000021],[30.797060000000158,39.21086000000008],[30.79690000000005,39.211010000000044],[30.795640000000105,39.21152000000018],[30.795520000000124,39.21140000000071],[30.795180000000187,39.21151000000003],[30.794840000000136,39.2118600000004],[30.794770000000028,39.21229000000045],[30.79467000000011,39.21238000000011],[30.79390000000018,39.212330000000236],[30.7932100000001,39.21247000000028],[30.792300000000125,39.21242000000041],[30.791370000000086,39.212520000000325],[30.790540000000192,39.212250000000154],[30.790620000000047,39.212520000000325],[30.790850000000034,39.21270000000027],[30.790810000000135,39.212950000000376],[30.79123000000004,39.21303000000057],[30.791270000000168,39.213140000000294],[30.791120000000035,39.21331000000032],[30.791330000000187,39.21387000000044],[30.791310000000124,39.21461000000056],[30.79148000000015,39.2148600000001],[30.7919100000002,39.214970000000505],[30.791240000000187,39.21644000000009],[30.790630000000135,39.21661000000012],[30.79030000000023,39.21650000000011],[30.788200000000188,39.21712000000008],[30.787970000000144,39.21667000000048],[30.787770000000137,39.21685000000008],[30.787760000000162,39.21709000000004],[30.787440000000174,39.217230000000086],[30.78680000000014,39.217160000000376],[30.78695000000016,39.21752000000009],[30.78687000000008,39.21826000000004],[30.786230000000046,39.21824000000038],[30.785670000000096,39.2185400000003],[30.786530000000027,39.21886000000012],[30.786940000000186,39.21886000000012],[30.787010000000123,39.220080000000394],[30.78696000000008,39.22049000000038],[30.788280000000043,39.221100000000376],[30.788890000000094,39.22167000000013],[30.7880100000001,39.221470000000295],[30.787900000000036,39.221790000000624],[30.787160000000085,39.2215800000003],[30.787060000000167,39.221850000000074],[30.786820000000034,39.222060000000226],[30.785520000000133,39.22174000000007],[30.784990000000164,39.22221000000019],[30.785210000000063,39.22236000000021],[30.784520000000157,39.22306000000003],[30.784780000000183,39.22332000000006],[30.784830000000056,39.22368000000017],[30.785880000000077,39.222780000000114],[30.786500000000046,39.22325000000012],[30.785560000000032,39.22439000000031],[30.78606000000019,39.224320000000375],[30.787440000000174,39.22500000000048],[30.787880000000143,39.22564000000017],[30.78844000000015,39.22670000000045],[30.788960000000202,39.22707000000037],[30.7889100000001,39.227170000000285],[30.789040000000057,39.22731000000033],[30.78885000000014,39.22746000000012],[30.789040000000057,39.227820000000065],[30.78887000000003,39.228410000000395],[30.788740000000075,39.22851000000031],[30.789480000000196,39.22895000000045],[30.78928000000019,39.22921000000065],[30.789670000000115,39.22975000000042],[30.788710000000094,39.23048000000006],[30.787410000000193,39.22982000000013],[30.787430000000086,39.22973000000036],[30.786270000000172,39.229310000000396],[30.785990000000083,39.22942000000029],[30.78581000000014,39.22967000000034],[30.78687000000008,39.23023000000035],[30.78677000000016,39.23029000000048],[30.786360000000172,39.230150000000265],[30.786130000000128,39.23057000000023],[30.785990000000083,39.23106000000024],[30.786160000000166,39.23122000000069],[30.784840000000145,39.23239000000018],[30.78498000000019,39.23248000000035],[30.78423000000015,39.2332100000005],[30.784370000000195,39.233300000000156],[30.783570000000054,39.23370000000017],[30.78315000000015,39.23409000000015],[30.783010000000104,39.23386000000028],[30.78194000000019,39.23409000000015],[30.781880000000058,39.23444000000012],[30.781960000000083,39.234640000000184],[30.782320000000198,39.23483000000027],[30.782490000000053,39.23539000000039],[30.782830000000104,39.23586000000023],[30.78268000000014,39.236130000000514],[30.782700000000034,39.23636000000039],[30.78305000000023,39.237210000000346],[30.78265000000016,39.23766000000012],[30.78255000000007,39.237890000000334],[30.78212000000019,39.23818000000034],[30.782110000000046,39.238350000000196],[30.78286000000014,39.23942000000005],[30.783380000000136,39.23952000000037],[30.783590000000117,39.23995000000042],[30.783980000000042,39.240250000000344],[30.784030000000143,39.24096000000014],[30.784180000000106,39.24132000000009],[30.78445000000005,39.24145000000016],[30.784560000000113,39.24184000000008],[30.78476000000012,39.24190000000044],[30.78463000000022,39.24221000000051],[30.784690000000182,39.24284000000006],[30.784620000000075,39.24324000000047],[30.78444000000013,39.24326000000019],[30.78410000000025,39.24395000000027],[30.783760000000143,39.2440500000007],[30.783200000000193,39.243870000000186],[30.78262000000018,39.244280000000174],[30.78244000000018,39.24423000000013],[30.781920000000127,39.243380000000684],[30.780470000000093,39.243870000000186],[30.780380000000093,39.24382000000014],[30.780370000000175,39.24332000000015],[30.780070000000194,39.24273000000022],[30.77992000000006,39.242760000000544],[30.779530000000136,39.24212000000017],[30.778370000000052,39.24119000000013],[30.777400000000114,39.24100000000004],[30.7762400000002,39.241300000000535],[30.774810000000173,39.24070000000063],[30.774580000000185,39.24048000000022],[30.773990000000197,39.23953000000046],[30.773540000000082,39.23931000000073],[30.773160000000075,39.238970000000336],[30.772720000000106,39.238360000000284],[30.772620000000188,39.237960000000044],[30.77193000000011,39.23705000000007],[30.77004000000005,39.237740000000144],[30.769820000000152,39.23768000000018],[30.768690000000106,39.23521000000028],[30.768570000000125,39.234640000000184],[30.767860000000155,39.23469000000006],[30.766160000000184,39.23508000000032],[30.7650500000002,39.235540000000185],[30.764080000000035,39.23578000000015],[30.763250000000085,39.236120000000426],[30.76050000000015,39.2365200000001],[30.759530000000154,39.23624000000041],[30.757760000000076,39.23605000000032],[30.756680000000074,39.236160000000154],[30.755910000000142,39.236470000000224],[30.755380000000173,39.23653000000024],[30.754800000000103,39.23676000000006],[30.753790000000038,39.23662000000019],[30.753050000000087,39.23642000000035],[30.752120000000048,39.23666000000031],[30.750350000000196,39.2359900000003],[30.749500000000182,39.23557000000039],[30.748890000000188,39.23512000000011],[30.74780000000004,39.234670000000506],[30.747130000000027,39.23448000000042],[30.746770000000083,39.2345200000002],[30.744030000000237,39.233830000000125],[30.741440000000125,39.23277000000036],[30.7413600000001,39.232870000000105],[30.739000000000203,39.23166000000015],[30.738800000000197,39.23147000000006],[30.739300000000185,39.231200000000456],[30.738750000000152,39.23072000000053],[30.73790000000014,39.23060000000055],[30.737660000000176,39.23073000000011],[30.737250000000188,39.2306600000004],[30.736890000000074,39.23099000000013],[30.73755000000017,39.23137000000031],[30.7371500000001,39.23187000000047],[30.735890000000097,39.23137000000031],[30.735830000000135,39.231020000000115],[30.73563000000013,39.230860000000064],[30.73548000000011,39.231170000000134],[30.73513000000014,39.231450000000166],[30.73448000000019,39.23163000000051],[30.73430389026464,39.23136749680958],[30.73049000000009,39.23093000000017],[30.730429676902816,39.23080332149601],[30.72823374193098,39.22947251613925],[30.727090000000146,39.23121000000003],[30.725600000000156,39.231170000000134],[30.725010000000168,39.230020000000195],[30.724650000000054,39.22840000000042],[30.725150000000042,39.22725000000048],[30.725670000000036,39.22723000000025],[30.725460000000112,39.22660000000019],[30.72500000000025,39.22670000000045],[30.723380000000134,39.225380000000655],[30.72376000000014,39.225060000000326],[30.724280000000135,39.225290000000314],[30.72588000000019,39.223520000000235],[30.72547000000003,39.22334000000029],[30.725550000000055,39.222990000000436],[30.724930000000143,39.222560000000385],[30.725600000000156,39.221660000000384],[30.72497000000004,39.22128000000038],[30.72575000000012,39.22048000000024],[30.72597000000019,39.21994000000035],[30.725940000000037,39.219590000000494],[30.726020000000062,39.2195500000002],[30.726020000000062,39.21937000000008],[30.727130000000045,39.21984000000003],[30.727590000000134,39.21950000000015],[30.728990000000124,39.219310000000064],[30.729140000000086,39.21917000000042],[30.729100000000187,39.218960000000266],[30.728450000000237,39.21892000000048],[30.728370000000155,39.21815000000004],[30.730190000000107,39.21526000000034],[30.73730000000006,39.20824000000073],[30.737940000000094,39.20779000000044],[30.73851000000019,39.20779000000044],[30.738550000000146,39.207690000000184],[30.737870000000157,39.207290000000285],[30.738130000000183,39.20696000000015],[30.7382300000001,39.206630000000416],[30.737510000000043,39.206540000000075],[30.737470000000087,39.20630000000011],[30.737630000000195,39.20594000000017],[30.738060000000075,39.20544000000018],[30.73808000000014,39.20504000000028],[30.738500000000045,39.204430000000286],[30.73820000000012,39.204350000000034],[30.738470000000063,39.20376000000027],[30.738250000000164,39.203470000000436],[30.738050000000158,39.203390000000184],[30.737940000000094,39.20281000000051],[30.737440000000106,39.20253000000008],[30.73746000000017,39.202050000000156],[30.737880000000132,39.20165000000031],[30.73894000000007,39.20231000000035],[30.74095000000011,39.20420000000041],[30.745420000000138,39.20481000000029],[30.745410000000163,39.20375000000013],[30.74623000000014,39.203700000000254],[30.746210000000133,39.202550000000315],[30.745740000000126,39.201710000000446],[30.747700000000123,39.20203000000009],[30.74767000000014,39.2013500000005],[30.748750000000143,39.20108000000022],[30.74886000000015,39.20130000000063],[30.751930000000186,39.201460000000395],[30.75413000000009,39.199880000000405],[30.756520000000137,39.19983000000036],[30.758840000000077,39.19943000000012],[30.758810000000096,39.19859000000025],[30.759710000000155,39.19839000000019],[30.759990000000187,39.198960000000284],[30.763020000000097,39.197870000000364],[30.76329000000004,39.1982000000001],[30.766210000000058,39.1971200000001],[30.770610000000147,39.196630000000084],[30.76834000000008,39.195580000000064],[30.767000000000053,39.195670000000234],[30.767340000000104,39.194530000000384],[30.768380000000036,39.194000000000074],[30.768040000000155,39.19332000000031],[30.769040000000075,39.19299000000018],[30.76759000000004,39.19169000000005],[30.766120000000058,39.19103000000018],[30.7678200000002,39.19097000000016],[30.774390000000096,39.192110000000525],[30.77484000000021,39.19284000000039],[30.778950000000066,39.19565000000068],[30.779240000000073,39.19643000000042],[30.780340000000137,39.197690000000364],[30.78107000000017,39.19835000000029],[30.78228000000007,39.199080000000265],[30.784290000000112,39.19916000000035],[30.78435000000013,39.19944000000021],[30.785340000000133,39.199910000000045],[30.785450000000196,39.20024000000035],[30.785610000000133,39.20040000000006],[30.786140000000103,39.20046000000008],[30.786440000000027,39.2003400000001],[30.78699000000006,39.20033000000012],[30.787150000000167,39.20055000000042],[30.78727000000015,39.201620000000105],[30.787870000000055,39.20231000000035],[30.788510000000088,39.20284000000015],[30.78897000000012,39.20340000000033],[30.790290000000084,39.204310000000305],[30.79139000000015,39.20445000000012],[30.792280000000062,39.20445000000012],[30.793070000000057,39.20489000000066],[30.79350000000011,39.2053600000001],[30.793380000000127,39.205520000000206],[30.793820000000153,39.20610000000005],[30.794320000000084,39.20687000000038],[30.794510000000173,39.20691000000011],[30.795180000000187,39.207750000000146],[30.79510000000016,39.20789000000019],[30.795450000000187,39.20889000000051],[30.79581000000013,39.2093100000003],[30.796360000000163,39.20966000000027],[30.797230000000184,39.209860000000106],[30.798030000000097,39.21064000000035],[30.79844000000014,39.21068000000014],[30.798120000000097,39.21120000000013]]],"type":"Polygon"}},{"type":"Feature","properties":{"area_id":"TR-26-005-30273","name_tr":"Erten","area_level":"neighbourhood","parent_id":"TR-26-005","endeksa_id":30273},"geometry":{"coordinates":[[[30.82106000000016,39.206140000000346],[30.820730000000196,39.212520000000325],[30.813730000000078,39.21895000000012],[30.80306000000013,39.22113000000019],[30.802220000000034,39.220850000000326],[30.80142000000012,39.218660000000284],[30.799920000000157,39.217080000000294],[30.798300000000097,39.21495000000027],[30.797940000000153,39.213600000000156],[30.798120000000097,39.21120000000013],[30.79844000000014,39.21068000000014],[30.798030000000097,39.21064000000035],[30.797230000000184,39.209860000000106],[30.796360000000163,39.20966000000027],[30.79581000000013,39.2093100000003],[30.795450000000187,39.20889000000051],[30.79510000000016,39.20789000000019],[30.795180000000187,39.207750000000146],[30.794510000000173,39.20691000000011],[30.794320000000084,39.20687000000038],[30.793820000000153,39.20610000000005],[30.79560000000015,39.201160000000414],[30.802020000000027,39.198520000000144],[30.8107500000001,39.19692000000009],[30.814760000000035,39.19760000000019],[30.819240000000207,39.20059000000015],[30.82119000000006,39.203690000000165],[30.82106000000016,39.206140000000346]]],"type":"Polygon"}},{"type":"Feature","properties":{"area_id":"TR-26-005-191109","name_tr":"Akdere","area_level":"neighbourhood","parent_id":"TR-26-005","endeksa_id":191109},"geometry":{"coordinates":[[[30.78262000000018,39.244280000000174],[30.782660000000078,39.244670000000156],[30.780840000000126,39.24735000000021],[30.780000000000086,39.24804000000029],[30.778980000000104,39.24958000000015],[30.778800000000103,39.25120000000027],[30.778090000000134,39.252450000000124],[30.777370000000076,39.25334000000055],[30.777430000000095,39.254870000000665],[30.77695000000017,39.25584000000009],[30.77494000000013,39.2572600000002],[30.7723000000002,39.258740000000046],[30.77122000000014,39.26014000000043],[30.770740000000046,39.262090000000114],[30.770740000000046,39.264410000000055],[30.773090000000195,39.26610000000045],[30.771580000000085,39.26914000000045],[30.76370000000003,39.26740000000018],[30.753020000000106,39.267380000000344],[30.745070960789576,39.2664456454134],[30.741510885000082,39.26073592200004],[30.74313018300012,39.259578583000064],[30.743159865000052,39.259477372000674],[30.738894145000074,39.25182426400005],[30.733993783000187,39.244931018000045],[30.727872860000048,39.24056143700011],[30.728871076000075,39.238912712],[30.727481131000104,39.23877620899998],[30.72619154300014,39.23517699199999],[30.720511960000124,39.232812186000444],[30.722001503,39.23044197800044],[30.722562547000052,39.23020454600015],[30.719747760000132,39.22990923800006],[30.719120421000184,39.22649671500005],[30.718974050952397,39.226494158342064],[30.720780000000104,39.22651000000036],[30.720780000000104,39.22642000000019],[30.722780000000057,39.2256600000004],[30.72321000000011,39.22526000000016],[30.723380000000134,39.225380000000655],[30.72500000000025,39.22670000000045],[30.725460000000112,39.22660000000019],[30.725670000000036,39.22723000000025],[30.725150000000042,39.22725000000048],[30.724650000000054,39.22840000000042],[30.725010000000168,39.230020000000195],[30.725600000000156,39.231170000000134],[30.727090000000146,39.23121000000003],[30.72823374193098,39.22947251613925],[30.730429676902816,39.23080332149601],[30.73049000000009,39.23093000000017],[30.73430389026464,39.23136749680958],[30.73448000000019,39.23163000000051],[30.73513000000014,39.231450000000166],[30.73548000000011,39.231170000000134],[30.73563000000013,39.230860000000064],[30.735830000000135,39.231020000000115],[30.735890000000097,39.23137000000031],[30.7371500000001,39.23187000000047],[30.73755000000017,39.23137000000031],[30.736890000000074,39.23099000000013],[30.737250000000188,39.2306600000004],[30.737660000000176,39.23073000000011],[30.73790000000014,39.23060000000055],[30.738750000000152,39.23072000000053],[30.739300000000185,39.231200000000456],[30.738800000000197,39.23147000000006],[30.739000000000203,39.23166000000015],[30.7413600000001,39.232870000000105],[30.741440000000125,39.23277000000036],[30.744030000000237,39.233830000000125],[30.746770000000083,39.2345200000002],[30.747130000000027,39.23448000000042],[30.74780000000004,39.234670000000506],[30.748890000000188,39.23512000000011],[30.749500000000182,39.23557000000039],[30.750350000000196,39.2359900000003],[30.752120000000048,39.23666000000031],[30.753050000000087,39.23642000000035],[30.753790000000038,39.23662000000019],[30.754800000000103,39.23676000000006],[30.755380000000173,39.23653000000024],[30.755910000000142,39.236470000000224],[30.756680000000074,39.236160000000154],[30.757760000000076,39.23605000000032],[30.759530000000154,39.23624000000041],[30.76050000000015,39.2365200000001],[30.763250000000085,39.236120000000426],[30.764080000000035,39.23578000000015],[30.7650500000002,39.235540000000185],[30.766160000000184,39.23508000000032],[30.767860000000155,39.23469000000006],[30.768570000000125,39.234640000000184],[30.768690000000106,39.23521000000028],[30.769820000000152,39.23768000000018],[30.77004000000005,39.237740000000144],[30.77193000000011,39.23705000000007],[30.772620000000188,39.237960000000044],[30.772720000000106,39.238360000000284],[30.773160000000075,39.238970000000336],[30.773540000000082,39.23931000000073],[30.773990000000197,39.23953000000046],[30.774580000000185,39.24048000000022],[30.774810000000173,39.24070000000063],[30.7762400000002,39.241300000000535],[30.777400000000114,39.24100000000004],[30.778370000000052,39.24119000000013],[30.779530000000136,39.24212000000017],[30.77992000000006,39.242760000000544],[30.780070000000194,39.24273000000022],[30.780370000000175,39.24332000000015],[30.780380000000093,39.24382000000014],[30.780470000000093,39.243870000000186],[30.781920000000127,39.243380000000684],[30.78244000000018,39.24423000000013],[30.78262000000018,39.244280000000174]]],"type":"Polygon"}},{"type":"Feature","properties":{"area_id":"TR-26-005-191121","name_tr":"İskankuyu","area_level":"neighbourhood","parent_id":"TR-26-005","endeksa_id":191121},"geometry":{"coordinates":[[[30.915670000000148,39.25724000000014],[30.913720000000126,39.25943000000012],[30.912800000000175,39.2603400000001],[30.912390000000187,39.26063000000033],[30.911520000000166,39.26158000000021],[30.910470000000146,39.261310000000094],[30.90854000000013,39.260260000000414],[30.907940000000053,39.26074000000034],[30.909850000000176,39.261740000000145],[30.90972000000005,39.261900000000026],[30.910780000000045,39.26251000000042],[30.910310000000038,39.26308000000017],[30.90811000000008,39.26221000000032],[30.907850000000053,39.26243000000022],[30.907350000000065,39.26330000000041],[30.90702000000016,39.2631600000002],[30.906850000000134,39.263320000000135],[30.908610000000067,39.26449000000014],[30.90810000000016,39.26524000000035],[30.90922000000012,39.26594000000017],[30.908930000000055,39.26628000000028],[30.90671000000009,39.26519000000047],[30.90631000000019,39.265610000000436],[30.90662000000009,39.26591000000036],[30.905540000000087,39.26711000000017],[30.904670000000237,39.266580000000374],[30.904490000000067,39.26681000000025],[30.905180000000144,39.267380000000344],[30.904780000000073,39.26756000000046],[30.90442000000013,39.26795000000004],[30.90442000000013,39.26826000000011],[30.904880000000162,39.26848000000041],[30.906330000000082,39.26882000000029],[30.90675000000016,39.26929000000007],[30.907720000000154,39.269770000000165],[30.907560000000046,39.26997000000023],[30.906790000000115,39.2695700000005],[30.905950000000075,39.269610000000284],[30.90644000000009,39.2708100000001],[30.90609000000012,39.27133000000009],[30.90535000000017,39.271190000000274],[30.904580000000067,39.271960000000036],[30.905080000000225,39.272280000000194],[30.905450000000087,39.27267000000012],[30.904970000000162,39.27368000000024],[30.904690000000073,39.2740000000004],[30.904580000000067,39.273940000000266],[30.90367000000009,39.27406000000042],[30.90284000000014,39.27405000000027],[30.90175780932742,39.2751506935121],[30.901792705094067,39.27532691199883],[30.902360000000044,39.27550000000019],[30.902380000000107,39.27527000000032],[30.90231000000017,39.27523000000042],[30.902420000000234,39.27506000000017],[30.90272000000016,39.274910000000375],[30.90318000000019,39.275030000000356],[30.90253000000007,39.27560000000062],[30.901890000000037,39.27642000000026],[30.901580000000138,39.27706000000012],[30.90129000000013,39.27743000000015],[30.90123000000017,39.277760000000285],[30.900180000000148,39.277260000000126],[30.899600000000135,39.27801000000039],[30.90042000000011,39.278530000000046],[30.900260000000173,39.27858000000009],[30.899230000000045,39.27975000000009],[30.89745000000005,39.28204000000005],[30.897460000000137,39.2822900000001],[30.89655000000016,39.28232000000031],[30.8968000000001,39.28305000000029],[30.895806402792005,39.28324439945396],[30.895768401000055,39.28302378400025],[30.894947340999977,39.283043503000044],[30.89501859300003,39.281734313000584],[30.89527667100009,39.281748359000176],[30.895145763000073,39.27939766900016],[30.895499334000135,39.27290203900009],[30.878705548000028,39.271456952000165],[30.87273496800003,39.264622572000064],[30.86077392100009,39.25896575600012],[30.85444462800018,39.24851220900018],[30.85504985200015,39.24602480800013],[30.859198119999974,39.243442959000106],[30.85933892200012,39.24005261799999],[30.86099660400015,39.23993542699998],[30.859467569000174,39.23861773600015],[30.860548671999993,39.237669514000174],[30.854004396000164,39.23824198000011],[30.85386786600003,39.23817123600065],[30.855450367000174,39.23378397400006],[30.859383249000132,39.2321954560004],[30.85597281500003,39.231832840000095],[30.857179250000115,39.227325374000145],[30.855958441000098,39.227480923000314],[30.85583088499999,39.227381348000335],[30.85573314700008,39.22751280600005],[30.854897646810173,39.22762113153135],[30.855180000000075,39.22727000000003],[30.85452000000015,39.2260100000002],[30.85368000000011,39.2248000000003],[30.854100000000074,39.22285000000022],[30.853500000000167,39.221510000000194],[30.852360000000147,39.220110000000204],[30.851890000000196,39.21807000000035],[30.850630000000194,39.21607000000006],[30.84797287053283,39.21314330667377],[30.848048299000027,39.213062545000184],[30.859736694000162,39.21238714500004],[30.875459407000164,39.20926117500022],[30.875923963000048,39.208294969000065],[30.884731132000184,39.20507796800007],[30.891286315000116,39.1973913170001],[30.895747645000142,39.20107110900011],[30.896752604000085,39.20070491700051],[30.90605503000006,39.20957280500011],[30.91294975900007,39.21092712900003],[30.915755441000044,39.213980511000614],[30.922249920000127,39.211684790000106],[30.923270994000063,39.21216249200006],[30.923801961000038,39.2120340510005],[30.92568698300005,39.21329279700001],[30.929409480091238,39.21503434259739],[30.929110000000207,39.21650000000011],[30.928070000000105,39.219710000000475],[30.926980000000185,39.22236000000021],[30.92700000000019,39.224050000000034],[30.92635000000007,39.22872000000007],[30.92631000000017,39.229500000000485],[30.925780000000145,39.22989000000007],[30.92604000000017,39.230060000000094],[30.92614000000009,39.23030000000006],[30.92558000000014,39.230800000000045],[30.92542000000003,39.23109000000005],[30.926110000000108,39.2315200000001],[30.924930000000188,39.233340000000055],[30.92543083953342,39.233774060929306],[30.926610000000096,39.235350000000096],[30.92632000000009,39.23596000000066],[30.926430000000153,39.236460000000136],[30.926670000000115,39.23692000000051],[30.926240000000234,39.23717000000005],[30.926810000000103,39.23784000000006],[30.92613000000017,39.23791000000017],[30.925370000000157,39.23825000000005],[30.92549000000014,39.238670000000354],[30.92551000000003,39.239320000000134],[30.92440000000005,39.239470000000324],[30.915100000000052,39.25686000000047],[30.915670000000148,39.25724000000014]]],"type":"Polygon"}},{"type":"Feature","properties":{"area_id":"TR-26-005-191119","name_tr":"Hankaraağaç","area_level":"neighbourhood","parent_id":"TR-26-005","endeksa_id":191119},"geometry":{"coordinates":[[[30.82691000000011,39.31657000000013],[30.82087000000024,39.315020000000175],[30.811470000000156,39.31399000000022],[30.795360000000187,39.31761000000006],[30.787310000000105,39.312950000000114],[30.778580000000204,39.309850000000154],[30.77187000000015,39.303650000000175],[30.763810000000092,39.29538000000014],[30.760610000000156,39.29122000000041],[30.773090000000195,39.26610000000045],[30.770740000000046,39.264410000000055],[30.770740000000046,39.262090000000114],[30.77122000000014,39.26014000000043],[30.7723000000002,39.258740000000046],[30.77494000000013,39.2572600000002],[30.77695000000017,39.25584000000009],[30.777430000000095,39.254870000000665],[30.777370000000076,39.25334000000055],[30.778090000000134,39.252450000000124],[30.778800000000103,39.25120000000027],[30.778980000000104,39.24958000000015],[30.780000000000086,39.24804000000029],[30.780840000000126,39.24735000000021],[30.782660000000078,39.244670000000156],[30.78262000000018,39.244280000000174],[30.783200000000193,39.243870000000186],[30.783760000000143,39.2440500000007],[30.78410000000025,39.24395000000027],[30.78444000000013,39.24326000000019],[30.784620000000075,39.24324000000047],[30.784690000000182,39.24284000000006],[30.78463000000022,39.24221000000051],[30.78476000000012,39.24190000000044],[30.784560000000113,39.24184000000008],[30.78445000000005,39.24145000000016],[30.784180000000106,39.24132000000009],[30.784030000000143,39.24096000000014],[30.783980000000042,39.240250000000344],[30.783590000000117,39.23995000000042],[30.783380000000136,39.23952000000037],[30.78286000000014,39.23942000000005],[30.782110000000046,39.238350000000196],[30.78212000000019,39.23818000000034],[30.78255000000007,39.237890000000334],[30.78265000000016,39.23766000000012],[30.78305000000023,39.237210000000346],[30.782700000000034,39.23636000000039],[30.78268000000014,39.236130000000514],[30.782830000000104,39.23586000000023],[30.782490000000053,39.23539000000039],[30.782320000000198,39.23483000000027],[30.781960000000083,39.234640000000184],[30.781880000000058,39.23444000000012],[30.78194000000019,39.23409000000015],[30.783010000000104,39.23386000000028],[30.78315000000015,39.23409000000015],[30.783570000000054,39.23370000000017],[30.784370000000195,39.233300000000156],[30.78423000000015,39.2332100000005],[30.78498000000019,39.23248000000035],[30.784840000000145,39.23239000000018],[30.786160000000166,39.23122000000069],[30.785990000000083,39.23106000000024],[30.786130000000128,39.23057000000023],[30.786360000000172,39.230150000000265],[30.78677000000016,39.23029000000048],[30.78687000000008,39.23023000000035],[30.78581000000014,39.22967000000034],[30.785990000000083,39.22942000000029],[30.786270000000172,39.229310000000396],[30.787430000000086,39.22973000000036],[30.787410000000193,39.22982000000013],[30.788710000000094,39.23048000000006],[30.789670000000115,39.22975000000042],[30.78928000000019,39.22921000000065],[30.789480000000196,39.22895000000045],[30.788740000000075,39.22851000000031],[30.78887000000003,39.228410000000395],[30.789040000000057,39.227820000000065],[30.78885000000014,39.22746000000012],[30.789040000000057,39.22731000000033],[30.7889100000001,39.227170000000285],[30.788960000000202,39.22707000000037],[30.78844000000015,39.22670000000045],[30.787880000000143,39.22564000000017],[30.787440000000174,39.22500000000048],[30.78606000000019,39.224320000000375],[30.785560000000032,39.22439000000031],[30.786500000000046,39.22325000000012],[30.785880000000077,39.222780000000114],[30.784830000000056,39.22368000000017],[30.784780000000183,39.22332000000006],[30.784520000000157,39.22306000000003],[30.785210000000063,39.22236000000021],[30.784990000000164,39.22221000000019],[30.785520000000133,39.22174000000007],[30.786820000000034,39.222060000000226],[30.787060000000167,39.221850000000074],[30.787160000000085,39.2215800000003],[30.787900000000036,39.221790000000624],[30.7880100000001,39.221470000000295],[30.788890000000094,39.22167000000013],[30.788280000000043,39.221100000000376],[30.78696000000008,39.22049000000038],[30.787010000000123,39.220080000000394],[30.786940000000186,39.21886000000012],[30.786530000000027,39.21886000000012],[30.785670000000096,39.2185400000003],[30.786230000000046,39.21824000000038],[30.78687000000008,39.21826000000004],[30.78695000000016,39.21752000000009],[30.78680000000014,39.217160000000376],[30.787440000000174,39.217230000000086],[30.787760000000162,39.21709000000004],[30.787770000000137,39.21685000000008],[30.787970000000144,39.21667000000048],[30.788200000000188,39.21712000000008],[30.79030000000023,39.21650000000011],[30.790630000000135,39.21661000000012],[30.791240000000187,39.21644000000009],[30.7919100000002,39.214970000000505],[30.79148000000015,39.2148600000001],[30.791310000000124,39.21461000000056],[30.791330000000187,39.21387000000044],[30.791120000000035,39.21331000000032],[30.791270000000168,39.213140000000294],[30.79123000000004,39.21303000000057],[30.790810000000135,39.212950000000376],[30.790850000000034,39.21270000000027],[30.790620000000047,39.212520000000325],[30.790540000000192,39.212250000000154],[30.791370000000086,39.212520000000325],[30.792300000000125,39.21242000000041],[30.7932100000001,39.21247000000028],[30.79390000000018,39.212330000000236],[30.79467000000011,39.21238000000011],[30.794770000000028,39.21229000000045],[30.794840000000136,39.2118600000004],[30.795180000000187,39.21151000000003],[30.795520000000124,39.21140000000071],[30.795640000000105,39.21152000000018],[30.79690000000005,39.211010000000044],[30.797060000000158,39.21086000000008],[30.797810000000197,39.21099000000021],[30.798120000000097,39.21120000000013],[30.797940000000153,39.213600000000156],[30.798300000000097,39.21495000000027],[30.799920000000157,39.217080000000294],[30.80142000000012,39.218660000000284],[30.802220000000034,39.220850000000326],[30.798690000000192,39.22703000000007],[30.80331000000018,39.23896000000019],[30.80374000000006,39.240090000000066],[30.80349000000018,39.24098000000038],[30.802300000000116,39.241950000000315],[30.801410000000203,39.24246000000005],[30.799760000000106,39.24281000000042],[30.801800000000128,39.2454400000006],[30.802240000000097,39.24645000000032],[30.80291000000011,39.247500000000514],[30.80325000000022,39.247440000000154],[30.803200000000118,39.24772000000024],[30.802990000000193,39.24804000000029],[30.80301000000003,39.24838000000017],[30.80319000000003,39.24882000000031],[30.802930000000174,39.249040000000036],[30.80300000000011,39.249080000000504],[30.802930000000174,39.24913000000038],[30.803150000000073,39.24930000000023],[30.8033200000001,39.24921000000006],[30.803670000000125,39.24946000000068],[30.804590000000246,39.24905000000018],[30.804870000000108,39.24906000000027],[30.805180000000178,39.24924000000027],[30.80579000000023,39.249080000000504],[30.805840000000103,39.249720000000195],[30.806360000000097,39.25029000000029],[30.806540000000098,39.250380000000064],[30.80669000000006,39.25113000000033],[30.806890000000124,39.25160000000011],[30.80672000000004,39.25173000000024],[30.807290000000137,39.2521200000005],[30.8074900000002,39.2520100000001],[30.808100000000195,39.25274000000013],[30.807760000000144,39.253000000000156],[30.8087900000001,39.25361000000015],[30.80898000000019,39.25380000000024],[30.80966000000012,39.2547900000003],[30.809990000000084,39.25506000000007],[30.80976000000004,39.25550000000021],[30.80997000000019,39.25572000000011],[30.810510000000136,39.25593000000026],[30.811540000000093,39.25601000000012],[30.8118300000001,39.25717000000054],[30.81180000000012,39.257710000000316],[30.81193000000019,39.25780000000009],[30.812610000000177,39.25763000000023],[30.814920000000143,39.25664000000006],[30.816860000000077,39.25614000000007],[30.817180000000064,39.25614000000007],[30.818130000000167,39.256200000000035],[30.818310000000167,39.257160000000056],[30.819400000000087,39.25715000000031],[30.820020000000056,39.25742000000008],[30.820960000000184,39.25830000000025],[30.821290000000147,39.25885000000028],[30.821200000000147,39.258890000000065],[30.821910000000116,39.26064000000008],[30.822340000000167,39.26054000000016],[30.822600000000193,39.26188000000019],[30.823400000000106,39.262140000000386],[30.823680000000195,39.262640000000374],[30.824270000000183,39.26288000000034],[30.824350000000038,39.26330000000041],[30.82453000000021,39.2633800000001],[30.83035000000018,39.26950000000039],[30.831070000000068,39.27331000000015],[30.832870000000128,39.276740000000075],[30.8357400000001,39.279430000000616],[30.84030000000007,39.285100000000114],[30.844500000000153,39.288160000000346],[30.850850000000094,39.29011000000037],[30.85529000000014,39.29131000000018],[30.860440000000096,39.29345000000035],[30.863510000000076,39.29508000000021],[30.865120000000047,39.29528000000039],[30.866670000000056,39.29530000000011],[30.869620000000054,39.29713000000015],[30.870660000000157,39.29754000000037],[30.871190000000126,39.2978700000001],[30.873290000000168,39.29863000000046],[30.878750000000196,39.30008000000038],[30.87707000000006,39.30323000000021],[30.876120000000185,39.30556000000007],[30.860160000000178,39.30524000000025],[30.86012000000005,39.305170000000146],[30.85451000000006,39.30512000000027],[30.8543600000001,39.30572000000018],[30.847160000000144,39.30934000000019],[30.832070000000215,39.3134000000004],[30.82691000000011,39.31657000000013]]],"type":"Polygon"}},{"type":"Feature","properties":{"area_id":"TR-26-005-191115","name_tr":"Gökçekuyu","area_level":"neighbourhood","parent_id":"TR-26-005","endeksa_id":191115},"geometry":{"coordinates":[[[30.89476918908258,39.28591683227887],[30.87913359400011,39.28398395500005],[30.874361133000036,39.28421203000033],[30.870291087000055,39.28993665500013],[30.863577090000092,39.29502055800009],[30.863909677011918,39.295129649318426],[30.863510000000076,39.29508000000021],[30.860440000000096,39.29345000000035],[30.85529000000014,39.29131000000018],[30.850850000000094,39.29011000000037],[30.844500000000153,39.288160000000346],[30.84030000000007,39.285100000000114],[30.8357400000001,39.279430000000616],[30.832870000000128,39.276740000000075],[30.831070000000068,39.27331000000015],[30.83035000000018,39.26950000000039],[30.82453000000021,39.2633800000001],[30.824350000000038,39.26330000000041],[30.824270000000183,39.26288000000034],[30.823680000000195,39.262640000000374],[30.823400000000106,39.262140000000386],[30.822600000000193,39.26188000000019],[30.822340000000167,39.26054000000016],[30.821910000000116,39.26064000000008],[30.821200000000147,39.258890000000065],[30.821290000000147,39.25885000000028],[30.820960000000184,39.25830000000025],[30.820020000000056,39.25742000000008],[30.819400000000087,39.25715000000031],[30.818310000000167,39.257160000000056],[30.818130000000167,39.256200000000035],[30.817180000000064,39.25614000000007],[30.816860000000077,39.25614000000007],[30.814920000000143,39.25664000000006],[30.812610000000177,39.25763000000023],[30.81193000000019,39.25780000000009],[30.81180000000012,39.257710000000316],[30.8118300000001,39.25717000000054],[30.811540000000093,39.25601000000012],[30.810510000000136,39.25593000000026],[30.80997000000019,39.25572000000011],[30.80976000000004,39.25550000000021],[30.809990000000084,39.25506000000007],[30.80966000000012,39.2547900000003],[30.80898000000019,39.25380000000024],[30.8087900000001,39.25361000000015],[30.807760000000144,39.253000000000156],[30.808100000000195,39.25274000000013],[30.8074900000002,39.2520100000001],[30.807290000000137,39.2521200000005],[30.80672000000004,39.25173000000024],[30.806890000000124,39.25160000000011],[30.80669000000006,39.25113000000033],[30.806540000000098,39.250380000000064],[30.806360000000097,39.25029000000029],[30.805840000000103,39.249720000000195],[30.80579000000023,39.249080000000504],[30.805180000000178,39.24924000000027],[30.804870000000108,39.24906000000027],[30.804590000000246,39.24905000000018],[30.803670000000125,39.24946000000068],[30.8033200000001,39.24921000000006],[30.803150000000073,39.24930000000023],[30.802930000000174,39.24913000000038],[30.80300000000011,39.249080000000504],[30.802930000000174,39.249040000000036],[30.80319000000003,39.24882000000031],[30.80301000000003,39.24838000000017],[30.802990000000193,39.24804000000029],[30.803200000000118,39.24772000000024],[30.80325000000022,39.247440000000154],[30.80291000000011,39.247500000000514],[30.802240000000097,39.24645000000032],[30.801800000000128,39.2454400000006],[30.799760000000106,39.24281000000042],[30.801410000000203,39.24246000000005],[30.802300000000116,39.241950000000315],[30.80349000000018,39.24098000000038],[30.80374000000006,39.240090000000066],[30.80331000000018,39.23896000000019],[30.80554000000012,39.236740000000395],[30.807760000000144,39.236130000000514],[30.810010000000148,39.23590000000013],[30.810670000000243,39.23607000000038],[30.812860000000057,39.23698000000036],[30.813370000000134,39.23730000000069],[30.813390000000197,39.237430000000074],[30.814480000000174,39.23785000000004],[30.81636000000009,39.23834000000005],[30.818730000000073,39.23834000000005],[30.82128000000006,39.2384600000002],[30.822090000000117,39.238570000000095],[30.822750000000156,39.238920000000064],[30.82332000000008,39.239010000000064],[30.826380000000142,39.23918000000009],[30.827580000000125,39.23894000000013],[30.829220000000078,39.23820000000018],[30.831590000000062,39.237920000000145],[30.83345000000014,39.23781000000025],[30.83417000000003,39.23781000000025],[30.835100000000068,39.23809000000017],[30.8355200000002,39.23864000000003],[30.83645000000024,39.23871000000014],[30.837440000000072,39.23860000000025],[30.837920000000167,39.23825000000005],[30.841360000000236,39.23639000000071],[30.84250000000003,39.23567000000014],[30.844000000000165,39.235600000000034],[30.844630000000052,39.23500000000013],[30.845380000000148,39.234700000000146],[30.84649000000013,39.234700000000146],[30.849820000000136,39.23503000000045],[30.850030000000118,39.23485000000011],[30.851250000000164,39.23438000000067],[30.85186000000016,39.23574000000025],[30.852580000000046,39.235290000000646],[30.854200000000162,39.23499000000015],[30.854160000000036,39.22977000000009],[30.85440000000017,39.22824000000014],[30.854897646810173,39.22762113153135],[30.85573314700008,39.22751280600005],[30.85583088499999,39.227381348000335],[30.855958441000098,39.227480923000314],[30.857179250000115,39.227325374000145],[30.85597281500003,39.231832840000095],[30.859383249000132,39.2321954560004],[30.855450367000174,39.23378397400006],[30.85386786600003,39.23817123600065],[30.854004396000164,39.23824198000011],[30.860548671999993,39.237669514000174],[30.859467569000174,39.23861773600015],[30.86099660400015,39.23993542699998],[30.85933892200012,39.24005261799999],[30.859198119999974,39.243442959000106],[30.85504985200015,39.24602480800013],[30.85444462800018,39.24851220900018],[30.86077392100009,39.25896575600012],[30.87273496800003,39.264622572000064],[30.878705548000028,39.271456952000165],[30.895499334000135,39.27290203900009],[30.895145763000073,39.27939766900016],[30.89527667100009,39.281748359000176],[30.89501859300003,39.281734313000584],[30.894947340999977,39.283043503000044],[30.895768401000055,39.28302378400025],[30.895806402792005,39.28324439945396],[30.895420000000115,39.28332000000006],[30.895670000000223,39.28402000000028],[30.895950000000084,39.28450000000021],[30.89534000000009,39.28466000000009],[30.893840000000125,39.284510000000296],[30.893470000000093,39.284570000000315],[30.894570000000158,39.28563000000008],[30.89476918908258,39.28591683227887]]],"type":"Polygon"}}]}