{"type":"FeatureCollection","source_id":"endeksa","retrieved_at":"2026-08-23","features":[{"type":"Feature","properties":{"area_id":"TR-20-002-20680","name_tr":"Cumhuriyet","area_level":"neighbourhood","parent_id":"TR-20-002","endeksa_id":20680},"geometry":{"coordinates":[[[28.86135169063158,37.82671199062128],[28.85984000000019,37.82766000000004],[28.856080000000134,37.82233000000025],[28.854300000000137,37.81920000000008],[28.852720000000147,37.81879000000009],[28.851870000000133,37.818070000000205],[28.85085000000015,37.81750000000011],[28.848640000000046,37.815310000000636],[28.848590000000172,37.814380000000426],[28.84893000000011,37.813640000000305],[28.848480000000166,37.812020000000416],[28.847550000000126,37.81027000000017],[28.842880000000093,37.8066300000001],[28.84076000000016,37.804370000000176],[28.840160000000083,37.804970000000594],[28.8388700000001,37.80430000000058],[28.838630000000137,37.801560000000165],[28.838820000000055,37.80130000000037],[28.8388700000001,37.80104000000017],[28.83844000000005,37.800780000000145],[28.83738000000011,37.79835000000014],[28.83462000000003,37.788490000000195],[28.832750000000203,37.78603000000027],[28.832350000000133,37.78352000000007],[28.829430000000116,37.778140000000406],[28.827996360221846,37.77338738594062],[28.826710000000105,37.77198000000021],[28.82793000000015,37.77128000000039],[28.834470000000238,37.7667000000003],[28.836050000000228,37.76678000000038],[28.83620000000019,37.7667000000003],[28.839190000000144,37.76935000000071],[28.839860000000158,37.768940000000214],[28.84073000000018,37.76881000000009],[28.842390000000194,37.768260000000055],[28.84342000000015,37.767640000000085],[28.846180000000118,37.76269000000036],[28.84791000000007,37.76100000000048],[28.85014954688137,37.75913089555894],[28.85055000000017,37.759270000000186],[28.85714000000013,37.754410000000235],[28.859300000000133,37.7525100000002],[28.86334125945217,37.75131648133407],[28.86464000000018,37.758000000000266],[28.87077920234134,37.763459290681624],[28.865520000000174,37.77218000000039],[28.86622000000017,37.77863000000008],[28.865760000000137,37.779260000000704],[28.86541000000011,37.78014000000036],[28.865340000000174,37.78146000000015],[28.864610000000198,37.78361000000041],[28.864810000000034,37.784150000000295],[28.86415000000011,37.78416000000027],[28.863630000000114,37.78447000000011],[28.862070000000188,37.78568000000041],[28.860780000000204,37.787220000000104],[28.85751000000016,37.78866000000028],[28.855660000000057,37.789700000000494],[28.855270000000075,37.79006000000044],[28.85507000000007,37.79107000000016],[28.854490000000055,37.792240000000334],[28.854000000000156,37.79419000000041],[28.854080000000067,37.79478000000017],[28.854030000000193,37.7955900000004],[28.854460000000245,37.796260000000416],[28.85451000000012,37.79653000000019],[28.853880000000174,37.79735000000039],[28.853960000000086,37.79774000000066],[28.85513000000026,37.79864000000015],[28.85513000000026,37.79952000000014],[28.855360000000076,37.80003000000005],[28.855880000000127,37.80050000000023],[28.856610000000103,37.80080000000021],[28.856840000000147,37.801090000000045],[28.856700000000103,37.801220000000114],[28.85668000000004,37.8018500000004],[28.85606000000007,37.80228000000005],[28.855520000000183,37.80241000000052],[28.855610000000183,37.80269000000027],[28.855730000000165,37.802790000000186],[28.856220000000178,37.80285000000015],[28.856220000000178,37.803100000000086],[28.85609000000011,37.8032400000003],[28.856200000000115,37.80337000000037],[28.85606000000007,37.80356000000046],[28.85634000000016,37.80406000000062],[28.856720000000166,37.804500000000075],[28.857040000000154,37.80455000000012],[28.85720000000009,37.8047100000004],[28.857240000000047,37.80491000000006],[28.85699000000011,37.805770000000166],[28.85738000000009,37.806580000000224],[28.857960000000105,37.806980000000635],[28.857750000000124,37.80697000000015],[28.856810000000166,37.80742000000009],[28.856660000000204,37.8074000000002],[28.856760000000122,37.808470000000284],[28.85599000000019,37.80802000000017],[28.856070000000045,37.80739000000045],[28.855820000000108,37.80747000000014],[28.855830000000083,37.8076700000002],[28.855510000000038,37.80757000000028],[28.855110000000195,37.80724000000015],[28.854270000000156,37.80761000000018],[28.854060000000175,37.80778000000004],[28.854080000000067,37.80790000000019],[28.854580000000226,37.80791000000016],[28.85485000000017,37.808000000000334],[28.854870000000062,37.80851000000007],[28.854770000000144,37.809120000000064],[28.854990000000043,37.80931000000015],[28.8552200000002,37.80925000000019],[28.855270000000075,37.80907000000019],[28.855480000000057,37.80886000000004],[28.85587000000021,37.80901000000023],[28.85612000000009,37.80892000000006],[28.856230000000153,37.80904000000055],[28.85618000000005,37.80917000000011],[28.85640000000018,37.809390000000406],[28.85633000000007,37.809580000000324],[28.856530000000078,37.80968000000024],[28.85671000000025,37.80994000000004],[28.856850000000065,37.80997000000008],[28.856790000000103,37.81007000000051],[28.856920000000173,37.81019000000049],[28.85664000000014,37.81065000000018],[28.856920000000173,37.810850000000414],[28.856350000000134,37.81137000000007],[28.856290000000115,37.8116500000005],[28.85599000000019,37.81189000000046],[28.855830000000083,37.812150000000656],[28.856750000000147,37.81200000000035],[28.857350000000054,37.812240000000315],[28.857120000000066,37.81242000000026],[28.856940000000066,37.8127400000003],[28.855730000000165,37.8130400000004],[28.855480000000057,37.812990000000525],[28.855580000000145,37.81279000000035],[28.855260000000158,37.81269000000003],[28.855210000000113,37.813360000000046],[28.855140000000176,37.813450000000216],[28.855880000000127,37.81432000000029],[28.85618000000005,37.81455000000028],[28.85590000000019,37.81480000000039],[28.855960000000152,37.81486000000035],[28.855820000000108,37.81506000000019],[28.856190000000197,37.81526000000008],[28.85625000000016,37.81545000000017],[28.85671000000025,37.815720000000454],[28.856290000000115,37.81631000000027],[28.85687000000013,37.817570000000046],[28.85844000000003,37.81840000000051],[28.858620000000144,37.81979000000041],[28.857930000000124,37.820580000000405],[28.857930000000124,37.82127000000014],[28.85993000000019,37.8213300000001],[28.86003000000011,37.822500000000105],[28.85971000000012,37.82325000000037],[28.86045000000007,37.82364000000064],[28.86086000000006,37.824260000000095],[28.862450000000138,37.8243300000002],[28.86327000000017,37.82505000000009],[28.864040000000102,37.82511000000005],[28.86476000000016,37.82536000000016],[28.86519000000004,37.825350000000185],[28.866360000000043,37.825010000000304],[28.867100000000164,37.82536000000016],[28.867460000000108,37.82601000000011],[28.86755000000005,37.826500000000124],[28.866830000000164,37.8268400000004],[28.865860000000055,37.826620000000105],[28.86563000000018,37.826400000000206],[28.864610000000198,37.82630000000046],[28.864590000000135,37.82622000000026],[28.863730000000203,37.82599000000039],[28.8629600000001,37.82599000000039],[28.862820000000056,37.82586000000032],[28.862450000000138,37.82589000000064],[28.86135169063158,37.82671199062128]]],"type":"Polygon"}},{"type":"Feature","properties":{"area_id":"TR-20-002-20682","name_tr":"Gündoğdu","area_level":"neighbourhood","parent_id":"TR-20-002","endeksa_id":20682},"geometry":{"coordinates":[[[28.867687168378268,37.80870463953585],[28.86780000000016,37.80886000000004],[28.8657300000001,37.80965000000003],[28.865610000000117,37.81028000000015],[28.865450000000067,37.81032000000005],[28.865270000000066,37.80998000000017],[28.86476000000016,37.81011000000029],[28.864370000000235,37.81041000000022],[28.86349000000007,37.81063000000012],[28.863040000000126,37.811010000000124],[28.862450000000138,37.810910000000376],[28.861640000000136,37.81096000000025],[28.860960000000148,37.811100000000465],[28.859850000000165,37.81148000000064],[28.859420000000114,37.81102000000027],[28.859470000000158,37.81072000000029],[28.859330000000114,37.81044000000003],[28.85887000000008,37.81024000000036],[28.858050000000105,37.8091400000003],[28.858020000000067,37.80900000000008],[28.85770000000008,37.8088800000001],[28.857460000000117,37.808960000000354],[28.85708000000011,37.80894000000012],[28.856760000000122,37.808470000000284],[28.856660000000204,37.8074000000002],[28.856810000000166,37.80742000000009],[28.857750000000124,37.80697000000015],[28.857960000000105,37.806980000000635],[28.85738000000009,37.806580000000224],[28.85699000000011,37.805770000000166],[28.857240000000047,37.80491000000006],[28.85720000000009,37.8047100000004],[28.857040000000154,37.80455000000012],[28.856720000000166,37.804500000000075],[28.85634000000016,37.80406000000062],[28.85606000000007,37.80356000000046],[28.856200000000115,37.80337000000037],[28.85609000000011,37.8032400000003],[28.856220000000178,37.803100000000086],[28.856220000000178,37.80285000000015],[28.855730000000165,37.802790000000186],[28.855610000000183,37.80269000000027],[28.855520000000183,37.80241000000052],[28.85606000000007,37.80228000000005],[28.85668000000004,37.8018500000004],[28.856700000000103,37.801220000000114],[28.856840000000147,37.801090000000045],[28.856610000000103,37.80080000000021],[28.855880000000127,37.80050000000023],[28.855360000000076,37.80003000000005],[28.85513000000026,37.79952000000014],[28.85513000000026,37.79864000000015],[28.853960000000086,37.79774000000066],[28.853880000000174,37.79735000000039],[28.85451000000012,37.79653000000019],[28.854460000000245,37.796260000000416],[28.854030000000193,37.7955900000004],[28.854080000000067,37.79478000000017],[28.854000000000156,37.79419000000041],[28.854490000000055,37.792240000000334],[28.85507000000007,37.79107000000016],[28.855270000000075,37.79006000000044],[28.855660000000057,37.789700000000494],[28.85751000000016,37.78866000000028],[28.860780000000204,37.787220000000104],[28.862070000000188,37.78568000000041],[28.863630000000114,37.78447000000011],[28.86415000000011,37.78416000000027],[28.864810000000034,37.784150000000295],[28.865210000000104,37.784240000000636],[28.868160000000103,37.78649000000064],[28.869170000000167,37.788060000000144],[28.86920000000015,37.789420000000064],[28.868740000000116,37.79461000000032],[28.86770000000007,37.79809000000034],[28.86634000000015,37.79926000000012],[28.86495000000008,37.80001000000021],[28.86288000000019,37.80058000000031],[28.86244000000005,37.80130000000037],[28.865460000000155,37.802980000000105],[28.86520000000013,37.80528000000015],[28.867687168378268,37.80870463953585]]],"type":"Polygon"}},{"type":"Feature","properties":{"area_id":"TR-20-002-150091","name_tr":"Demirli","area_level":"neighbourhood","parent_id":"TR-20-002","endeksa_id":150091},"geometry":{"coordinates":[[[28.839276036152,37.804510886993626],[28.839630037000006,37.80569677000051],[28.84053235800019,37.80736298200003],[28.83866433500009,37.808081142000106],[28.83609911500008,37.80885376000009],[28.83322731600009,37.80943913600004],[28.828252301000077,37.810924243000045],[28.825254811000093,37.809666712000535],[28.822885029000076,37.80786294900008],[28.820125675000043,37.806239380000136],[28.816772111000034,37.803075220000494],[28.815335808000157,37.800973778000525],[28.81482772200019,37.798881674000086],[28.813565867000136,37.79555432800015],[28.812680991000093,37.79284459200062],[28.81155729000011,37.790562113000135],[28.810738071000117,37.78858961000009],[28.811345265000114,37.78448314700006],[28.81078464500007,37.78085593800006],[28.81167256000009,37.778532389000134],[28.814023626999983,37.776591881000115],[28.818716603000155,37.77326306900056],[28.819351737000147,37.772225946000106],[28.82182879200019,37.77206662500015],[28.824149263000095,37.772028455000054],[28.826380773000153,37.77272593499998],[28.827996360221846,37.77338738594062],[28.829430000000116,37.778140000000406],[28.832350000000133,37.78352000000007],[28.832750000000203,37.78603000000027],[28.83462000000003,37.788490000000195],[28.83738000000011,37.79835000000014],[28.83844000000005,37.800780000000145],[28.8388700000001,37.80104000000017],[28.838820000000055,37.80130000000037],[28.838630000000137,37.801560000000165],[28.8388700000001,37.80430000000058],[28.839276036152,37.804510886993626]]],"type":"Polygon"}},{"type":"Feature","properties":{"area_id":"TR-20-002-150103","name_tr":"Yeniköy","area_level":"neighbourhood","parent_id":"TR-20-002","endeksa_id":150103},"geometry":{"coordinates":[[[28.87926569600006,37.81353914700003],[28.876775514000087,37.81417138500012],[28.87489127600014,37.81153757300052],[28.872633685000153,37.80891204800008],[28.87152277400014,37.80642768100017],[28.868784757000185,37.8082290640001],[28.867687168378268,37.80870463953585],[28.86520000000013,37.80528000000015],[28.865460000000155,37.802980000000105],[28.86244000000005,37.80130000000037],[28.86288000000019,37.80058000000031],[28.86495000000008,37.80001000000021],[28.86634000000015,37.79926000000012],[28.86770000000007,37.79809000000034],[28.868740000000116,37.79461000000032],[28.86920000000015,37.789420000000064],[28.869170000000167,37.788060000000144],[28.868160000000103,37.78649000000064],[28.865210000000104,37.784240000000636],[28.864810000000034,37.784150000000295],[28.864610000000198,37.78361000000041],[28.865340000000174,37.78146000000015],[28.86541000000011,37.78014000000036],[28.865760000000137,37.779260000000704],[28.86622000000017,37.77863000000008],[28.865520000000174,37.77218000000039],[28.87077920234134,37.763459290681624],[28.872610258000066,37.7618460150004],[28.8744847640001,37.76344757400017],[28.87633522500016,37.76484494400029],[28.8777179060001,37.766237826000065],[28.879951918000188,37.76880622200031],[28.880587513000137,37.77098792800052],[28.88150649300013,37.77211102800004],[28.88202684400011,37.77307113900014],[28.883867317000067,37.77515813800005],[28.88484686800018,37.77670630400007],[28.886081907000175,37.77905285400044],[28.88599834500019,37.78016642300065],[28.885644194000065,37.78148968800008],[28.88481729600005,37.78312686000004],[28.88385904900008,37.784603587000106],[28.8851514750001,37.78758746500023],[28.885804891000134,37.78860188500016],[28.885521534000077,37.78966049500019],[28.88617736600014,37.790515741000036],[28.886697106000156,37.791528892000144],[28.886415342000134,37.7924813890005],[28.885527845000126,37.793693473000246],[28.884703192000188,37.795171471000174],[28.88307694600013,37.79658879100003],[28.880543485000032,37.79861149300001],[28.87898651500018,37.80049183500017],[28.87886293000014,37.80234791999999],[28.879538165000156,37.805083394000064],[28.879652268000086,37.807017548000545],[28.879907387000173,37.809104658000024],[28.87968311700007,37.81130091400007],[28.87926569600006,37.81353914700003]]],"type":"Polygon"}},{"type":"Feature","properties":{"area_id":"TR-20-002-150097","name_tr":"Kıranyer","area_level":"neighbourhood","parent_id":"TR-20-002","endeksa_id":150097},"geometry":{"coordinates":[[[28.842416345000174,37.82462033200039],[28.840403492000178,37.82752655500025],[28.834913785000083,37.82474134100005],[28.832470295000064,37.823741769000264],[28.829491818000065,37.820110182000064],[28.82489052900013,37.81937571000009],[28.82404963900018,37.81730999800038],[28.821633995000127,37.817001362999974],[28.81713885400012,37.81780870800026],[28.815689938000105,37.818711528000165],[28.813044749000028,37.814322479000054],[28.80168605700004,37.80897783100011],[28.799198371000102,37.8064802560005],[28.80002084800003,37.805408318000445],[28.793953093000084,37.8065595850004],[28.787982671000066,37.80277123000002],[28.787563384000123,37.80280525100045],[28.787371240000027,37.80274681900005],[28.785524930000065,37.803718914000285],[28.77760617100006,37.80230350500017],[28.77774930900017,37.802080579000176],[28.777087963000156,37.80221088000002],[28.77643441300006,37.80134519799998],[28.77267556000004,37.80042324100003],[28.77184810500006,37.800136567000266],[28.770551471000033,37.800589365000064],[28.768312058080085,37.79886532667484],[28.768127434553264,37.798876510264336],[28.768084016372597,37.79902375937718],[28.767850000000067,37.79860000000008],[28.767420000000186,37.798120000000154],[28.768260000000055,37.79763000000008],[28.77022000000005,37.795920000000706],[28.771630000000187,37.79507000000018],[28.77280000000019,37.79347000000013],[28.775050000000192,37.79179000000005],[28.776280000000213,37.791280000000484],[28.77731000000017,37.790380000000084],[28.77896000000004,37.790000000000305],[28.779430000000048,37.789390000000424],[28.779310000000066,37.78912000000014],[28.781100000000038,37.787400000000616],[28.78209000000004,37.78621000000021],[28.783440000000212,37.7850100000004],[28.782990000000098,37.78461000000016],[28.783080000000098,37.784520000000384],[28.78324000000015,37.7844000000004],[28.783650000000137,37.78469000000024],[28.78453000000013,37.784000000000674],[28.784760000000176,37.784150000000295],[28.78701000000018,37.78271000000052],[28.787720000000093,37.78236000000015],[28.788130000000137,37.781910000000266],[28.788025309684656,37.78158894969903],[28.789337477999993,37.78082987100015],[28.795332542000097,37.779512517],[28.79667889400008,37.78039804400004],[28.79919974300003,37.77987893800008],[28.80339603200008,37.778632661000074],[28.807926104000046,37.775855063999984],[28.811985059999984,37.77350220900013],[28.817430547000185,37.77147006800027],[28.819351737000147,37.772225946000106],[28.818716603000155,37.77326306900056],[28.814023626999983,37.776591881000115],[28.81167256000009,37.778532389000134],[28.81078464500007,37.78085593800006],[28.811345265000114,37.78448314700006],[28.810738071000117,37.78858961000009],[28.81155729000011,37.790562113000135],[28.812680991000093,37.79284459200062],[28.813565867000136,37.79555432800015],[28.81482772200019,37.798881674000086],[28.815335808000157,37.800973778000525],[28.816772111000034,37.803075220000494],[28.820125675000043,37.806239380000136],[28.822885029000076,37.80786294900008],[28.825254811000093,37.809666712000535],[28.828252301000077,37.810924243000045],[28.831050444000084,37.81241362200012],[28.83470132700006,37.81479067700002],[28.836997152000038,37.817349303000526],[28.83867846300018,37.8199018200001],[28.840734802000043,37.82206786800009],[28.842071891000103,37.82305638300022],[28.842416345000174,37.82462033200039]]],"type":"Polygon"}},{"type":"Feature","properties":{"area_id":"TR-20-002-20681","name_tr":"Gazi","area_level":"neighbourhood","parent_id":"TR-20-002","endeksa_id":20681},"geometry":{"coordinates":[[[28.88016584000013,37.84518069100011],[28.87946321600009,37.84548262600009],[28.878805139000065,37.84591916500011],[28.877811301000065,37.84701670700065],[28.8775248660001,37.847493681000174],[28.876473748000024,37.84622902500013],[28.875506755000174,37.84555557400046],[28.872933254000145,37.843427610000106],[28.872120920999976,37.84143015600017],[28.87068325100006,37.83926799600016],[28.865287413000033,37.832770967000386],[28.86346980500008,37.8301753800003],[28.862418539000146,37.82807823200051],[28.86135169063158,37.82671199062128],[28.862450000000138,37.82589000000064],[28.862820000000056,37.82586000000032],[28.8629600000001,37.82599000000039],[28.863730000000203,37.82599000000039],[28.864590000000135,37.82622000000026],[28.864610000000198,37.82630000000046],[28.86563000000018,37.826400000000206],[28.865860000000055,37.826620000000105],[28.866830000000164,37.8268400000004],[28.86755000000005,37.826500000000124],[28.867460000000108,37.82601000000011],[28.867100000000164,37.82536000000016],[28.866360000000043,37.825010000000304],[28.86519000000004,37.825350000000185],[28.86476000000016,37.82536000000016],[28.864040000000102,37.82511000000005],[28.86327000000017,37.82505000000009],[28.862450000000138,37.8243300000002],[28.86086000000006,37.824260000000095],[28.86045000000007,37.82364000000064],[28.85971000000012,37.82325000000037],[28.86003000000011,37.822500000000105],[28.85993000000019,37.8213300000001],[28.857930000000124,37.82127000000014],[28.857930000000124,37.820580000000405],[28.858620000000144,37.81979000000041],[28.85844000000003,37.81840000000051],[28.85687000000013,37.817570000000046],[28.856290000000115,37.81631000000027],[28.85671000000025,37.815720000000454],[28.85625000000016,37.81545000000017],[28.856190000000197,37.81526000000008],[28.855820000000108,37.81506000000019],[28.855960000000152,37.81486000000035],[28.85590000000019,37.81480000000039],[28.85618000000005,37.81455000000028],[28.855880000000127,37.81432000000029],[28.855140000000176,37.813450000000216],[28.855210000000113,37.813360000000046],[28.855260000000158,37.81269000000003],[28.855580000000145,37.81279000000035],[28.855480000000057,37.812990000000525],[28.855730000000165,37.8130400000004],[28.856940000000066,37.8127400000003],[28.857120000000066,37.81242000000026],[28.857350000000054,37.812240000000315],[28.856750000000147,37.81200000000035],[28.855830000000083,37.812150000000656],[28.85599000000019,37.81189000000046],[28.856290000000115,37.8116500000005],[28.856350000000134,37.81137000000007],[28.856920000000173,37.810850000000414],[28.85664000000014,37.81065000000018],[28.856920000000173,37.81019000000049],[28.856790000000103,37.81007000000051],[28.856850000000065,37.80997000000008],[28.85671000000025,37.80994000000004],[28.856530000000078,37.80968000000024],[28.85633000000007,37.809580000000324],[28.85640000000018,37.809390000000406],[28.85618000000005,37.80917000000011],[28.856230000000153,37.80904000000055],[28.85612000000009,37.80892000000006],[28.85587000000021,37.80901000000023],[28.855480000000057,37.80886000000004],[28.855270000000075,37.80907000000019],[28.8552200000002,37.80925000000019],[28.854990000000043,37.80931000000015],[28.854770000000144,37.809120000000064],[28.854870000000062,37.80851000000007],[28.85485000000017,37.808000000000334],[28.854580000000226,37.80791000000016],[28.854080000000067,37.80790000000019],[28.854060000000175,37.80778000000004],[28.854270000000156,37.80761000000018],[28.855110000000195,37.80724000000015],[28.855510000000038,37.80757000000028],[28.855830000000083,37.8076700000002],[28.855820000000108,37.80747000000014],[28.856070000000045,37.80739000000045],[28.85599000000019,37.80802000000017],[28.856760000000122,37.808470000000284],[28.85708000000011,37.80894000000012],[28.857460000000117,37.808960000000354],[28.85770000000008,37.8088800000001],[28.858020000000067,37.80900000000008],[28.858050000000105,37.8091400000003],[28.85887000000008,37.81024000000036],[28.859330000000114,37.81044000000003],[28.859470000000158,37.81072000000029],[28.859420000000114,37.81102000000027],[28.859850000000165,37.81148000000064],[28.860960000000148,37.811100000000465],[28.861640000000136,37.81096000000025],[28.862450000000138,37.810910000000376],[28.863040000000126,37.811010000000124],[28.86349000000007,37.81063000000012],[28.864370000000235,37.81041000000022],[28.86476000000016,37.81011000000029],[28.865270000000066,37.80998000000017],[28.865450000000067,37.81032000000005],[28.865610000000117,37.81028000000015],[28.8657300000001,37.80965000000003],[28.86780000000016,37.80886000000004],[28.867687168378268,37.80870463953585],[28.868784757000185,37.8082290640001],[28.87152277400014,37.80642768100017],[28.872633685000153,37.80891204800008],[28.87489127600014,37.81153757300052],[28.876775514000087,37.81417138500012],[28.87556031500003,37.81554463100042],[28.87489847400002,37.816777384000034],[28.874311879000118,37.81910415900006],[28.874537699000143,37.822386239000195],[28.87579628000009,37.82422044800035],[28.87741028500011,37.826859794000086],[28.877480089000017,37.82831820100006],[28.87818092900011,37.83058438400002],[28.87815224700006,37.83247917300008],[28.877378531000147,37.8350228380001],[28.876884850000067,37.83727762000018],[28.87696017400009,37.83837164400006],[28.877302341000075,37.84005131100008],[28.878561278000063,37.84188549200019],[28.87955340100018,37.84313402400011],[28.88016584000013,37.84518069100011]]],"type":"Polygon"}},{"type":"Feature","properties":{"area_id":"TR-20-002-150093","name_tr":"İncilipınar","area_level":"neighbourhood","parent_id":"TR-20-002","endeksa_id":150093},"geometry":{"coordinates":[[[28.85807057599999,37.84909010399997],[28.853023560000054,37.85008449300028],[28.849775670000042,37.84986863400013],[28.848950593000097,37.84968638300006],[28.84799789900012,37.849130683000055],[28.847070455000164,37.84927108000039],[28.841578570000024,37.84660690000004],[28.827732319000063,37.84437161400001],[28.82454168200013,37.84297469800043],[28.821626023000192,37.84070223100008],[28.82189522599998,37.83924190800013],[28.823036010000067,37.83710756300019],[28.8216958270001,37.83631386999997],[28.81650351200011,37.830312132000245],[28.813831365000112,37.828236990000164],[28.811285440000006,37.825967994000166],[28.80702505100004,37.82454969400004],[28.806753214000025,37.82416587600045],[28.80614850500018,37.824257889000194],[28.802729793000083,37.82276012700004],[28.802579209000044,37.822682758000155],[28.801891927000042,37.821453236000025],[28.796508646000063,37.819696837000606],[28.796545446000096,37.817430153000146],[28.796331258000123,37.81547726600007],[28.79525344700005,37.81371060800046],[28.794804554999985,37.81107257100024],[28.7939821920001,37.80872331000046],[28.791435950999983,37.80655141600016],[28.787563384000123,37.80280525100045],[28.787982671000066,37.80277123000002],[28.793953093000084,37.8065595850004],[28.80002084800003,37.805408318000445],[28.799198371000102,37.8064802560005],[28.80168605700004,37.80897783100011],[28.813044749000028,37.814322479000054],[28.815689938000105,37.818711528000165],[28.81713885400012,37.81780870800026],[28.821633995000127,37.817001362999974],[28.82404963900018,37.81730999800038],[28.82489052900013,37.81937571000009],[28.829491818000065,37.820110182000064],[28.832470295000064,37.823741769000264],[28.834913785000083,37.82474134100005],[28.840403492000178,37.82752655500025],[28.842416345000174,37.82462033200039],[28.84312812600018,37.826285427000585],[28.843465007000077,37.82833697100051],[28.844399937000162,37.83146727400043],[28.84559605400011,37.83362478300069],[28.849369890000048,37.83610012600042],[28.85157564900004,37.83660935300054],[28.852659553000024,37.838602533000255],[28.853269149000027,37.83922229600029],[28.853480415000092,37.840574757000184],[28.854921393000097,37.842491632000076],[28.85513839100014,37.84347585400019],[28.85512036700004,37.844641933000446],[28.85609994100014,37.84637015500044],[28.85807057599999,37.84909010399997]]],"type":"Polygon"}},{"type":"Feature","properties":{"area_id":"TR-20-002-150087","name_tr":"Ahıllı","area_level":"neighbourhood","parent_id":"TR-20-002","endeksa_id":150087},"geometry":{"coordinates":[[[28.8775248660001,37.847493681000174],[28.87480886300017,37.84861165300009],[28.873151065000172,37.85003349700014],[28.87158999100012,37.850877877000016],[28.86847899000003,37.851830104000385],[28.866160722000075,37.85156225300034],[28.86315151900004,37.85091939199998],[28.86176586800002,37.85041493700027],[28.859612863000166,37.84947335600043],[28.85807057599999,37.84909010399997],[28.85609994100014,37.84637015500044],[28.85512036700004,37.844641933000446],[28.85513839100014,37.84347585400019],[28.854921393000097,37.842491632000076],[28.853480415000092,37.840574757000184],[28.853269149000027,37.83922229600029],[28.852659553000024,37.838602533000255],[28.85157564900004,37.83660935300054],[28.849369890000048,37.83610012600042],[28.84559605400011,37.83362478300069],[28.844399937000162,37.83146727400043],[28.843465007000077,37.82833697100051],[28.84312812600018,37.826285427000585],[28.842416345000174,37.82462033200039],[28.842071891000103,37.82305638300022],[28.840734802000043,37.82206786800009],[28.83867846300018,37.8199018200001],[28.836997152000038,37.817349303000526],[28.83470132700006,37.81479067700002],[28.831050444000084,37.81241362200012],[28.828252301000077,37.810924243000045],[28.83322731600009,37.80943913600004],[28.83609911500008,37.80885376000009],[28.83866433500009,37.808081142000106],[28.84053235800019,37.80736298200003],[28.839630037000006,37.80569677000051],[28.839276036152,37.804510886993626],[28.840160000000083,37.804970000000594],[28.84076000000016,37.804370000000176],[28.842880000000093,37.8066300000001],[28.847550000000126,37.81027000000017],[28.848480000000166,37.812020000000416],[28.84893000000011,37.813640000000305],[28.848590000000172,37.814380000000426],[28.848640000000046,37.815310000000636],[28.85085000000015,37.81750000000011],[28.851870000000133,37.818070000000205],[28.852720000000147,37.81879000000009],[28.854300000000137,37.81920000000008],[28.856080000000134,37.82233000000025],[28.85984000000019,37.82766000000004],[28.86135169063158,37.82671199062128],[28.862418539000146,37.82807823200051],[28.86346980500008,37.8301753800003],[28.865287413000033,37.832770967000386],[28.87068325100006,37.83926799600016],[28.872120920999976,37.84143015600017],[28.872933254000145,37.843427610000106],[28.875506755000174,37.84555557400046],[28.876473748000024,37.84622902500013],[28.8775248660001,37.847493681000174]]],"type":"Polygon"}},{"type":"Feature","properties":{"area_id":"TR-20-002-150095","name_tr":"Kelleci","area_level":"neighbourhood","parent_id":"TR-20-002","endeksa_id":150095},"geometry":{"coordinates":[[[28.919001757000103,37.8233647240001],[28.916200757000126,37.81971618300025],[28.914656041000057,37.81853574700028],[28.908427259000177,37.81723903400001],[28.90630466000016,37.81787530500003],[28.906289612000137,37.818895585000064],[28.9059742230001,37.82158947800008],[28.906496430000004,37.823562286000424],[28.906749486000024,37.825095267000165],[28.907360395000183,37.827287555],[28.908429674000104,37.8295569820001],[28.90996165200005,37.83161202600019],[28.91201829000005,37.83549408100009],[28.91251080400008,37.83950742300016],[28.912942475000193,37.84140647500044],[28.913186096000004,37.84359533899999],[28.914442784000073,37.845647778000625],[28.915140644000076,37.848205262000135],[28.915115027000184,37.849954314000115],[28.916454188000046,37.85266347600009],[28.916622018999988,37.85375832600005],[28.918333221000182,37.85617934400017],[28.91992922800017,37.860202791999995],[28.921608839000157,37.86481007900028],[28.923104789000092,37.86941565900014],[28.923069798000142,37.871820606000085],[28.922764294000103,37.87385864100008],[28.920206005000068,37.87274188000009],[28.91810001000016,37.87213943199998],[28.91335578100012,37.869617545000324],[28.909693549000167,37.86856323700016],[28.90757111200014,37.862858370000026],[28.906049340000152,37.86007452400008],[28.904268109000157,37.85619493700017],[28.901627445000145,37.85449391100008],[28.901270609000107,37.8537617070001],[28.900569939000036,37.8514227790007],[28.899684415000138,37.84915500400001],[28.898630307000133,37.84586522600017],[28.897385987000007,37.84301097800005],[28.89687583300008,37.84023648900012],[28.896164562000138,37.838626302000534],[28.893818871999997,37.83568878900007],[28.891369490000045,37.83355200699998],[28.89022516800003,37.830188412000666],[28.891990538000073,37.828893087000154],[28.892461918000038,37.828095768000026],[28.892668540000045,37.82656708400003],[28.890764192000063,37.824872741000036],[28.888470587000086,37.82463243000018],[28.885816068999986,37.82395133600011],[28.88453860300018,37.82335613400005],[28.883189047000087,37.82144826600012],[28.88164922800013,37.81997589600019],[28.88029980600004,37.818067996000025],[28.88005832700003,37.8158061980003],[28.87926569600006,37.81353914700003],[28.87968311700007,37.81130091400007],[28.879907387000173,37.809104658000024],[28.879652268000086,37.807017548000545],[28.879538165000156,37.805083394000064],[28.87886293000014,37.80234791999999],[28.87898651500018,37.80049183500017],[28.880543485000032,37.79861149300001],[28.88307694600013,37.79658879100003],[28.884703192000188,37.795171471000174],[28.885527845000126,37.793693473000246],[28.886415342000134,37.7924813890005],[28.886697106000156,37.791528892000144],[28.88617736600014,37.790515741000036],[28.885521534000077,37.78966049500019],[28.885804891000134,37.78860188500016],[28.8851514750001,37.78758746500023],[28.88385904900008,37.784603587000106],[28.88481729600005,37.78312686000004],[28.885644194000065,37.78148968800008],[28.88599834500019,37.78016642300065],[28.886081907000175,37.77905285400044],[28.88484686800018,37.77670630400007],[28.883867317000067,37.77515813800005],[28.88202684400011,37.77307113900014],[28.88150649300013,37.77211102800004],[28.880587513000137,37.77098792800052],[28.879951918000188,37.76880622200031],[28.8777179060001,37.766237826000065],[28.87633522500016,37.76484494400029],[28.8744847640001,37.76344757400017],[28.872610258000066,37.7618460150004],[28.87077920234134,37.763459290681624],[28.86464000000018,37.758000000000266],[28.86334125945217,37.75131648133407],[28.864488074000064,37.75082499800004],[28.865308672000083,37.749453206000055],[28.864563493000162,37.74822865900012],[28.865899263000188,37.74367337700011],[28.86720506300003,37.742184114999986],[28.86667516200015,37.73810553800013],[28.866043795000053,37.73738574200007],[28.867489448000015,37.73654689300008],[28.86925178900009,37.73320291000039],[28.86968383500016,37.73242347700011],[28.870274512000094,37.73171326500017],[28.871629521000045,37.73050508100005],[28.87261734300006,37.72988883400012],[28.871955898000124,37.73113952900013],[28.871733793000146,37.732207454000445],[28.871863015000145,37.73338031500009],[28.87234342000005,37.73444543800019],[28.876773322000076,37.733013935000145],[28.87741185600015,37.732394629000055],[28.88051668100013,37.73424257300019],[28.883866810000086,37.73872240500009],[28.885444277000147,37.74114983600049],[28.88842318500008,37.745098289000055],[28.893721098000128,37.74926669100017],[28.895219773000008,37.75159986800003],[28.896296829000164,37.75282750100013],[28.898871085000167,37.75650419500005],[28.90000069299998,37.75912374300003],[28.901502326000184,37.76128293600044],[28.903495515000145,37.764780169000346],[28.906072239000025,37.76834077200016],[28.908943878000002,37.77173012100002],[28.910232882000116,37.77348138800005],[28.91057252800016,37.775223853000114],[28.91054191500018,37.77731075400004],[28.910181717000057,37.781945603000054],[28.91011534300003,37.786467217999984],[28.910376037000105,37.788614790000054],[28.909573197000157,37.79353541800003],[28.90990694600015,37.795683669000425],[28.911048567000023,37.79754951199999],[28.91313997900005,37.79942412400038],[28.914506847000155,37.80088617300015],[28.91513385400009,37.80297913600003],[28.91479243700013,37.806338665000055],[28.91476869400003,37.807961807000424],[28.91493870800008,37.81132605000016],[28.91620649900011,37.81458445800047],[28.917498090000095,37.81621971000004],[28.919142440000087,37.818727846000456],[28.91918509800007,37.820815415000254],[28.919001757000103,37.8233647240001]]],"type":"Polygon"}},{"type":"Feature","properties":{"area_id":"TR-20-002-150099","name_tr":"Mollaahmet","area_level":"neighbourhood","parent_id":"TR-20-002","endeksa_id":150099},"geometry":{"coordinates":[[[28.957192986000166,37.87258413400019],[28.954305482000166,37.86989155900011],[28.953653076000023,37.869479916000216],[28.95306150700003,37.8699384680005],[28.953041830000075,37.87132974100024],[28.95207311200005,37.872596607000105],[28.951335246999975,37.87305384399997],[28.948109299000066,37.87360480699999],[28.94707805500019,37.874117374000036],[28.94526338900016,37.87605893400047],[28.944206721000114,37.87759340800005],[28.943091217000187,37.87898259800011],[28.942172057000164,37.87940857200033],[28.940479605999997,37.87857311000016],[28.9414403560001,37.87453058200049],[28.942149076000135,37.87100036700019],[28.94275893500003,37.869266543000094],[28.943284883000047,37.86828566100007],[28.94315518600007,37.867124956000055],[28.942810261000034,37.86567243400049],[28.943270509000115,37.86416917000008],[28.94272279100005,37.86155528300009],[28.941801249000036,37.859517803000074],[28.940941263000127,37.85829254600009],[28.93761706200013,37.85553765200001],[28.934355373000187,37.85353692900014],[28.932623288000116,37.85195584600012],[28.931392148000043,37.85113298900035],[28.928845954000053,37.85024017500001],[28.926524178000136,37.849001491000024],[28.92596791000011,37.847025196000004],[28.92637375100003,37.84424600400064],[28.926547671000037,37.842334350000385],[28.926428350000037,37.840477995000356],[28.926673672000106,37.838682947000336],[28.92589903200013,37.83664667800019],[28.925485687000105,37.834903591000625],[28.923734157000126,37.829669642000056],[28.92266650800019,37.82768864900015],[28.920590951000122,37.824654812000404],[28.919001757000103,37.8233647240001],[28.91918509800007,37.820815415000254],[28.919142440000087,37.818727846000456],[28.917498090000095,37.81621971000004],[28.91620649900011,37.81458445800047],[28.91493870800008,37.81132605000016],[28.91476869400003,37.807961807000424],[28.91479243700013,37.806338665000055],[28.91513385400009,37.80297913600003],[28.914506847000155,37.80088617300015],[28.91313997900005,37.79942412400038],[28.911048567000023,37.79754951199999],[28.90990694600015,37.795683669000425],[28.909573197000157,37.79353541800003],[28.910376037000105,37.788614790000054],[28.91011534300003,37.786467217999984],[28.910181717000057,37.781945603000054],[28.91054191500018,37.77731075400004],[28.91057252800016,37.775223853000114],[28.910232882000116,37.77348138800005],[28.908943878000002,37.77173012100002],[28.906072239000025,37.76834077200016],[28.903495515000145,37.764780169000346],[28.901502326000184,37.76128293600044],[28.90000069299998,37.75912374300003],[28.898871085000167,37.75650419500005],[28.896296829000164,37.75282750100013],[28.895219773000008,37.75159986800003],[28.893721098000128,37.74926669100017],[28.88842318500008,37.745098289000055],[28.885444277000147,37.74114983600049],[28.883866810000086,37.73872240500009],[28.88051668100013,37.73424257300019],[28.87741185600015,37.732394629000055],[28.876773322000076,37.733013935000145],[28.87234342000005,37.73444543800019],[28.871863015000145,37.73338031500009],[28.871733793000146,37.732207454000445],[28.871955898000124,37.73113952900013],[28.87261734300006,37.72988883400012],[28.873793240000055,37.72790841300014],[28.874625476000176,37.726995982000005],[28.880788205000044,37.72230288500009],[28.886229116000152,37.719296716000144],[28.887465496000118,37.71743852500015],[28.88924526900007,37.715818333000016],[28.89427073500019,37.71373796100056],[28.895062575000168,37.71325795100046],[28.895876757000053,37.71255432400005],[28.89479835600008,37.71502681700008],[28.89750375200009,37.71548558500007],[28.901315988000192,37.71384945400064],[28.89994669400005,37.7170106910001],[28.89980388500004,37.7202511320001],[28.898161651000066,37.72860407100046],[28.896601780000083,37.73137888800028],[28.896169565000093,37.73491816800038],[28.896961188000148,37.73914743200004],[28.895219034000036,37.741392788000155],[28.897481529000117,37.7424694660001],[28.897656849000043,37.74345117900003],[28.896591416000092,37.74487360400008],[28.896287611000105,37.74615238399997],[28.89911426600014,37.74761127100015],[28.902560031000007,37.74900159100008],[28.903333171000043,37.75103801099999],[28.905537535000178,37.755058976999976],[28.90748927100003,37.75641059399999],[28.909813809000127,37.757243837000146],[28.910145726000167,37.75950803300003],[28.910573628000066,37.760207725000384],[28.91195077600014,37.76091619500005],[28.911940591000075,37.76161182900006],[28.913533447000077,37.762554187000376],[28.91359121100004,37.7635983130001],[28.913506322000046,37.76440921300002],[28.91121461400013,37.766301283000075],[28.910030078000034,37.767391885999984],[28.90986701600019,37.76854992300014],[28.911244310000143,37.76925840500019],[28.9124713330001,37.77025536600013],[28.913402883999993,37.771481498000185],[28.914617266000107,37.773347981000484],[28.914971410000135,37.77410495300023],[28.913933714000052,37.775138973000026],[28.915435226000113,37.77735596000019],[28.9157673900001,37.779620138000155],[28.916264266000155,37.780610331000105],[28.9171255010001,37.781661851000024],[28.91740328800006,37.78265002300009],[28.917171489000168,37.78351754800019],[28.91854406300007,37.784573765999994],[28.920799931000033,37.78517425200016],[28.92385090700003,37.7863617430001],[28.927386492999972,37.78940884800056],[28.930426057000147,37.791407750000076],[28.93185616700015,37.79356590200007],[28.933629967,37.797234561000494],[28.93412303200006,37.79851452700035],[28.9346966600001,37.79927342800016],[28.939873739000063,37.80001592100041],[28.941564138000047,37.803062175000036],[28.942486746000156,37.80548695700014],[28.943754507000165,37.80812195499999],[28.94458925400005,37.81061497200011],[28.945858154000064,37.81318091700007],[28.945188174000066,37.817455533999976],[28.945224140000164,37.82104605700033],[28.94498919400013,37.82532457000008],[28.944793518000097,37.826841746000696],[28.945641259000126,37.828437320000376],[28.9484018710001,37.830188086000135],[28.952711749000002,37.833195352000416],[28.956162237000058,37.835435374000156],[28.961747254000045,37.83742507000011],[28.962911623000025,37.84049952600009],[28.964167374000112,37.84568140000039],[28.964384762000122,37.84740691700006],[28.963248524000107,37.850939868000125],[28.96225304800015,37.85303771300005],[28.962342947000025,37.85524088500006],[28.96315069200017,37.85792916500009],[28.963606926000068,37.859848297999974],[28.963206526000192,37.860983923000106],[28.961427305000143,37.862707538000166],[28.959577320000108,37.86425656600022],[28.95838699300009,37.86569545499998],[28.956585483000083,37.86898417500032],[28.95634894300008,37.870199593000166],[28.957192986000166,37.87258413400019]]],"type":"Polygon"}},{"type":"Feature","properties":{"area_id":"TR-20-002-150089","name_tr":"Bekirler","area_level":"neighbourhood","parent_id":"TR-20-002","endeksa_id":150089},"geometry":{"coordinates":[[[28.940479605999997,37.87857311000016],[28.937153237000018,37.87804053900038],[28.93346557000018,37.877731070000266],[28.93165139700011,37.87793547600012],[28.929621862000147,37.87857963300007],[28.92723201299998,37.88004873],[28.926418576000117,37.87849521900034],[28.924299436000126,37.87571498400007],[28.922764294000103,37.87385864100008],[28.923069798000142,37.871820606000085],[28.923104789000092,37.86941565900014],[28.921608839000157,37.86481007900028],[28.91992922800017,37.860202791999995],[28.918333221000182,37.85617934400017],[28.916622018999988,37.85375832600005],[28.916454188000046,37.85266347600009],[28.915115027000184,37.849954314000115],[28.915140644000076,37.848205262000135],[28.914442784000073,37.845647778000625],[28.913186096000004,37.84359533899999],[28.912942475000193,37.84140647500044],[28.91251080400008,37.83950742300016],[28.91201829000005,37.83549408100009],[28.90996165200005,37.83161202600019],[28.908429674000104,37.8295569820001],[28.907360395000183,37.827287555],[28.906749486000024,37.825095267000165],[28.906496430000004,37.823562286000424],[28.9059742230001,37.82158947800008],[28.906289612000137,37.818895585000064],[28.90630466000016,37.81787530500003],[28.908427259000177,37.81723903400001],[28.914656041000057,37.81853574700028],[28.916200757000126,37.81971618300025],[28.919001757000103,37.8233647240001],[28.920590951000122,37.824654812000404],[28.92266650800019,37.82768864900015],[28.923734157000126,37.829669642000056],[28.925485687000105,37.834903591000625],[28.92589903200013,37.83664667800019],[28.926673672000106,37.838682947000336],[28.926428350000037,37.840477995000356],[28.926547671000037,37.842334350000385],[28.92637375100003,37.84424600400064],[28.92596791000011,37.847025196000004],[28.926524178000136,37.849001491000024],[28.928845954000053,37.85024017500001],[28.931392148000043,37.85113298900035],[28.932623288000116,37.85195584600012],[28.934355373000187,37.85353692900014],[28.93761706200013,37.85553765200001],[28.940941263000127,37.85829254600009],[28.941801249000036,37.859517803000074],[28.94272279100005,37.86155528300009],[28.943270509000115,37.86416917000008],[28.942810261000034,37.86567243400049],[28.94315518600007,37.867124956000055],[28.943284883000047,37.86828566100007],[28.94275893500003,37.869266543000094],[28.942149076000135,37.87100036700019],[28.9414403560001,37.87453058200049],[28.940479605999997,37.87857311000016]]],"type":"Polygon"}},{"type":"Feature","properties":{"area_id":"TR-20-002-150101","name_tr":"Oğuzlar","area_level":"neighbourhood","parent_id":"TR-20-002","endeksa_id":150101},"geometry":{"coordinates":[[[28.909693549000167,37.86856323700016],[28.909396931000117,37.87621360500003],[28.90885557700011,37.878644904000055],[28.907418360000122,37.880709547000095],[28.906852021000077,37.88098841100003],[28.90668748900009,37.88102257100002],[28.905453624000074,37.880185847000064],[28.905191551000144,37.879489489000036],[28.90438759800014,37.87653599700042],[28.90216011500013,37.87211257100017],[28.902320814000063,37.870583896000255],[28.901380404000008,37.87017990900017],[28.901041302000067,37.86921158500013],[28.90079314400009,37.86882212600017],[28.90121549100013,37.86858012600055],[28.899296446000108,37.865273657000444],[28.897947941000155,37.865226808000386],[28.895363860000145,37.86150528500008],[28.89445226800001,37.86098651200001],[28.893819713000028,37.86025169700008],[28.893465106000065,37.859373719000246],[28.893174126000133,37.859158937000416],[28.892887761000168,37.85856590100019],[28.892296027000043,37.85857100500044],[28.891093784000134,37.858112311000184],[28.889719401000036,37.85780779900017],[28.88862352600006,37.85779744900003],[28.888191899000105,37.85748896900009],[28.88692298000018,37.855872067000064],[28.887026160000005,37.855542650000075],[28.88656835400019,37.854517931000146],[28.887537373000157,37.85385044000003],[28.886627616999988,37.853081566000185],[28.88676395300007,37.852604896],[28.885768298000073,37.85157505400042],[28.88533305300018,37.85137233600017],[28.88648443600016,37.84977940500062],[28.884367121000025,37.84932066300013],[28.884436871000105,37.848428297000055],[28.883525516000134,37.84790944200017],[28.882420469000067,37.84804472300044],[28.881688539000095,37.8478191050001],[28.88134183699998,37.84643095800004],[28.88016584000013,37.84518069100011],[28.87955340100018,37.84313402400011],[28.878561278000063,37.84188549200019],[28.877302341000075,37.84005131100008],[28.87696017400009,37.83837164400006],[28.876884850000067,37.83727762000018],[28.877378531000147,37.8350228380001],[28.87815224700006,37.83247917300008],[28.87818092900011,37.83058438400002],[28.877480089000017,37.82831820100006],[28.87741028500011,37.826859794000086],[28.87579628000009,37.82422044800035],[28.874537699000143,37.822386239000195],[28.874311879000118,37.81910415900006],[28.87489847400002,37.816777384000034],[28.87556031500003,37.81554463100042],[28.876775514000087,37.81417138500012],[28.87926569600006,37.81353914700003],[28.88005832700003,37.8158061980003],[28.88029980600004,37.818067996000025],[28.88164922800013,37.81997589600019],[28.883189047000087,37.82144826600012],[28.88453860300018,37.82335613400005],[28.885816068999986,37.82395133600011],[28.888470587000086,37.82463243000018],[28.890764192000063,37.824872741000036],[28.892668540000045,37.82656708400003],[28.892461918000038,37.828095768000026],[28.891990538000073,37.828893087000154],[28.89022516800003,37.830188412000666],[28.891369490000045,37.83355200699998],[28.893818871999997,37.83568878900007],[28.896164562000138,37.838626302000534],[28.89687583300008,37.84023648900012],[28.897385987000007,37.84301097800005],[28.898630307000133,37.84586522600017],[28.899684415000138,37.84915500400001],[28.900569939000036,37.8514227790007],[28.901270609000107,37.8537617070001],[28.901627445000145,37.85449391100008],[28.904268109000157,37.85619493700017],[28.906049340000152,37.86007452400008],[28.90757111200014,37.862858370000026],[28.909693549000167,37.86856323700016]]],"type":"Polygon"}}]}