{"type":"FeatureCollection","source_id":"endeksa","retrieved_at":"2026-08-23","features":[{"type":"Feature","properties":{"area_id":"TR-28-013-2014758","name_tr":"Yunusemre Köyü","area_level":"neighbourhood","parent_id":"TR-28-013","endeksa_id":2014758},"geometry":{"coordinates":[[[38.12566239300003,40.82987896600008],[38.12351028900014,40.831261053000446],[38.12354677300016,40.83135612500013],[38.12367341300012,40.83137966300012],[38.12680101199999,40.83048567800017],[38.12696637300013,40.83054761500057],[38.12449021300006,40.83349927600045],[38.12454349699999,40.83363839200024],[38.12050571600014,40.832247162000044],[38.11546175100017,40.82961561200028],[38.11021227600003,40.82918551600022],[38.10736111700015,40.82711158200004],[38.1080282370001,40.82586086800012],[38.10799166200019,40.82575253600004],[38.102106811000056,40.82371203900004],[38.10009389100014,40.820128307000175],[38.100940047000165,40.818957115000444],[38.09939567100008,40.817749553],[38.099488518000044,40.817628702000036],[38.09904204800006,40.817222599000104],[38.103270491000046,40.818657795000036],[38.10423859900004,40.82114482399999],[38.108136327000125,40.82136152800052],[38.1107150740001,40.81997898000003],[38.10993281700013,40.81767172200023],[38.11919313400006,40.81582881600019],[38.119286703000114,40.81575653400057],[38.11924643700013,40.81565877700007],[38.119637168000054,40.81592120500011],[38.11942419200017,40.81597187600045],[38.119530339000164,40.816252944999974],[38.119680047000145,40.81628746300004],[38.11976520900009,40.81618468500005],[38.11988739900005,40.817108569000084],[38.120602384000165,40.81878864400045],[38.120785574000024,40.81884582900011],[38.12063280100011,40.81886344800006],[38.122018305000154,40.822117447000096],[38.128007573000104,40.82300191400003],[38.12740604600015,40.82418431500008],[38.13082204300008,40.82639626300028],[38.12996631400006,40.82700340800051],[38.13154977000016,40.828728405000504],[38.12398007600018,40.829381651000006],[38.12566239300003,40.82987896600008]]],"type":"Polygon"}},{"type":"Feature","properties":{"area_id":"TR-28-013-2048944","name_tr":"Deregözü Köyü","area_level":"neighbourhood","parent_id":"TR-28-013","endeksa_id":2048944},"geometry":{"coordinates":[[[38.03870722525784,40.83829700247895],[38.03867682400016,40.83836020200016],[38.0323157310001,40.83446100700036],[38.032294482000054,40.834584030000144],[38.03196395800006,40.83471659100019],[38.03122559900015,40.83747750000009],[38.029816572000186,40.83969521000063],[38.02964256200016,40.839614407000056],[38.02954022400007,40.83770077700018],[38.02945194200004,40.83761265900017],[38.02017722700009,40.83733914800001],[38.01222004800013,40.83980983300006],[38.01207636000015,40.83978666200005],[38.01205219299999,40.83967667800016],[38.01388041700011,40.836871434000045],[38.01470528200008,40.83150514400012],[38.007307178000076,40.81943122000018],[38.00714642800011,40.81946450800024],[38.0070648840001,40.819356708000555],[38.00738243500018,40.8178495960002],[38.009311281000066,40.81490097300002],[38.00955245800003,40.8147608380001],[38.0147490220001,40.80902331100026],[38.016210972000124,40.80040932500003],[38.019434977000174,40.79888661400025],[38.01862439700005,40.795883239000034],[38.01869745700009,40.79577311800006],[38.01936492000016,40.79555910800008],[38.01890360800013,40.794614387000024],[38.01840251200008,40.79412947700001],[38.01797185000015,40.79350349600054],[38.01780518500016,40.792895693000105],[38.017853949000084,40.79281542400008],[38.01993041200001,40.792740425000375],[38.02007054400008,40.792565482000555],[38.02017788700016,40.79216670300019],[38.027106693000064,40.7903273660001],[38.02785170800013,40.790661565000164],[38.02817166800014,40.79067261600011],[38.02922588200016,40.79020536300004],[38.03030067499998,40.78942630199998],[38.035672885000054,40.787971959000174],[38.03591244500018,40.78806370300049],[38.04745799400018,40.79572972200003],[38.048207149999996,40.79692368700029],[38.04932312700009,40.80090688000007],[38.049585017000084,40.80636304000018],[38.050039601137314,40.80700543688749],[38.05021101229494,40.80715336095727],[38.050200683459764,40.80724306768002],[38.04926000000006,40.80763000000053],[38.0471100000002,40.81006000000036],[38.045560000000194,40.812570000000164],[38.0442000000001,40.81356000000022],[38.04362000000009,40.81516000000005],[38.04081000000008,40.818450000000496],[38.040660000000116,40.820470000000114],[38.039920000000166,40.82261000000011],[38.03987000000012,40.8242300000004],[38.03879000000012,40.82597000000027],[38.039300000000196,40.827530000000195],[38.04003000000006,40.8312100000004],[38.040970000000186,40.833600000000615],[38.039020000000164,40.837280000000305],[38.03876000000014,40.83782000000019],[38.03870722525784,40.83829700247895]]],"type":"Polygon"}},{"type":"Feature","properties":{"area_id":"TR-28-013-2014757","name_tr":"Tepeköy Köyü","area_level":"neighbourhood","parent_id":"TR-28-013","endeksa_id":2014757},"geometry":{"coordinates":[[[38.13967336500008,40.84676471800043],[38.1383146710001,40.849586285000385],[38.138304793000145,40.849456869000335],[38.13465423800017,40.84903712500005],[38.13330475900017,40.846575139000095],[38.132059748000074,40.84538356700028],[38.129130420000024,40.8446353220001],[38.12212924700009,40.847218963000444],[38.11401564000016,40.842566923000106],[38.105545468000116,40.84347293100029],[38.10537794500016,40.84341351300003],[38.10193378100013,40.84144735700056],[38.10224169500003,40.841100059999974],[38.10050134700009,40.84062962900026],[38.102247141000134,40.84010773700021],[38.102514235,40.83765561300004],[38.10008839300019,40.8363827670002],[38.09719898700007,40.83052789100003],[38.09695819700005,40.83046081100014],[38.09679525800016,40.83015254900039],[38.09067946300013,40.82867911400007],[38.090168284000185,40.826037993000114],[38.08984433100011,40.82497696600035],[38.091824982000105,40.820147330000054],[38.0903895350001,40.819191364000005],[38.09093109512236,40.81446166177494],[38.09384728500004,40.809114674000625],[38.093991282000104,40.809153725000215],[38.09700797900007,40.812499045000095],[38.097741288000066,40.816497712000114],[38.09882081600006,40.817300067000474],[38.09922342200014,40.817474702000084],[38.099245615000086,40.817409318000045],[38.09948725400011,40.81763242500011],[38.09939567100008,40.817749553],[38.100940047000165,40.818957115000444],[38.10009389100014,40.820128307000175],[38.102106811000056,40.82371203900004],[38.10799166200019,40.82575253600004],[38.1080282370001,40.82586086800012],[38.10736111700015,40.82711158200004],[38.11021227600003,40.82918551600022],[38.11546175100017,40.82961561200028],[38.12050571600014,40.832247162000044],[38.12454349699999,40.83363839200024],[38.134887928000126,40.83761135200018],[38.13562562699997,40.83915828600061],[38.13314665900003,40.841343262000066],[38.13312504000015,40.841442821000044],[38.13760823100006,40.84390144900004],[38.1393773690001,40.84653230100014],[38.13967336500008,40.84676471800043]]],"type":"Polygon"}},{"type":"Feature","properties":{"area_id":"TR-28-013-2049579","name_tr":"Güzelköy Köyü","area_level":"neighbourhood","parent_id":"TR-28-013","endeksa_id":2049579},"geometry":{"coordinates":[[[38.05208000000016,40.89315000000022],[38.05164000000019,40.89328000000029],[38.05112000000014,40.8933100000001],[38.05062000000015,40.89350000000019],[38.04987000000011,40.89409000000052],[38.04945000000015,40.89430000000016],[38.04901000000018,40.89495000000011],[38.04775000000018,40.896200000000306],[38.04718000000014,40.89627000000041],[38.04649000000006,40.89672000000019],[38.04337000000015,40.89835000000005],[38.040070000000185,40.89963000000006],[38.03637000000009,40.90075000000019],[38.03523000000007,40.90061000000014],[38.03489000000019,40.900810000000206],[38.034590000000094,40.90084000000053],[38.03429000000011,40.90108000000049],[38.03405000000015,40.90149000000031],[38.033750000000225,40.90171000000004],[38.033690000000036,40.90185000000025],[38.031990000000064,40.90285000000006],[38.03204000000011,40.90232000000009],[38.03226000000018,40.902120000000025],[38.03238000000016,40.90163000000052],[38.032730000000186,40.90120000000047],[38.03280000000012,40.90070000000031],[38.03256000000016,40.900500000000136],[38.03237000000007,40.90009000000032],[38.03222000000011,40.89999000000017],[38.032200000000046,40.89979000000034],[38.03231000000005,40.89969000000008],[38.032240000000115,40.89949000000041],[38.031370000000095,40.89870000000042],[38.03135000000003,40.89799000000062],[38.03070000000008,40.897840000000315],[38.02876000000015,40.8977000000001],[38.02873000000017,40.897320000000605],[38.02731000000006,40.896450000000414],[38.02774000000011,40.89517000000035],[38.02735000000018,40.89405000000005],[38.027460000000076,40.89272000000017],[38.027190000000076,40.89234000000067],[38.02698000000015,40.891520000000355],[38.02626000000009,40.891090000000304],[38.02627000000018,40.89048000000025],[38.02526000000012,40.88955000000004],[38.025230000000136,40.889100000000326],[38.02442000000008,40.88770000000045],[38.021809973912525,40.88805831734993],[38.021770000000174,40.885480000000086],[38.02140000000014,40.883220000000165],[38.02280000000013,40.88095000000044],[38.021240000000034,40.87834000000049],[38.02143000000012,40.877060000000085],[38.02215000000018,40.87491000000023],[38.02234719800015,40.87463987700016],[38.0223400000001,40.87439000000052],[38.022630000000106,40.874020000000314],[38.02216815600008,40.87351086100034],[38.022540000000106,40.872970000000294],[38.0240800000002,40.87222000000003],[38.02475000000021,40.8717400000001],[38.02573000000007,40.870580000000075],[38.02609000000024,40.870580000000075],[38.02661000000006,40.87030000000033],[38.02673000000004,40.86998000000017],[38.02804000000009,40.869350000000054],[38.02881000000019,40.86937000000012],[38.03040000000016,40.868600000000356],[38.03099981084574,40.86794020807014],[38.03256000000016,40.86684000000042],[38.03454000000022,40.867200000000366],[38.036170000000084,40.86707000000024],[38.04013000000015,40.86598000000032],[38.04028000000011,40.86605000000003],[38.04059000000018,40.86656000000016],[38.04104000000012,40.86686000000009],[38.04115000000019,40.86713000000026],[38.041680000000156,40.86740000000054],[38.04539000000017,40.86802000000068],[38.047700000000134,40.868160000000216],[38.04895197065832,40.86849504981137],[38.04961000000009,40.87063000000012],[38.049460000000124,40.87106000000017],[38.04900000000009,40.87169000000023],[38.04890000000012,40.87215000000009],[38.0488900000002,40.87239000000005],[38.04903000000007,40.87263000000041],[38.04923000000008,40.87274000000042],[38.05025000000012,40.87279000000029],[38.0520600000001,40.87315000000024],[38.05331000000018,40.87323000000009],[38.05385000000007,40.87314000000015],[38.054330000000164,40.8733900000002],[38.059030000000234,40.87363000000016],[38.059500000000185,40.8737900000001],[38.06038000000018,40.8744300000003],[38.06072000000006,40.87482000000057],[38.05916000000013,40.87748000000039],[38.056860000000086,40.879190000000335],[38.05378000000013,40.88244000000009],[38.053610000000106,40.884060000000545],[38.053090000000054,40.886200000000144],[38.053180000000054,40.88843000000031],[38.05208000000016,40.89315000000022]]],"type":"Polygon"}},{"type":"Feature","properties":{"area_id":"TR-28-013-2014742","name_tr":"Armutçukuru Köyü","area_level":"neighbourhood","parent_id":"TR-28-013","endeksa_id":2014742},"geometry":{"coordinates":[[[38.084585174665676,40.85009201055607],[38.083780000000104,40.85049000000009],[38.08365000000015,40.85052000000013],[38.0835100000001,40.850390000000175],[38.08326000000005,40.8506100000003],[38.08334000000008,40.85094000000004],[38.08293000000009,40.85164000000003],[38.082330000000184,40.852310000000045],[38.08138000000008,40.85188000000039],[38.08089000000007,40.85179000000005],[38.07866000000013,40.851850000000184],[38.07819000000012,40.85167000000007],[38.07807000000014,40.85200000000037],[38.078270000000146,40.8523000000003],[38.07810000000012,40.85249000000039],[38.078330000000165,40.852680000000476],[38.07830000000018,40.8530100000001],[38.077000000000055,40.85327000000029],[38.07663000000019,40.85284000000024],[38.07637000000017,40.85287000000005],[38.076000000000136,40.85266000000024],[38.07609000000008,40.85257000000007],[38.075510000000065,40.852090000000146],[38.07555000000019,40.851720000000114],[38.07571000000007,40.85143000000011],[38.074950000000115,40.85120000000023],[38.07484000000005,40.85099000000008],[38.07504000000006,40.85071000000022],[38.07504000000006,40.85031000000049],[38.074680000000114,40.849960000000124],[38.07369000000011,40.84975000000037],[38.07276000000007,40.84933000000041],[38.07270000000011,40.849120000000084],[38.072940000000074,40.84902000000034],[38.072790000000055,40.84756000000033],[38.072840000000156,40.84714000000042],[38.07199000000014,40.84687000000008],[38.07180000000005,40.84662000000071],[38.071570000000236,40.845960000000105],[38.07116000000019,40.84586000000036],[38.07027000000011,40.844680000000096],[38.06921000000017,40.84417000000013],[38.06914000000006,40.8427200000001],[38.06841000000003,40.84123000000028],[38.06788000000006,40.84064000000046],[38.065820000000144,40.83959000000027],[38.064820000000225,40.838090000000136],[38.06245000000024,40.836360000000184],[38.056950000000086,40.83427000000063],[38.05362000000025,40.83240000000012],[38.050390000000164,40.82959000000011],[38.049120000000244,40.8287000000002],[38.049520000000086,40.828110000000265],[38.04970000000009,40.827490000000296],[38.049270000000035,40.827340000000106],[38.04970000000009,40.82702000000046],[38.049590000000194,40.826850000000604],[38.049120000000244,40.82651000000021],[38.04872000000017,40.82596000000018],[38.04836000000006,40.8248700000002],[38.04960000000017,40.823500000000536],[38.051160000000095,40.81869000000046],[38.05143000000004,40.818480000000136],[38.05409000000003,40.81544000000014],[38.054440000000056,40.81480000000033],[38.054450000000145,40.814050000000236],[38.05481000000009,40.81332000000026],[38.055780000000084,40.81239000000005],[38.056300000000135,40.8116900000004],[38.05631000000005,40.81146000000052],[38.05669000000006,40.810890000000256],[38.056340000000034,40.81069000000008],[38.056250000000034,40.81035000000037],[38.056460000000186,40.809380000000374],[38.05670000000015,40.80873000000008],[38.05703000000011,40.808290000000284],[38.057314134000194,40.80722630800017],[38.06131590000018,40.81065046900005],[38.07077396600005,40.81458193200001],[38.082343907000165,40.81270327900063],[38.090731982021225,40.81453456635069],[38.09093109512236,40.81446166177494],[38.0903895350001,40.819191364000005],[38.08416370900011,40.82385576300004],[38.08121018200006,40.83304130400006],[38.07877363600011,40.83459108000005],[38.085470460000124,40.8404930210001],[38.084585174665676,40.85009201055607]]],"type":"Polygon"}},{"type":"Feature","properties":{"area_id":"TR-28-013-2014746","name_tr":"Çağlandere Köyü","area_level":"neighbourhood","parent_id":"TR-28-013","endeksa_id":2014746},"geometry":{"coordinates":[[[38.10537794500016,40.84341351300003],[38.105429739000044,40.84349904000004],[38.10502375200008,40.84826193600014],[38.10236430700007,40.85104090700048],[38.102932916805855,40.85157432427741],[38.10223000000019,40.85112000000004],[38.10030000000006,40.851320000000214],[38.09669000000014,40.85089000000016],[38.09317000000004,40.85068000000018],[38.092270000000156,40.850450000000706],[38.09228000000013,40.850540000000365],[38.09181000000012,40.85049000000009],[38.09135000000009,40.85077000000018],[38.090910000000065,40.85090000000031],[38.08931000000024,40.8506500000002],[38.08834000000007,40.85069000000067],[38.08776000000006,40.850850000000435],[38.08702000000011,40.85072000000031],[38.08625000000018,40.85043000000047],[38.08576000000011,40.850450000000706],[38.084990000000175,40.85011000000031],[38.084585174665676,40.85009201055607],[38.085470460000124,40.8404930210001],[38.07877363600011,40.83459108000005],[38.08121018200006,40.83304130400006],[38.08416370900011,40.82385576300004],[38.0903895350001,40.819191364000005],[38.091824982000105,40.820147330000054],[38.08984433100011,40.82497696600035],[38.090168284000185,40.826037993000114],[38.09067946300013,40.82867911400007],[38.09679525800016,40.83015254900039],[38.09695819700005,40.83046081100014],[38.09719898700007,40.83052789100003],[38.10008839300019,40.8363827670002],[38.102514235,40.83765561300004],[38.102247141000134,40.84010773700021],[38.10050134700009,40.84062962900026],[38.10224169500003,40.841100059999974],[38.10193378100013,40.84144735700056],[38.10537794500016,40.84341351300003]]],"type":"Polygon"}},{"type":"Feature","properties":{"area_id":"TR-28-013-2014756","name_tr":"Şerefli Köyü","area_level":"neighbourhood","parent_id":"TR-28-013","endeksa_id":2014756},"geometry":{"coordinates":[[[38.06327710568422,40.85718242315801],[38.06300948000012,40.85741960200005],[38.063204985000084,40.85755202700011],[38.057481328000165,40.86231885100017],[38.05567447700014,40.85847087100012],[38.04942314099998,40.85832837500004],[38.04726118100018,40.86063141100033],[38.047487431000036,40.86289638800008],[38.04088447000004,40.86134846300018],[38.03647487400008,40.8627136920004],[38.033915508000064,40.861155034000035],[38.03171470300009,40.86429569200004],[38.02832168000015,40.86425189400012],[38.028059943222104,40.86401563454956],[38.028089629590454,40.86427293477618],[38.02777657087995,40.86438136327399],[38.0262114803316,40.86339921642377],[38.02158444547024,40.85980835761188],[38.01997641600008,40.8565026090003],[38.01982154899997,40.85566949500014],[38.01930425299997,40.854816188000655],[38.01900567300015,40.853981922],[38.02130094600011,40.8536050460001],[38.02165933200007,40.853436928000065],[38.02269519000015,40.85318446500003],[38.02299650700013,40.852862721000406],[38.020131931000094,40.846784927000044],[38.01890029000003,40.84646475900007],[38.01733604600014,40.84653760900005],[38.013044523000076,40.847235057000034],[38.01277800300005,40.84623590000001],[38.01243929100008,40.8461564750001],[38.012206547000176,40.84446532600009],[38.01201272500015,40.84354590000038],[38.012177330000156,40.84254787300017],[38.01117379300018,40.84104466700046],[38.01133120500003,40.840797466000026],[38.011157873000116,40.84014218300007],[38.02017722700009,40.83733914800001],[38.02945194200004,40.83761265900017],[38.02954022400007,40.83770077700018],[38.02964256200016,40.839614407000056],[38.029816572000186,40.83969521000063],[38.03122559900015,40.83747750000009],[38.03196395800006,40.83471659100019],[38.032294482000054,40.834584030000144],[38.0323157310001,40.83446100700036],[38.03867682400016,40.83836020200016],[38.03870722525784,40.83829700247895],[38.038520000000176,40.840480000000184],[38.03827000000007,40.84081000000032],[38.03828000000004,40.84102000000064],[38.03819000000004,40.84116000000017],[38.03776000000016,40.8414600000001],[38.037470000000155,40.84181000000012],[38.036320000000046,40.84263000000027],[38.03643000000005,40.843450000000075],[38.036640000000205,40.843730000000335],[38.037410000000136,40.84405000000038],[38.03894000000008,40.84529000000009],[38.039140000000145,40.845710000000054],[38.04081000000008,40.846110000000294],[38.04093000000006,40.847070000000315],[38.04146000000026,40.84780000000029],[38.04258000000016,40.84851000000009],[38.041780000000074,40.84906000000012],[38.0418200000002,40.84941000000009],[38.042430000000195,40.85037000000034],[38.043050000000164,40.850790000000416],[38.043880000000115,40.851010000000144],[38.04421000000025,40.8516900000003],[38.04529000000025,40.85214000000042],[38.04617000000019,40.852240000000336],[38.04688000000016,40.85208000000057],[38.04802000000018,40.85245000000009],[38.050390000000164,40.85282000000018],[38.05165000000011,40.85282000000018],[38.0522400000001,40.85304000000042],[38.05300000000011,40.85380000000009],[38.05375000000015,40.85371000000043],[38.05523000000005,40.85403000000008],[38.056340000000034,40.853640000000325],[38.05775000000017,40.853860000000054],[38.05849000000012,40.854170000000124],[38.059000000000026,40.85458000000011],[38.06206000000009,40.85623000000004],[38.06232000000011,40.85658000000058],[38.06292000000019,40.85703000000018],[38.06327710568422,40.85718242315801]]],"type":"Polygon"}},{"type":"Feature","properties":{"area_id":"TR-28-013-2014740","name_tr":"Akçay Köyü","area_level":"neighbourhood","parent_id":"TR-28-013","endeksa_id":2014740},"geometry":{"coordinates":[[[38.14242395781065,40.86673997206867],[38.14120609200012,40.867209831000025],[38.13812892420418,40.866385576904975],[38.13823495990084,40.86647945911119],[38.138186933770214,40.86659509311454],[38.13704337000013,40.86717309000005],[38.136587356631765,40.86678132235545],[38.13641994500017,40.86672022099998],[38.13623352400009,40.86681621600002],[38.11979883400011,40.86379102100045],[38.11727167400005,40.8642634950001],[38.11724666500004,40.86406839800003],[38.116768987000114,40.86405425400011],[38.11676215500012,40.86428499700014],[38.11671331600007,40.86405260599997],[38.11646379200005,40.86421468800006],[38.11646880500018,40.864045366000084],[38.10873196800014,40.86381628400068],[38.108648777999974,40.863723990000324],[38.10873197700005,40.861112490000096],[38.10867612609235,40.86110104519497],[38.10874000000007,40.86082000000039],[38.108350000000144,40.86022000000048],[38.10755000000023,40.85992000000016],[38.10752000000019,40.859560000000045],[38.10734000000008,40.85930000000042],[38.106450000000166,40.858560000000296],[38.106360000000166,40.858250000000226],[38.10650000000004,40.85780000000011],[38.105800000000215,40.85679000000022],[38.10581000000013,40.85660000000013],[38.10600000000005,40.8563800000004],[38.10603000000003,40.856090000000165],[38.10622000000012,40.855710000000386],[38.10623000000004,40.85539000000017],[38.10642000000013,40.855120000000056],[38.10639000000015,40.85501000000016],[38.105930000000114,40.85484000000014],[38.10527000000019,40.85418000000027],[38.105000000000075,40.85384000000016],[38.105030000000056,40.8536900000002],[38.10408000000018,40.852580000000046],[38.102932916805855,40.85157432427741],[38.10236430700007,40.85104090700048],[38.10502375200008,40.84826193600014],[38.105429739000044,40.84349904000004],[38.10537794500016,40.84341351300003],[38.105545468000116,40.84347293100029],[38.11401564000016,40.842566923000106],[38.12212924700009,40.847218963000444],[38.129130420000024,40.8446353220001],[38.132059748000074,40.84538356700028],[38.13330475900017,40.846575139000095],[38.13465423800017,40.84903712500005],[38.138304793000145,40.849456869000335],[38.138480131999984,40.85131741100008],[38.144054025000116,40.85356040400012],[38.14393061700008,40.85575004300006],[38.14018419300004,40.85892067300017],[38.14074087000017,40.8636258480002],[38.144223755000155,40.86604560100011],[38.14242395781065,40.86673997206867]]],"type":"Polygon"}},{"type":"Feature","properties":{"area_id":"TR-28-013-2049116","name_tr":"Medrese Köyü","area_level":"neighbourhood","parent_id":"TR-28-013","endeksa_id":2049116},"geometry":{"coordinates":[[[38.07409612032751,40.86581818908593],[38.067517480000106,40.86896981700016],[38.05451180400013,40.8686302590001],[38.049984445000064,40.86795971100008],[38.04987220700019,40.868509126000106],[38.04895197065832,40.86849504981137],[38.047700000000134,40.868160000000216],[38.04539000000017,40.86802000000068],[38.041680000000156,40.86740000000054],[38.04115000000019,40.86713000000026],[38.04104000000012,40.86686000000009],[38.04059000000018,40.86656000000016],[38.04028000000011,40.86605000000003],[38.04013000000015,40.86598000000032],[38.036170000000084,40.86707000000024],[38.03454000000022,40.867200000000366],[38.03256000000016,40.86684000000042],[38.03099981084574,40.86794020807014],[38.02976932800016,40.8657209020007],[38.0262114803316,40.86339921642377],[38.02777657087995,40.86438136327399],[38.028089629590454,40.86427293477618],[38.028059943222104,40.86401563454956],[38.02832168000015,40.86425189400012],[38.03171470300009,40.86429569200004],[38.033915508000064,40.861155034000035],[38.03647487400008,40.8627136920004],[38.04088447000004,40.86134846300018],[38.047487431000036,40.86289638800008],[38.04726118100018,40.86063141100033],[38.04942314099998,40.85832837500004],[38.05567447700014,40.85847087100012],[38.057481328000165,40.86231885100017],[38.063204985000084,40.85755202700011],[38.06300948000012,40.85741960200005],[38.06327710568422,40.85718242315801],[38.063740000000166,40.85738000000015],[38.064820000000225,40.857510000000104],[38.065810000000056,40.85774000000009],[38.06610000000006,40.858040000000074],[38.06715000000008,40.85823000000016],[38.067790000000116,40.8581200000001],[38.068480000000136,40.858290000000125],[38.06917000000004,40.85881000000035],[38.070090000000164,40.85897000000011],[38.07072000000005,40.858900000000176],[38.071300000000065,40.85973000000007],[38.07251000000019,40.86012000000005],[38.0738800000002,40.8603700000001],[38.07453000000015,40.86106000000035],[38.0748500000002,40.861010000000476],[38.07515000000012,40.86112000000037],[38.07534000000004,40.86152000000004],[38.076260000000104,40.861540000000275],[38.076840000000175,40.86218000000065],[38.07729000000006,40.862280000000396],[38.07810000000012,40.86270000000036],[38.07882000000018,40.863550000000316],[38.07835000000006,40.86371000000008],[38.07804000000016,40.86397000000028],[38.07761000000011,40.86397000000028],[38.07693000000012,40.864420000000166],[38.07640000000015,40.864450000000204],[38.07632000000012,40.86456000000004],[38.0750500000002,40.86505000000011],[38.07444000000015,40.865200000000414],[38.07438000000019,40.86549000000025],[38.07404000000014,40.86573000000021],[38.07409612032751,40.86581818908593]]],"type":"Polygon"}},{"type":"Feature","properties":{"area_id":"TR-28-013-2014744","name_tr":"Bozat Köyü","area_level":"neighbourhood","parent_id":"TR-28-013","endeksa_id":2014744},"geometry":{"coordinates":[[[38.106670000000065,40.865230000000054],[38.105930000000114,40.8653900000005],[38.10573000000011,40.86553000000072],[38.105800000000215,40.865630000000465],[38.105400000000145,40.86599000000041],[38.10412000000008,40.86675000000008],[38.1027900000002,40.866680000000656],[38.10230000000013,40.86679000000038],[38.10158000000007,40.86726000000033],[38.100910000000056,40.867550000000165],[38.10069000000016,40.86738000000031],[38.09818000000013,40.86893000000066],[38.09827000000013,40.86907000000019],[38.09695000000016,40.86945000000037],[38.09632000000005,40.86936000000071],[38.09538000000009,40.86959000000019],[38.09457000000003,40.86994000000038],[38.092450000000156,40.869870000000276],[38.091840000000104,40.869810000000314],[38.090470000000096,40.86927000000037],[38.08998000000008,40.86929000000009],[38.09000000000009,40.869440000000225],[38.089540000000056,40.86936000000071],[38.0892800000002,40.86926000000028],[38.08943000000022,40.86908000000028],[38.08892000000009,40.868910000000426],[38.08881000000008,40.86899000000011],[38.088030000000174,40.86895000000021],[38.08744000000024,40.86908000000028],[38.08704000000017,40.86948000000018],[38.086790000000065,40.869440000000225],[38.08672000000013,40.86954000000014],[38.08627000000024,40.86969000000033],[38.084900000000175,40.86954000000014],[38.08469000000025,40.86946000000046],[38.08451000000008,40.86898000000053],[38.08429000000018,40.86876000000012],[38.084030000000155,40.8680100000002],[38.08354000000014,40.86784000000017],[38.083190000000116,40.86790000000019],[38.082750000000146,40.86782000000011],[38.08178000000015,40.86710000000005],[38.08145000000019,40.86709000000047],[38.08072000000004,40.86683000000028],[38.08024000000012,40.866900000000385],[38.08063000000004,40.86705000000018],[38.080770000000086,40.86729000000014],[38.080430000000206,40.86738000000031],[38.07989000000009,40.86728000000005],[38.079100000000096,40.86734000000018],[38.077930000000094,40.86701000000028],[38.077270000000226,40.86738000000031],[38.07670000000013,40.86709000000047],[38.07649000000015,40.86682000000019],[38.076100000000054,40.86657000000008],[38.075820000000135,40.866160000000264],[38.074990000000184,40.866090000000156],[38.07422000000008,40.866160000000264],[38.07409612032751,40.86581818908593],[38.07404000000014,40.86573000000021],[38.07438000000019,40.86549000000025],[38.07444000000015,40.865200000000414],[38.0750500000002,40.86505000000011],[38.07632000000012,40.86456000000004],[38.07640000000015,40.864450000000204],[38.07693000000012,40.864420000000166],[38.07761000000011,40.86397000000028],[38.07804000000016,40.86397000000028],[38.07835000000006,40.86371000000008],[38.07882000000018,40.863550000000316],[38.07810000000012,40.86270000000036],[38.07729000000006,40.862280000000396],[38.076840000000175,40.86218000000065],[38.076260000000104,40.861540000000275],[38.07534000000004,40.86152000000004],[38.07515000000012,40.86112000000037],[38.0748500000002,40.861010000000476],[38.07453000000015,40.86106000000035],[38.0738800000002,40.8603700000001],[38.07251000000019,40.86012000000005],[38.071300000000065,40.85973000000007],[38.07072000000005,40.858900000000176],[38.070090000000164,40.85897000000011],[38.06917000000004,40.85881000000035],[38.068480000000136,40.858290000000125],[38.067790000000116,40.8581200000001],[38.06715000000008,40.85823000000016],[38.06610000000006,40.858040000000074],[38.065810000000056,40.85774000000009],[38.064820000000225,40.857510000000104],[38.063740000000166,40.85738000000015],[38.06292000000019,40.85703000000018],[38.06232000000011,40.85658000000058],[38.06206000000009,40.85623000000004],[38.059000000000026,40.85458000000011],[38.05849000000012,40.854170000000124],[38.05775000000017,40.853860000000054],[38.056340000000034,40.853640000000325],[38.05523000000005,40.85403000000008],[38.05375000000015,40.85371000000043],[38.05300000000011,40.85380000000009],[38.0522400000001,40.85304000000042],[38.05165000000011,40.85282000000018],[38.050390000000164,40.85282000000018],[38.04802000000018,40.85245000000009],[38.04688000000016,40.85208000000057],[38.04617000000019,40.852240000000336],[38.04529000000025,40.85214000000042],[38.04421000000025,40.8516900000003],[38.043880000000115,40.851010000000144],[38.043050000000164,40.850790000000416],[38.042430000000195,40.85037000000034],[38.0418200000002,40.84941000000009],[38.041780000000074,40.84906000000012],[38.04258000000016,40.84851000000009],[38.04146000000026,40.84780000000029],[38.04093000000006,40.847070000000315],[38.04081000000008,40.846110000000294],[38.039140000000145,40.845710000000054],[38.03894000000008,40.84529000000009],[38.037410000000136,40.84405000000038],[38.036640000000205,40.843730000000335],[38.03643000000005,40.843450000000075],[38.036320000000046,40.84263000000027],[38.037470000000155,40.84181000000012],[38.03776000000016,40.8414600000001],[38.03819000000004,40.84116000000017],[38.03828000000004,40.84102000000064],[38.03827000000007,40.84081000000032],[38.038520000000176,40.840480000000184],[38.03870722525784,40.83829700247895],[38.03876000000014,40.83782000000019],[38.039020000000164,40.837280000000305],[38.040970000000186,40.833600000000615],[38.04003000000006,40.8312100000004],[38.039300000000196,40.827530000000195],[38.03879000000012,40.82597000000027],[38.03987000000012,40.8242300000004],[38.039920000000166,40.82261000000011],[38.040660000000116,40.820470000000114],[38.04081000000008,40.818450000000496],[38.04362000000009,40.81516000000005],[38.0442000000001,40.81356000000022],[38.045560000000194,40.812570000000164],[38.0471100000002,40.81006000000036],[38.04926000000006,40.80763000000053],[38.050200683459764,40.80724306768002],[38.05021101229494,40.80715336095727],[38.050039601137314,40.80700543688749],[38.05021884725841,40.80703259687249],[38.054474999000035,40.80439696500031],[38.05447714143094,40.80412734605909],[38.05456968792163,40.80424076772897],[38.05474000000015,40.804230000000075],[38.05689000000007,40.80709000000007],[38.0573100000002,40.80723000000012],[38.05703000000011,40.808290000000284],[38.05670000000015,40.80873000000008],[38.056460000000186,40.809380000000374],[38.056250000000034,40.81035000000037],[38.056340000000034,40.81069000000008],[38.05669000000006,40.810890000000256],[38.05631000000005,40.81146000000052],[38.056300000000135,40.8116900000004],[38.055780000000084,40.81239000000005],[38.05481000000009,40.81332000000026],[38.054450000000145,40.814050000000236],[38.054440000000056,40.81480000000033],[38.05409000000003,40.81544000000014],[38.05143000000004,40.818480000000136],[38.051160000000095,40.81869000000046],[38.04960000000017,40.823500000000536],[38.04836000000006,40.8248700000002],[38.04872000000017,40.82596000000018],[38.049120000000244,40.82651000000021],[38.049590000000194,40.826850000000604],[38.04970000000009,40.82702000000046],[38.049270000000035,40.827340000000106],[38.04970000000009,40.827490000000296],[38.049520000000086,40.828110000000265],[38.049120000000244,40.8287000000002],[38.050390000000164,40.82959000000011],[38.05362000000025,40.83240000000012],[38.056950000000086,40.83427000000063],[38.06245000000024,40.836360000000184],[38.064820000000225,40.838090000000136],[38.065820000000144,40.83959000000027],[38.06788000000006,40.84064000000046],[38.06841000000003,40.84123000000028],[38.06914000000006,40.8427200000001],[38.06921000000017,40.84417000000013],[38.07027000000011,40.844680000000096],[38.07116000000019,40.84586000000036],[38.071570000000236,40.845960000000105],[38.07180000000005,40.84662000000071],[38.07199000000014,40.84687000000008],[38.072840000000156,40.84714000000042],[38.072790000000055,40.84756000000033],[38.072940000000074,40.84902000000034],[38.07270000000011,40.849120000000084],[38.07276000000007,40.84933000000041],[38.07369000000011,40.84975000000037],[38.074680000000114,40.849960000000124],[38.07504000000006,40.85031000000049],[38.07504000000006,40.85071000000022],[38.07484000000005,40.85099000000008],[38.074950000000115,40.85120000000023],[38.07571000000007,40.85143000000011],[38.07555000000019,40.851720000000114],[38.075510000000065,40.852090000000146],[38.07609000000008,40.85257000000007],[38.076000000000136,40.85266000000024],[38.07637000000017,40.85287000000005],[38.07663000000019,40.85284000000024],[38.077000000000055,40.85327000000029],[38.07830000000018,40.8530100000001],[38.078330000000165,40.852680000000476],[38.07810000000012,40.85249000000039],[38.078270000000146,40.8523000000003],[38.07807000000014,40.85200000000037],[38.07819000000012,40.85167000000007],[38.07866000000013,40.851850000000184],[38.08089000000007,40.85179000000005],[38.08138000000008,40.85188000000039],[38.082330000000184,40.852310000000045],[38.08293000000009,40.85164000000003],[38.08334000000008,40.85094000000004],[38.08326000000005,40.8506100000003],[38.0835100000001,40.850390000000175],[38.08365000000015,40.85052000000013],[38.083780000000104,40.85049000000009],[38.084585174665676,40.85009201055607],[38.084990000000175,40.85011000000031],[38.08576000000011,40.850450000000706],[38.08625000000018,40.85043000000047],[38.08702000000011,40.85072000000031],[38.08776000000006,40.850850000000435],[38.08834000000007,40.85069000000067],[38.08931000000024,40.8506500000002],[38.090910000000065,40.85090000000031],[38.09135000000009,40.85077000000018],[38.09181000000012,40.85049000000009],[38.09228000000013,40.850540000000365],[38.092270000000156,40.850450000000706],[38.09317000000004,40.85068000000018],[38.09669000000014,40.85089000000016],[38.10030000000006,40.851320000000214],[38.10223000000019,40.85112000000004],[38.102932916805855,40.85157432427741],[38.10408000000018,40.852580000000046],[38.105030000000056,40.8536900000002],[38.105000000000075,40.85384000000016],[38.10527000000019,40.85418000000027],[38.105930000000114,40.85484000000014],[38.10639000000015,40.85501000000016],[38.10642000000013,40.855120000000056],[38.10623000000004,40.85539000000017],[38.10622000000012,40.855710000000386],[38.10603000000003,40.856090000000165],[38.10600000000005,40.8563800000004],[38.10581000000013,40.85660000000013],[38.105800000000215,40.85679000000022],[38.10650000000004,40.85780000000011],[38.106360000000166,40.858250000000226],[38.106450000000166,40.858560000000296],[38.10734000000008,40.85930000000042],[38.10752000000019,40.859560000000045],[38.10755000000023,40.85992000000016],[38.108350000000144,40.86022000000048],[38.10874000000007,40.86082000000039],[38.10867612609235,40.86110104519497],[38.10873197700005,40.861112490000096],[38.10871201027078,40.86173921764993],[38.108602775363636,40.86161846598725],[38.108421167276845,40.86165382845218],[38.108192840893594,40.86217437533759],[38.1083900000001,40.86265000000009],[38.10842000000008,40.863310000000354],[38.10828000000021,40.86329000000012],[38.10820000000018,40.863650000000064],[38.107940000000156,40.863640000000146],[38.10780000000011,40.86390000000017],[38.107850000000155,40.86412000000007],[38.10774000000015,40.86433000000022],[38.10829000000018,40.86430000000041],[38.10774000000015,40.864580000000274],[38.10786000000013,40.86464000000029],[38.10775000000007,40.86478000000034],[38.107410000000186,40.86475000000013],[38.106670000000065,40.865230000000054]]],"type":"Polygon"}},{"type":"Feature","properties":{"area_id":"TR-28-013-2014752","name_tr":"Kılıçlı Köyü","area_level":"neighbourhood","parent_id":"TR-28-013","endeksa_id":2014752},"geometry":{"coordinates":[[[38.10362500091179,40.87512274687276],[38.10344000000015,40.87520000000006],[38.10295000000008,40.87500000000017],[38.1027000000002,40.875050000000044],[38.10038000000009,40.874920000000316],[38.10007000000019,40.874790000000246],[38.09954000000005,40.87474000000037],[38.09897000000012,40.8744300000003],[38.09840000000003,40.87460000000016],[38.09743000000009,40.87473000000023],[38.09687000000008,40.87499000000042],[38.09651000000014,40.87499000000042],[38.095740000000035,40.87518000000051],[38.09482000000014,40.87494000000004],[38.09458000000018,40.87502000000006],[38.09433000000007,40.87550000000016],[38.09430000000009,40.87648000000007],[38.0943700000002,40.87675000000041],[38.094292742512835,40.876810089157175],[38.093730000000164,40.87657000000041],[38.09317000000004,40.87591000000015],[38.09296000000006,40.87583000000029],[38.092850000000226,40.87536000000034],[38.09234000000009,40.87474000000037],[38.09235000000024,40.873990000000106],[38.092240000000174,40.87369000000018],[38.09190000000012,40.87346000000031],[38.091520000000116,40.8728600000004],[38.091430000000116,40.872570000000565],[38.09055000000012,40.8716500000001],[38.09051000000005,40.87141000000014],[38.090880000000084,40.87085000000036],[38.09090000000015,40.87055000000004],[38.09190000000012,40.87023000000022],[38.092450000000156,40.869870000000276],[38.09457000000003,40.86994000000038],[38.09538000000009,40.86959000000019],[38.09632000000005,40.86936000000071],[38.09695000000016,40.86945000000037],[38.09827000000013,40.86907000000019],[38.09818000000013,40.86893000000066],[38.10069000000016,40.86738000000031],[38.100910000000056,40.867550000000165],[38.10158000000007,40.86726000000033],[38.10230000000013,40.86679000000038],[38.1027900000002,40.866680000000656],[38.10412000000008,40.86675000000008],[38.105400000000145,40.86599000000041],[38.105800000000215,40.865630000000465],[38.10573000000011,40.86553000000072],[38.105930000000114,40.8653900000005],[38.106670000000065,40.865230000000054],[38.10747000000015,40.866930000000195],[38.10808000000003,40.867950000000064],[38.10851000000008,40.8689600000003],[38.108770000000106,40.87159000000048],[38.10829000000018,40.872820000000104],[38.10829000000018,40.87328000000036],[38.108030000000156,40.87360000000052],[38.107110000000034,40.8742100000004],[38.10539000000017,40.87484000000012],[38.104350000000125,40.87482000000057],[38.10362500091179,40.87512274687276]]],"type":"Polygon"}},{"type":"Feature","properties":{"area_id":"TR-28-013-2014748","name_tr":"Esentepe Köyü","area_level":"neighbourhood","parent_id":"TR-28-013","endeksa_id":2014748},"geometry":{"coordinates":[[[38.12622700066254,40.87874225325413],[38.126189601000135,40.878345126000056],[38.12341817100014,40.876684146000116],[38.11651820000009,40.87712490100023],[38.111737669000036,40.87981844100034],[38.109840220000194,40.87978228200063],[38.107027288000154,40.87820341400038],[38.10867360000009,40.87772062200008],[38.10862883600015,40.87591253500028],[38.10362500091179,40.87512274687276],[38.104350000000125,40.87482000000057],[38.10539000000017,40.87484000000012],[38.107110000000034,40.8742100000004],[38.108030000000156,40.87360000000052],[38.10829000000018,40.87328000000036],[38.10829000000018,40.872820000000104],[38.108770000000106,40.87159000000048],[38.10851000000008,40.8689600000003],[38.10808000000003,40.867950000000064],[38.10747000000015,40.866930000000195],[38.106670000000065,40.865230000000054],[38.107410000000186,40.86475000000013],[38.10775000000007,40.86478000000034],[38.10786000000013,40.86464000000029],[38.10774000000015,40.864580000000274],[38.10829000000018,40.86430000000041],[38.10774000000015,40.86433000000022],[38.107850000000155,40.86412000000007],[38.10780000000011,40.86390000000017],[38.107940000000156,40.863640000000146],[38.10820000000018,40.863650000000064],[38.10828000000021,40.86329000000012],[38.10842000000008,40.863310000000354],[38.1083900000001,40.86265000000009],[38.108192840893594,40.86217437533759],[38.108421167276845,40.86165382845218],[38.108602775363636,40.86161846598725],[38.10871201027078,40.86173921764993],[38.108648777999974,40.863723990000324],[38.10873196800014,40.86381628400068],[38.11646880500018,40.864045366000084],[38.11646379200005,40.86421468800006],[38.11671331600007,40.86405260599997],[38.11676215500012,40.86428499700014],[38.116768987000114,40.86405425400011],[38.11724666500004,40.86406839800003],[38.11727167400005,40.8642634950001],[38.11979883400011,40.86379102100045],[38.13623352400009,40.86681621600002],[38.13641994500017,40.86672022099998],[38.136587356631765,40.86678132235545],[38.13704337000013,40.86717309000005],[38.134237109000026,40.86858551200004],[38.133300179000116,40.87375123300069],[38.13382372000001,40.875525185000015],[38.13407617500002,40.87602243500049],[38.139259598000194,40.878104638000025],[38.13948285800018,40.87803669200008],[38.13946754400018,40.87811283800016],[38.13753422000008,40.87875928],[38.13064128600013,40.8782559670002],[38.126638126000046,40.878337629000384],[38.12652217686832,40.87881215430991],[38.126346205587936,40.87885426684613],[38.12622700066254,40.87874225325413]]],"type":"Polygon"}},{"type":"Feature","properties":{"area_id":"TR-28-013-2014747","name_tr":"Çayırköy Köyü","area_level":"neighbourhood","parent_id":"TR-28-013","endeksa_id":2014747},"geometry":{"coordinates":[[[38.08816961777177,40.88036193142153],[38.083967459000064,40.8793690550001],[38.08388378300003,40.87924359600032],[38.083725672000185,40.879311810000104],[38.07970932400008,40.87836298299999],[38.070034782185644,40.88127260404099],[38.07011000000023,40.880990000000224],[38.07059000000015,40.880410000000154],[38.07041000000015,40.87992000000048],[38.07038000000017,40.87970000000007],[38.070460000000196,40.87952000000007],[38.070370000000196,40.87929000000025],[38.06973000000022,40.87907000000013],[38.06887000000012,40.87855000000013],[38.068480000000136,40.878580000000454],[38.06827000000021,40.87835000000007],[38.06781000000012,40.87831000000017],[38.067210000000046,40.877990000000125],[38.06597000000016,40.87762000000009],[38.0648700000001,40.876900000000035],[38.06474000000014,40.87671000000012],[38.06310000000019,40.87572000000006],[38.062660000000164,40.87562000000014],[38.06192000000004,40.87520000000006],[38.061080000000175,40.87502000000006],[38.06072000000006,40.87482000000057],[38.06038000000018,40.8744300000003],[38.059500000000185,40.8737900000001],[38.059030000000234,40.87363000000016],[38.054330000000164,40.8733900000002],[38.05385000000007,40.87314000000015],[38.05331000000018,40.87323000000009],[38.0520600000001,40.87315000000024],[38.05025000000012,40.87279000000029],[38.04923000000008,40.87274000000042],[38.04903000000007,40.87263000000041],[38.0488900000002,40.87239000000005],[38.04890000000012,40.87215000000009],[38.04900000000009,40.87169000000023],[38.049460000000124,40.87106000000017],[38.04961000000009,40.87063000000012],[38.04895197065832,40.86849504981137],[38.04987220700019,40.868509126000106],[38.049984445000064,40.86795971100008],[38.05451180400013,40.8686302590001],[38.067517480000106,40.86896981700016],[38.07409612032751,40.86581818908593],[38.07422000000008,40.866160000000264],[38.074990000000184,40.866090000000156],[38.075820000000135,40.866160000000264],[38.076100000000054,40.86657000000008],[38.07649000000015,40.86682000000019],[38.07670000000013,40.86709000000047],[38.077270000000226,40.86738000000031],[38.077930000000094,40.86701000000028],[38.079100000000096,40.86734000000018],[38.07989000000009,40.86728000000005],[38.080430000000206,40.86738000000031],[38.080770000000086,40.86729000000014],[38.08063000000004,40.86705000000018],[38.08024000000012,40.866900000000385],[38.08072000000004,40.86683000000028],[38.08145000000019,40.86709000000047],[38.08178000000015,40.86710000000005],[38.082750000000146,40.86782000000011],[38.083190000000116,40.86790000000019],[38.08354000000014,40.86784000000017],[38.084030000000155,40.8680100000002],[38.08429000000018,40.86876000000012],[38.08451000000008,40.86898000000053],[38.08469000000025,40.86946000000046],[38.084900000000175,40.86954000000014],[38.08627000000024,40.86969000000033],[38.08672000000013,40.86954000000014],[38.086790000000065,40.869440000000225],[38.08704000000017,40.86948000000018],[38.08744000000024,40.86908000000028],[38.088030000000174,40.86895000000021],[38.08881000000008,40.86899000000011],[38.08892000000009,40.868910000000426],[38.08943000000022,40.86908000000028],[38.0892800000002,40.86926000000028],[38.089540000000056,40.86936000000071],[38.09000000000009,40.869440000000225],[38.08998000000008,40.86929000000009],[38.090470000000096,40.86927000000037],[38.091840000000104,40.869810000000314],[38.092450000000156,40.869870000000276],[38.09190000000012,40.87023000000022],[38.09090000000015,40.87055000000004],[38.090880000000084,40.87085000000036],[38.09051000000005,40.87141000000014],[38.09055000000012,40.8716500000001],[38.091430000000116,40.872570000000565],[38.091520000000116,40.8728600000004],[38.09190000000012,40.87346000000031],[38.092240000000174,40.87369000000018],[38.09235000000024,40.873990000000106],[38.09234000000009,40.87474000000037],[38.092850000000226,40.87536000000034],[38.09296000000006,40.87583000000029],[38.09317000000004,40.87591000000015],[38.093730000000164,40.87657000000041],[38.094292742512835,40.876810089157175],[38.09151095600009,40.876972341000396],[38.088970273000086,40.88026525600009],[38.088189403709976,40.88011723405964],[38.088052542884554,40.88023314297425],[38.08816961777177,40.88036193142153]]],"type":"Polygon"}},{"type":"Feature","properties":{"area_id":"TR-28-013-2014754","name_tr":"Örnekköy Köyü","area_level":"neighbourhood","parent_id":"TR-28-013","endeksa_id":2014754},"geometry":{"coordinates":[[[38.10665021300008,40.879731548000166],[38.10439977500005,40.88253520100005],[38.10131219700003,40.882416896000166],[38.0996331180001,40.890822839000464],[38.099480954000114,40.89062861300056],[38.099463768000135,40.89070811700003],[38.09631412700003,40.88825043300011],[38.095583457000146,40.88791420700068],[38.09460988800015,40.88256316200051],[38.09316094000019,40.88259245600011],[38.092999774000134,40.883092069000156],[38.09221328699999,40.88153802800042],[38.0908003940001,40.880983516000185],[38.08816961777177,40.88036193142153],[38.088052542884554,40.88023314297425],[38.088189403709976,40.88011723405964],[38.088970273000086,40.88026525600009],[38.09151095600009,40.876972341000396],[38.094292742512835,40.876810089157175],[38.0943700000002,40.87675000000041],[38.09430000000009,40.87648000000007],[38.09433000000007,40.87550000000016],[38.09458000000018,40.87502000000006],[38.09482000000014,40.87494000000004],[38.095740000000035,40.87518000000051],[38.09651000000014,40.87499000000042],[38.09687000000008,40.87499000000042],[38.09743000000009,40.87473000000023],[38.09840000000003,40.87460000000016],[38.09897000000012,40.8744300000003],[38.09954000000005,40.87474000000037],[38.10007000000019,40.874790000000246],[38.10038000000009,40.874920000000316],[38.1027000000002,40.875050000000044],[38.10295000000008,40.87500000000017],[38.10344000000015,40.87520000000006],[38.10362500091179,40.87512274687276],[38.10862883600015,40.87591253500028],[38.10867360000009,40.87772062200008],[38.107027288000154,40.87820341400038],[38.109840220000194,40.87978228200063],[38.10671116499998,40.87965888800005],[38.10665021300008,40.879731548000166]]],"type":"Polygon"}},{"type":"Feature","properties":{"area_id":"TR-28-013-2014743","name_tr":"Balçıklı Köyü","area_level":"neighbourhood","parent_id":"TR-28-013","endeksa_id":2014743},"geometry":{"coordinates":[[[38.092999774000134,40.883092069000156],[38.09317952200013,40.883447238000144],[38.09144903200013,40.888660515000254],[38.091166792000024,40.88877429700011],[38.09090809100019,40.88957626600012],[38.087755300000026,40.89015396400009],[38.08609510400015,40.893677653000054],[38.0794615910001,40.89705205300004],[38.07962000000015,40.896450000000414],[38.0795700000001,40.89618000000007],[38.07890000000009,40.895740000000615],[38.07882000000018,40.89551000000006],[38.07859000000019,40.8953400000002],[38.078580000000045,40.89505000000037],[38.078850000000216,40.89458000000019],[38.0784000000001,40.893940000000214],[38.07804000000016,40.89377000000036],[38.07798000000014,40.89362000000017],[38.07806000000022,40.89318000000054],[38.077580000000125,40.892950000000155],[38.0772300000001,40.89254000000017],[38.07694000000009,40.89235000000008],[38.07683000000003,40.89213000000035],[38.076350000000105,40.891770000000406],[38.07630000000006,40.89132000000012],[38.07589000000007,40.89108000000016],[38.07531000000006,40.8904500000001],[38.07509000000016,40.88973000000004],[38.075420000000065,40.88891000000041],[38.07522000000006,40.88860000000034],[38.074860000000115,40.888390000000186],[38.07459000000017,40.887590000000046],[38.07425000000006,40.887340000000506],[38.07422000000008,40.88718000000006],[38.073310000000106,40.88630000000006],[38.07276000000007,40.885640000000535],[38.0727100000002,40.88537000000025],[38.071910000000116,40.88470000000024],[38.07143000000019,40.88417000000027],[38.07137000000017,40.88369000000034],[38.07079000000016,40.88317000000012],[38.070560000000114,40.882700000000284],[38.069910000000164,40.882040000000416],[38.06992000000014,40.881610000000364],[38.070034782185644,40.88127260404099],[38.07970932400008,40.87836298299999],[38.083725672000185,40.879311810000104],[38.08388378300003,40.87924359600032],[38.083967459000064,40.8793690550001],[38.0908003940001,40.880983516000185],[38.09221328699999,40.88153802800042],[38.092999774000134,40.883092069000156]]],"type":"Polygon"}},{"type":"Feature","properties":{"area_id":"TR-28-013-2014751","name_tr":"Hasanşeyh Köyü","area_level":"neighbourhood","parent_id":"TR-28-013","endeksa_id":2014751},"geometry":{"coordinates":[[[38.13135362700018,40.89447346200012],[38.13087350799998,40.89391391800018],[38.12827511000012,40.89347229200007],[38.12874449500015,40.895105742],[38.126119436000124,40.89613639850023],[38.12750376900016,40.89833187000016],[38.12188841100004,40.898723721000124],[38.121648248000156,40.89870279600012],[38.12107419700004,40.897347884000055],[38.12117326500004,40.897060078000095],[38.118340839000155,40.890751508000335],[38.1071051670001,40.88165257700007],[38.10665021300008,40.879731548000166],[38.10671116499998,40.87965888800005],[38.109840220000194,40.87978228200063],[38.111737669000036,40.87981844100034],[38.11651820000009,40.87712490100023],[38.12341817100014,40.876684146000116],[38.126189601000135,40.878345126000056],[38.126590229000044,40.8825991290002],[38.12550798700005,40.884104635000085],[38.125410853000176,40.88460030400012],[38.13182767100017,40.890347756000324],[38.13135362700018,40.89447346200012]]],"type":"Polygon"}},{"type":"Feature","properties":{"area_id":"TR-28-013-2014741","name_tr":"Alidede Köyü","area_level":"neighbourhood","parent_id":"TR-28-013","endeksa_id":2014741},"geometry":{"coordinates":[[[38.12005893000014,40.9033542250001],[38.12000711500019,40.903490471],[38.10751607000009,40.90088482500005],[38.10466359900005,40.897243865000064],[38.099569556000176,40.89114104900068],[38.10131219700003,40.882416896000166],[38.10439977500005,40.88253520100005],[38.10665021300008,40.879731548000166],[38.1071051670001,40.88165257700007],[38.118340839000155,40.890751508000335],[38.12117326500004,40.897060078000095],[38.12107419700004,40.897347884000055],[38.121648248000156,40.89870279600012],[38.12188841100004,40.898723721000124],[38.120815728000025,40.90207504700015],[38.12073368199998,40.901958079000224],[38.120569566000086,40.90201127600045],[38.12005893000014,40.9033542250001]]],"type":"Polygon"}},{"type":"Feature","properties":{"area_id":"TR-28-013-2014750","name_tr":"Güneyköy Köyü","area_level":"neighbourhood","parent_id":"TR-28-013","endeksa_id":2014750},"geometry":{"coordinates":[[[38.07906621365396,40.89883494054925],[38.078998320832284,40.8987306496569],[38.07884670837899,40.89871294329447],[38.07863000000009,40.89894000000038],[38.078860000000134,40.89938000000052],[38.07809000000003,40.89926000000054],[38.07736000000017,40.899330000000646],[38.076160000000186,40.89929000000018],[38.07590000000016,40.89968000000033],[38.07565000000011,40.89957000000061],[38.075260000000185,40.89975000000004],[38.07484000000005,40.89962000000048],[38.07471000000015,40.899800000000084],[38.07451000000009,40.89979000000034],[38.07422000000008,40.899730000000375],[38.07375000000013,40.899450000000115],[38.072970000000055,40.899580000000185],[38.07247000000007,40.89925000000028],[38.07220000000012,40.89921000000015],[38.07061000000016,40.89854000000014],[38.069410000000175,40.89818000000071],[38.068980000000124,40.89791000000042],[38.06806000000006,40.8978500000004],[38.06765000000007,40.89764000000008],[38.06754000000018,40.89774000000017],[38.06729000000013,40.89761000000044],[38.06697000000008,40.89760000000035],[38.06548000000009,40.89850000000018],[38.065080000000194,40.898590000000524],[38.06449000000009,40.89851000000033],[38.06391000000025,40.89897000000019],[38.06317000000013,40.89919000000043],[38.063190000000134,40.899020000000064],[38.063000000000045,40.898920000000146],[38.06292000000019,40.8985600000002],[38.06181000000004,40.89805000000007],[38.06074000000012,40.89852000000042],[38.06053000000014,40.898120000000176],[38.06036000000012,40.898000000000195],[38.05951000000016,40.89777000000021],[38.05901000000017,40.89777000000021],[38.058540000000164,40.89795000000015],[38.058220000000176,40.89786000000038],[38.05787000000015,40.89751000000069],[38.05667000000017,40.89774000000017],[38.05565000000013,40.89764000000008],[38.05532000000022,40.8971700000003],[38.05342000000019,40.89602000000036],[38.053330000000244,40.89573000000013],[38.05281000000019,40.89504000000028],[38.05291000000011,40.89482000000015],[38.05322000000018,40.89458000000019],[38.05325000000016,40.89435000000071],[38.052990000000136,40.89386000000013],[38.052560000000085,40.89333000000016],[38.05227000000008,40.89312000000041],[38.05208000000016,40.89315000000022],[38.053180000000054,40.88843000000031],[38.053090000000054,40.886200000000144],[38.053610000000106,40.884060000000545],[38.05378000000013,40.88244000000009],[38.056860000000086,40.879190000000335],[38.05916000000013,40.87748000000039],[38.06072000000006,40.87482000000057],[38.061080000000175,40.87502000000006],[38.06192000000004,40.87520000000006],[38.062660000000164,40.87562000000014],[38.06310000000019,40.87572000000006],[38.06474000000014,40.87671000000012],[38.0648700000001,40.876900000000035],[38.06597000000016,40.87762000000009],[38.067210000000046,40.877990000000125],[38.06781000000012,40.87831000000017],[38.06827000000021,40.87835000000007],[38.068480000000136,40.878580000000454],[38.06887000000012,40.87855000000013],[38.06973000000022,40.87907000000013],[38.070370000000196,40.87929000000025],[38.070460000000196,40.87952000000007],[38.07038000000017,40.87970000000007],[38.07041000000015,40.87992000000048],[38.07059000000015,40.880410000000154],[38.07011000000023,40.880990000000224],[38.070034782185644,40.88127260404099],[38.06992000000014,40.881610000000364],[38.069910000000164,40.882040000000416],[38.070560000000114,40.882700000000284],[38.07079000000016,40.88317000000012],[38.07137000000017,40.88369000000034],[38.07143000000019,40.88417000000027],[38.071910000000116,40.88470000000024],[38.0727100000002,40.88537000000025],[38.07276000000007,40.885640000000535],[38.073310000000106,40.88630000000006],[38.07422000000008,40.88718000000006],[38.07425000000006,40.887340000000506],[38.07459000000017,40.887590000000046],[38.074860000000115,40.888390000000186],[38.07522000000006,40.88860000000034],[38.075420000000065,40.88891000000041],[38.07509000000016,40.88973000000004],[38.07531000000006,40.8904500000001],[38.07589000000007,40.89108000000016],[38.07630000000006,40.89132000000012],[38.076350000000105,40.891770000000406],[38.07683000000003,40.89213000000035],[38.07694000000009,40.89235000000008],[38.0772300000001,40.89254000000017],[38.077580000000125,40.892950000000155],[38.07806000000022,40.89318000000054],[38.07798000000014,40.89362000000017],[38.07804000000016,40.89377000000036],[38.0784000000001,40.893940000000214],[38.078850000000216,40.89458000000019],[38.078580000000045,40.89505000000037],[38.07859000000019,40.8953400000002],[38.07882000000018,40.89551000000006],[38.07890000000009,40.895740000000615],[38.0795700000001,40.89618000000007],[38.07962000000015,40.896450000000414],[38.0794615910001,40.89705205300004],[38.07906621365396,40.89883494054925]]],"type":"Polygon"}},{"type":"Feature","properties":{"area_id":"TR-28-013-30864","name_tr":"Etlikkıran","area_level":"neighbourhood","parent_id":"TR-28-013","endeksa_id":30864},"geometry":{"coordinates":[[[38.10222014800013,40.90685389300012],[38.09933903700005,40.910459484000285],[38.09383591400007,40.91171101000009],[38.094199941000056,40.91454666699997],[38.091335693000076,40.91424940200034],[38.090511997000135,40.916311075000124],[38.08854779200004,40.914323170000046],[38.08708865099999,40.912187071000176],[38.093376117000105,40.90889871300055],[38.09596041200018,40.9095321260001],[38.096101648000115,40.90554094500055],[38.09322815500013,40.90565480600014],[38.09252551800017,40.903407758000355],[38.09405108200008,40.90235851300014],[38.09855906200005,40.90479487800019],[38.09975773689041,40.90334575246243],[38.09996718589059,40.90330513043665],[38.10005734664878,40.90344006087895],[38.09964123600008,40.90458361900039],[38.10222014800013,40.90685389300012]]],"type":"Polygon"}},{"type":"Feature","properties":{"area_id":"TR-28-013-2014749","name_tr":"Gökçeali Köyü","area_level":"neighbourhood","parent_id":"TR-28-013","endeksa_id":2014749},"geometry":{"coordinates":[[[38.090511997000135,40.916311075000124],[38.08720915500004,40.9173081630002],[38.08721951100017,40.91707436100057],[38.08829666400004,40.91574022400005],[38.08813183299998,40.91484929400008],[38.08685352200018,40.913851917000045],[38.08645254400005,40.91272996100065],[38.08655011700006,40.91211556500008],[38.08634262700008,40.91127180700062],[38.083337033000134,40.90618414800002],[38.07929404599997,40.90430438600015],[38.079129882000075,40.904343657000254],[38.07891853799998,40.904772963000426],[38.07907737800019,40.9042768700005],[38.07903229200019,40.90418593100003],[38.07480582800008,40.9019566070001],[38.074731766000184,40.90179844800025],[38.07478527600017,40.90170261500003],[38.07903899700011,40.899571909000144],[38.07906621365396,40.89883494054925],[38.0794615910001,40.89705205300004],[38.08609510400015,40.893677653000054],[38.087755300000026,40.89015396400009],[38.09090809100019,40.88957626600012],[38.091166792000024,40.88877429700011],[38.09144903200013,40.888660515000254],[38.09317952200013,40.883447238000144],[38.092999774000134,40.883092069000156],[38.09316094000019,40.88259245600011],[38.09460988800015,40.88256316200051],[38.095583457000146,40.88791420700068],[38.09631412700003,40.88825043300011],[38.099463768000135,40.89070811700003],[38.099480954000114,40.89062861300056],[38.0996331180001,40.890822839000464],[38.099569556000176,40.89114104900068],[38.10466359900005,40.897243865000064],[38.10751607000009,40.90088482500005],[38.12000711500019,40.903490471],[38.12005893000014,40.9033542250001],[38.12044216800001,40.90342967600003],[38.12050058200009,40.906657333000055],[38.11516026800018,40.90636917000006],[38.11500560200017,40.90651168800014],[38.10944913400016,40.906316323000226],[38.10943098200005,40.90665486000012],[38.10222014800013,40.90685389300012],[38.09964123600008,40.90458361900039],[38.10005734664878,40.90344006087895],[38.09996718589059,40.90330513043665],[38.09975773689041,40.90334575246243],[38.09855906200005,40.90479487800019],[38.09405108200008,40.90235851300014],[38.09252551800017,40.903407758000355],[38.09322815500013,40.90565480600014],[38.096101648000115,40.90554094500055],[38.09596041200018,40.9095321260001],[38.093376117000105,40.90889871300055],[38.08708865099999,40.912187071000176],[38.08854779200004,40.914323170000046],[38.090511997000135,40.916311075000124]]],"type":"Polygon"}},{"type":"Feature","properties":{"area_id":"TR-28-013-2014753","name_tr":"Narlık Köyü","area_level":"neighbourhood","parent_id":"TR-28-013","endeksa_id":2014753},"geometry":{"coordinates":[[[38.13815805799999,40.91899141500005],[38.13799191700019,40.91957188300012],[38.13173999100019,40.91653140000017],[38.131937920000155,40.91624273200006],[38.132099573999994,40.91567803400005],[38.13067591300006,40.91612629200006],[38.13023037000005,40.91488832400012],[38.130075749000184,40.91484517099997],[38.12917700300005,40.91233996700004],[38.12445708500013,40.90900494700014],[38.12372828200017,40.90782928800007],[38.121754810000084,40.90510002600007],[38.12050058200009,40.906657333000055],[38.12044216800001,40.90342967600003],[38.12005893000014,40.9033542250001],[38.120569566000086,40.90201127600045],[38.12073368199998,40.901958079000224],[38.120815728000025,40.90207504700015],[38.12188841100004,40.898723721000124],[38.12750376900016,40.89833187000016],[38.126119436000124,40.89613639850023],[38.12874449500015,40.895105742],[38.12827511000012,40.89347229200007],[38.13087350799998,40.89391391800018],[38.1335238640001,40.897029493000105],[38.13445652800016,40.90078960500017],[38.134666428000116,40.901057132000005],[38.13534385200006,40.90360635900004],[38.13983326700014,40.90631775900016],[38.14062844800014,40.907129908000115],[38.14364974199998,40.90905757300004],[38.143500921000054,40.91006367500012],[38.14397187800017,40.91054468200008],[38.144137716000046,40.91046092900012],[38.14300483200009,40.9134174680006],[38.138624919000165,40.91693363600007],[38.13815805799999,40.91899141500005]]],"type":"Polygon"}},{"type":"Feature","properties":{"area_id":"TR-28-013-2014755","name_tr":"Nefsi Piraziz Köyü","area_level":"neighbourhood","parent_id":"TR-28-013","endeksa_id":2014755},"geometry":{"coordinates":[[[38.14173786900017,40.92615287300015],[38.13121940700012,40.92760419600006],[38.131014907000065,40.92489158500007],[38.12648100500007,40.92590075400017],[38.12460645747524,40.922874568157624],[38.124395596797854,40.92282223873843],[38.12430240265286,40.922971411109245],[38.12373603200007,40.92146784400006],[38.11590726000014,40.91970667900006],[38.11595750700013,40.92035061200016],[38.114810636000186,40.91749227499997],[38.11671671500005,40.915458421000096],[38.11250133400006,40.91313106700011],[38.11216802200005,40.91161348600019],[38.11225869300017,40.911467286000175],[38.11203682199999,40.909809401000075],[38.11486868000003,40.90650687499999],[38.11500560200017,40.90651168800014],[38.11516026800018,40.90636917000006],[38.12050058200009,40.906657333000055],[38.121754810000084,40.90510002600007],[38.12372828200017,40.90782928800007],[38.12445708500013,40.90900494700014],[38.12917700300005,40.91233996700004],[38.130075749000184,40.91484517099997],[38.13023037000005,40.91488832400012],[38.13067591300006,40.91612629200006],[38.132099573999994,40.91567803400005],[38.131937920000155,40.91624273200006],[38.13173999100019,40.91653140000017],[38.13799191700019,40.91957188300012],[38.13815805799999,40.91899141500005],[38.13803105400018,40.91963315400028],[38.139601506000076,40.9218063240005],[38.13972930600016,40.922178374000055],[38.13970850700014,40.922346175000314],[38.1388989350001,40.92313345900044],[38.14008076200008,40.92422430500028],[38.14015556099997,40.92460168400015],[38.14173786900017,40.92615287300015]]],"type":"Polygon"}},{"type":"Feature","properties":{"area_id":"TR-28-013-30868","name_tr":"Şeyhli","area_level":"neighbourhood","parent_id":"TR-28-013","endeksa_id":30868},"geometry":{"coordinates":[[[38.108635942589046,40.92894805591993],[38.10678565900014,40.92961427500006],[38.10727217700003,40.930058536000104],[38.10691239100015,40.9303511770006],[38.106394545000114,40.92995029500014],[38.101970262000066,40.9343709780004],[38.10160848400011,40.93466523900014],[38.09995250800006,40.93282517800003],[38.09989319500005,40.93220129100001],[38.10020037900006,40.93172281100004],[38.10025471300014,40.930910766000125],[38.09956930300007,40.93019385900004],[38.09931914400005,40.92819536000013],[38.09927846000005,40.92802099100004],[38.09899156700004,40.927644221000094],[38.0982965770001,40.9273370700007],[38.09546967100016,40.9267321610003],[38.094396138000036,40.92641509800012],[38.09106699700004,40.923605940000186],[38.09004853000005,40.92336594500017],[38.0900491160001,40.92240355500007],[38.08942267800012,40.922374675000185],[38.08725690200015,40.92121554200014],[38.08675800100019,40.920228402000134],[38.08689833000017,40.91977400800039],[38.08802874600008,40.919039526000006],[38.08844676000001,40.91857592200006],[38.08844061300016,40.91845822400023],[38.08720915500004,40.9173081630002],[38.090511997000135,40.916311075000124],[38.091335693000076,40.91424940200034],[38.094199941000056,40.91454666699997],[38.09383591400007,40.91171101000009],[38.09933903700005,40.910459484000285],[38.10222014800013,40.90685389300012],[38.10943098200005,40.90665486000012],[38.10944913400016,40.906316323000226],[38.11486868000003,40.90650687499999],[38.11203682199999,40.909809401000075],[38.11225869300017,40.911467286000175],[38.11216802200005,40.91161348600019],[38.11250133400006,40.91313106700011],[38.11671671500005,40.915458421000096],[38.114810636000186,40.91749227499997],[38.11678454800011,40.92241183900006],[38.11652029413648,40.928866537444264],[38.116120000000194,40.92863000000057],[38.11608000000007,40.92843000000039],[38.115930000000105,40.92837000000037],[38.11570000000006,40.92800000000034],[38.11484000000013,40.927580000000376],[38.114660000000185,40.92766000000006],[38.11422000000016,40.92744000000016],[38.11400000000009,40.92717000000005],[38.1136800000001,40.92713000000009],[38.11347000000012,40.927180000000135],[38.1131900000002,40.92750000000018],[38.11189000000013,40.92751000000027],[38.11186000000015,40.927770000000464],[38.111940000000175,40.92801000000043],[38.11173000000019,40.9280200000004],[38.111600000000124,40.9283200000005],[38.110970000000236,40.92836000000028],[38.11063000000013,40.928080000000534],[38.10988000000009,40.92801000000043],[38.108635942589046,40.92894805591993]]],"type":"Polygon"}},{"type":"Feature","properties":{"area_id":"TR-28-013-2014745","name_tr":"Bülbüllü Köyü","area_level":"neighbourhood","parent_id":"TR-28-013","endeksa_id":2014745},"geometry":{"coordinates":[[[38.16229689400012,40.93049518999999],[38.15967543400012,40.92887006600017],[38.153912904000094,40.927715947000024],[38.15477080200003,40.92914199600011],[38.15239553800012,40.9331736100001],[38.15211630900018,40.933236916],[38.15041575200007,40.9359307900005],[38.14908748100004,40.934200670000166],[38.148651480000126,40.93426938300007],[38.146264357000064,40.93174736000003],[38.14642510900006,40.93127865800034],[38.14173786900017,40.92615287300015],[38.14015556099997,40.92460168400015],[38.14008076200008,40.92422430500028],[38.1388989350001,40.92313345900044],[38.13970850700014,40.922346175000314],[38.13972930600016,40.922178374000055],[38.139601506000076,40.9218063240005],[38.13803105400018,40.91963315400028],[38.13815805799999,40.91899141500005],[38.138624919000165,40.91693363600007],[38.14300483200009,40.9134174680006],[38.14424416700007,40.91018132500045],[38.14485768100019,40.91009732599997],[38.146766933000094,40.90913309900009],[38.14670668600013,40.90945675900036],[38.147552942000175,40.909353808000105],[38.14808252500006,40.90965580000022],[38.151369147000025,40.909205815000064],[38.157004939000046,40.91221614200015],[38.15721823500007,40.92131573300014],[38.16304747800001,40.92861345099999],[38.16229689400012,40.93049518999999]]],"type":"Polygon"}},{"type":"Feature","properties":{"area_id":"TR-28-013-30869","name_tr":"Şıhkıran","area_level":"neighbourhood","parent_id":"TR-28-013","endeksa_id":30869},"geometry":{"coordinates":[[[38.12430240265286,40.922971411109245],[38.12448854500008,40.92347857600066],[38.12259012400011,40.92425213900009],[38.12656234500008,40.92751127500014],[38.12569508399997,40.92947005400026],[38.12718818900015,40.93610215300038],[38.12792207702836,40.93617052681827],[38.12669000000005,40.93612000000019],[38.11777000000012,40.93457000000035],[38.11759000000012,40.934300000000064],[38.117450000000076,40.93385000000046],[38.11696000000006,40.933430000000385],[38.11687000000006,40.93296000000004],[38.11705000000023,40.9327100000001],[38.117020000000196,40.93255000000022],[38.116680000000144,40.93194000000017],[38.11684000000008,40.93183000000033],[38.116890000000126,40.93168000000014],[38.11676000000017,40.93141000000037],[38.11683000000011,40.9313200000002],[38.11619000000013,40.9310200000001],[38.116460000000075,40.93026000000043],[38.116370000000074,40.93013000000036],[38.11656000000016,40.92928000000035],[38.11652029413648,40.928866537444264],[38.11678454800011,40.92241183900006],[38.11595750700013,40.92035061200016],[38.11590726000014,40.91970667900006],[38.12373603200007,40.92146784400006],[38.12430240265286,40.922971411109245]]],"type":"Polygon"}},{"type":"Feature","properties":{"area_id":"TR-28-013-30865","name_tr":"Kaleyanı","area_level":"neighbourhood","parent_id":"TR-28-013","endeksa_id":30865},"geometry":{"coordinates":[[[38.115930000000105,40.92837000000037],[38.11608000000007,40.92843000000039],[38.116120000000194,40.92863000000057],[38.11652029413648,40.928866537444264],[38.11656000000016,40.92928000000035],[38.116370000000074,40.93013000000036],[38.116460000000075,40.93026000000043],[38.11619000000013,40.9310200000001],[38.11683000000011,40.9313200000002],[38.11676000000017,40.93141000000037],[38.116890000000126,40.93168000000014],[38.11684000000008,40.93183000000033],[38.116680000000144,40.93194000000017],[38.117020000000196,40.93255000000022],[38.11705000000023,40.9327100000001],[38.11687000000006,40.93296000000004],[38.11696000000006,40.933430000000385],[38.117450000000076,40.93385000000046],[38.11759000000012,40.934300000000064],[38.11777000000012,40.93457000000035],[38.12669000000005,40.93612000000019],[38.12986000000018,40.936250000000086],[38.13047000000017,40.937980000000266],[38.13039000000015,40.93816000000038],[38.13029000000023,40.93932000000029],[38.12757421725877,40.93992786472933],[38.12149000000005,40.94045000000017],[38.118910000000085,40.941300000000126],[38.11656000000016,40.94174000000032],[38.113003763117604,40.94201970402486],[38.11274000000009,40.94184000000007],[38.112560000000144,40.94063000000011],[38.11100000000005,40.93983000000071],[38.11084000000011,40.93970000000007],[38.110700000000065,40.93911000000014],[38.11033000000003,40.93863000000022],[38.10979000000009,40.938240000000064],[38.109340000000145,40.938050000000146],[38.1092500000002,40.93701000000044],[38.1095600000001,40.9359300000001],[38.1092900000001,40.934820000000286],[38.108870000000195,40.93415000000027],[38.10951000000023,40.93314000000015],[38.10963000000021,40.93283000000008],[38.10960000000017,40.93241000000069],[38.10917000000012,40.93165000000033],[38.10917000000012,40.931450000000154],[38.108900000000176,40.930800000000374],[38.10871000000009,40.93047000000007],[38.10840000000019,40.93019000000032],[38.10796000000005,40.9294500000002],[38.108690000000195,40.92939000000024],[38.10881917773861,40.929371531353866],[38.10861911654041,40.92934480554226],[38.108487027812544,40.929223358480954],[38.108490953043315,40.92906827460672],[38.10863486633798,40.92894846409854],[38.10988000000009,40.92801000000043],[38.11063000000013,40.928080000000534],[38.110970000000236,40.92836000000028],[38.111600000000124,40.9283200000005],[38.11173000000019,40.9280200000004],[38.111940000000175,40.92801000000043],[38.11186000000015,40.927770000000464],[38.11189000000013,40.92751000000027],[38.1131900000002,40.92750000000018],[38.11347000000012,40.927180000000135],[38.1136800000001,40.92713000000009],[38.11400000000009,40.92717000000005],[38.11422000000016,40.92744000000016],[38.114660000000185,40.92766000000006],[38.11484000000013,40.927580000000376],[38.11570000000006,40.92800000000034],[38.115930000000105,40.92837000000037]]],"type":"Polygon"}},{"type":"Feature","properties":{"area_id":"TR-28-013-30866","name_tr":"Kargı","area_level":"neighbourhood","parent_id":"TR-28-013","endeksa_id":30866},"geometry":{"coordinates":[[[38.1356955330001,40.9403546960001],[38.133840287000055,40.94330627000039],[38.133691363000025,40.94331864000003],[38.13123557400013,40.942251935000286],[38.13034202400007,40.943958022000174],[38.128599757000075,40.940705000000094],[38.1279216210001,40.94057385299999],[38.12757421725877,40.93992786472933],[38.13029000000023,40.93932000000029],[38.13039000000015,40.93816000000038],[38.13047000000017,40.937980000000266],[38.12986000000018,40.936250000000086],[38.12792207702836,40.93617052681827],[38.12718818900015,40.93610215300038],[38.12569508399997,40.92947005400026],[38.12656234500008,40.92751127500014],[38.12259012400011,40.92425213900009],[38.12448854500008,40.92347857600066],[38.12430240265286,40.922971411109245],[38.124395596797854,40.92282223873843],[38.12460645747524,40.922874568157624],[38.12648100500007,40.92590075400017],[38.131014907000065,40.92489158500007],[38.13121940700012,40.92760419600006],[38.14173786900017,40.92615287300015],[38.14642510900006,40.93127865800034],[38.146264357000064,40.93174736000003],[38.148651480000126,40.93426938300007],[38.14422459700006,40.935022098000275],[38.14417823600019,40.93516640400031],[38.14404518400005,40.93519308500015],[38.14206847900016,40.94117519900004],[38.140158098000086,40.94175333900006],[38.139775922000126,40.939021869000044],[38.13966898600012,40.93893645500009],[38.13622505300003,40.93955694100009],[38.1356955330001,40.9403546960001]]],"type":"Polygon"}},{"type":"Feature","properties":{"area_id":"TR-28-013-30862","name_tr":"Aydere","area_level":"neighbourhood","parent_id":"TR-28-013","endeksa_id":30862},"geometry":{"coordinates":[[[38.11169804300016,40.95036313800006],[38.111655022000036,40.951180540000166],[38.110714598000015,40.95087030400043],[38.109774501000174,40.949623051000174],[38.10693646200008,40.948801503000084],[38.10615597200018,40.94741364000009],[38.10595413500005,40.94485048600012],[38.104044723000186,40.94372201400017],[38.10402733700016,40.94317658400013],[38.10475106000007,40.94180661800016],[38.10348814500014,40.94153534100013],[38.102953316000026,40.941217827000344],[38.10209377700005,40.94044795200068],[38.10144745900004,40.93944163900011],[38.10157727000001,40.937865628],[38.10207342800004,40.936883132000105],[38.102127272000075,40.935765756000194],[38.101542926000036,40.934592393000514],[38.10160848400011,40.93466523900014],[38.101970262000066,40.9343709780004],[38.106394545000114,40.92995029500014],[38.10691239100015,40.9303511770006],[38.10727217700003,40.930058536000104],[38.10678565900014,40.92961427500006],[38.108635942589046,40.92894805591993],[38.108490953043315,40.92906827460672],[38.108487027812544,40.929223358480954],[38.10861911654041,40.92934480554226],[38.10881981709065,40.929371454701936],[38.108690000000195,40.92939000000024],[38.10796000000005,40.9294500000002],[38.10840000000019,40.93019000000032],[38.10871000000009,40.93047000000007],[38.108900000000176,40.930800000000374],[38.10917000000012,40.931450000000154],[38.10917000000012,40.93165000000033],[38.10960000000017,40.93241000000069],[38.10963000000021,40.93283000000008],[38.10951000000023,40.93314000000015],[38.108870000000195,40.93415000000027],[38.1092900000001,40.934820000000286],[38.1095600000001,40.9359300000001],[38.1092500000002,40.93701000000044],[38.109340000000145,40.938050000000146],[38.10979000000009,40.938240000000064],[38.11033000000003,40.93863000000022],[38.110700000000065,40.93911000000014],[38.11084000000011,40.93970000000007],[38.11100000000005,40.93983000000071],[38.112560000000144,40.94063000000011],[38.11274000000009,40.94184000000007],[38.113003763117604,40.94201970402486],[38.11480678200007,40.942878515000075],[38.11496817100016,40.94424945200012],[38.115719377000175,40.94572299000015],[38.11569959800005,40.947482689000026],[38.11557731933709,40.94849337296586],[38.11400301700007,40.948029330000054],[38.11270263500012,40.94930273600005],[38.112697395000055,40.94945302600058],[38.11191949400006,40.95030127600006],[38.11179418500012,40.95026165500008],[38.11169804300016,40.95036313800006]]],"type":"Polygon"}},{"type":"Feature","properties":{"area_id":"TR-28-013-30867","name_tr":"Maden","area_level":"neighbourhood","parent_id":"TR-28-013","endeksa_id":30867},"geometry":{"coordinates":[[[38.16809540600008,40.946378001000085],[38.16573400800007,40.94661488600059],[38.162574434000135,40.94754833100046],[38.161749742000154,40.949485505000155],[38.160820624000166,40.94996208900034],[38.1578164340001,40.95012829400014],[38.152018511999984,40.95085553900003],[38.15148628000003,40.951128169000185],[38.15163958400012,40.95173726200022],[38.15081764900003,40.95202792500038],[38.1509082610001,40.95285219200014],[38.150774560000116,40.95333334500003],[38.1503087640001,40.95356466600043],[38.142059769000184,40.95284924200007],[38.138550783000085,40.95303734000032],[38.13839217200018,40.94893869200013],[38.13818538000015,40.94796984600043],[38.1367583330001,40.94212526700011],[38.1356955330001,40.9403546960001],[38.13622505300003,40.93955694100009],[38.13966898600012,40.93893645500009],[38.139775922000126,40.939021869000044],[38.140158098000086,40.94175333900006],[38.14206847900016,40.94117519900004],[38.14404518400005,40.93519308500015],[38.14417823600019,40.93516640400031],[38.14422459700006,40.935022098000275],[38.148651480000126,40.93426938300007],[38.14908748100004,40.934200670000166],[38.15041575200007,40.9359307900005],[38.15211630900018,40.933236916],[38.15239553800012,40.9331736100001],[38.15477080200003,40.92914199600011],[38.153912904000094,40.927715947000024],[38.15967543400012,40.92887006600017],[38.16596558700019,40.932769527000175],[38.166023788000075,40.93298590100011],[38.16616818400013,40.93305932000004],[38.167469968000034,40.93828225200019],[38.16626772400019,40.941496487000165],[38.16798759500011,40.94626297100069],[38.16808892500018,40.94623153900022],[38.16809540600008,40.946378001000085]]],"type":"Polygon"}},{"type":"Feature","properties":{"area_id":"TR-28-013-30870","name_tr":"Yeni","area_level":"neighbourhood","parent_id":"TR-28-013","endeksa_id":30870},"geometry":{"coordinates":[[[38.138550783000085,40.95303734000032],[38.13775259900012,40.95285827000009],[38.132540248000055,40.95316794600029],[38.13151323000017,40.953390679000336],[38.130953642000065,40.95327124400012],[38.12596601600001,40.95368422500064],[38.123581816191574,40.95418726476589],[38.12375000000014,40.954870000000255],[38.1237900000001,40.95511000000022],[38.12385000000029,40.95538000000016],[38.123960000000125,40.95576000000034],[38.123960000000125,40.95590000000021],[38.12385000000029,40.9560000000003],[38.1236600000002,40.95603000000017],[38.12350000000009,40.956020000000365],[38.12339000000003,40.955920000000276],[38.12336000000005,40.95584000000025],[38.12336000000005,40.9557200000001],[38.12346000000014,40.955620000000124],[38.12346000000014,40.955520000000035],[38.123340000000155,40.9551400000002],[38.12326000000013,40.95504000000011],[38.1230276389561,40.95430419002753],[38.12288717199999,40.95433382700003],[38.12233365800006,40.954289255000106],[38.12199687000009,40.95360860400069],[38.12043061500003,40.95316977499999],[38.11964870500003,40.95306560800003],[38.11917606499998,40.95349738900046],[38.11863198100008,40.953562648000116],[38.117866325000136,40.95257496900052],[38.11654729800017,40.95142355100029],[38.11609129300018,40.950607327000114],[38.115674241000136,40.94924375100004],[38.11568231609823,40.94859715124977],[38.11557731933709,40.94849337296586],[38.11569959800005,40.947482689000026],[38.115719377000175,40.94572299000015],[38.11496817100016,40.94424945200012],[38.11480678200007,40.942878515000075],[38.113003763117604,40.94201970402486],[38.11656000000016,40.94174000000032],[38.118910000000085,40.941300000000126],[38.12149000000005,40.94045000000017],[38.12757421725877,40.93992786472933],[38.1279216210001,40.94057385299999],[38.128599757000075,40.940705000000094],[38.13034202400007,40.943958022000174],[38.13123557400013,40.942251935000286],[38.133691363000025,40.94331864000003],[38.133840287000055,40.94330627000039],[38.1356955330001,40.9403546960001],[38.1367583330001,40.94212526700011],[38.13818538000015,40.94796984600043],[38.13839217200018,40.94893869200013],[38.138550783000085,40.95303734000032]]],"type":"Polygon"}},{"type":"Feature","properties":{"area_id":"TR-28-013-30863","name_tr":"Eren","area_level":"neighbourhood","parent_id":"TR-28-013","endeksa_id":30863},"geometry":{"coordinates":[[[38.12233365800006,40.954289255000106],[38.12143952500003,40.95495914000003],[38.11996199212621,40.95682165511829],[38.120150000000194,40.95687000000021],[38.12131000000005,40.95700000000028],[38.121730000000184,40.9569700000003],[38.12178000000006,40.95687000000021],[38.1225300000001,40.95691000000028],[38.1225300000001,40.9569700000003],[38.122720000000186,40.95700000000028],[38.123090000000104,40.95699000000019],[38.12367000000012,40.956940000000145],[38.12373000000014,40.95692000000008],[38.123990000000106,40.95675000000023],[38.12415000000004,40.956660000000056],[38.12429000000009,40.956820000000164],[38.12453000000005,40.95690000000036],[38.12469000000016,40.95702000000034],[38.12471000000039,40.95714000000032],[38.12456000000003,40.957250000000215],[38.12443000000013,40.95730000000026],[38.124180000000194,40.957320000000095],[38.12345000000005,40.957290000000114],[38.12324000000007,40.95731000000035],[38.123000000000104,40.95731000000035],[38.12277000000006,40.957320000000095],[38.12232000000017,40.957320000000095],[38.12205000000017,40.95730000000026],[38.12162000000012,40.95731000000035],[38.12138000000016,40.957290000000114],[38.121140000000025,40.9572600000003],[38.12093000000027,40.95727000000022],[38.120710000000145,40.9572600000003],[38.120550000000094,40.95723000000015],[38.120360000000176,40.95718000000011],[38.12019000000015,40.957190000000196],[38.119960000000106,40.95714000000032],[38.11981000000014,40.957130000000234],[38.119439939350286,40.95702541764285],[38.11870588000011,40.957161725000105],[38.11805937100013,40.95757409900011],[38.117334016000086,40.957867463000014],[38.11384524699997,40.958177868000064],[38.11400039200015,40.95739302300001],[38.11518946400008,40.95680051200014],[38.11437659900008,40.955765477],[38.114460935000125,40.95481154400039],[38.11511672300003,40.954033989000095],[38.11524387500009,40.95353922100037],[38.11460105100019,40.95327385600035],[38.11260619700016,40.95337246300011],[38.112202785000136,40.95319481400003],[38.11215098500014,40.9521541040001],[38.11240014100014,40.95168735400017],[38.11206020200018,40.951315083000054],[38.111655022000036,40.951180540000166],[38.11169804300016,40.95036313800006],[38.11179418500012,40.95026165500008],[38.11191949400006,40.95030127600006],[38.112697395000055,40.94945302600058],[38.11270263500012,40.94930273600005],[38.11400301700007,40.948029330000054],[38.11557731933709,40.94849337296586],[38.11568231609823,40.94859715124977],[38.115674241000136,40.94924375100004],[38.11609129300018,40.950607327000114],[38.11654729800017,40.95142355100029],[38.117866325000136,40.95257496900052],[38.11863198100008,40.953562648000116],[38.11917606499998,40.95349738900046],[38.11964870500003,40.95306560800003],[38.12043061500003,40.95316977499999],[38.12199687000009,40.95360860400069],[38.12233365800006,40.954289255000106]]],"type":"Polygon"}}]}