{"type":"FeatureCollection","source_id":"endeksa","retrieved_at":"2026-08-23","features":[{"type":"Feature","properties":{"area_id":"TR-28-008-2014623","name_tr":"Yarımca Köyü","area_level":"neighbourhood","parent_id":"TR-28-008","endeksa_id":2014623},"geometry":{"coordinates":[[[39.15163432012116,40.95950721645801],[39.15162485177666,40.959395661553856],[39.15150612603611,40.95933412556582],[39.15117790500017,40.95945502000001],[39.15121320000014,40.95957410000045],[39.150173100000075,40.96110940000011],[39.14884300000017,40.9624675000004],[39.14631490000005,40.962512000000174],[39.145746200000076,40.96378010000029],[39.14579870000017,40.964654200000496],[39.14453080000004,40.966090301000065],[39.144354700000065,40.967313600000125],[39.1431573000001,40.96864330000051],[39.143300099999976,40.97127430000006],[39.136722800000086,40.97098050000011],[39.13541830000014,40.969889100000046],[39.13400810100006,40.96978260000009],[39.13305610000009,40.9691437000007],[39.131575400000145,40.96898400000009],[39.12829650000009,40.96789250000006],[39.126956801000176,40.96762630000006],[39.12586390100017,40.96714709999998],[39.12350170100012,40.96666790000012],[39.12166840000003,40.96677440000042],[39.11860110000009,40.96586930000012],[39.115780600000164,40.96594910000016],[39.11355940000004,40.96544330000006],[39.111459701000115,40.96563820000006],[39.110521033000055,40.965350859000125],[39.110824748000084,40.96230587900044],[39.11064491400009,40.961817379000024],[39.11011809300015,40.961278559000164],[39.1135979,40.958957200000214],[39.11471720000009,40.958643900000084],[39.11537126600018,40.95863036999998],[39.116896454000084,40.958015282000076],[39.11822624399997,40.95888348300042],[39.11882060000016,40.95896270000031],[39.119798849000176,40.95991021400005],[39.121807705000094,40.96122176800003],[39.12873817300016,40.96137453800003],[39.13155776299999,40.95913356600005],[39.132098400000075,40.958563700000695],[39.13311970000018,40.95723380000044],[39.134399278000046,40.95687516800007],[39.14124070200012,40.95143769500004],[39.14690293900014,40.95045051900007],[39.147365629000035,40.95112049100044],[39.14801760000006,40.9510097000001],[39.14960430000008,40.95109480000053],[39.149694506504375,40.95297908881088],[39.14991757815994,40.95293285440289],[39.15387408714099,40.95845710809067],[39.1538529442459,40.95860036580285],[39.153667689630026,40.95863473103702],[39.1530556190001,40.95821317800011],[39.15182064579818,40.95914610974444],[39.15163432012116,40.95950721645801]]],"type":"Polygon"}},{"type":"Feature","properties":{"area_id":"TR-28-008-2014619","name_tr":"Kemaliye Köyü","area_level":"neighbourhood","parent_id":"TR-28-008","endeksa_id":2014619},"geometry":{"coordinates":[[[39.143300099999976,40.97127430000006],[39.14143850000016,40.97754580000009],[39.141324400000144,40.97861780000051],[39.132936600000164,40.97676380000007],[39.13119140000015,40.97645770000048],[39.129851701000064,40.97677710000062],[39.12895270100012,40.97676380000007],[39.12785969999999,40.97595190000004],[39.126026401000104,40.97555270000021],[39.12528600100012,40.97549940000005],[39.12406970100005,40.975060200000314],[39.1216723010001,40.974607700000035],[39.1195393000001,40.974634300000105],[39.11715950100012,40.975392900000486],[39.1149559000001,40.975685700000554],[39.11410980000011,40.97532640000031],[39.11312260000011,40.97567240000052],[39.1115185000001,40.97549940000005],[39.109191501000055,40.975060200000314],[39.10852514700014,40.97473169700004],[39.108217841645455,40.97425691800561],[39.10858000000013,40.97417000000041],[39.10955000000013,40.97337000000044],[39.10959000000025,40.97316000000012],[39.109258366205495,40.972788910803615],[39.11007435500005,40.969829170000025],[39.110521033000055,40.965350859000125],[39.111459701000115,40.96563820000006],[39.11355940000004,40.96544330000006],[39.115780600000164,40.96594910000016],[39.11860110000009,40.96586930000012],[39.12166840000003,40.96677440000042],[39.12350170100012,40.96666790000012],[39.12586390100017,40.96714709999998],[39.126956801000176,40.96762630000006],[39.12829650000009,40.96789250000006],[39.131575400000145,40.96898400000009],[39.13305610000009,40.9691437000007],[39.13400810100006,40.96978260000009],[39.13541830000014,40.969889100000046],[39.136722800000086,40.97098050000011],[39.143300099999976,40.97127430000006]]],"type":"Polygon"}},{"type":"Feature","properties":{"area_id":"TR-28-008-2014621","name_tr":"Kösemen Köyü","area_level":"neighbourhood","parent_id":"TR-28-008","endeksa_id":2014621},"geometry":{"coordinates":[[[39.14111673100007,40.98328962500011],[39.139841108000155,40.98378872899997],[39.13960990000004,40.98440970000047],[39.13185030000017,40.98414040000057],[39.129823100000124,40.98360810000008],[39.128111500000045,40.98206920000007],[39.126190000000065,40.980911400000025],[39.125044200000104,40.98059200000006],[39.12194160000007,40.97902160000052],[39.11890960000005,40.978289700000175],[39.11513040000017,40.978483800000106],[39.11269970000012,40.9788226000004],[39.111165400000175,40.97937470000011],[39.10999310000017,40.97845650000016],[39.109208173000184,40.97764652400008],[39.11007798700018,40.97713079400057],[39.10852514700014,40.97473169700004],[39.109191501000055,40.975060200000314],[39.1115185000001,40.97549940000005],[39.11312260000011,40.97567240000052],[39.11410980000011,40.97532640000031],[39.1149559000001,40.975685700000554],[39.11715950100012,40.975392900000486],[39.1195393000001,40.974634300000105],[39.1216723010001,40.974607700000035],[39.12406970100005,40.975060200000314],[39.12528600100012,40.97549940000005],[39.126026401000104,40.97555270000021],[39.12785969999999,40.97595190000004],[39.12895270100012,40.97676380000007],[39.129851701000064,40.97677710000062],[39.13119140000015,40.97645770000048],[39.132936600000164,40.97676380000007],[39.141324400000144,40.97861780000051],[39.140577317000066,40.981649845000106],[39.14095252600009,40.98269650800012],[39.141094832000135,40.982754166999996],[39.14120214000013,40.98266686400018],[39.14111673100007,40.98328962500011]]],"type":"Polygon"}},{"type":"Feature","properties":{"area_id":"TR-28-008-2014613","name_tr":"Balcılı Köyü","area_level":"neighbourhood","parent_id":"TR-28-008","endeksa_id":2014613},"geometry":{"coordinates":[[[39.12596210000004,40.99266190000043],[39.12492210000016,40.99278160000006],[39.12426980000015,40.99258200000003],[39.12412880000005,40.99222280000015],[39.1238115000001,40.99202320000052],[39.12270090000004,40.99224940000005],[39.12164320000011,40.99169060000003],[39.12056790000014,40.99258200000003],[39.119351600000186,40.993021100000306],[39.11780030000011,40.993021100000306],[39.11661920000006,40.993659800000216],[39.11505030000012,40.99316749999997],[39.11353430000008,40.9929812000002],[39.112282700000094,40.99208970000018],[39.10932120000018,40.99106520000015],[39.10779889999998,40.99005400000016],[39.106788400000084,40.99050360000001],[39.10558850000007,40.99120230000045],[39.10565290000005,40.99183390000013],[39.10456840000006,40.99136900000002],[39.10455590000009,40.99076690000015],[39.102698700000076,40.989920100000234],[39.10262390000008,40.98909210000011],[39.102137700000185,40.98871570000006],[39.10197570000014,40.98832050000004],[39.10136490000019,40.98873450000019],[39.100966000000085,40.98854630000011],[39.10045500000007,40.98867810000013],[39.099769400000184,40.98832050000004],[39.0990963000001,40.98844280000003],[39.09880960000015,40.988207600000294],[39.09898410000005,40.98797240000005],[39.09875970000013,40.987718300000665],[39.099295700000084,40.98749250000009],[39.099717700000156,40.98690320000037],[39.1001227000001,40.985547301],[39.100563000000136,40.98516180100012],[39.100105100000064,40.98431100100021],[39.10045730000007,40.98363310000019],[39.100898191000056,40.98361184600003],[39.101092707000134,40.98323032700017],[39.10082710000012,40.98272910000014],[39.101009491000184,40.982584836000115],[39.10023542300007,40.98008836900004],[39.09992900000003,40.979924101000165],[39.099524000000144,40.97839520000002],[39.101498549000155,40.9775847760003],[39.100989697589,40.977222542382435],[39.10168000000016,40.97694000000024],[39.10236000000009,40.97685000000007],[39.10266000000007,40.976680000000044],[39.10454000000021,40.97660000000053],[39.105340000000126,40.97635000000008],[39.105530000000044,40.976430000000164],[39.10735000000017,40.97614000000016],[39.107420000000104,40.976020000000176],[39.10768000000013,40.975900000000195],[39.108070000000055,40.97582000000011],[39.10875000000016,40.975810000000536],[39.10843032261573,40.975560252043636],[39.108804584339,40.975560191444686],[39.10890868930545,40.97542933353259],[39.10888410693781,40.97528628067255],[39.11007798700018,40.97713079400057],[39.109208173000184,40.97764652400008],[39.10999310000017,40.97845650000016],[39.111165400000175,40.97937470000011],[39.11269970000012,40.9788226000004],[39.11513040000017,40.978483800000106],[39.11890960000005,40.978289700000175],[39.12194160000007,40.97902160000052],[39.125044200000104,40.98059200000006],[39.126190000000065,40.980911400000025],[39.128111500000045,40.98206920000007],[39.129823100000124,40.98360810000008],[39.13185030000017,40.98414040000057],[39.13960990000004,40.98440970000047],[39.13980240000012,40.98914720000005],[39.12881790000006,40.99065270000045],[39.12596210000004,40.99266190000043]]],"type":"Polygon"}},{"type":"Feature","properties":{"area_id":"TR-28-008-2014611","name_tr":"Adaköy Köyü","area_level":"neighbourhood","parent_id":"TR-28-008","endeksa_id":2014611},"geometry":{"coordinates":[[[39.09422677900017,41.0058518730001],[39.09369960000015,41.00600890000004],[39.09329010000016,41.00589600000012],[39.09334740000014,41.00562350000013],[39.09313160000005,41.00531120000005],[39.09186370000009,41.00524150000018],[39.09156440000004,41.00511190000026],[39.091388300000006,41.00479300000052],[39.091766900000096,41.00434450000017],[39.09205053424563,41.003287667186385],[39.09291041764811,41.001776782180855],[39.09310080000017,41.001208100000554],[39.0930348,41.000111700000105],[39.09321970000002,40.999274400000104],[39.092507630000114,40.99821326800003],[39.09197655100013,40.9976412120003],[39.09226804700006,40.99556820100014],[39.09205750000018,40.99537019999997],[39.09207509999999,40.99497150000002],[39.09279710000004,40.99381510000012],[39.09274420000014,40.99312400000065],[39.09225120000019,40.99257900000032],[39.09096560000006,40.99236630000013],[39.09063110000011,40.9918347000002],[39.0910889000001,40.99073140000007],[39.089451200000155,40.9893357000002],[39.088412200000164,40.98921610000025],[39.088024800000085,40.98880400000007],[39.088447500000086,40.98852490000007],[39.088306600000124,40.98804640000009],[39.08790160000018,40.98756780000065],[39.088253699999996,40.986570901000164],[39.088905300000135,40.985932801000104],[39.08929269999999,40.98576000000014],[39.090349300000014,40.986384801000554],[39.091000900000154,40.986411299999986],[39.09140590000004,40.98627840100028],[39.09096560000006,40.98561380100017],[39.09203980000012,40.98521500000015],[39.09267380000017,40.985281401000066],[39.09373040000003,40.984603501000606],[39.09441720000018,40.985068701000046],[39.095473700000184,40.985188400000084],[39.09670640000007,40.98569350000014],[39.09730520000005,40.98635820000004],[39.099717700000156,40.98690320000037],[39.099295700000084,40.98749250000009],[39.09875970000013,40.987718300000665],[39.09898410000005,40.98797240000005],[39.09880960000015,40.988207600000294],[39.0990963000001,40.98844280000003],[39.099769400000184,40.98832050000004],[39.10045500000007,40.98867810000013],[39.100966000000085,40.98854630000011],[39.10136490000019,40.98873450000019],[39.10197570000014,40.98832050000004],[39.102137700000185,40.98871570000006],[39.10262390000008,40.98909210000011],[39.102698700000076,40.989920100000234],[39.10455590000009,40.99076690000015],[39.10456840000006,40.99136900000002],[39.10565290000005,40.99183390000013],[39.10619060000016,40.99202490000016],[39.107498000000135,40.991750800000034],[39.10781430000003,40.992407500000695],[39.10729070000008,40.993056900000056],[39.105176500000084,40.993706000000486],[39.103655300000185,40.99373150000014],[39.1038243000001,40.99482860000029],[39.10329580000007,40.9960518000006],[39.1035483,40.99733150000026],[39.10262710000018,40.997621200000424],[39.10149060000015,40.99736120000023],[39.101145900000006,40.99776330000009],[39.10128260000016,40.99866589999999],[39.10163900000015,40.99920380000009],[39.10152370000003,40.999986800000045],[39.09921090000017,40.999959900000306],[39.098933900000134,41.00035470000029],[39.09924130000019,41.000702600000295],[39.10144620000017,41.0006762000001],[39.10215080000006,41.00104010000018],[39.1024604000001,41.00153650000004],[39.101916700000004,41.00203480000039],[39.09957590000016,41.00203480000039],[39.099153700000045,41.00324750000004],[39.09710720000015,41.004278200000044],[39.09725899800014,41.004615312000055],[39.0936947400001,41.003893242000174],[39.09495660300013,41.00514749800004],[39.09474756500009,41.00534924700008],[39.094756100000154,41.00550390000018],[39.09422677900017,41.0058518730001]]],"type":"Polygon"}},{"type":"Feature","properties":{"area_id":"TR-28-008-2014620","name_tr":"Kemerli Köyü","area_level":"neighbourhood","parent_id":"TR-28-008","endeksa_id":2014620},"geometry":{"coordinates":[[[39.11316116254136,41.008776582662676],[39.112756943000136,41.00880705900005],[39.111715300000014,41.00998320000008],[39.11124969000008,41.01005917000015],[39.104959882246135,41.015284262114506],[39.10549033736328,41.01480783392623],[39.10544942259145,41.01462013332542],[39.105232998542135,41.01452322086425],[39.10550818161721,41.01453885063529],[39.10521395000018,41.0130318110007],[39.104927100000054,41.01274610000024],[39.104715600000134,41.01120380000003],[39.10284790000014,41.01053900000005],[39.10235449999999,41.00960820000017],[39.10052200000007,41.00843820000017],[39.10033660300013,41.007555862000174],[39.09978190000015,41.006948900000054],[39.09950000000009,41.006257500000004],[39.09974670000008,41.005459700000074],[39.09861900000004,41.0057522000003],[39.09773800000016,41.005645800000025],[39.09710720000015,41.004278200000044],[39.099153700000045,41.00324750000004],[39.09957590000016,41.00203480000039],[39.101916700000004,41.00203480000039],[39.1024604000001,41.00153650000004],[39.10215080000006,41.00104010000018],[39.10144620000017,41.0006762000001],[39.09924130000019,41.000702600000295],[39.098933900000134,41.00035470000029],[39.09921090000017,40.999959900000306],[39.10152370000003,40.999986800000045],[39.10163900000015,40.99920380000009],[39.10128260000016,40.99866589999999],[39.101145900000006,40.99776330000009],[39.10149060000015,40.99736120000023],[39.10262710000018,40.997621200000424],[39.1035483,40.99733150000026],[39.10329580000007,40.9960518000006],[39.1038243000001,40.99482860000029],[39.103655300000185,40.99373150000014],[39.105176500000084,40.993706000000486],[39.10729070000008,40.993056900000056],[39.10781430000003,40.992407500000695],[39.107498000000135,40.991750800000034],[39.10619060000016,40.99202490000016],[39.10565290000005,40.99183390000013],[39.10558850000007,40.99120230000045],[39.106788400000084,40.99050360000001],[39.10779889999998,40.99005400000016],[39.10932120000018,40.99106520000015],[39.112282700000094,40.99208970000018],[39.11353430000008,40.9929812000002],[39.11505030000012,40.99316749999997],[39.11661920000006,40.993659800000216],[39.11780030000011,40.993021100000306],[39.119351600000186,40.993021100000306],[39.12056790000014,40.99258200000003],[39.12164320000011,40.99169060000003],[39.12270090000004,40.99224940000005],[39.1238115000001,40.99202320000052],[39.12412880000005,40.99222280000015],[39.12426980000015,40.99258200000003],[39.12492210000016,40.99278160000006],[39.12596210000004,40.99266190000043],[39.1255227960001,40.99346655200003],[39.12555550000013,40.99435560000023],[39.12479069900019,40.99546886999997],[39.12376498400016,40.9982447480005],[39.12407640000015,40.999804400000585],[39.123477700000194,41.00086760000045],[39.122703,41.001027000000136],[39.12230194000006,41.001870113000166],[39.122368517000154,41.00207371900018],[39.122261078000065,41.00217770600017],[39.12175148000017,41.00216116500013],[39.12083650000011,41.00235590000017],[39.119815200000176,41.00323300000008],[39.118807737000054,41.00349180500024],[39.118107504000136,41.00397514000019],[39.11794870000011,41.00493390000008],[39.11751259700003,41.00476931600019],[39.117171907000056,41.00476188099998],[39.116751300000146,41.00530600000019],[39.11611740000012,41.00381770000047],[39.11562440000017,41.00519960000008],[39.114884800000084,41.00578430000047],[39.11411010000012,41.00703340000007],[39.11304263400007,41.00776561800012],[39.11331007160868,41.00863741668417],[39.11316116254136,41.008776582662676]]],"type":"Polygon"}},{"type":"Feature","properties":{"area_id":"TR-28-008-30810","name_tr":"Kıran","area_level":"neighbourhood","parent_id":"TR-28-008","endeksa_id":30810},"geometry":{"coordinates":[[[39.154644682000026,41.022215599000106],[39.15080937100004,41.02058467699999],[39.15066126100004,41.02059516100019],[39.15062325200017,41.02070657500013],[39.15279877500018,41.02491896100014],[39.14991368400007,41.02360825700009],[39.14971356300015,41.02404281200006],[39.14962593100017,41.024042560000055],[39.1494071840001,41.02470810400001],[39.14895973500012,41.02404064600057],[39.14880217600012,41.024040193000076],[39.14780116700018,41.0224329240001],[39.14641431213761,41.023905600056366],[39.146900119000065,41.01414482000018],[39.143838384000105,41.00769937900003],[39.143261284000175,41.00534277600053],[39.14340889900001,41.00382247800019],[39.145621253000115,41.00163612699998],[39.14572031500012,40.99809533400003],[39.13972304200013,40.987194184000145],[39.13960990000004,40.98440970000047],[39.139841108000155,40.98378872899997],[39.14111673100007,40.98328962500011],[39.140972380000164,40.983731919000434],[39.1407486440001,40.98374489900044],[39.1406490330001,40.98384283200011],[39.141605277,40.98894961300016],[39.14619167700005,40.996220717000085],[39.15479740700016,41.004874029000064],[39.15425054200011,41.01396783100034],[39.15617035900004,41.0180005520005],[39.154644682000026,41.022215599000106]]],"type":"Polygon"}},{"type":"Feature","properties":{"area_id":"TR-28-008-30811","name_tr":"Sokak","area_level":"neighbourhood","parent_id":"TR-28-008","endeksa_id":30811},"geometry":{"coordinates":[[[39.14576911253738,41.026414250713174],[39.14556412958814,41.02645648138656],[39.14440963953916,41.02548300745133],[39.14430073689283,41.025339365124466],[39.14353310100017,41.02411050000012],[39.14335487400007,41.02407403800049],[39.14229300799997,41.02255946400004],[39.1421110010001,41.02288568200004],[39.14174543300004,41.022275531000275],[39.14169719400007,41.022082679000164],[39.141830743000185,41.02190278800043],[39.14107283200008,41.02082612800052],[39.13498750500008,41.01663786],[39.132155509000086,41.00703213800051],[39.13456910500014,40.989864458000056],[39.13980240000012,40.98914720000005],[39.13972304200013,40.987194184000145],[39.14572031500012,40.99809533400003],[39.145621253000115,41.00163612699998],[39.14340889900001,41.00382247800019],[39.143261284000175,41.00534277600053],[39.143838384000105,41.00769937900003],[39.146900119000065,41.01414482000018],[39.14641431213761,41.023905600056366],[39.146543355000006,41.02403370400003],[39.14638826700019,41.02410759900016],[39.14576911253738,41.026414250713174]]],"type":"Polygon"}},{"type":"Feature","properties":{"area_id":"TR-28-008-140807","name_tr":"Belen","area_level":"neighbourhood","parent_id":"TR-28-008","endeksa_id":140807},"geometry":{"coordinates":[[[39.14221041100018,41.028173690000415],[39.14051633100013,41.02919976500016],[39.13842333499997,41.029005402000166],[39.13730207900011,41.02637636300011],[39.13348641600015,41.02521954500014],[39.133417841000096,41.02506107600027],[39.1332427800001,41.025145809000264],[39.13011739400014,41.02416290200006],[39.12798579500003,41.018979365000064],[39.1224288300001,41.00224857900008],[39.122261078000065,41.00217770600017],[39.122368517000154,41.00207371900018],[39.12230194000006,41.001870113000166],[39.122703,41.001027000000136],[39.123477700000194,41.00086760000045],[39.12407640000015,40.999804400000585],[39.12376498400016,40.9982447480005],[39.12479069900019,40.99546886999997],[39.12555550000013,40.99435560000023],[39.1255227960001,40.99346655200003],[39.12596210000004,40.99266190000043],[39.12881790000006,40.99065270000045],[39.13456910500014,40.989864458000056],[39.132155509000086,41.00703213800051],[39.13498750500008,41.01663786],[39.14107283200008,41.02082612800052],[39.141830743000185,41.02190278800043],[39.14169719400007,41.022082679000164],[39.14174543300004,41.022275531000275],[39.1421110010001,41.02288568200004],[39.14229300799997,41.02255946400004],[39.14335487400007,41.02407403800049],[39.14353310100017,41.02411050000012],[39.14430073689283,41.025339365124466],[39.14367486238132,41.02622485352106],[39.14315304740802,41.025513027199224],[39.1428813679247,41.02553102761567],[39.143269529000065,41.02670136300003],[39.14221041100018,41.028173690000415]]],"type":"Polygon"}},{"type":"Feature","properties":{"area_id":"TR-28-008-2014616","name_tr":"Dereköy Köyü","area_level":"neighbourhood","parent_id":"TR-28-008","endeksa_id":2014616},"geometry":{"coordinates":[[[39.11797360800006,41.00478352200008],[39.119824533000155,41.00478615600031],[39.11999943100005,41.009452134000185],[39.12555547400012,41.017103063000036],[39.121902811000155,41.02928513700027],[39.12216335900007,41.029594207000116],[39.12180169800007,41.02995663100023],[39.12029160700007,41.02922893900006],[39.112020883000184,41.0290301160004],[39.111862031535054,41.02888251930091],[39.11491375800017,41.01558821800006],[39.11316116254136,41.008776582662676],[39.11331007160868,41.00863741668417],[39.11304263400007,41.00776561800012],[39.11411010000012,41.00703340000007],[39.114884800000084,41.00578430000047],[39.11562440000017,41.00519960000008],[39.11611740000012,41.00381770000047],[39.116751300000146,41.00530600000019],[39.117171907000056,41.00476188099998],[39.11751259700003,41.00476931600019],[39.11794870000011,41.00493390000008],[39.11797360800006,41.00478352200008]]],"type":"Polygon"}},{"type":"Feature","properties":{"area_id":"TR-28-008-30812","name_tr":"Tamyanı","area_level":"neighbourhood","parent_id":"TR-28-008","endeksa_id":30812},"geometry":{"coordinates":[[[39.14504077774774,41.038261570896054],[39.14492531494483,41.038397963359955],[39.14472202679906,41.03844058842304],[39.144526073682016,41.03836485710457],[39.144452239855696,41.038216550994434],[39.144453091000116,41.039475976000176],[39.142391703000044,41.038934435000044],[39.142196631000104,41.039049164000176],[39.14051431000007,41.039049853000165],[39.13937085400016,41.038915336000116],[39.13903933100016,41.03905045800013],[39.138641863000146,41.03905062100006],[39.13851685399999,41.03893065200032],[39.13854887000019,41.03881863700019],[39.13753040300003,41.038698824000676],[39.13710871100011,41.036890568000274],[39.13760182900006,41.03569942600012],[39.13976159400016,41.03274405500065],[39.139910607000104,41.03186086600067],[39.1400334600001,41.03178957200009],[39.140932546000045,41.031791645],[39.14246302800018,41.02916776100051],[39.14240167600008,41.02895083700014],[39.142524715000036,41.02893451000011],[39.14221041100018,41.028173690000415],[39.143269529000065,41.02670136300003],[39.1428813679247,41.02553102761567],[39.14315304740802,41.025513027199224],[39.14367486238132,41.02622485352106],[39.14430073689283,41.025339365124466],[39.14440963953916,41.02548300745133],[39.14556412958814,41.02645648138656],[39.14576911253738,41.026414250713174],[39.145722280347854,41.026696089456095],[39.14562633616282,41.02673355312794],[39.14686938699998,41.0267300270001],[39.14727728200012,41.02722583200068],[39.14632200300019,41.03237245700063],[39.14591263000017,41.03233421600004],[39.14594413600008,41.034408241000165],[39.14570993899997,41.03566999000003],[39.14504077774774,41.038261570896054]]],"type":"Polygon"}},{"type":"Feature","properties":{"area_id":"TR-28-008-30809","name_tr":"Camidüzü","area_level":"neighbourhood","parent_id":"TR-28-008","endeksa_id":30809},"geometry":{"coordinates":[[[39.148688310142404,41.039658213944335],[39.148601115420036,41.03951252753615],[39.14839325279269,41.03955103883129],[39.146683837000126,41.04179166299997],[39.14470979800012,41.03954341500048],[39.14570993899997,41.03566999000003],[39.14594413600008,41.034408241000165],[39.14591263000017,41.03233421600004],[39.14632200300019,41.03237245700063],[39.14727728200012,41.02722583200068],[39.14686938699998,41.0267300270001],[39.14562633616282,41.02673355312794],[39.145722280347854,41.026696089456095],[39.14576911253738,41.026414250713174],[39.14638826700019,41.02410759900016],[39.146543355000006,41.02403370400003],[39.14641431213761,41.023905600056366],[39.14780116700018,41.0224329240001],[39.14880217600012,41.024040193000076],[39.14895973500012,41.02404064600057],[39.1494071840001,41.02470810400001],[39.14962593100017,41.024042560000055],[39.14971356300015,41.02404281200006],[39.14991368400007,41.02360825700009],[39.15279877500018,41.02491896100014],[39.15481035100015,41.028806227000075],[39.15465192099998,41.02893337200021],[39.1546361770001,41.02914747199998],[39.155032622000135,41.03036975600003],[39.15301421000015,41.03348832100005],[39.1490162340001,41.03873233400043],[39.148688310142404,41.039658213944335]]],"type":"Polygon"}},{"type":"Feature","properties":{"area_id":"TR-28-008-2014617","name_tr":"İshaklı Köyü","area_level":"neighbourhood","parent_id":"TR-28-008","endeksa_id":2014617},"geometry":{"coordinates":[[[39.13851685399999,41.03893065200032],[39.13847848300014,41.03920804900008],[39.13598566600018,41.04029507000041],[39.13683382600004,41.04525134800019],[39.13677634800007,41.045343631000094],[39.13663872800004,41.045347273000004],[39.135796314000174,41.04499024700067],[39.13499921400012,41.04505562900022],[39.128490763000116,41.0402753890001],[39.12424899300015,41.03955219900013],[39.12403972600015,41.039943053000684],[39.12332378500014,41.03963595100032],[39.123981734000154,41.037720375000276],[39.124890545000085,41.034052433],[39.12441119000016,41.031515975000104],[39.123670356000105,41.03085711100016],[39.12180169800007,41.02995663100023],[39.12216335900007,41.029594207000116],[39.121902811000155,41.02928513700027],[39.12555547400012,41.017103063000036],[39.11999943100005,41.009452134000185],[39.119824533000155,41.00478615600031],[39.11797360800006,41.00478352200008],[39.118107504000136,41.00397514000019],[39.118807737000054,41.00349180500024],[39.119815200000176,41.00323300000008],[39.12083650000011,41.00235590000017],[39.12175148000017,41.00216116500013],[39.122261078000065,41.00217770600017],[39.1224288300001,41.00224857900008],[39.12798579500003,41.018979365000064],[39.13011739400014,41.02416290200006],[39.1332427800001,41.025145809000264],[39.133417841000096,41.02506107600027],[39.13348641600015,41.02521954500014],[39.13730207900011,41.02637636300011],[39.13842333499997,41.029005402000166],[39.14051633100013,41.02919976500016],[39.14221041100018,41.028173690000415],[39.142524715000036,41.02893451000011],[39.14240167600008,41.02895083700014],[39.14246302800018,41.02916776100051],[39.140932546000045,41.031791645],[39.1400334600001,41.03178957200009],[39.139910607000104,41.03186086600067],[39.13976159400016,41.03274405500065],[39.13760182900006,41.03569942600012],[39.13710871100011,41.036890568000274],[39.13753040300003,41.038698824000676],[39.13854887000019,41.03881863700019],[39.13851685399999,41.03893065200032]]],"type":"Polygon"}},{"type":"Feature","properties":{"area_id":"TR-28-008-2014618","name_tr":"Kekiktepe Köyü","area_level":"neighbourhood","parent_id":"TR-28-008","endeksa_id":2014618},"geometry":{"coordinates":[[[39.112020883000184,41.0290301160004],[39.111910785000134,41.02903910300034],[39.10752363200015,41.03228146000015],[39.10767883,41.037084769000444],[39.105513074000044,41.041076204000206],[39.10157055200017,41.04605618100004],[39.09893617500006,41.04674135000016],[39.09942113800014,41.04686336800012],[39.09917060900011,41.047252614],[39.09827213700004,41.046927988000505],[39.09499985400009,41.046176002000095],[39.09189676300008,41.04617432900005],[39.09091609100028,41.0459664240002],[39.09108272900022,41.04524206500054],[39.09115666200023,41.04521787500033],[39.09083038300031,41.04232876300023],[39.09741870000016,41.032895006000274],[39.09736161100034,41.032342810000216],[39.09557534300018,41.0249385300001],[39.09983477900016,41.02304543800011],[39.09995058000004,41.02224977300045],[39.10010311800005,41.02216853200002],[39.09997738400017,41.02206683400033],[39.10016690600003,41.02075933500009],[39.10214587400014,41.019897345000174],[39.099738163000154,41.01900982500007],[39.10206504300015,41.01554550800023],[39.10109200500011,41.01429402100018],[39.10472284584495,41.01536897990695],[39.104959882246135,41.015284262114506],[39.11124969000008,41.01005917000015],[39.111715300000014,41.00998320000008],[39.112756943000136,41.00880705900005],[39.11316116254136,41.008776582662676],[39.11491375800017,41.01558821800006],[39.111862031535054,41.02888251930091],[39.112020883000184,41.0290301160004]]],"type":"Polygon"}},{"type":"Feature","properties":{"area_id":"TR-28-008-30808","name_tr":"Yakuplu","area_level":"neighbourhood","parent_id":"TR-28-008","endeksa_id":30808},"geometry":{"coordinates":[[[39.15696599500018,41.04938600200012],[39.15696356600006,41.049290282000015],[39.15685310000015,41.049240805000466],[39.155314535000116,41.049455960000046],[39.15502904400006,41.049240027000224],[39.152232660000095,41.04923883400039],[39.15095075400012,41.04847990800016],[39.15085511100011,41.046083049000174],[39.150254106000034,41.045628476000275],[39.149584264,41.04566765700008],[39.14924920200019,41.04540998000016],[39.147000936000154,41.04573511600006],[39.14701875300011,41.0443721420001],[39.1490162340001,41.03873233400043],[39.15301421000015,41.03348832100005],[39.154483953000124,41.03121748100028],[39.15436267400014,41.032866695000166],[39.157355424000116,41.032983881000064],[39.1612082960001,41.03930824300005],[39.16131655500004,41.03944261500067],[39.161616164000066,41.03948670700004],[39.162432403000025,41.04021535700048],[39.16250308899998,41.0418978190001],[39.16135371700011,41.043111513000156],[39.15844763100017,41.04726282000013],[39.15741238900017,41.049191234000034],[39.15708065900003,41.049254028000405],[39.15696599500018,41.04938600200012]]],"type":"Polygon"}},{"type":"Feature","properties":{"area_id":"TR-28-008-2014612","name_tr":"Aralık Köyü","area_level":"neighbourhood","parent_id":"TR-28-008","endeksa_id":2014612},"geometry":{"coordinates":[[[39.11910397300005,41.05223097700025],[39.11881423000017,41.05241555400033],[39.118145548000086,41.052284779000615],[39.11613616600005,41.05137385800015],[39.11059510000007,41.04989403400009],[39.108321039000145,41.04971120000022],[39.106668886000136,41.04913631500017],[39.10569560300013,41.049170084000025],[39.105815495000115,41.04970165400016],[39.10565620600016,41.04978221900018],[39.10538613600005,41.04963663900003],[39.10501638799997,41.04902983000051],[39.101396691000105,41.04796534799999],[39.101684829000135,41.04743291800003],[39.101374899000064,41.047803971000064],[39.10115902300015,41.04790830899998],[39.09917060900011,41.047252614],[39.09942113800014,41.04686336800012],[39.09893617500006,41.04674135000016],[39.10157055200017,41.04605618100004],[39.105513074000044,41.041076204000206],[39.10767883,41.037084769000444],[39.10752363200015,41.03228146000015],[39.111910785000134,41.02903910300034],[39.112020883000184,41.0290301160004],[39.12029160700007,41.02922893900006],[39.123670356000105,41.03085711100016],[39.12441119000016,41.031515975000104],[39.124890545000085,41.034052433],[39.123981734000154,41.037720375000276],[39.12332378500014,41.03963595100032],[39.12403972600015,41.039943053000684],[39.11999310900006,41.047501057000034],[39.120256826000116,41.050255589000585],[39.1201268690001,41.05047825700018],[39.11860362800013,41.05122635800035],[39.11942105100019,41.05168760100008],[39.11910397300005,41.05223097700025]]],"type":"Polygon"}},{"type":"Feature","properties":{"area_id":"TR-28-008-30813","name_tr":"Erzikıranı","area_level":"neighbourhood","parent_id":"TR-28-008","endeksa_id":30813},"geometry":{"coordinates":[[[39.15696599500018,41.04938600200012],[39.154384556000025,41.053093285000045],[39.15464580600013,41.05344468200008],[39.15409818545794,41.053423157905],[39.15399422069868,41.053384382583204],[39.15400679600003,41.053264632000094],[39.15361123500003,41.05280652500062],[39.15192699100015,41.05174498800045],[39.148040048000155,41.05019360300025],[39.14742803300004,41.050188290999984],[39.14755033300003,41.05012513400004],[39.147518865999984,41.050017701000115],[39.14655473500011,41.04960059100006],[39.14649452000015,41.049487022000676],[39.139942838000024,41.04676521900012],[39.13716403700005,41.04718032700015],[39.13687278900011,41.04548348000003],[39.13663872800004,41.045347273000004],[39.13677634800007,41.045343631000094],[39.13683382600004,41.04525134800019],[39.13598566600018,41.04029507000041],[39.13847848300014,41.03920804900008],[39.13851685399999,41.03893065200032],[39.138641863000146,41.03905062100006],[39.13903933100016,41.03905045800013],[39.13937085400016,41.038915336000116],[39.14051431000007,41.039049853000165],[39.142196631000104,41.039049164000176],[39.142391703000044,41.038934435000044],[39.144453091000116,41.039475976000176],[39.144452239855696,41.038216550994434],[39.144526073682016,41.03836485710457],[39.14472202679906,41.03844058842304],[39.14492531494483,41.038397963359955],[39.14504077774774,41.038261570896054],[39.14470979800012,41.03954341500048],[39.146683837000126,41.04179166299997],[39.14839325279269,41.03955103883129],[39.148601115420036,41.03951252753615],[39.148688310142404,41.039658213944335],[39.14701875300011,41.0443721420001],[39.147000936000154,41.04573511600006],[39.14924920200019,41.04540998000016],[39.149584264,41.04566765700008],[39.150254106000034,41.045628476000275],[39.15085511100011,41.046083049000174],[39.15095075400012,41.04847990800016],[39.152232660000095,41.04923883400039],[39.15502904400006,41.049240027000224],[39.155314535000116,41.049455960000046],[39.15685310000015,41.049240805000466],[39.15696356600006,41.049290282000015],[39.15696599500018,41.04938600200012]]],"type":"Polygon"}},{"type":"Feature","properties":{"area_id":"TR-28-008-30806","name_tr":"Köseli","area_level":"neighbourhood","parent_id":"TR-28-008","endeksa_id":30806},"geometry":{"coordinates":[[[39.13186983700007,41.05862522100017],[39.130723805000116,41.05874938400001],[39.13029102700017,41.058629159000134],[39.130247352000026,41.05851573800004],[39.13052774700003,41.05824124100019],[39.13033711999998,41.05768792800012],[39.12957911600017,41.05730343700037],[39.128790501000026,41.05722907100011],[39.12852179200007,41.05669274200005],[39.121850566000035,41.053920672000345],[39.1194469240001,41.05270962100042],[39.11910397300005,41.05223097700025],[39.11942105100019,41.05168760100008],[39.11860362800013,41.05122635800035],[39.1201268690001,41.05047825700018],[39.120256826000116,41.050255589000585],[39.11999310900006,41.047501057000034],[39.12424899300015,41.03955219900013],[39.128490763000116,41.0402753890001],[39.13499921400012,41.04505562900022],[39.135796314000174,41.04499024700067],[39.13663872800004,41.045347273000004],[39.13687278900011,41.04548348000003],[39.13711313100015,41.0468828860005],[39.13706850500017,41.047447182000155],[39.1358162570001,41.049295067000514],[39.13478415000009,41.04949401900012],[39.13439651300007,41.05024056400032],[39.13421997700004,41.050931367000544],[39.13385862600006,41.05140672900012],[39.133802906000085,41.05209090800065],[39.134035242000095,41.052591938000035],[39.13285064600012,41.05345015800032],[39.13274791800018,41.05403835400017],[39.13318783500006,41.054856258000484],[39.13324074300016,41.05541212700001],[39.13313374000012,41.056765610000184],[39.13259650500015,41.057557514000166],[39.13255140300015,41.058044262000294],[39.13232350000004,41.05795034400052],[39.13186983700007,41.05862522100017]]],"type":"Polygon"}},{"type":"Feature","properties":{"area_id":"TR-28-008-2014615","name_tr":"Çorapçılar Köyü","area_level":"neighbourhood","parent_id":"TR-28-008","endeksa_id":2014615},"geometry":{"coordinates":[[[39.17429730900011,41.05602112000008],[39.17422192900011,41.05614877200031],[39.176523482000164,41.06039476500035],[39.17660918600018,41.0607848170003],[39.176484679000055,41.06087728400007],[39.175823553214116,41.06091583030752],[39.17574441225349,41.06103729869113],[39.17585098075938,41.06114147677755],[39.175093232000165,41.06092593600016],[39.16991815800009,41.06110688200039],[39.16079738600018,41.058003489000384],[39.16062426400009,41.058053596000036],[39.16061374300017,41.05791448200057],[39.158127594000064,41.056152540000085],[39.15464580600013,41.05344468200008],[39.154384556000025,41.053093285000045],[39.15696599500018,41.04938600200012],[39.15708065900003,41.049254028000405],[39.15741238900017,41.049191234000034],[39.15844763100017,41.04726282000013],[39.16135371700011,41.043111513000156],[39.16250308899998,41.0418978190001],[39.16271818600012,41.04190060500014],[39.16366135100009,41.04315231500016],[39.16374795400009,41.043351744000006],[39.161935713000105,41.04593005200036],[39.16193938599997,41.04602796400013],[39.16707319900013,41.0469259190001],[39.17154391800011,41.0517355130001],[39.17412082600015,41.05597359300015],[39.17429730900011,41.05602112000008]]],"type":"Polygon"}},{"type":"Feature","properties":{"area_id":"TR-28-008-30802","name_tr":"Gümüşçay","area_level":"neighbourhood","parent_id":"TR-28-008","endeksa_id":30802},"geometry":{"coordinates":[[[39.1438679420001,41.066453032000595],[39.141898271000116,41.066098181000086],[39.14127870400006,41.066235876000064],[39.141357241000094,41.066732082000044],[39.14209663200006,41.06704358700034],[39.142027355000096,41.06715595500003],[39.14157733299999,41.06723817200054],[39.14094625000013,41.06656382800003],[39.140736367000045,41.06598620400018],[39.13890059200014,41.0648739020005],[39.135282302000064,41.06216862100007],[39.13436494000018,41.06111659900057],[39.134327734000124,41.06042585000017],[39.13186983700007,41.05862522100017],[39.13232350000004,41.05795034400052],[39.13255140300015,41.058044262000294],[39.13259650500015,41.057557514000166],[39.13313374000012,41.056765610000184],[39.13324074300016,41.05541212700001],[39.13318783500006,41.054856258000484],[39.13274791800018,41.05403835400017],[39.13285064600012,41.05345015800032],[39.134035242000095,41.052591938000035],[39.133802906000085,41.05209090800065],[39.13385862600006,41.05140672900012],[39.13421997700004,41.050931367000544],[39.13439651300007,41.05024056400032],[39.13478415000009,41.04949401900012],[39.1358162570001,41.049295067000514],[39.13706850500017,41.047447182000155],[39.13711313100015,41.0468828860005],[39.13716403700005,41.04718032700015],[39.139942838000024,41.04676521900012],[39.14649452000015,41.049487022000676],[39.14655473500011,41.04960059100006],[39.147518865999984,41.050017701000115],[39.14755033300003,41.05012513400004],[39.14742803300004,41.050188290999984],[39.148040048000155,41.05019360300025],[39.15192699100015,41.05174498800045],[39.15361123500003,41.05280652500062],[39.15400679600003,41.053264632000094],[39.15399422069868,41.053384382583204],[39.15409818545794,41.053423157905],[39.151779728787574,41.053781914244155],[39.15127874600006,41.05403362400045],[39.15111824300004,41.05450853500008],[39.15152798900016,41.055438761999994],[39.15021436000012,41.057016036000164],[39.14947932300015,41.05858462800006],[39.148786636000125,41.05907777600004],[39.14763899800016,41.059479760000045],[39.146796763000054,41.06273808200035],[39.145900956000105,41.06354291800051],[39.145685146000176,41.06399437400006],[39.14698447300009,41.064585544000124],[39.14461350000016,41.06610217399998],[39.144735827000034,41.06618440100016],[39.1438679420001,41.066453032000595]]],"type":"Polygon"}},{"type":"Feature","properties":{"area_id":"TR-28-008-30807","name_tr":"Derebaşı","area_level":"neighbourhood","parent_id":"TR-28-008","endeksa_id":30807},"geometry":{"coordinates":[[[39.16062426400009,41.058053596000036],[39.16042411300009,41.05837468800013],[39.15853524600004,41.059655457000645],[39.15779617999999,41.06055881700007],[39.15441548600006,41.06147508000015],[39.151573300999985,41.06523777600023],[39.15142865700011,41.06529247600014],[39.15147669100003,41.065333849000126],[39.14629638800011,41.06723337000017],[39.14637570800011,41.06728592800005],[39.145721230000106,41.06790322300009],[39.14410530800018,41.06696191800006],[39.1438679420001,41.066453032000595],[39.144735827000034,41.06618440100016],[39.14461350000016,41.06610217399998],[39.14698447300009,41.064585544000124],[39.145685146000176,41.06399437400006],[39.145900956000105,41.06354291800051],[39.146796763000054,41.06273808200035],[39.14763899800016,41.059479760000045],[39.148786636000125,41.05907777600004],[39.14947932300015,41.05858462800006],[39.15021436000012,41.057016036000164],[39.15152798900016,41.055438761999994],[39.15111824300004,41.05450853500008],[39.15127874600006,41.05403362400045],[39.151779728787574,41.053781914244155],[39.15409818545794,41.053423157905],[39.15464580600013,41.05344468200008],[39.158127594000064,41.056152540000085],[39.16061374300017,41.05791448200057],[39.16062426400009,41.058053596000036]]],"type":"Polygon"}},{"type":"Feature","properties":{"area_id":"TR-28-008-30804","name_tr":"Altınlı","area_level":"neighbourhood","parent_id":"TR-28-008","endeksa_id":30804},"geometry":{"coordinates":[[[39.173968296150065,41.06096526928167],[39.173775242812326,41.06102922418279],[39.17368649525281,41.06117538159873],[39.173752309856354,41.0613319375401],[39.17393750126945,41.061412546624865],[39.17293075000009,41.06129931900006],[39.1689103650001,41.06138371300011],[39.1618117860001,41.06352527400014],[39.16037261500014,41.06407724300004],[39.16098009800004,41.06692861199997],[39.16413018100013,41.06789080000004],[39.16380833699998,41.068052877000184],[39.16155322100008,41.06802035300018],[39.157644687000186,41.06989060500018],[39.156365583000024,41.071740272],[39.15598283100019,41.073651697000514],[39.155632000000026,41.073419233000095],[39.15586539200012,41.074399478000146],[39.155082159000074,41.074377348999974],[39.15502061700016,41.07366417500066],[39.154381939000075,41.073674100000176],[39.15055566100017,41.07145047],[39.146906571000045,41.068593708000435],[39.145721230000106,41.06790322300009],[39.14637570800011,41.06728592800005],[39.14629638800011,41.06723337000017],[39.15147669100003,41.065333849000126],[39.15142865700011,41.06529247600014],[39.151573300999985,41.06523777600023],[39.15441548600006,41.06147508000015],[39.15779617999999,41.06055881700007],[39.15853524600004,41.059655457000645],[39.16042411300009,41.05837468800013],[39.16062426400009,41.058053596000036],[39.16079738600018,41.058003489000384],[39.16991815800009,41.06110688200039],[39.173968296150065,41.06096526928167]]],"type":"Polygon"}},{"type":"Feature","properties":{"area_id":"TR-28-008-30805","name_tr":"Boztepe","area_level":"neighbourhood","parent_id":"TR-28-008","endeksa_id":30805},"geometry":{"coordinates":[[[39.18072176800007,41.07378253900015],[39.179117273000145,41.07378252500018],[39.17908505300011,41.073606627000515],[39.17825276800011,41.07378260900015],[39.17561300000017,41.07383909700002],[39.174232449000044,41.07445777800018],[39.17384709300018,41.07496567400011],[39.173268246000134,41.0750057730001],[39.17195704400018,41.07571877100048],[39.1730647969585,41.07641634848767],[39.17314000000016,41.07640000000009],[39.173360000000116,41.07640000000009],[39.17361000000017,41.07645000000031],[39.174540000000036,41.07649000000026],[39.17506000000026,41.076520000000244],[39.17523000000011,41.0763800000002],[39.17540000000014,41.07636000000019],[39.175570000000164,41.07637000000028],[39.17576000000008,41.07628000000028],[39.17585000000008,41.07635000000022],[39.175780000000145,41.07657000000029],[39.17565000000019,41.07671000000033],[39.17412000000007,41.076760000000206],[39.17392000000007,41.076790000000244],[39.173740000000066,41.076790000000244],[39.173490000000186,41.07674000000014],[39.17307000000005,41.07677000000018],[39.172560000000146,41.0768700000001],[39.171980879148805,41.07695273155059],[39.1630653580001,41.079204615000094],[39.16302017100014,41.07909998700029],[39.16276341300005,41.079218777000165],[39.16266421600011,41.079168682000045],[39.16241872100011,41.07866831500013],[39.15977160800003,41.077585068000076],[39.1595910150001,41.076846318000094],[39.15916838600003,41.076589946000354],[39.15799535700006,41.076599821],[39.15802989200017,41.07587260300005],[39.15760222500006,41.075523230000044],[39.15664964700011,41.07521324100003],[39.15596974100015,41.07440631200018],[39.15586539200012,41.074399478000146],[39.155632000000026,41.073419233000095],[39.15598283100019,41.073651697000514],[39.156365583000024,41.071740272],[39.157644687000186,41.06989060500018],[39.16155322100008,41.06802035300018],[39.16380833699998,41.068052877000184],[39.16413018100013,41.06789080000004],[39.16098009800004,41.06692861199997],[39.16037261500014,41.06407724300004],[39.1618117860001,41.06352527400014],[39.1689103650001,41.06138371300011],[39.17293075000009,41.06129931900006],[39.17393750126945,41.061412546624865],[39.173752309856354,41.0613319375401],[39.17368649525281,41.06117538159873],[39.173775242812326,41.06102922418279],[39.173968296150065,41.06096526928167],[39.175093232000165,41.06092593600016],[39.17674895599998,41.06139691200008],[39.1768252600001,41.061737328000504],[39.17862538000003,41.06193978400006],[39.179777250000086,41.06542087700001],[39.18292098900008,41.067157923000025],[39.18102909200013,41.06908593700007],[39.18096504800013,41.07316598600005],[39.180735789000096,41.073193668000044],[39.18072176800007,41.07378253900015]]],"type":"Polygon"}}]}