{"type":"FeatureCollection","source_id":"endeksa","retrieved_at":"2026-08-23","features":[{"type":"Feature","properties":{"area_id":"TR-37-011-2018599","name_tr":"Demircimüezzin Köyü","area_level":"neighbourhood","parent_id":"TR-37-011","endeksa_id":2018599},"geometry":{"coordinates":[[[34.543964659416645,41.608088770199515],[34.54340516900015,41.60764039700018],[34.543257359000165,41.60761872500012],[34.53942205599998,41.60992797900042],[34.53925655900008,41.609925492000116],[34.53904306900017,41.608653734000086],[34.53982325600015,41.60755185000005],[34.538328248000084,41.60438894100059],[34.5313161900001,41.60809600900018],[34.52172091800003,41.608184409000216],[34.52159684500015,41.60812126100018],[34.521628569000086,41.608013846000404],[34.52312482500008,41.60717623700015],[34.52535236099999,41.60315607300004],[34.51698847500006,41.59930387100013],[34.51406506100011,41.59489044100019],[34.51286272700008,41.58867683700015],[34.525597299000026,41.580253402000324],[34.52572338700014,41.55084702900007],[34.526778151410554,41.54981417442377],[34.52739064159374,41.54923303941183],[34.5291000000002,41.549400000001015],[34.530660000000296,41.54927000000038],[34.532210000000305,41.54927000000038],[34.534010000000364,41.54896000000031],[34.53523000000024,41.54830000000095],[34.536980000000256,41.54804000000024],[34.538840000000334,41.54743000000019],[34.54005000000029,41.54756000000032],[34.54436000000038,41.54631000000046],[34.54734000000036,41.54659000000032],[34.549120000000414,41.54719000000023],[34.550080000000264,41.548190000000545],[34.55090000000024,41.54865000000024],[34.55080000000032,41.54972000000066],[34.55132000000032,41.55084000000079],[34.5517500000002,41.552190000000394],[34.5540900000002,41.55208000000107],[34.55465000000038,41.55335000000048],[34.55495036745111,41.55319739150025],[34.55507889041547,41.553253129854056],[34.55509688736589,41.5533666829719],[34.555023500000175,41.553511677000245],[34.55562742100011,41.554433649000146],[34.55632436700006,41.55881496000001],[34.55448302800005,41.56498284500009],[34.55675417200018,41.570842959000004],[34.55443377000006,41.57879601500008],[34.55710602900007,41.585537049000095],[34.55563020200009,41.58855060400009],[34.55634587600014,41.59089548800017],[34.55646057801141,41.59099472980478],[34.556330000000116,41.59089000000006],[34.55511000000024,41.59455000000071],[34.55464000000006,41.59650000000005],[34.552990000000136,41.60176000000041],[34.55121000000014,41.60371000000032],[34.54932000000008,41.60507000000018],[34.54583000000014,41.60696000000007],[34.543964659416645,41.608088770199515]]],"type":"Polygon"}},{"type":"Feature","properties":{"area_id":"TR-37-011-2018600","name_tr":"Gökbelen Köyü","area_level":"neighbourhood","parent_id":"TR-37-011","endeksa_id":2018600},"geometry":{"coordinates":[[[34.52172091800003,41.608184409000216],[34.521315401000095,41.6081879900006],[34.510147594000046,41.614432561000626],[34.504515492000166,41.61383074800011],[34.50435769500018,41.611823562000495],[34.50668817500008,41.61040219400013],[34.50654857300009,41.60726613200018],[34.51096492800019,41.60156181900027],[34.50842926600018,41.59519687500017],[34.49990480300016,41.59008942600008],[34.48952253400006,41.58559536800004],[34.488906807000035,41.58584410700007],[34.48330069300016,41.58292290500049],[34.479368467000086,41.58308004200006],[34.47903256100017,41.58148922100003],[34.46787759699998,41.580972501000076],[34.469453152000085,41.57866245300005],[34.46698903500004,41.575789207000525],[34.46825692700014,41.56424867200036],[34.45386145176411,41.561297683355804],[34.456680000000176,41.55680000000012],[34.460280000000125,41.55349000000035],[34.464710000000025,41.551250000000095],[34.4660100000001,41.549890000000346],[34.46666000000005,41.5488900000002],[34.467840000000194,41.54736000000008],[34.47097000000019,41.544940000000054],[34.47380000000004,41.54104000000012],[34.47451000000012,41.539270000000045],[34.47708000000017,41.536160000000336],[34.47706462249556,41.53559487670725],[34.47710741800012,41.536168615000065],[34.48135868200018,41.538274787000034],[34.48092369100016,41.54017276400032],[34.48440398500014,41.54199203100012],[34.48459098400008,41.54195902300023],[34.48466697800012,41.54184325799997],[34.485110216000066,41.54205120100022],[34.48437986900012,41.5436861930005],[34.489835268000036,41.54363547300056],[34.502029457000106,41.54992038600005],[34.50610364540984,41.55012654994391],[34.50626889766602,41.55002238590987],[34.50616083545526,41.54988198585619],[34.50902000000036,41.55043000000046],[34.50928000000022,41.550270000000694],[34.509600000000205,41.550270000000694],[34.5104400000003,41.55066000000028],[34.51266000000027,41.550950000000114],[34.513160000000255,41.55086000000051],[34.51357000000024,41.550980000001005],[34.51391000000035,41.55090000000024],[34.51415000000031,41.55032000000057],[34.51451000000026,41.55022000000065],[34.515230000000315,41.55023000000023],[34.516350000000216,41.55060000000083],[34.51698000000033,41.55058000000059],[34.51783000000029,41.55097000000035],[34.518420000000276,41.550760000000025],[34.51928000000021,41.550950000000114],[34.52029000000027,41.550820000000556],[34.520810000000324,41.551070000000095],[34.521330000000376,41.55106000000069],[34.52193000000028,41.55063000000064],[34.52277000000032,41.55090000000024],[34.52334000000042,41.550920000000474],[34.5236800000003,41.55102000000022],[34.52415000000025,41.550910000000385],[34.524802781879316,41.55009800302901],[34.5250770750003,41.5499651030006],[34.52522530700031,41.55027175000066],[34.52658578885104,41.54961847512061],[34.526781881363945,41.54966141081081],[34.526778151410554,41.54981417442377],[34.52572338700014,41.55084702900007],[34.525597299000026,41.580253402000324],[34.51286272700008,41.58867683700015],[34.51406506100011,41.59489044100019],[34.51698847500006,41.59930387100013],[34.52535236099999,41.60315607300004],[34.52312482500008,41.60717623700015],[34.521628569000086,41.608013846000404],[34.52159684500015,41.60812126100018],[34.52172091800003,41.608184409000216]]],"type":"Polygon"}},{"type":"Feature","properties":{"area_id":"TR-37-011-2018611","name_tr":"Yeniköy Köyü","area_level":"neighbourhood","parent_id":"TR-37-011","endeksa_id":2018611},"geometry":{"coordinates":[[[34.408270000000186,41.61312000000032],[34.4078600000002,41.6140300000003],[34.40785000000011,41.61474000000004],[34.40765000000005,41.61492000000004],[34.4073800000001,41.61499000000015],[34.40647000000013,41.61495000000036],[34.40566000000007,41.61449000000016],[34.40514000000019,41.613800000000424],[34.404550000000086,41.612550000000056],[34.403720000000135,41.6116700000004],[34.40361000000007,41.61136000000033],[34.40366000000017,41.610950000000514],[34.40299000000016,41.61016000000052],[34.4020000000001,41.60992000000056],[34.400350000000174,41.60996000000034],[34.40032000000019,41.60981000000015],[34.39997000000017,41.60965000000027],[34.3990500000001,41.609520000000146],[34.39803000000006,41.60911000000033],[34.39695000000006,41.605280000000334],[34.39630000000011,41.60392000000007],[34.395880000000204,41.602680000000134],[34.39612000000017,41.60061000000047],[34.39612000000017,41.59920000000034],[34.39565000000016,41.59512000000029],[34.39547000000016,41.592640000000415],[34.39541000000003,41.58956000000012],[34.394210000000044,41.58622000000071],[34.39408000000009,41.58612000000028],[34.394020000000125,41.585390000000245],[34.39355000000012,41.584870000000194],[34.39435000000026,41.58395000000047],[34.39451000000014,41.58333000000033],[34.394980000000146,41.58271000000019],[34.39515000000017,41.5822100000002],[34.39518000000015,41.58193000000034],[34.39492000000013,41.58076000000017],[34.39545000000015,41.580220000000224],[34.39642000000009,41.5799200000003],[34.39708000000019,41.57923000000005],[34.39699000000019,41.57874000000015],[34.39736000000005,41.57784000000015],[34.39699000000019,41.57679000000064],[34.39736000000005,41.57587000000018],[34.397270000000105,41.57552000000004],[34.39739000000009,41.57432000000023],[34.39729000000011,41.573990000000094],[34.397490000000175,41.573590000000195],[34.39755000000014,41.57318000000038],[34.397840000000144,41.5728000000002],[34.39822000000015,41.5725300000006],[34.39801000000023,41.57221000000027],[34.39745000000005,41.57178000000039],[34.39615000000015,41.571240000000444],[34.394950000000165,41.570610000000215],[34.39416000000017,41.57033000000047],[34.39205000000021,41.569160000000295],[34.38991000000004,41.568720000000155],[34.38531000000012,41.55935000000005],[34.383190000000184,41.557230000000175],[34.38172000000009,41.55653000000012],[34.38176000000021,41.55517000000026],[34.381230000000244,41.554380000000265],[34.38118000000014,41.553670000000466],[34.38159000000019,41.553450000000055],[34.38236000000012,41.55267000000015],[34.38258000000019,41.550290000000075],[34.38294000000013,41.54957000000019],[34.38292000000007,41.549150000000225],[34.38187000000005,41.548220000000185],[34.382160000000056,41.547970000000646],[34.38236000000012,41.54764000000034],[34.38224000000014,41.54566000000011],[34.38211000000018,41.54520000000025],[34.38152000000025,41.544380000000615],[34.38158000000004,41.543630000000405],[34.38192000000009,41.54307000000023],[34.38167000000004,41.54210000000029],[34.38193000000007,41.54166000000009],[34.38211000000018,41.54093000000012],[34.38198000000011,41.540600000000495],[34.38198000000011,41.54030000000017],[34.38227000000012,41.53977000000003],[34.383180000000095,41.538960000000145],[34.383740000000046,41.53798000000029],[34.3853400000001,41.537000000000376],[34.38744000000014,41.53544000000005],[34.387920000000065,41.53477000000004],[34.38797000000011,41.53396000000038],[34.38859000000008,41.53277000000014],[34.38819000000018,41.53205000000008],[34.38899000000015,41.53147000000041],[34.389720000000125,41.53145000000018],[34.391420000000096,41.53117000000043],[34.39434000000011,41.530160000000706],[34.39521000000019,41.53000000000026],[34.39649000000003,41.53030000000024],[34.39738000000011,41.53097000000025],[34.39943000000011,41.53150000000005],[34.40007000000014,41.53144000000003],[34.40057000000007,41.53130000000016],[34.40060000000011,41.53109000000023],[34.400120000000186,41.53075000000035],[34.40036000000015,41.53035000000011],[34.40185000000014,41.530380000000434],[34.40212000000008,41.530160000000706],[34.40238000000011,41.52978000000053],[34.40337000000011,41.52949000000069],[34.40491000000003,41.52917000000036],[34.405610000000195,41.529230000000496],[34.40680000000009,41.52874000000031],[34.40751000000017,41.52869000000004],[34.40832000000006,41.5285100000001],[34.40935000000019,41.528640000000166],[34.409850000000176,41.52860000000027],[34.4105100000001,41.52823000000018],[34.41151000000025,41.52820000000054],[34.412230000000136,41.52801000000045],[34.41271000000023,41.52767000000006],[34.413810000000126,41.52745000000033],[34.414440000000184,41.527430000000095],[34.4155300000001,41.52748000000065],[34.41599000000019,41.52759000000037],[34.4163200000001,41.52780000000013],[34.417070000000194,41.52877000000012],[34.41740000000016,41.5288900000001],[34.41777000000019,41.52890000000019],[34.418240000000196,41.52874000000031],[34.418740000000184,41.52770000000038],[34.418590000000165,41.52711000000005],[34.418680000000165,41.527060000000176],[34.41940000000005,41.52742000000012],[34.41993000000019,41.5273200000002],[34.420480000000055,41.52780000000013],[34.42123000000015,41.52784000000008],[34.42204000000015,41.52873000000034],[34.42253000000005,41.52917000000036],[34.42283000000015,41.52929000000012],[34.423640000000034,41.52940000000035],[34.42439000000013,41.529670000000124],[34.42517000000015,41.52949000000069],[34.42623000000009,41.52966000000055],[34.427010000000166,41.52940000000035],[34.42827000000017,41.529360000000054],[34.428780000000074,41.52916000000039],[34.42941000000013,41.52878000000021],[34.43072000000018,41.52741000000054],[34.430980000000034,41.527310000000114],[34.431690000000174,41.52726000000024],[34.433580000000234,41.52736000000016],[34.43496000000016,41.52680000000015],[34.43534000000017,41.526750000000106],[34.436980000000176,41.52699000000007],[34.43805000000003,41.527470000000164],[34.43877000000009,41.52763000000027],[34.43979000000013,41.52760000000012],[34.442060000000026,41.526940000000195],[34.44425000000018,41.52613000000014],[34.44451000000004,41.5261100000003],[34.44518000000005,41.52730000000014],[34.44542000000018,41.5275000000002],[34.44580000000019,41.52746000000042],[34.44612000000018,41.52733000000035],[34.44728000000009,41.526350000000264],[34.44754000000012,41.526070000000516],[34.447860000000105,41.52534000000037],[34.44827000000009,41.52517000000012],[34.45010000000019,41.52496000000036],[34.45056000000005,41.52522000000016],[34.45138000000003,41.52549000000016],[34.454550000000154,41.52581000000032],[34.456410000000176,41.52622000000014],[34.45794000000012,41.52692000000036],[34.45931000000013,41.52803000000017],[34.45974000000018,41.528270000000134],[34.46036000000015,41.52837000000039],[34.46089000000012,41.52797000000015],[34.461430000000064,41.527370000000076],[34.4623600000001,41.526970000000404],[34.46373000000011,41.52719000000013],[34.46439000000021,41.52702000000028],[34.46497000000005,41.527060000000176],[34.46559000000019,41.52696000000026],[34.46599000000003,41.52711000000005],[34.46748000000008,41.527030000000366],[34.46761000000015,41.527090000000385],[34.46721000000008,41.52803000000017],[34.4673600000001,41.5284400000005],[34.467750000000194,41.52881000000019],[34.4695200000001,41.52958000000035],[34.470200000000034,41.530590000000075],[34.47052000000008,41.53075000000035],[34.47133000000014,41.5306200000004],[34.47153000000014,41.530720000000144],[34.47141000000016,41.531560000000184],[34.4714800000001,41.5319300000001],[34.472300000000075,41.53238000000039],[34.47242000000006,41.53267000000022],[34.47169000000025,41.533220000000256],[34.471550000000036,41.53349000000054],[34.471680000000106,41.53382000000016],[34.474720000000104,41.53455000000014],[34.47572000000008,41.5339900000007],[34.477040000000045,41.53469000000035],[34.47708000000017,41.536160000000336],[34.47451000000012,41.539270000000045],[34.47380000000004,41.54104000000012],[34.47097000000019,41.544940000000054],[34.467840000000194,41.54736000000008],[34.46666000000005,41.5488900000002],[34.4660100000001,41.549890000000346],[34.464710000000025,41.551250000000095],[34.460280000000125,41.55349000000035],[34.456680000000176,41.55680000000012],[34.45386145176411,41.561297683355804],[34.44800000000015,41.56750000000011],[34.44915000000009,41.58286000000015],[34.44838000000016,41.585910000000126],[34.44980000000004,41.59006000000011],[34.45016000000015,41.59337000000028],[34.450930000000085,41.59603000000027],[34.45116000000013,41.59810000000027],[34.45210000000009,41.60191000000003],[34.45183000000014,41.60247000000021],[34.451390000000174,41.60281000000009],[34.44897209707443,41.60294089159828],[34.44764523630511,41.60324133450791],[34.4477642710948,41.603128896979456],[34.44767099121458,41.60300762948191],[34.44694000000021,41.60302000000024],[34.446650000000204,41.60281000000009],[34.44636000000014,41.60279000000037],[34.446160000000134,41.60284000000024],[34.445840000000146,41.60327000000029],[34.44538000000006,41.60313000000008],[34.44525000000016,41.603200000000186],[34.44512000000009,41.603570000000275],[34.44454000000019,41.60394000000031],[34.444390000000055,41.60395000000028],[34.44394000000011,41.60381000000024],[34.44363000000004,41.60335000000015],[34.443430000000035,41.603200000000186],[34.4427500000001,41.60300000000018],[34.4414000000001,41.602270000000146],[34.44124000000022,41.60209000000003],[34.44053000000008,41.6024000000001],[34.4402300000001,41.602740000000495],[34.43976000000015,41.60271000000017],[34.43855000000019,41.603380000000186],[34.43803000000014,41.60325000000006],[34.4379400000002,41.602990000000034],[34.43762000000015,41.6029200000001],[34.43726000000004,41.60316000000006],[34.437110000000075,41.603540000000066],[34.42337000000009,41.603540000000066],[34.41712000000007,41.60551000000021],[34.416480000000035,41.60529000000031],[34.4153300000001,41.60514000000012],[34.41489000000013,41.60524000000004],[34.40978000000007,41.60532000000012],[34.408900000000074,41.60640000000012],[34.40893000000011,41.606890000000135],[34.408180000000186,41.612860000000126],[34.408270000000186,41.61312000000032]]],"type":"Polygon"}},{"type":"Feature","properties":{"area_id":"TR-37-011-41860","name_tr":"Gelinbükü","area_level":"neighbourhood","parent_id":"TR-37-011","endeksa_id":41860},"geometry":{"coordinates":[[[34.50110287300015,41.616973878000124],[34.49867300100004,41.61489477900068],[34.49506525800001,41.61538169300013],[34.491616445000034,41.61706715400021],[34.48907384299997,41.61784989900008],[34.489236017999986,41.62001248400037],[34.48313265700011,41.62056820599997],[34.485752843,41.61796079500016],[34.48126648100009,41.61193480700001],[34.481687973000135,41.60662653300028],[34.47100481500013,41.605494045],[34.46415276900018,41.598001618000126],[34.46477207200019,41.58960131300012],[34.46846892500008,41.58099989200008],[34.47903256100017,41.58148922100003],[34.479368467000086,41.58308004200006],[34.48330069300016,41.58292290500049],[34.488906807000035,41.58584410700007],[34.48952253400006,41.58559536800004],[34.49990480300016,41.59008942600008],[34.50842926600018,41.59519687500017],[34.51096492800019,41.60156181900027],[34.50654857300009,41.60726613200018],[34.50668817500008,41.61040219400013],[34.50435769500018,41.611823562000495],[34.504509139000106,41.613749934],[34.50448303800016,41.61386063900005],[34.50110287300015,41.616973878000124]]],"type":"Polygon"}},{"type":"Feature","properties":{"area_id":"TR-37-011-2018594","name_tr":"Akçasu Köyü","area_level":"neighbourhood","parent_id":"TR-37-011","endeksa_id":2018594},"geometry":{"coordinates":[[[34.39803000000006,41.60911000000033],[34.39766000000003,41.61021000000039],[34.397460000000194,41.613330000000076],[34.39146000000005,41.61474000000004],[34.39048000000014,41.61716000000007],[34.38843000000014,41.618540000000394],[34.390550000000076,41.6193600000002],[34.39075000000008,41.61957000000035],[34.390740000000164,41.61970000000031],[34.39048000000014,41.619890000000396],[34.38923000000011,41.62048000000033],[34.38903000000005,41.62094000000019],[34.38883000000004,41.62189000000046],[34.38879789510423,41.62292787632174],[34.376655195000126,41.61611984700011],[34.374067842000045,41.61521408100009],[34.36559520200012,41.61263549199998],[34.36543643700003,41.61269255000013],[34.36366381000005,41.615977361000546],[34.35593572400006,41.61535780700012],[34.34375867000011,41.60786505400017],[34.343770756000026,41.60770654800001],[34.34553567700016,41.60639618200014],[34.3455547690001,41.606278070000315],[34.341055865000044,41.60436467100004],[34.340990704000035,41.60426812200012],[34.341652565000174,41.60278865600026],[34.341745203000016,41.60272635100034],[34.34468642600012,41.60388543400023],[34.347044353000115,41.60306421600018],[34.3469862390001,41.60295675900022],[34.343711032000044,41.6014338500006],[34.34630236100014,41.59785698900015],[34.345858298999985,41.59030550500012],[34.35497780400004,41.58964078700018],[34.362305479000156,41.59369728300004],[34.36457552100006,41.59237791300012],[34.36246166600006,41.578848345000154],[34.36775312200018,41.56943492400012],[34.369525630943485,41.563811309441235],[34.36966000000018,41.563670000000116],[34.369800000000055,41.562810000000695],[34.37006000000008,41.56234000000018],[34.37030000000004,41.56162000000029],[34.37050000000005,41.56049000000007],[34.371040000000164,41.55935000000005],[34.37229000000019,41.55759000000012],[34.37303000000014,41.557540000000245],[34.374660000000176,41.55772000000019],[34.37672000000009,41.55710000000005],[34.37811000000016,41.5570000000003],[34.37867000000017,41.55669000000023],[34.38172000000009,41.55653000000012],[34.383190000000184,41.557230000000175],[34.38531000000012,41.55935000000005],[34.38991000000004,41.568720000000155],[34.39205000000021,41.569160000000295],[34.39416000000017,41.57033000000047],[34.394950000000165,41.570610000000215],[34.39615000000015,41.571240000000444],[34.39745000000005,41.57178000000039],[34.39801000000023,41.57221000000027],[34.39822000000015,41.5725300000006],[34.397840000000144,41.5728000000002],[34.39755000000014,41.57318000000038],[34.397490000000175,41.573590000000195],[34.39729000000011,41.573990000000094],[34.39739000000009,41.57432000000023],[34.397270000000105,41.57552000000004],[34.39736000000005,41.57587000000018],[34.39699000000019,41.57679000000064],[34.39736000000005,41.57784000000015],[34.39699000000019,41.57874000000015],[34.39708000000019,41.57923000000005],[34.39642000000009,41.5799200000003],[34.39545000000015,41.580220000000224],[34.39492000000013,41.58076000000017],[34.39518000000015,41.58193000000034],[34.39515000000017,41.5822100000002],[34.394980000000146,41.58271000000019],[34.39451000000014,41.58333000000033],[34.39435000000026,41.58395000000047],[34.39355000000012,41.584870000000194],[34.394020000000125,41.585390000000245],[34.39408000000009,41.58612000000028],[34.394210000000044,41.58622000000071],[34.39541000000003,41.58956000000012],[34.39547000000016,41.592640000000415],[34.39565000000016,41.59512000000029],[34.39612000000017,41.59920000000034],[34.39612000000017,41.60061000000047],[34.395880000000204,41.602680000000134],[34.39630000000011,41.60392000000007],[34.39695000000006,41.605280000000334],[34.39803000000006,41.60911000000033]]],"type":"Polygon"}},{"type":"Feature","properties":{"area_id":"TR-37-011-41862","name_tr":"Vakıf Geymene","area_level":"neighbourhood","parent_id":"TR-37-011","endeksa_id":41862},"geometry":{"coordinates":[[[34.45402052100013,41.62130780100034],[34.45393949800007,41.6214042090005],[34.44832689399999,41.62315882600046],[34.44766627700017,41.62317778099998],[34.44631932400017,41.622610317000465],[34.44489844200001,41.62250786800007],[34.44387688000006,41.62266798100012],[34.4426516100001,41.62341723999998],[34.44261229600005,41.62352039500013],[34.44182518600013,41.62167892400004],[34.43823669600005,41.62195566200006],[34.43810596800006,41.62183013600048],[34.43796482700003,41.62197820100039],[34.430917735000094,41.622552958000426],[34.43077028900018,41.622458496000604],[34.43065679700004,41.62257421300018],[34.42503734600018,41.62300928800016],[34.42498382500014,41.62289953400068],[34.426554519000035,41.61865775700028],[34.41805187900013,41.616497000000095],[34.417845630000045,41.616264030000195],[34.417836055000066,41.616369839000185],[34.4177095710001,41.61640915400011],[34.41595620100014,41.6159690260003],[34.415804449000746,41.61605334423109],[34.41525000000007,41.61419000000018],[34.4152000000002,41.6132400000003],[34.415090000000134,41.612740000000144],[34.414530000000184,41.61288000000036],[34.41319000000016,41.61269000000027],[34.411840000000154,41.61217000000056],[34.41050000000013,41.611900000000276],[34.41036000000008,41.61210000000045],[34.40965000000017,41.61254000000008],[34.408270000000186,41.61312000000032],[34.408180000000186,41.612860000000126],[34.40893000000011,41.606890000000135],[34.408900000000074,41.60640000000012],[34.40978000000007,41.60532000000012],[34.41489000000013,41.60524000000004],[34.4153300000001,41.60514000000012],[34.416480000000035,41.60529000000031],[34.41712000000007,41.60551000000021],[34.42337000000009,41.603540000000066],[34.437110000000075,41.603540000000066],[34.43726000000004,41.60316000000006],[34.43762000000015,41.6029200000001],[34.4379400000002,41.602990000000034],[34.43803000000014,41.60325000000006],[34.43855000000019,41.603380000000186],[34.43976000000015,41.60271000000017],[34.4402300000001,41.602740000000495],[34.44053000000008,41.6024000000001],[34.44124000000022,41.60209000000003],[34.4414000000001,41.602270000000146],[34.4427500000001,41.60300000000018],[34.443430000000035,41.603200000000186],[34.44363000000004,41.60335000000015],[34.44394000000011,41.60381000000024],[34.444390000000055,41.60395000000028],[34.44454000000019,41.60394000000031],[34.44512000000009,41.603570000000275],[34.44525000000016,41.603200000000186],[34.44538000000006,41.60313000000008],[34.445840000000146,41.60327000000029],[34.446160000000134,41.60284000000024],[34.44636000000014,41.60279000000037],[34.446650000000204,41.60281000000009],[34.44694000000021,41.60302000000024],[34.44767099121458,41.60300762948191],[34.4477642710948,41.603128896979456],[34.44764523630511,41.60324133450791],[34.44680911400019,41.603489503000105],[34.44686443900008,41.60358601900009],[34.44856987100013,41.60447095200004],[34.45661821900012,41.60786552100012],[34.4564971640001,41.60864965100052],[34.44971551200018,41.61458036199997],[34.453815098000064,41.6184169230001],[34.45402052100013,41.62130780100034]]],"type":"Polygon"}},{"type":"Feature","properties":{"area_id":"TR-37-011-2018595","name_tr":"Bağdere Köyü","area_level":"neighbourhood","parent_id":"TR-37-011","endeksa_id":2018595},"geometry":{"coordinates":[[[34.482912224000074,41.62082410500011],[34.47996369399999,41.61909837700017],[34.47491525600009,41.61914049000052],[34.46813070900015,41.62178680200009],[34.46561521200016,41.618721732000154],[34.461228102000064,41.61810281100037],[34.460130402000175,41.61860503000008],[34.45770499300016,41.624424288],[34.45585863500014,41.62543604800004],[34.45418807900012,41.62372228800018],[34.453815098000064,41.6184169230001],[34.44971551200018,41.61458036199997],[34.4564971640001,41.60864965100052],[34.45661821900012,41.60786552100012],[34.44856987100013,41.60447095200004],[34.44686443900008,41.60358601900009],[34.44680911400019,41.603489503000105],[34.44764523630511,41.60324133450791],[34.44897209707443,41.60294089159828],[34.451390000000174,41.60281000000009],[34.45183000000014,41.60247000000021],[34.45210000000009,41.60191000000003],[34.45116000000013,41.59810000000027],[34.450930000000085,41.59603000000027],[34.45016000000015,41.59337000000028],[34.44980000000004,41.59006000000011],[34.44838000000016,41.585910000000126],[34.44915000000009,41.58286000000015],[34.44800000000015,41.56750000000011],[34.45386145176411,41.561297683355804],[34.46825692700014,41.56424867200036],[34.46698903500004,41.575789207000525],[34.469453152000085,41.57866245300005],[34.46787759699998,41.580972501000076],[34.46846892500008,41.58099989200008],[34.46477207200019,41.58960131300012],[34.46415276900018,41.598001618000126],[34.47100481500013,41.605494045],[34.481687973000135,41.60662653300028],[34.48126648100009,41.61193480700001],[34.485752843,41.61796079500016],[34.48313265700011,41.62056820599997],[34.48296693300006,41.62058365500013],[34.48311115200005,41.620756850000134],[34.482912224000074,41.62082410500011]]],"type":"Polygon"}},{"type":"Feature","properties":{"area_id":"TR-37-011-2018607","name_tr":"Sarıalan Köyü","area_level":"neighbourhood","parent_id":"TR-37-011","endeksa_id":2018607},"geometry":{"coordinates":[[[34.59460002667254,41.630469928874334],[34.59427788344561,41.630378986076664],[34.594053678024636,41.630575729584905],[34.59461161300004,41.62616413400008],[34.58291624700007,41.62752423300026],[34.57445071700005,41.62970081400067],[34.57129770800003,41.62733329100013],[34.5672404500001,41.6295662550001],[34.56337654300006,41.62766793700007],[34.5614318389928,41.62964343426984],[34.5616500000001,41.62923000000029],[34.561610000000144,41.628480000000195],[34.562070000000176,41.62781000000018],[34.56181000000021,41.62580000000014],[34.56187000000017,41.621070000000145],[34.56134000000003,41.61599000000007],[34.56122000000005,41.61309000000011],[34.56128000000018,41.61049000000014],[34.561690000000226,41.60807000000028],[34.562220000000195,41.60287000000005],[34.563803693043894,41.59742734918416],[34.56392553400008,41.59739485500046],[34.570675570000105,41.59937148000017],[34.57701478800004,41.60533695900034],[34.585048781000125,41.60506464800028],[34.59144860500015,41.60668181000017],[34.59771031600019,41.61219449000009],[34.59777509200018,41.61223376800018],[34.597732602000065,41.612163223000266],[34.59788993781376,41.612068458722945],[34.59778000000006,41.61223000000041],[34.59681000000012,41.613330000000076],[34.59625000000011,41.61406000000011],[34.59445000000005,41.6143800000001],[34.59348000000011,41.615930000000446],[34.592790000000036,41.616550000000075],[34.59093000000013,41.617450000000304],[34.589860000000044,41.61809000000011],[34.589980000000025,41.61862000000008],[34.589450000000056,41.618570000000034],[34.58974000000006,41.61961000000014],[34.59234000000009,41.62094000000019],[34.593420000000094,41.621720000000096],[34.594690000000185,41.624010000000396],[34.594600000000185,41.62460000000016],[34.59492000000006,41.62553000000037],[34.595210000000066,41.626030000000526],[34.59532000000007,41.626590000000135],[34.59485000000012,41.62949000000009],[34.59460002667254,41.630469928874334]]],"type":"Polygon"}},{"type":"Feature","properties":{"area_id":"TR-37-011-2018602","name_tr":"Halkabük Köyü","area_level":"neighbourhood","parent_id":"TR-37-011","endeksa_id":2018602},"geometry":{"coordinates":[[[34.52611807989115,41.62115242421743],[34.52600162606126,41.62127671660306],[34.522358949000136,41.62098184500019],[34.51771667800017,41.62566125100011],[34.514646220000145,41.62555607000007],[34.51322399900016,41.62055362600006],[34.50061108900013,41.617426826000155],[34.50448303800016,41.61386063900005],[34.504509139000106,41.613749934],[34.504515492000166,41.61383074800011],[34.510147594000046,41.614432561000626],[34.521315401000095,41.6081879900006],[34.5313161900001,41.60809600900018],[34.538328248000084,41.60438894100059],[34.53982325600015,41.60755185000005],[34.53904306900017,41.608653734000086],[34.53925655900008,41.609925492000116],[34.53942205599998,41.60992797900042],[34.543257359000165,41.60761872500012],[34.54340516900015,41.60764039700018],[34.543964659416645,41.608088770199515],[34.5416400000002,41.609740000000045],[34.540100000000166,41.61057000000034],[34.538660000000164,41.61034000000012],[34.539270000000045,41.611780000000294],[34.539670000000115,41.611750000000086],[34.539890000000185,41.61215000000033],[34.53969000000012,41.6124600000004],[34.5390000000001,41.61292000000009],[34.538990000000126,41.6130600000003],[34.53929000000011,41.613610000000335],[34.539400000000114,41.614230000000475],[34.53987000000012,41.61486000000019],[34.53895000000023,41.61508000000009],[34.53907000000021,41.615190000000325],[34.53938000000005,41.61518000000024],[34.53978000000012,41.615680000000395],[34.53845000000024,41.61601000000013],[34.538620000000094,41.616550000000075],[34.53928000000013,41.617270000000474],[34.538780000000145,41.61737000000022],[34.53799000000015,41.61783000000008],[34.53659000000016,41.618160000000216],[34.53556000000003,41.61881000000017],[34.53507000000013,41.61879000000033],[34.53485000000006,41.61870000000016],[34.53441000000009,41.6193600000002],[34.53412000000009,41.619530000000054],[34.531900000000064,41.6185000000001],[34.53138000000018,41.61851000000007],[34.53025000000014,41.618840000000375],[34.52765000000011,41.618570000000034],[34.526880000000176,41.619650000000036],[34.52671000000015,41.620120000000384],[34.52603000000005,41.62115000000034],[34.52611807989115,41.62115242421743]]],"type":"Polygon"}},{"type":"Feature","properties":{"area_id":"TR-37-011-2018610","name_tr":"Yenice Köyü","area_level":"neighbourhood","parent_id":"TR-37-011","endeksa_id":2018610},"geometry":{"coordinates":[[[34.5614318389928,41.62964343426984],[34.56019000000009,41.62970000000007],[34.55920000000003,41.62946000000011],[34.55846000000014,41.629410000000235],[34.5570400000002,41.62960000000032],[34.55663000000004,41.62954000000036],[34.55628000000024,41.629280000000165],[34.556000000000154,41.62926000000061],[34.55524000000014,41.62979000000041],[34.55437000000012,41.62986000000052],[34.55301000000003,41.6296500000002],[34.55233000000004,41.62911000000031],[34.551410000000146,41.629410000000235],[34.55162000000013,41.62986000000052],[34.55161000000015,41.63171000000011],[34.551420000000064,41.63308000000012],[34.54991815667199,41.63629742960785],[34.54629000000017,41.635510000000465],[34.54570000000024,41.635230000000035],[34.54464000000007,41.63491000000056],[34.54371000000003,41.633800000000406],[34.543420000000026,41.632880000000284],[34.54371000000003,41.63000000000005],[34.54532000000023,41.62725000000057],[34.54628000000008,41.626530000000685],[34.54249000000016,41.6251400000001],[34.54102000000006,41.62434000000013],[34.5398606037794,41.62381981462357],[34.539681847881354,41.62387767842074],[34.53964349824355,41.623722406056686],[34.538388116634565,41.62315922773297],[34.536582517438205,41.622421255671554],[34.53389621079049,41.62162196849715],[34.5325699323198,41.62131909298671],[34.53082022862799,41.6212402387942],[34.52851687911476,41.62130000000013],[34.52603000000005,41.62115000000034],[34.52671000000015,41.620120000000384],[34.526880000000176,41.619650000000036],[34.52765000000011,41.618570000000034],[34.53025000000014,41.618840000000375],[34.53138000000018,41.61851000000007],[34.531900000000064,41.6185000000001],[34.53412000000009,41.619530000000054],[34.53441000000009,41.6193600000002],[34.53485000000006,41.61870000000016],[34.53507000000013,41.61879000000033],[34.53556000000003,41.61881000000017],[34.53659000000016,41.618160000000216],[34.53799000000015,41.61783000000008],[34.538780000000145,41.61737000000022],[34.53928000000013,41.617270000000474],[34.538620000000094,41.616550000000075],[34.53845000000024,41.61601000000013],[34.53978000000012,41.615680000000395],[34.53938000000005,41.61518000000024],[34.53907000000021,41.615190000000325],[34.53895000000023,41.61508000000009],[34.53987000000012,41.61486000000019],[34.539400000000114,41.614230000000475],[34.53929000000011,41.613610000000335],[34.538990000000126,41.6130600000003],[34.5390000000001,41.61292000000009],[34.53969000000012,41.6124600000004],[34.539890000000185,41.61215000000033],[34.539670000000115,41.611750000000086],[34.539270000000045,41.611780000000294],[34.538660000000164,41.61034000000012],[34.540100000000166,41.61057000000034],[34.5416400000002,41.609740000000045],[34.543964659416645,41.608088770199515],[34.54583000000014,41.60696000000007],[34.54932000000008,41.60507000000018],[34.55121000000014,41.60371000000032],[34.552990000000136,41.60176000000041],[34.55464000000006,41.59650000000005],[34.55511000000024,41.59455000000071],[34.556330000000116,41.59089000000006],[34.55926000000005,41.59324000000032],[34.563803693043894,41.59742734918416],[34.562220000000195,41.60287000000005],[34.561690000000226,41.60807000000028],[34.56128000000018,41.61049000000014],[34.56122000000005,41.61309000000011],[34.56134000000003,41.61599000000007],[34.56187000000017,41.621070000000145],[34.56181000000021,41.62580000000014],[34.562070000000176,41.62781000000018],[34.561610000000144,41.628480000000195],[34.5616500000001,41.62923000000029],[34.5614318389928,41.62964343426984]]],"type":"Polygon"}},{"type":"Feature","properties":{"area_id":"TR-37-011-2018608","name_tr":"Sirke Köyü","area_level":"neighbourhood","parent_id":"TR-37-011","endeksa_id":2018608},"geometry":{"coordinates":[[[34.37327751652157,41.64502764354063],[34.37103448100015,41.64684516700015],[34.364546254000004,41.646745593000446],[34.357279710000114,41.649440304000564],[34.34628911700014,41.646417209000276],[34.34348720600019,41.64417218100033],[34.34333664500008,41.644244533999995],[34.34309210100008,41.64504003400009],[34.34285960000017,41.644968561000496],[34.3429489240001,41.645505788000094],[34.342660840000065,41.64547724000022],[34.34283149700002,41.644959922000226],[34.34255688700006,41.644932709000045],[34.34270000000009,41.643500000000074],[34.34038000000015,41.63975000000028],[34.33950000000016,41.63815000000005],[34.33837000000011,41.63561000000021],[34.33589000000006,41.6321200000001],[34.33392000000015,41.629090000000076],[34.33387248256571,41.629118071838434],[34.335082200000045,41.62058627900018],[34.339054963000024,41.61173731000014],[34.33825128700016,41.60953911300004],[34.33953510600003,41.606142134000436],[34.33778415100005,41.605276936999985],[34.33785448800006,41.60513695600008],[34.337912780000124,41.604904902000385],[34.33984924000009,41.605391340000665],[34.339894078999976,41.60548559500006],[34.343548332000125,41.60773550100038],[34.343770756000026,41.60770654800001],[34.34375867000011,41.60786505400017],[34.35593572400006,41.61535780700012],[34.36366381000005,41.615977361000546],[34.36543643700003,41.61269255000013],[34.36559520200012,41.61263549199998],[34.374067842000045,41.61521408100009],[34.376655195000126,41.61611984700011],[34.38879789510423,41.62292787632174],[34.38765000000012,41.62317000000013],[34.386340000000075,41.62398000000019],[34.385510000000124,41.62426000000045],[34.382340000000056,41.627080000000035],[34.37975000000017,41.6282200000004],[34.378840000000196,41.629100000000165],[34.37829000000016,41.62989000000016],[34.378190000000245,41.630180000000166],[34.37772000000007,41.63078000000007],[34.37672000000009,41.63157000000007],[34.37635000000023,41.631760000000156],[34.37591000000003,41.63215000000031],[34.37558000000007,41.63271000000043],[34.374970000000076,41.63308000000012],[34.37483000000003,41.6332900000001],[34.37496000000016,41.633500000000424],[34.37566000000015,41.633830000000046],[34.37600000000003,41.63452000000029],[34.37635000000023,41.63592000000028],[34.37628000000012,41.6362400000001],[34.37658000000005,41.63674000000009],[34.377300000000105,41.63724000000008],[34.37474000000003,41.63835000000029],[34.37366000000003,41.64005000000026],[34.37385000000012,41.64104000000043],[34.37327751652157,41.64502764354063]]],"type":"Polygon"}},{"type":"Feature","properties":{"area_id":"TR-37-011-41861","name_tr":"Hanönü","area_level":"neighbourhood","parent_id":"TR-37-011","endeksa_id":41861},"geometry":{"coordinates":[[[34.465941022000095,41.649055515999976],[34.465975262000086,41.648951758000464],[34.46583540800003,41.6488851740001],[34.460881251000046,41.649297738000314],[34.447215080000035,41.64483987300014],[34.43794562000011,41.63293667200003],[34.43799240500016,41.63284260900048],[34.439466118000155,41.63202502700051],[34.44068350300006,41.63043216900019],[34.44094205000005,41.62962673900017],[34.44142093500017,41.625294180000026],[34.44280470300009,41.62408926600017],[34.44261229600005,41.62352039500013],[34.4426516100001,41.62341723999998],[34.44387688000006,41.62266798100012],[34.44489844200001,41.62250786800007],[34.44631932400017,41.622610317000465],[34.44766627700017,41.62317778099998],[34.44832689399999,41.62315882600046],[34.45393949800007,41.6214042090005],[34.45402052100013,41.62130780100034],[34.45418807900012,41.62372228800018],[34.45585863500014,41.62543604800004],[34.45770499300016,41.624424288],[34.460130402000175,41.61860503000008],[34.461228102000064,41.61810281100037],[34.46561521200016,41.618721732000154],[34.46813070900015,41.62178680200009],[34.47491525600009,41.61914049000052],[34.47996369399999,41.61909837700017],[34.482912224000074,41.62082410500011],[34.483318502000145,41.621010830000046],[34.48349506799997,41.62100618300008],[34.48488976200008,41.622141840000154],[34.48605203400018,41.62973705100006],[34.48656838900018,41.638128559000165],[34.487712300000055,41.64071274600053],[34.48602232100012,41.64242246400005],[34.48562923800017,41.64840368300014],[34.473494366000125,41.6475644140001],[34.473366904000045,41.64761543300011],[34.47339396200016,41.64773644500036],[34.474975347545694,41.64881628794183],[34.47501743655033,41.648940370817],[34.47477531603897,41.6490155923392],[34.47377284558513,41.648433642643795],[34.47320692300008,41.64843289300006],[34.47220078100014,41.64928217400012],[34.46662711600004,41.6484533360001],[34.466034621999995,41.64886827300006],[34.466227955000136,41.648851870000044],[34.465941022000095,41.649055515999976]]],"type":"Polygon"}},{"type":"Feature","properties":{"area_id":"TR-37-011-2018606","name_tr":"Küreçayı Köyü","area_level":"neighbourhood","parent_id":"TR-37-011","endeksa_id":2018606},"geometry":{"coordinates":[[[34.41598298965039,41.64927364514034],[34.40476000000024,41.65336000000019],[34.401430000000175,41.653510000000495],[34.3977900000001,41.65300000000025],[34.39134000000007,41.65330000000017],[34.388140000000135,41.65324000000021],[34.38542000000018,41.653570000000116],[34.38497000000007,41.65424000000013],[34.38452000000012,41.65529000000015],[34.384420000000034,41.657410000000596],[34.38416000000018,41.658280000000104],[34.384700000000066,41.65906000000018],[34.383725049148836,41.660105668005315],[34.383090000000095,41.659550000000195],[34.382620000000145,41.65926000000019],[34.380270000000166,41.65834000000012],[34.38069000000013,41.655090000000484],[34.378350000000125,41.65124000000026],[34.378130000000056,41.65111000000019],[34.37731000000008,41.651000000000295],[34.376150000000166,41.64940000000007],[34.374940000000095,41.648020000000315],[34.37481000000014,41.64768000000021],[34.37316000000004,41.645200000000045],[34.37327751652157,41.64502764354063],[34.37385000000012,41.64104000000043],[34.37366000000003,41.64005000000026],[34.37474000000003,41.63835000000029],[34.377300000000105,41.63724000000008],[34.37658000000005,41.63674000000009],[34.37628000000012,41.6362400000001],[34.37635000000023,41.63592000000028],[34.37600000000003,41.63452000000029],[34.37566000000015,41.633830000000046],[34.37496000000016,41.633500000000424],[34.37483000000003,41.6332900000001],[34.374970000000076,41.63308000000012],[34.37558000000007,41.63271000000043],[34.37591000000003,41.63215000000031],[34.37635000000023,41.631760000000156],[34.37672000000009,41.63157000000007],[34.37772000000007,41.63078000000007],[34.378190000000245,41.630180000000166],[34.37829000000016,41.62989000000016],[34.378840000000196,41.629100000000165],[34.37975000000017,41.6282200000004],[34.382340000000056,41.627080000000035],[34.385510000000124,41.62426000000045],[34.386340000000075,41.62398000000019],[34.38765000000012,41.62317000000013],[34.38879789510423,41.62292787632174],[34.38883000000004,41.62189000000046],[34.38903000000005,41.62094000000019],[34.38923000000011,41.62048000000033],[34.39048000000014,41.619890000000396],[34.390740000000164,41.61970000000031],[34.39075000000008,41.61957000000035],[34.390550000000076,41.6193600000002],[34.38843000000014,41.618540000000394],[34.39048000000014,41.61716000000007],[34.39146000000005,41.61474000000004],[34.397460000000194,41.613330000000076],[34.39766000000003,41.61021000000039],[34.39803000000006,41.60911000000033],[34.3990500000001,41.609520000000146],[34.39997000000017,41.60965000000027],[34.40032000000019,41.60981000000015],[34.400350000000174,41.60996000000034],[34.4020000000001,41.60992000000056],[34.40299000000016,41.61016000000052],[34.40366000000017,41.610950000000514],[34.40361000000007,41.61136000000033],[34.403720000000135,41.6116700000004],[34.404550000000086,41.612550000000056],[34.40514000000019,41.613800000000424],[34.40566000000007,41.61449000000016],[34.40647000000013,41.61495000000036],[34.4073800000001,41.61499000000015],[34.40765000000005,41.61492000000004],[34.40785000000011,41.61474000000004],[34.4078600000002,41.6140300000003],[34.408270000000186,41.61312000000032],[34.40965000000017,41.61254000000008],[34.41036000000008,41.61210000000045],[34.41050000000013,41.611900000000276],[34.411840000000154,41.61217000000056],[34.41319000000016,41.61269000000027],[34.414530000000184,41.61288000000036],[34.415090000000134,41.612740000000144],[34.4152000000002,41.6132400000003],[34.41525000000007,41.61419000000018],[34.415804449000746,41.61605334423109],[34.41661000000016,41.61817000000036],[34.416480000000035,41.61908000000034],[34.41656000000006,41.61961000000014],[34.41690000000017,41.62054000000035],[34.41722000000016,41.621110000000044],[34.41786000000019,41.621820000000355],[34.418650000000184,41.62249000000037],[34.41873000000004,41.622660000000224],[34.41850000000022,41.62295000000006],[34.41755000000012,41.62369000000018],[34.417380000000094,41.62407000000036],[34.42408000000023,41.633190000000354],[34.423200000000065,41.637310000000184],[34.42599000000013,41.64088000000015],[34.42617000000013,41.64159000000046],[34.420850000000144,41.645180000000494],[34.41774000000004,41.647870000000125],[34.41598298965039,41.64927364514034]]],"type":"Polygon"}},{"type":"Feature","properties":{"area_id":"TR-37-011-2018597","name_tr":"Çakırçay Köyü","area_level":"neighbourhood","parent_id":"TR-37-011","endeksa_id":2018597},"geometry":{"coordinates":[[[34.60316746200016,41.65957913500006],[34.60308639400017,41.659409986000696],[34.595047505000025,41.657029605000105],[34.587862825000116,41.64998119400019],[34.58253248800003,41.64868844199998],[34.54910444200016,41.66019942800011],[34.54603581000009,41.66305942800017],[34.54565857500006,41.66391738800007],[34.545174144265786,41.66408378606695],[34.539690826000026,41.650022949000004],[34.54458736300006,41.64395343000007],[34.54481057000015,41.64405900700001],[34.54513845700001,41.643270315000166],[34.54558643800004,41.64271501500019],[34.54580928600018,41.64289479500019],[34.54591053300015,41.64277677100051],[34.54568955000008,41.64258720100014],[34.54606777400011,41.64211836900006],[34.546308646000114,41.642312689000164],[34.54686282200015,41.64121097700013],[34.54713619500012,41.6413480070006],[34.54892319600009,41.63926488400028],[34.54991815667199,41.63629742960785],[34.551420000000064,41.63308000000012],[34.55161000000015,41.63171000000011],[34.55162000000013,41.62986000000052],[34.551410000000146,41.629410000000235],[34.55233000000004,41.62911000000031],[34.55301000000003,41.6296500000002],[34.55437000000012,41.62986000000052],[34.55524000000014,41.62979000000041],[34.556000000000154,41.62926000000061],[34.55628000000024,41.629280000000165],[34.55663000000004,41.62954000000036],[34.5570400000002,41.62960000000032],[34.55846000000014,41.629410000000235],[34.55920000000003,41.62946000000011],[34.56019000000009,41.62970000000007],[34.5614318389928,41.62964343426984],[34.56337654300006,41.62766793700007],[34.5672404500001,41.6295662550001],[34.57129770800003,41.62733329100013],[34.57445071700005,41.62970081400067],[34.58291624700007,41.62752423300026],[34.58711425503958,41.62703503673151],[34.587177502000145,41.62746603400018],[34.583691466000005,41.62808884999998],[34.589594541000054,41.632357624000406],[34.592252193000036,41.63180248900039],[34.59238563000014,41.631834825000226],[34.59772321800017,41.64109199000029],[34.60228029600012,41.64492311000038],[34.603706058000114,41.65201962800046],[34.60830155200006,41.65910331900028],[34.607846149000125,41.66069894800023],[34.607733053000175,41.660771522000005],[34.60334469800006,41.65948635900003],[34.60316746200016,41.65957913500006]]],"type":"Polygon"}},{"type":"Feature","properties":{"area_id":"TR-37-011-2018613","name_tr":"Yukarıçakırçay Köyü","area_level":"neighbourhood","parent_id":"TR-37-011","endeksa_id":2018613},"geometry":{"coordinates":[[[34.60316746200016,41.65957913500006],[34.6031293150001,41.6688604520005],[34.601649092000116,41.6730395940001],[34.598849821000044,41.67654415300041],[34.59785865100008,41.67727246000004],[34.595674774000145,41.67726974300058],[34.59562607600003,41.67737729200019],[34.59616881600016,41.6785597450002],[34.594579860000124,41.679746447000184],[34.58368418300006,41.68434595200017],[34.577744285999984,41.687815540000145],[34.577739081000175,41.687965023000174],[34.575516807000156,41.68647423700014],[34.565549346000125,41.68755560300008],[34.559332214000165,41.685383854000065],[34.555891132,41.679144711000106],[34.549666965000085,41.67559923500005],[34.54636769200005,41.66714439300017],[34.54601042600012,41.665525098000046],[34.545911500500154,41.66563739200012],[34.54575334000003,41.665569025000025],[34.545174144265786,41.66408378606695],[34.54565857500006,41.66391738800007],[34.54603581000009,41.66305942800017],[34.54910444200016,41.66019942800011],[34.58253248800003,41.64868844199998],[34.587862825000116,41.64998119400019],[34.595047505000025,41.657029605000105],[34.60308639400017,41.659409986000696],[34.60316746200016,41.65957913500006]]],"type":"Polygon"}},{"type":"Feature","properties":{"area_id":"TR-37-011-2018605","name_tr":"Kayabaşı Köyü","area_level":"neighbourhood","parent_id":"TR-37-011","endeksa_id":2018605},"geometry":{"coordinates":[[[34.35217412100013,41.682283519000464],[34.35199123100011,41.68222655300019],[34.34926648800018,41.68338611300021],[34.3384458430001,41.67899602800014],[34.3337648480001,41.679357450000566],[34.331710273,41.680105694000304],[34.329948984000055,41.684612899000285],[34.31944130200014,41.68892442400005],[34.31613922600013,41.68757640000007],[34.3143157880001,41.68869405000004],[34.31466922200019,41.688946105000525],[34.3145512050001,41.68908498000002],[34.303579828000125,41.68333486700004],[34.30345411800005,41.68340726500003],[34.30332704300008,41.683342069000105],[34.30322597999998,41.68313281200011],[34.30331096300017,41.68257756000037],[34.303181297000094,41.68211755300041],[34.303412293000065,41.68208372100008],[34.30382640527108,41.68006550231905],[34.3137000000001,41.67134000000067],[34.31762000000009,41.66753000000023],[34.320950000000096,41.666950000000384],[34.327890000000195,41.66406000000018],[34.32753000000008,41.66331000000008],[34.328820000000064,41.66261000000026],[34.32927000000018,41.66138000000012],[34.329350000000034,41.660290000000145],[34.32977000000017,41.65904000000046],[34.33085000000017,41.65721000000042],[34.331540000000246,41.65650000000062],[34.33181000000019,41.65585000000016],[34.3328800000001,41.65421000000015],[34.33323000000007,41.65379000000024],[34.335790000000145,41.65410000000031],[34.336010000000044,41.654190000000085],[34.336440000000096,41.65375000000046],[34.33676000000014,41.65318000000019],[34.336940000000084,41.65324000000021],[34.33717000000013,41.65293000000014],[34.33666000000022,41.65240000000034],[34.33649000000014,41.65201000000019],[34.336630000000184,41.651740000000416],[34.33731000000017,41.651370000000384],[34.33744000000007,41.65142000000026],[34.33745000000022,41.65115000000009],[34.33775000000014,41.65088000000031],[34.33828000000011,41.65097000000014],[34.33823000000007,41.651090000000636],[34.338600000000156,41.65129000000013],[34.33899000000008,41.650990000000206],[34.33952000000005,41.65105000000017],[34.339790000000164,41.65093000000019],[34.339880000000164,41.65064000000035],[34.34014000000019,41.650600000000054],[34.341180000000065,41.65006000000017],[34.34101000000004,41.64888000000042],[34.342290000000105,41.64766000000037],[34.34244000000007,41.64720000000011],[34.34255000000013,41.6463100000002],[34.34243148919592,41.645050259155255],[34.34262066925419,41.64493902979939],[34.34283149700002,41.644959922000226],[34.342660840000065,41.64547724000022],[34.3429489240001,41.645505788000094],[34.34285960000017,41.644968561000496],[34.34309210100008,41.64504003400009],[34.34333664500008,41.644244533999995],[34.34348720600019,41.64417218100033],[34.34628911700014,41.646417209000276],[34.357279710000114,41.649440304000564],[34.364546254000004,41.646745593000446],[34.37103448100015,41.64684516700015],[34.37327751652157,41.64502764354063],[34.37316000000004,41.645200000000045],[34.37481000000014,41.64768000000021],[34.374940000000095,41.648020000000315],[34.376150000000166,41.64940000000007],[34.37731000000008,41.651000000000295],[34.378130000000056,41.65111000000019],[34.378350000000125,41.65124000000026],[34.38069000000013,41.655090000000484],[34.380270000000166,41.65834000000012],[34.382620000000145,41.65926000000019],[34.383090000000095,41.659550000000195],[34.383725049148836,41.660105668005315],[34.383898109000086,41.66027459900056],[34.383828639,41.66049866200018],[34.385915613000066,41.66269491800017],[34.385925415000145,41.66279804100009],[34.37917121600003,41.67213382000011],[34.370185130000095,41.67545521100004],[34.361507460000155,41.67580189800003],[34.35636348100002,41.68036503400009],[34.35221444000001,41.68213136000003],[34.35217412100013,41.682283519000464]]],"type":"Polygon"}},{"type":"Feature","properties":{"area_id":"TR-37-011-2018603","name_tr":"Hocavakıf Köyü","area_level":"neighbourhood","parent_id":"TR-37-011","endeksa_id":2018603},"geometry":{"coordinates":[[[34.41598298965039,41.64927364514034],[34.416261497000164,41.65567223400052],[34.408437316000175,41.66782379000017],[34.4058898720001,41.67706182100011],[34.39622094300006,41.683375103],[34.39431659500008,41.69101904400003],[34.38744023300006,41.698436667000124],[34.38766661500017,41.702749896],[34.375012727000126,41.71945623300002],[34.374773693000066,41.71943261400065],[34.363252156000044,41.71536735100011],[34.36308812700008,41.71521480400037],[34.35428246700019,41.70579392200017],[34.357144074000075,41.70280910200012],[34.357101224000075,41.693051552000156],[34.359405146000086,41.689463318000094],[34.35348620100018,41.68514643900005],[34.35217412100013,41.682283519000464],[34.35221444000001,41.68213136000003],[34.35636348100002,41.68036503400009],[34.361507460000155,41.67580189800003],[34.370185130000095,41.67545521100004],[34.37917121600003,41.67213382000011],[34.385925415000145,41.66279804100009],[34.385915613000066,41.66269491800017],[34.383828639,41.66049866200018],[34.383898109000086,41.66027459900056],[34.383725049148836,41.660105668005315],[34.384700000000066,41.65906000000018],[34.38416000000018,41.658280000000104],[34.384420000000034,41.657410000000596],[34.38452000000012,41.65529000000015],[34.38497000000007,41.65424000000013],[34.38542000000018,41.653570000000116],[34.388140000000135,41.65324000000021],[34.39134000000007,41.65330000000017],[34.3977900000001,41.65300000000025],[34.401430000000175,41.653510000000495],[34.40476000000024,41.65336000000019],[34.41598298965039,41.64927364514034]]],"type":"Polygon"}},{"type":"Feature","properties":{"area_id":"TR-37-011-2018601","name_tr":"Gökçeağaç Köyü","area_level":"neighbourhood","parent_id":"TR-37-011","endeksa_id":2018601},"geometry":{"coordinates":[[[34.589489721000064,41.69679885000005],[34.588737871000035,41.69707750900011],[34.5886774060001,41.69675748100025],[34.588189059000115,41.6968497470001],[34.58795482650021,41.69719103100027],[34.58790063500004,41.69690424100031],[34.58774483000019,41.696933678000164],[34.58778569200001,41.69721555100017],[34.58551756100002,41.69735449100011],[34.58560567000012,41.69753159800007],[34.583935586000166,41.69777369800022],[34.58370878500011,41.697671685000216],[34.57930488799997,41.69846964500016],[34.58568725200013,41.70408018600011],[34.586583257000086,41.70696648100011],[34.579151956000146,41.70731240200007],[34.574318394000045,41.70491228800023],[34.56739936300016,41.705041306000055],[34.55467625500012,41.70703847300001],[34.54720626500006,41.710944665000284],[34.53938489700005,41.71077788000025],[34.54447167300009,41.71937972900008],[34.54648648900019,41.72621738500061],[34.54386344100004,41.72986363200005],[34.54345406400017,41.7296373880007],[34.54422251000017,41.72456196000019],[34.53955055000017,41.72277147799997],[34.53447788599999,41.71755031800052],[34.52107414800014,41.71244456800031],[34.51840760500005,41.70993249200029],[34.51360838700015,41.69813298500037],[34.51692972900014,41.6918717770003],[34.52457513899998,41.688626840000666],[34.52335515400006,41.677248073000385],[34.50695349700004,41.67085066300024],[34.507058834000134,41.67072959500052],[34.509519087,41.670525976000135],[34.50957257900018,41.67043788700005],[34.50940598500006,41.66908155400017],[34.51173196900015,41.66823519100001],[34.51186523500019,41.66827829800047],[34.5132450430001,41.66990829400015],[34.513423688000046,41.669930833000194],[34.51431029200006,41.66765583100022],[34.51925590500008,41.66496220800019],[34.5192422180001,41.664864460000274],[34.51412617699998,41.65953273500014],[34.513979326000026,41.65760500600021],[34.51408314900016,41.65753518400015],[34.51496935900013,41.6574904200005],[34.51504267500019,41.657349033000116],[34.51313902000015,41.655164914000466],[34.51300555800009,41.65512157600011],[34.50296539400017,41.6585023450001],[34.49974480200018,41.659303817000705],[34.48562923800017,41.64840368300014],[34.48602232100012,41.64242246400005],[34.487712300000055,41.64071274600053],[34.48656838900018,41.638128559000165],[34.48605203400018,41.62973705100006],[34.48488976200008,41.622141840000154],[34.48349506799997,41.62100618300008],[34.483318502000145,41.621010830000046],[34.482912224000074,41.62082410500011],[34.48311115200005,41.620756850000134],[34.48296693300006,41.62058365500013],[34.489236017999986,41.62001248400037],[34.48907384299997,41.61784989900008],[34.491616445000034,41.61706715400021],[34.49506525800001,41.61538169300013],[34.49867300100004,41.61489477900068],[34.50110287300015,41.616973878000124],[34.50061108900013,41.617426826000155],[34.51322399900016,41.62055362600006],[34.514646220000145,41.62555607000007],[34.51771667800017,41.62566125100011],[34.522358949000136,41.62098184500019],[34.52600162606126,41.62127671660306],[34.52611807989115,41.62115242421743],[34.52851687911476,41.62130000000013],[34.53082022862799,41.6212402387942],[34.5325699323198,41.62131909298671],[34.53389621079049,41.62162196849715],[34.536582517438205,41.622421255671554],[34.538388116634565,41.62315922773297],[34.53964349824355,41.623722406056686],[34.539681847881354,41.62387767842074],[34.5398606037794,41.62381981462357],[34.54102000000006,41.62434000000013],[34.54249000000016,41.6251400000001],[34.54628000000008,41.626530000000685],[34.54532000000023,41.62725000000057],[34.54371000000003,41.63000000000005],[34.543420000000026,41.632880000000284],[34.54371000000003,41.633800000000406],[34.54464000000007,41.63491000000056],[34.54570000000024,41.635230000000035],[34.54629000000017,41.635510000000465],[34.54991815667199,41.63629742960785],[34.54892319600009,41.63926488400028],[34.54713619500012,41.6413480070006],[34.54686282200015,41.64121097700013],[34.546308646000114,41.642312689000164],[34.54606777400011,41.64211836900006],[34.54568955000008,41.64258720100014],[34.54591053300015,41.64277677100051],[34.54580928600018,41.64289479500019],[34.54558643800004,41.64271501500019],[34.54513845700001,41.643270315000166],[34.54481057000015,41.64405900700001],[34.54458736300006,41.64395343000007],[34.539690826000026,41.650022949000004],[34.54575334000003,41.665569025000025],[34.545911500500154,41.66563739200012],[34.54601042600012,41.665525098000046],[34.54636769200005,41.66714439300017],[34.549666965000085,41.67559923500005],[34.555891132,41.679144711000106],[34.559332214000165,41.685383854000065],[34.565549346000125,41.68755560300008],[34.575516807000156,41.68647423700014],[34.577739081000175,41.687965023000174],[34.59006494500005,41.696424413000045],[34.58992622200003,41.69652153300012],[34.58994662000015,41.696629497000174],[34.589489721000064,41.69679885000005]]],"type":"Polygon"}},{"type":"Feature","properties":{"area_id":"TR-37-011-2018612","name_tr":"Yılanlı Köyü","area_level":"neighbourhood","parent_id":"TR-37-011","endeksa_id":2018612},"geometry":{"coordinates":[[[34.54408438600012,41.731361157000094],[34.543867235000164,41.731641830000456],[34.543779000000086,41.73146554700003],[34.54373352600004,41.731594782000116],[34.53633952300015,41.72899308700005],[34.530994662000126,41.7296458790006],[34.52672873900019,41.72688552900047],[34.51656478100017,41.72888903700033],[34.50655337100011,41.72127699100008],[34.503143310000155,41.72275280500014],[34.50119183700008,41.719302142000515],[34.497918429000094,41.7180116560005],[34.49794506600011,41.717874237000046],[34.50283432100008,41.71513467000017],[34.49795721000004,41.7104705520004],[34.49224556900003,41.70843523800022],[34.48977347200008,41.70862059900037],[34.48963607600007,41.70852322400003],[34.48759798999998,41.70042664599998],[34.48505925800009,41.69910249800006],[34.490465936000135,41.691664531000015],[34.48289862200005,41.69000833800004],[34.47900121500004,41.68056965100004],[34.479154697000126,41.68045705600042],[34.480602573000056,41.68083478300014],[34.480964701000175,41.67901340700007],[34.47053224900009,41.671786947999976],[34.473937983000155,41.661400764000064],[34.47618280199998,41.658825197],[34.47918974700019,41.65848462400015],[34.47731268600006,41.655937526000116],[34.47829359500014,41.65106720800003],[34.47377284558513,41.648433642643795],[34.47477531603897,41.6490155923392],[34.47501743655033,41.648940370817],[34.474975347545694,41.64881628794183],[34.47339396200016,41.64773644500036],[34.473366904000045,41.64761543300011],[34.473494366000125,41.6475644140001],[34.48562923800017,41.64840368300014],[34.49974480200018,41.659303817000705],[34.50296539400017,41.6585023450001],[34.51300555800009,41.65512157600011],[34.51313902000015,41.655164914000466],[34.51504267500019,41.657349033000116],[34.51496935900013,41.6574904200005],[34.51408314900016,41.65753518400015],[34.513979326000026,41.65760500600021],[34.51412617699998,41.65953273500014],[34.5192422180001,41.664864460000274],[34.51925590500008,41.66496220800019],[34.51431029200006,41.66765583100022],[34.513423688000046,41.669930833000194],[34.5132450430001,41.66990829400015],[34.51186523500019,41.66827829800047],[34.51173196900015,41.66823519100001],[34.50940598500006,41.66908155400017],[34.50957257900018,41.67043788700005],[34.509519087,41.670525976000135],[34.507058834000134,41.67072959500052],[34.50695349700004,41.67085066300024],[34.52335515400006,41.677248073000385],[34.52457513899998,41.688626840000666],[34.51692972900014,41.6918717770003],[34.51360838700015,41.69813298500037],[34.51840760500005,41.70993249200029],[34.52107414800014,41.71244456800031],[34.53447788599999,41.71755031800052],[34.53955055000017,41.72277147799997],[34.54422251000017,41.72456196000019],[34.54345406400017,41.7296373880007],[34.543677794000075,41.729758306000576],[34.543396264000194,41.73045708700022],[34.54334943500015,41.73032843600032],[34.543128561000174,41.73064726000041],[34.54396179800011,41.73126959700011],[34.544147919000125,41.731279039000185],[34.54408438600012,41.731361157000094]]],"type":"Polygon"}},{"type":"Feature","properties":{"area_id":"TR-37-011-2018609","name_tr":"Yeniboyundurcak Köyü","area_level":"neighbourhood","parent_id":"TR-37-011","endeksa_id":2018609},"geometry":{"coordinates":[[[34.422460593000096,41.73142070300037],[34.42260161400009,41.73220990600021],[34.41186978200017,41.73022219600023],[34.40450749900003,41.73258459700003],[34.404568029000075,41.73263895400004],[34.402100403000134,41.733356980999986],[34.40210197800019,41.73351317600003],[34.40207095300019,41.73336643000033],[34.40197389300016,41.733397574000094],[34.398465176,41.72525168200019],[34.4055419660001,41.71732859300005],[34.40616368000019,41.71275544000008],[34.41568455500004,41.70611757900002],[34.41500183800014,41.697070888000155],[34.411027845000035,41.68935799700017],[34.412584676000165,41.685327415000074],[34.41720299000019,41.68289101500028],[34.41669059500015,41.68150874100013],[34.422115502000054,41.67267802600003],[34.42146902000019,41.67029690200019],[34.42761012000011,41.67051801100007],[34.4326953370001,41.6663220230007],[34.43887919600007,41.66556400100069],[34.44254713000015,41.66777557500018],[34.44590160300015,41.66750576700008],[34.44735945200006,41.66523219900006],[34.46327517900005,41.669960718000084],[34.45969766200005,41.67416333800014],[34.44804363300011,41.67638834900015],[34.43989739500006,41.68240560800035],[34.43528707200005,41.68492768700003],[34.43705763100007,41.68921913600013],[34.43533518200013,41.693824374000656],[34.43020559500019,41.70305562100003],[34.42559359200004,41.70639749200001],[34.4276277620001,41.70780024300035],[34.4278376740001,41.71008565200003],[34.41611199100004,41.719667495000635],[34.4167503430001,41.722164658000395],[34.42125999600012,41.72470172599998],[34.422460593000096,41.73142070300037]]],"type":"Polygon"}},{"type":"Feature","properties":{"area_id":"TR-37-011-2018596","name_tr":"Bölükyazı Köyü","area_level":"neighbourhood","parent_id":"TR-37-011","endeksa_id":2018596},"geometry":{"coordinates":[[[34.40210197800019,41.73351317600003],[34.40214710700013,41.73363924500006],[34.39345932000009,41.73676866200009],[34.39556098600008,41.73873784700004],[34.39550646800018,41.738885842000116],[34.391041034672696,41.738251842126374],[34.39085928865518,41.738347158815316],[34.39096177110599,41.7384946042518],[34.389128576000076,41.73796114800018],[34.38919110899997,41.72967061900016],[34.37998069000008,41.72189017500051],[34.378624080000066,41.7213603460001],[34.37848562700009,41.721279867000135],[34.37853914000016,41.72114134800046],[34.375012727000126,41.71945623300002],[34.38766661500017,41.702749896],[34.38744023300006,41.698436667000124],[34.39431659500008,41.69101904400003],[34.39622094300006,41.683375103],[34.4058898720001,41.67706182100011],[34.408437316000175,41.66782379000017],[34.416261497000164,41.65567223400052],[34.41598298965039,41.64927364514034],[34.41774000000004,41.647870000000125],[34.420850000000144,41.645180000000494],[34.42617000000013,41.64159000000046],[34.42599000000013,41.64088000000015],[34.423200000000065,41.637310000000184],[34.42408000000023,41.633190000000354],[34.417380000000094,41.62407000000036],[34.41755000000012,41.62369000000018],[34.41850000000022,41.62295000000006],[34.41873000000004,41.622660000000224],[34.418650000000184,41.62249000000037],[34.41786000000019,41.621820000000355],[34.41722000000016,41.621110000000044],[34.41690000000017,41.62054000000035],[34.41656000000006,41.61961000000014],[34.416480000000035,41.61908000000034],[34.41661000000016,41.61817000000036],[34.415804449000746,41.61605334423109],[34.41595620100014,41.6159690260003],[34.4177095710001,41.61640915400011],[34.417836055000066,41.616369839000185],[34.417845630000045,41.616264030000195],[34.41805187900013,41.616497000000095],[34.426554519000035,41.61865775700028],[34.42498382500014,41.62289953400068],[34.42503734600018,41.62300928800016],[34.43065679700004,41.62257421300018],[34.43077028900018,41.622458496000604],[34.430917735000094,41.622552958000426],[34.43796482700003,41.62197820100039],[34.43810596800006,41.62183013600048],[34.43823669600005,41.62195566200006],[34.44182518600013,41.62167892400004],[34.44261229600005,41.62352039500013],[34.44280470300009,41.62408926600017],[34.44142093500017,41.625294180000026],[34.44094205000005,41.62962673900017],[34.44068350300006,41.63043216900019],[34.439466118000155,41.63202502700051],[34.43799240500016,41.63284260900048],[34.43794562000011,41.63293667200003],[34.447215080000035,41.64483987300014],[34.460881251000046,41.649297738000314],[34.46583540800003,41.6488851740001],[34.465975262000086,41.648951758000464],[34.465941022000095,41.649055515999976],[34.452493803000095,41.65859939700033],[34.463023025000155,41.669695767000064],[34.46300981900015,41.669808949000014],[34.46285998700017,41.66983736599997],[34.44735945200006,41.66523219900006],[34.44590160300015,41.66750576700008],[34.44254713000015,41.66777557500018],[34.43887919600007,41.66556400100069],[34.4326953370001,41.6663220230007],[34.42761012000011,41.67051801100007],[34.42146902000019,41.67029690200019],[34.422115502000054,41.67267802600003],[34.41669059500015,41.68150874100013],[34.41720299000019,41.68289101500028],[34.412584676000165,41.685327415000074],[34.411027845000035,41.68935799700017],[34.41500183800014,41.697070888000155],[34.41568455500004,41.70611757900002],[34.40616368000019,41.71275544000008],[34.4055419660001,41.71732859300005],[34.398465176,41.72525168200019],[34.40197389300016,41.733397574000094],[34.40207095300019,41.73336643000033],[34.40210197800019,41.73351317600003]]],"type":"Polygon"}},{"type":"Feature","properties":{"area_id":"TR-37-011-2018604","name_tr":"Kavak Köyü","area_level":"neighbourhood","parent_id":"TR-37-011","endeksa_id":2018604},"geometry":{"coordinates":[[[34.48963607600007,41.70852322400003],[34.489662759000055,41.70862922600014],[34.48209342500013,41.70920148500011],[34.477218694999976,41.712280046000046],[34.4763072290001,41.715320500000075],[34.480671997000115,41.727681123000025],[34.47984262900002,41.740171964000126],[34.467221255000084,41.73933992700012],[34.46572540400018,41.73661082500013],[34.46221022800012,41.73483592500014],[34.46255623999997,41.73241791300063],[34.445779350000066,41.72476784700007],[34.431686851000165,41.732459532000064],[34.422460593000096,41.73142070300037],[34.42125999600012,41.72470172599998],[34.4167503430001,41.722164658000395],[34.41611199100004,41.719667495000635],[34.4278376740001,41.71008565200003],[34.4276277620001,41.70780024300035],[34.42559359200004,41.70639749200001],[34.43020559500019,41.70305562100003],[34.43533518200013,41.693824374000656],[34.43705763100007,41.68921913600013],[34.43528707200005,41.68492768700003],[34.43989739500006,41.68240560800035],[34.44804363300011,41.67638834900015],[34.45969766200005,41.67416333800014],[34.46327517900005,41.669960718000084],[34.46285998700017,41.66983736599997],[34.46300981900015,41.669808949000014],[34.463023025000155,41.669695767000064],[34.452493803000095,41.65859939700033],[34.466227955000136,41.648851870000044],[34.466034621999995,41.64886827300006],[34.46662711600004,41.6484533360001],[34.47220078100014,41.64928217400012],[34.47320692300008,41.64843289300006],[34.47377284558513,41.648433642643795],[34.47829359500014,41.65106720800003],[34.47731268600006,41.655937526000116],[34.47918974700019,41.65848462400015],[34.47618280199998,41.658825197],[34.473937983000155,41.661400764000064],[34.47053224900009,41.671786947999976],[34.480964701000175,41.67901340700007],[34.480602573000056,41.68083478300014],[34.479154697000126,41.68045705600042],[34.47900121500004,41.68056965100004],[34.48289862200005,41.69000833800004],[34.490465936000135,41.691664531000015],[34.48505925800009,41.69910249800006],[34.48759798999998,41.70042664599998],[34.48963607600007,41.70852322400003]]],"type":"Polygon"}},{"type":"Feature","properties":{"area_id":"TR-37-011-2018598","name_tr":"Çaybaşı Köyü","area_level":"neighbourhood","parent_id":"TR-37-011","endeksa_id":2018598},"geometry":{"coordinates":[[[34.36308812700008,41.71521480400037],[34.35804323800005,41.728008171000454],[34.34428339599998,41.73111491800006],[34.32697971300013,41.74040747700053],[34.31351950473265,41.73981153104057],[34.31341000000009,41.73975000000007],[34.313580000000115,41.73975000000007],[34.308190000000195,41.737260000000106],[34.305900000000065,41.736490000000344],[34.300820000000044,41.73322000000047],[34.2943800000001,41.732060000000274],[34.29263000000009,41.73041000000035],[34.292529780000166,41.728295942000045],[34.29816048900017,41.72414086100002],[34.29926538900014,41.72120990900004],[34.29800287300009,41.71613585800037],[34.299843667000175,41.71247151600005],[34.30716759400019,41.70769255900018],[34.30788515300014,41.70497614700008],[34.306188796000185,41.704442905000064],[34.306134899000085,41.70430536900005],[34.31711178100005,41.69953774200019],[34.31291460200015,41.6936392310007],[34.305668029000174,41.68765919200018],[34.305516571000055,41.687371592000545],[34.30536795000012,41.68734943100003],[34.30527464800002,41.68744927200004],[34.30332704300008,41.683342069000105],[34.30345411800005,41.68340726500003],[34.303579828000125,41.68333486700004],[34.3145512050001,41.68908498000002],[34.31466922200019,41.688946105000525],[34.3143157880001,41.68869405000004],[34.31613922600013,41.68757640000007],[34.31944130200014,41.68892442400005],[34.329948984000055,41.684612899000285],[34.331710273,41.680105694000304],[34.3337648480001,41.679357450000566],[34.3384458430001,41.67899602800014],[34.34926648800018,41.68338611300021],[34.35199123100011,41.68222655300019],[34.35217412100013,41.682283519000464],[34.35348620100018,41.68514643900005],[34.359405146000086,41.689463318000094],[34.357101224000075,41.693051552000156],[34.357144074000075,41.70280910200012],[34.35428246700019,41.70579392200017],[34.36308812700008,41.71521480400037]]],"type":"Polygon"}}]}