{"type":"FeatureCollection","source_id":"endeksa","retrieved_at":null,"features":[{"type":"Feature","properties":{"area_id":"TR-34-033-40465","name_tr":"Cumhuriyet","area_level":"neighbourhood","parent_id":"TR-34-033","endeksa_id":40465},"geometry":{"coordinates":[[[28.88981023400015,41.090415434000306],[28.889885045000028,41.0915616810002],[28.88945313900018,41.09397593700015],[28.883565791000137,41.09130853200048],[28.88272585100009,41.09104053900006],[28.881056500000113,41.09066821600044],[28.8776129740001,41.089376408000135],[28.876324066000052,41.08901193800017],[28.87094760399998,41.08777683100021],[28.86975067600008,41.08727164300069],[28.86897841200016,41.08668149200008],[28.869879425000192,41.08616626500003],[28.870618381000043,41.085598905000666],[28.8743712320001,41.08155607500015],[28.875937814000054,41.08329417300007],[28.87718828400017,41.08441889100004],[28.879767997000158,41.08632036200004],[28.88229788900003,41.08778619900028],[28.8843613410001,41.088724811000134],[28.88625797800006,41.08943930000004],[28.88981023400015,41.090415434000306]]],"type":"Polygon"}},{"type":"Feature","properties":{"area_id":"TR-34-033-40471","name_tr":"50. Yıl","area_level":"neighbourhood","parent_id":"TR-34-033","endeksa_id":40471},"geometry":{"coordinates":[[[28.88272585100009,41.09104053900006],[28.882296445999998,41.091529094000066],[28.87653083800012,41.09682895200018],[28.87587261300007,41.09776613700001],[28.869871778000174,41.09596093200031],[28.86986406700015,41.09604189100003],[28.865316500000176,41.09486270500048],[28.865342330000033,41.09450730300006],[28.865275654000186,41.09444812200019],[28.86375272000015,41.09408653200012],[28.864599586000054,41.08999015500001],[28.864916573000073,41.08941040400009],[28.86554869600002,41.088746940000135],[28.86631803099999,41.08815968500045],[28.86897841200016,41.08668149200008],[28.86975067600008,41.08727164300069],[28.87094760399998,41.08777683100021],[28.876324066000052,41.08901193800017],[28.8776129740001,41.089376408000135],[28.881056500000113,41.09066821600044],[28.88272585100009,41.09104053900006]]],"type":"Polygon"}},{"type":"Feature","properties":{"area_id":"TR-34-033-40467","name_tr":"75. Yıl","area_level":"neighbourhood","parent_id":"TR-34-033","endeksa_id":40467},"geometry":{"coordinates":[[[28.902731665000374,41.10107759600038],[28.898645756000064,41.10145215099999],[28.89988089700006,41.099021225000115],[28.900006586000075,41.0986234130001],[28.900262530000077,41.098405016000015],[28.901008220000165,41.09696182500011],[28.901619087000142,41.09546650000061],[28.90314538300015,41.09441911500005],[28.903383969000174,41.094121598000356],[28.905288873000018,41.093461939000576],[28.90608549700005,41.09268070600018],[28.906507997000176,41.09238785800011],[28.906414182000162,41.09195643700053],[28.906558149999967,41.09077994500018],[28.909361070000102,41.09102702900037],[28.912227827000038,41.09160325700009],[28.914427484000043,41.09227406800011],[28.918195235000155,41.09365220899997],[28.92107337600072,41.094356799000934],[28.91835920000085,41.09596740000086],[28.91851171200085,41.09630112100086],[28.91830568900093,41.096368333000555],[28.917065925000657,41.09687566100098],[28.91674410600058,41.09712065500082],[28.915641048000623,41.097138908001],[28.914822746000596,41.09734819500062],[28.914503358000673,41.09763989000106],[28.91427207700059,41.09765571700086],[28.91360267600055,41.09793690300086],[28.913513956000656,41.098113273000706],[28.912470524000696,41.09864035000106],[28.912328732000674,41.09861143300071],[28.91275579800066,41.09793115800062],[28.91253762400055,41.09735734500066],[28.903777634000676,41.09817025500098],[28.904466001000685,41.100909514000875],[28.902731665000374,41.10107759600038]]],"type":"Polygon"}},{"type":"Feature","properties":{"area_id":"TR-34-033-40466","name_tr":"Yunus Emre","area_level":"neighbourhood","parent_id":"TR-34-033","endeksa_id":40466},"geometry":{"coordinates":[[[28.898645756000064,41.10145215099999],[28.891977200000042,41.10189925600031],[28.889651263000076,41.101968551000084],[28.889613506000046,41.099613286000704],[28.889415904000032,41.098120142000084],[28.889051985000037,41.09709008100003],[28.888988859000165,41.09633298900013],[28.88900407400007,41.09595968900015],[28.889305831000115,41.0951161840004],[28.88945313900018,41.09397593700015],[28.889885045000028,41.0915616810002],[28.88981023400015,41.090415434000306],[28.892760648000035,41.09092746300013],[28.896300043000053,41.091192638000166],[28.89862730600015,41.09117255600006],[28.904213583000057,41.090784602000156],[28.906558149999967,41.09077994500018],[28.906414182000162,41.09195643700053],[28.906507997000176,41.09238785800011],[28.90608549700005,41.09268070600018],[28.905288873000018,41.093461939000576],[28.903383969000174,41.094121598000356],[28.90314538300015,41.09441911500005],[28.901619087000142,41.09546650000061],[28.901008220000165,41.09696182500011],[28.900262530000077,41.098405016000015],[28.900006586000075,41.0986234130001],[28.89988089700006,41.099021225000115],[28.898645756000064,41.10145215099999]]],"type":"Polygon"}},{"type":"Feature","properties":{"area_id":"TR-34-033-40472","name_tr":"Sultançiftliği","area_level":"neighbourhood","parent_id":"TR-34-033","endeksa_id":40472},"geometry":{"coordinates":[[[28.86375272000015,41.09408653200012],[28.86313070500006,41.09732679799998],[28.8628708170001,41.101292922000084],[28.86144977800035,41.10436675100027],[28.854124132000152,41.10239105900041],[28.85538404700003,41.10046769900043],[28.85611795400007,41.099716854000064],[28.857114886000147,41.09847804900011],[28.858709507000185,41.0959924120001],[28.861543443000187,41.092955465000045],[28.862412449000146,41.09166467200009],[28.863200402000075,41.090721737000194],[28.864307412000187,41.089920800000414],[28.864623551000136,41.08955937300044],[28.864916573000073,41.08941040400009],[28.864599586000054,41.08999015500001],[28.86375272000015,41.09408653200012]]],"type":"Polygon"}},{"type":"Feature","properties":{"area_id":"TR-34-033-40473","name_tr":"Uğur Mumcu","area_level":"neighbourhood","parent_id":"TR-34-033","endeksa_id":40473},"geometry":{"coordinates":[[[28.87587261300007,41.09776613700001],[28.874445767000168,41.10005419900017],[28.879990963000125,41.1064809020005],[28.87789632600027,41.108980780000024],[28.86144977800035,41.10436675100027],[28.8628708170001,41.101292922000084],[28.86313070500006,41.09732679799998],[28.86375272000015,41.09408653200012],[28.865275654000186,41.09444812200019],[28.865342330000033,41.09450730300006],[28.865316500000176,41.09486270500048],[28.86986406700015,41.09604189100003],[28.869871778000174,41.09596093200031],[28.87587261300007,41.09776613700001]]],"type":"Polygon"}},{"type":"Feature","properties":{"area_id":"TR-34-033-40470","name_tr":"Esentepe","area_level":"neighbourhood","parent_id":"TR-34-033","endeksa_id":40470},"geometry":{"coordinates":[[[28.892576057000326,41.10706434100018],[28.892160971000237,41.108490290000304],[28.891763530000333,41.108896150000135],[28.891258353000353,41.10972172300035],[28.89122804700031,41.11062984500035],[28.89098981700033,41.11087258900051],[28.890244060000157,41.11082731800076],[28.888422706000313,41.11049189800036],[28.888507123000238,41.10946807000056],[28.889443165000273,41.10588173500025],[28.889592075000337,41.10497465800023],[28.889057168000363,41.104896758000336],[28.888367301000244,41.10505440600059],[28.885976184000356,41.10530962000024],[28.883455053000205,41.106101416],[28.879439859000342,41.10952621100034],[28.87789632600027,41.108980780000024],[28.879990963000125,41.1064809020005],[28.874445767000168,41.10005419900017],[28.87587261300007,41.09776613700001],[28.87653083800012,41.09682895200018],[28.882296445999998,41.091529094000066],[28.88272585100009,41.09104053900006],[28.883565791000137,41.09130853200048],[28.88945313900018,41.09397593700015],[28.889305831000115,41.0951161840004],[28.88900407400007,41.09595968900015],[28.888988859000165,41.09633298900013],[28.889051985000037,41.09709008100003],[28.889415904000032,41.098120142000084],[28.889613506000046,41.099613286000704],[28.889651263000076,41.101968551000084],[28.88953238900018,41.103141849],[28.890036840000107,41.10410188400016],[28.890251548000094,41.10446903400066],[28.891132094000113,41.10525905700007],[28.89155454700017,41.10598263900022],[28.892576057000326,41.10706434100018]]],"type":"Polygon"}},{"type":"Feature","properties":{"area_id":"TR-34-033-40469","name_tr":"Gazi","area_level":"neighbourhood","parent_id":"TR-34-033","endeksa_id":40469},"geometry":{"coordinates":[[[28.902731665000374,41.10107759600038],[28.903411180000546,41.10434800900072],[28.904468535000547,41.105749180000544],[28.90459905600062,41.10608807100061],[28.9045442980007,41.106182092000665],[28.903621930000554,41.10637141000069],[28.90304717500055,41.10659554100067],[28.90296358000063,41.10643267200061],[28.90268325100061,41.106713629000694],[28.901720657000567,41.107217689000834],[28.90151873100075,41.1074363620009],[28.90169769400069,41.10761364600063],[28.901327796000658,41.107799202000706],[28.901036514000737,41.10811156400081],[28.900529888000733,41.108264302000634],[28.900155956000674,41.108512844000586],[28.900828115000593,41.10981133000075],[28.899429843000576,41.11015814500058],[28.898968379000564,41.11016724000069],[28.899257597000712,41.11073725400081],[28.89932462000064,41.11120160000104],[28.899187750000692,41.11202636300061],[28.898403743000586,41.11203375700069],[28.89791222000065,41.11244054700114],[28.897495299000695,41.11252634000067],[28.896137570000406,41.11240210000068],[28.897177029000318,41.11057591500065],[28.897174187000246,41.110323930000675],[28.89664219500031,41.10930138700036],[28.895848601000353,41.108921855000574],[28.893928487000323,41.108223466000254],[28.89306442700024,41.10762073800032],[28.892576057000326,41.10706434100018],[28.89155454700017,41.10598263900022],[28.891132094000113,41.10525905700007],[28.890251548000094,41.10446903400066],[28.890036840000107,41.10410188400016],[28.88953238900018,41.103141849],[28.889651263000076,41.101968551000084],[28.891977200000042,41.10189925600031],[28.898645756000064,41.10145215099999],[28.902731665000374,41.10107759600038]]],"type":"Polygon"}},{"type":"Feature","properties":{"area_id":"TR-34-033-40475","name_tr":"İsmetpaşa","area_level":"neighbourhood","parent_id":"TR-34-033","endeksa_id":40475},"geometry":{"coordinates":[[[28.86144977800035,41.10436675100027],[28.857347845000334,41.112871633],[28.856779421000226,41.11377945099997],[28.85640560500036,41.114108024000245],[28.85570359100035,41.114482086000464],[28.85219299800025,41.115564400000665],[28.851648022000063,41.11445604400012],[28.850879749,41.11340642400029],[28.85039381000007,41.11297666200011],[28.84859448000003,41.11194259500007],[28.848437876000048,41.111778094000385],[28.848395693000043,41.11157111700004],[28.848235790000047,41.11153157400008],[28.850394059000166,41.107632058000036],[28.85043120100005,41.10743431400016],[28.850754901000187,41.10729327800021],[28.8517091330001,41.106476286000145],[28.854124132000152,41.10239105900041],[28.86144977800035,41.10436675100027]]],"type":"Polygon"}},{"type":"Feature","properties":{"area_id":"TR-34-033-40476","name_tr":"Malkoçoğlu","area_level":"neighbourhood","parent_id":"TR-34-033","endeksa_id":40476},"geometry":{"coordinates":[[[28.84478672800026,41.121078737000346],[28.844194548000132,41.12161157100053],[28.844095348999986,41.12144237700056],[28.844091295000055,41.121287131000145],[28.844668063000142,41.120068341000206],[28.84507817500014,41.11938473500015],[28.84593387200016,41.11855862700003],[28.846326217000012,41.11751077499997],[28.84627516100005,41.11607739600015],[28.846591683000156,41.115323733000025],[28.84505505100003,41.11522388000003],[28.84498612400006,41.11435478500033],[28.84553974800008,41.112540428000045],[28.846799483000098,41.11271016900014],[28.848063729000103,41.1117914240001],[28.848235790000047,41.11153157400008],[28.848395693000043,41.11157111700004],[28.848437876000048,41.111778094000385],[28.84859448000003,41.11194259500007],[28.85039381000007,41.11297666200011],[28.850879749,41.11340642400029],[28.851648022000063,41.11445604400012],[28.85219299800025,41.115564400000665],[28.84941139700021,41.1176062400005],[28.847355483000285,41.11941696000025],[28.84478672800026,41.121078737000346]]],"type":"Polygon"}},{"type":"Feature","properties":{"area_id":"TR-34-033-40468","name_tr":"Zübeyde Hanım","area_level":"neighbourhood","parent_id":"TR-34-033","endeksa_id":40468},"geometry":{"coordinates":[[[28.919439125562633,41.10291638762084],[28.919011808928246,41.103407010422984],[28.918250381406324,41.10395904537637],[28.91773641782902,41.104054223816604],[28.9174889538844,41.10418747363292],[28.917153688919996,41.10468648787213],[28.917339058001346,41.10477946700138],[28.917566956001338,41.105017940001346],[28.91802860600137,41.10483168700125],[28.91818544900127,41.10494751500124],[28.918304960001308,41.105495631001304],[28.91815401900135,41.105787723001356],[28.918595667001284,41.10605297700141],[28.919173743001352,41.107064720001404],[28.919195781001406,41.10725742200151],[28.91909209700134,41.10743369900143],[28.91839152500131,41.107897882001566],[28.91816147100144,41.10799750200164],[28.91791412700138,41.10796772800148],[28.91799108900136,41.10819144100128],[28.91794594300137,41.10833205500137],[28.917339451001283,41.10874374900129],[28.91801894700137,41.10864340200129],[28.919091723001316,41.10822464400178],[28.919627165001373,41.10814961900138],[28.920235440001363,41.10824299400133],[28.920543496001244,41.10850450900193],[28.920604652001373,41.10912489700138],[28.920365215001368,41.10956041600127],[28.920403461001285,41.10962926700137],[28.91983443500129,41.110234418001255],[28.91942188300129,41.110421139001346],[28.919763833001298,41.11069832000146],[28.91915259000126,41.11147579200184],[28.918985329748352,41.11176280340726],[28.918935666175912,41.112201498300465],[28.917945810397384,41.11406699572899],[28.916270669849325,41.11361013921584],[28.91238738948789,41.11381953178437],[28.9110358556365,41.11416217416922],[28.91069321325159,41.11414313848121],[28.910559963435276,41.11433349536168],[28.910483820683112,41.114923601691146],[28.909893714353757,41.11541852958021],[28.909589143344988,41.11578020765313],[28.910198285362526,41.11642742104658],[28.91002696416996,41.117245955632825],[28.90966528609721,41.11779799058604],[28.908237609493597,41.1188830248048],[28.907780752980614,41.119282774253804],[28.907171610963076,41.12015841590386],[28.906848004266237,41.12090080773771],[28.906584821352226,41.12162537609305],[28.906593031001364,41.12170464400157],[28.90651223655931,41.12182520914166],[28.90661957600969,41.122385591405305],[28.906105612432384,41.12242366278139],[28.90562972023116,41.122004877644486],[28.9049634711497,41.12183355645209],[28.90424011500386,41.12179548507578],[28.903783258490705,41.121681270947704],[28.903136045097085,41.1215670568194],[28.90264111720802,41.1215670568194],[28.902070046566394,41.121471878379],[28.901346690420553,41.12126248581046],[28.901129577584754,41.12110804410514],[28.90121629800103,41.12100592700125],[28.901063247000536,41.12087543300072],[28.900850570000614,41.12090957400119],[28.900607583000635,41.12064150000083],[28.899728456000673,41.12058392200089],[28.89859707100055,41.12026070200079],[28.897363969000708,41.11922363000076],[28.89667698500068,41.11769695900085],[28.896122116000697,41.11738762400074],[28.8959890240007,41.11722280800075],[28.895357856000544,41.1155121580008],[28.895537785000556,41.11437119300081],[28.895606411000585,41.11325432000069],[28.896137570000406,41.11240210000068],[28.897495299000695,41.11252634000067],[28.89791222000065,41.11244054700114],[28.898403743000586,41.11203375700069],[28.899187750000692,41.11202636300061],[28.89932462000064,41.11120160000104],[28.899257597000712,41.11073725400081],[28.898968379000564,41.11016724000069],[28.899429843000576,41.11015814500058],[28.900828115000593,41.10981133000075],[28.900155956000674,41.108512844000586],[28.900529888000733,41.108264302000634],[28.901036514000737,41.10811156400081],[28.901327796000658,41.107799202000706],[28.90169769400069,41.10761364600063],[28.90151873100075,41.1074363620009],[28.901720657000567,41.107217689000834],[28.90268325100061,41.106713629000694],[28.90296358000063,41.10643267200061],[28.90304717500055,41.10659554100067],[28.903621930000554,41.10637141000069],[28.9045442980007,41.106182092000665],[28.90459905600062,41.10608807100061],[28.904468535000547,41.105749180000544],[28.903411180000546,41.10434800900072],[28.902731665000374,41.10107759600038],[28.904466001000685,41.100909514000875],[28.903777634000676,41.09817025500098],[28.91253762400055,41.09735734500066],[28.91275579800066,41.09793115800062],[28.912328732000674,41.09861143300071],[28.912470524000696,41.09864035000106],[28.913513956000656,41.098113273000706],[28.91360267600055,41.09793690300086],[28.91427207700059,41.09765571700086],[28.914503358000673,41.09763989000106],[28.914822746000596,41.09734819500062],[28.915641048000623,41.097138908001],[28.91674410600058,41.09712065500082],[28.917065925000657,41.09687566100098],[28.91830568900093,41.096368333000555],[28.91705711000111,41.097193771001514],[28.91695996800121,41.09764405100111],[28.919439125562633,41.10291638762084]]],"type":"Polygon"}},{"type":"Feature","properties":{"area_id":"TR-34-033-40356","name_tr":"Eski Habipler","area_level":"neighbourhood","parent_id":"TR-34-033","endeksa_id":40356},"geometry":{"coordinates":[[[28.83333901000026,41.133628995000265],[28.830543553000325,41.13514115600077],[28.828652601000158,41.13562381900033],[28.826681740000254,41.135741259999975],[28.82482240900015,41.135393096000655],[28.82464667300019,41.13429001400016],[28.827330139000026,41.131022415000075],[28.829682048000166,41.12946529300001],[28.832363807000092,41.127924784000186],[28.833587804000047,41.127638394000655],[28.835744470000122,41.12682579700015],[28.836477536000075,41.12670471300004],[28.83779568800003,41.1267671710001],[28.84081283800009,41.12727683900016],[28.83910450500008,41.128280924000705],[28.838654431000123,41.12863002800009],[28.83333901000026,41.133628995000265]]],"type":"Polygon"}},{"type":"Feature","properties":{"area_id":"TR-34-033-40474","name_tr":"Cebeci","area_level":"neighbourhood","parent_id":"TR-34-033","endeksa_id":40474},"geometry":{"coordinates":[[[28.88923680500079,41.13676316400108],[28.889092408000295,41.136881995000124],[28.888349760000324,41.13631011500041],[28.887212526000326,41.135739152000156],[28.88642835200028,41.13548470100051],[28.883834029000298,41.13489359500045],[28.88315105100031,41.1347785930007],[28.880260470000337,41.13464721400027],[28.878984014000196,41.13489757300027],[28.878259096000306,41.13472194800022],[28.878021872000204,41.13478905300036],[28.87683786300022,41.13423214400052],[28.875741224000308,41.133552127000655],[28.874366690000272,41.13327232700027],[28.87271953800024,41.13336514100064],[28.87154193000032,41.1332735710007],[28.86353106800027,41.12918675900028],[28.863012348000325,41.12904127600024],[28.862010096000347,41.12845410000028],[28.853242441000305,41.12402908800044],[28.851461041000334,41.1227762610003],[28.849149457000237,41.12456361800008],[28.847433754000292,41.123107054],[28.847347395000327,41.12273153500064],[28.84662853500015,41.12213330300017],[28.844987744000207,41.12126983100035],[28.84478672800026,41.121078737000346],[28.847355483000285,41.11941696000025],[28.84941139700021,41.1176062400005],[28.85219299800025,41.115564400000665],[28.85570359100035,41.114482086000464],[28.85640560500036,41.114108024000245],[28.856779421000226,41.11377945099997],[28.857347845000334,41.112871633],[28.86144977800035,41.10436675100027],[28.87789632600027,41.108980780000024],[28.879439859000342,41.10952621100034],[28.883455053000205,41.106101416],[28.885976184000356,41.10530962000024],[28.888367301000244,41.10505440600059],[28.889057168000363,41.104896758000336],[28.889592075000337,41.10497465800023],[28.889443165000273,41.10588173500025],[28.888507123000238,41.10946807000056],[28.888422706000313,41.11049189800036],[28.890244060000157,41.11082731800076],[28.89098981700033,41.11087258900051],[28.89122804700031,41.11062984500035],[28.891258353000353,41.10972172300035],[28.891763530000333,41.108896150000135],[28.892160971000237,41.108490290000304],[28.892576057000326,41.10706434100018],[28.89306442700024,41.10762073800032],[28.893928487000323,41.108223466000254],[28.895848601000353,41.108921855000574],[28.89664219500031,41.10930138700036],[28.897174187000246,41.110323930000675],[28.897177029000318,41.11057591500065],[28.896137570000406,41.11240210000068],[28.895606411000585,41.11325432000069],[28.895537785000556,41.11437119300081],[28.895357856000544,41.1155121580008],[28.8959890240007,41.11722280800075],[28.896122116000697,41.11738762400074],[28.89667698500068,41.11769695900085],[28.897363969000708,41.11922363000076],[28.89859707100055,41.12026070200079],[28.899728456000673,41.12058392200089],[28.900607583000635,41.12064150000083],[28.900850570000614,41.12090957400119],[28.901063247000536,41.12087543300072],[28.90121629800103,41.12100592700125],[28.901129577584754,41.12110804410514],[28.901346690420553,41.12126248581046],[28.902070046566394,41.121471878379],[28.902381820267465,41.12152384066252],[28.902127153630147,41.12219523452444],[28.903440616105286,41.12215716314853],[28.9039535926467,41.12238404153021],[28.903984813001045,41.122380316001],[28.904229229000975,41.122459831001095],[28.904260863726392,41.122519940854716],[28.90490636408498,41.12320412599098],[28.90530611353404,41.123718089568285],[28.906086576743803,41.124022660577054],[28.906124648119885,41.12455565984226],[28.905534541790416,41.12499348066717],[28.905285513847787,41.124993480667],[28.902931472001,41.12598196300138],[28.902831436000895,41.12612395200114],[28.9015583980011,41.12698376700092],[28.901305427001034,41.1270385310014],[28.901047182001037,41.126937200000896],[28.901097131000995,41.12734267800107],[28.900170040000944,41.12870964800118],[28.899944418000928,41.12882423000127],[28.900008311000988,41.12905473900105],[28.899798071000987,41.12947441000142],[28.89959591800107,41.129692848001014],[28.89910474400091,41.12976558200097],[28.89942324300108,41.13011438600108],[28.89916859500096,41.130645603001426],[28.89894559800109,41.13079117800095],[28.898390730000983,41.130809697001325],[28.89878705000092,41.131228018001025],[28.89875786200099,41.13146597600115],[28.898560520001013,41.131677589001015],[28.898050947001025,41.13181327600114],[28.897510385000885,41.13210589800099],[28.898263986000984,41.132263198001056],[28.898080851001055,41.13270004000094],[28.896762117001003,41.133830953001166],[28.895611798000914,41.13454655100105],[28.895207832000892,41.1344313520014],[28.894968893000964,41.134774502001164],[28.894719957000973,41.13477449600117],[28.893242199000895,41.13519159400124],[28.893060264001008,41.13514219800106],[28.89289201400095,41.13530973000104],[28.89244194700092,41.135402325000996],[28.89211792600105,41.13528380800102],[28.891640147001056,41.1356622960011],[28.890664231000926,41.135980714001164],[28.89045124000097,41.13590433300112],[28.89010713800093,41.13538452100113],[28.889842005000958,41.13541055500133],[28.889495484000975,41.135030801000994],[28.889220128000886,41.13454214400133],[28.8890816650009,41.13453127900141],[28.888106705001064,41.13367375000104],[28.887454412000977,41.13330247300098],[28.887249860000964,41.13334893900128],[28.887254079001025,41.133658687000946],[28.8880554610011,41.134447306000936],[28.888844309001,41.13552245500097],[28.88931605400103,41.136548563000986],[28.88923680500079,41.13676316400108]]],"type":"Polygon"}},{"type":"Feature","properties":{"area_id":"TR-34-033-40477","name_tr":"Habibler","area_level":"neighbourhood","parent_id":"TR-34-033","endeksa_id":40477},"geometry":{"coordinates":[[[28.88923680500079,41.13676316400108],[28.888852464001047,41.137082338000994],[28.888427108000997,41.1372283230009],[28.88700346700091,41.13700016300123],[28.886571888001015,41.1370853300009],[28.887584018000894,41.13760970000095],[28.887831602000972,41.137783621001006],[28.887823979000927,41.13795507700098],[28.88620492900094,41.139497499001095],[28.886037637000925,41.139606660001334],[28.885845495001035,41.13950831700089],[28.885662270001035,41.139720956000986],[28.885411297000985,41.139747116000876],[28.88553043700108,41.14024856500089],[28.885009356001035,41.141151202001026],[28.884756802000936,41.14127025800093],[28.884376747001,41.1412141650012],[28.884676293000894,41.1417626270009],[28.883688820000998,41.14348297200104],[28.883410409000987,41.14353790100091],[28.883156006001002,41.143440140000905],[28.88301174100104,41.14312010100116],[28.882909334001,41.14311910700104],[28.882852563000995,41.14414297200079],[28.88237697800099,41.144904842000926],[28.882142665001084,41.14504360500115],[28.88193634300103,41.14501873100102],[28.881490630001053,41.14460057200097],[28.881329886001026,41.14460139400103],[28.881706208000935,41.14545316700111],[28.881377592000888,41.14587403700091],[28.881150886000967,41.14588819400092],[28.881405497101355,41.146747227960304],[28.881001865000314,41.14665123100036],[28.880523763000326,41.146179272000666],[28.88006124200035,41.145926347000454],[28.880094679000194,41.14520714900061],[28.880019178000225,41.144967806000295],[28.879579641000362,41.144477757000345],[28.879224191000276,41.143722812000306],[28.878010209000195,41.14267227000022],[28.877919172000247,41.14222018900074],[28.877827117000322,41.14214212500036],[28.876763546000348,41.1419200750006],[28.87579623900035,41.14193477300057],[28.875313624000285,41.14207989400023],[28.874804257000335,41.14205502300075],[28.87456719700026,41.14213319800024],[28.87383040700024,41.14270550000066],[28.87076735400018,41.14142996300001],[28.86662216600007,41.140778872000055],[28.864851887000043,41.14038720500025],[28.862741470000117,41.140784450000524],[28.86078369300003,41.14216581800042],[28.855817242000057,41.14232024500018],[28.847379499000112,41.1431984300001],[28.846113486000093,41.14318575200008],[28.845329494000055,41.14230895400004],[28.844746281000027,41.14103679000044],[28.84258798400009,41.13958187000014],[28.840575162000164,41.13716810200009],[28.83822755400007,41.13605910700011],[28.836196813000186,41.13583140500009],[28.83563185100013,41.13522377800018],[28.834926403000054,41.13488607100004],[28.834875569000133,41.13467288300012],[28.834467447000065,41.13445232500004],[28.83447997800016,41.13433337300029],[28.834269153000037,41.13406901200017],[28.834020170000144,41.13387866800008],[28.83333901000026,41.133628995000265],[28.838654431000123,41.12863002800009],[28.83910450500008,41.128280924000705],[28.84129523200005,41.12698647500008],[28.84153824499998,41.126731402000075],[28.843038274000037,41.12432452600001],[28.843359081000187,41.12360823900053],[28.843437785000162,41.1222592160002],[28.843583018000174,41.12195623900027],[28.844095348999986,41.12144237700056],[28.844194548000132,41.12161157100053],[28.84478672800026,41.121078737000346],[28.844987744000207,41.12126983100035],[28.84662853500015,41.12213330300017],[28.847347395000327,41.12273153500064],[28.847433754000292,41.123107054],[28.849149457000237,41.12456361800008],[28.851461041000334,41.1227762610003],[28.853242441000305,41.12402908800044],[28.862010096000347,41.12845410000028],[28.863012348000325,41.12904127600024],[28.86353106800027,41.12918675900028],[28.87154193000032,41.1332735710007],[28.87271953800024,41.13336514100064],[28.874366690000272,41.13327232700027],[28.875741224000308,41.133552127000655],[28.87683786300022,41.13423214400052],[28.878021872000204,41.13478905300036],[28.878259096000306,41.13472194800022],[28.878984014000196,41.13489757300027],[28.880260470000337,41.13464721400027],[28.88315105100031,41.1347785930007],[28.883834029000298,41.13489359500045],[28.88642835200028,41.13548470100051],[28.887212526000326,41.135739152000156],[28.888349760000324,41.13631011500041],[28.889092408000295,41.136881995000124],[28.88923680500079,41.13676316400108]]],"type":"Polygon"}},{"type":"Feature","properties":{"area_id":"TR-34-033-40377","name_tr":"Yayla","area_level":"neighbourhood","parent_id":"TR-34-033","endeksa_id":40377},"geometry":{"coordinates":[[[28.87363926604968,41.143911605339326],[28.873716328000285,41.14405622700042],[28.874938014000293,41.14529891800083],[28.875022036000303,41.14583707600042],[28.875832687000354,41.14695089900033],[28.87616709400021,41.14795373500067],[28.875770785000213,41.149752272],[28.875418428000273,41.150514049000265],[28.874796127000195,41.1510498460006],[28.87459849300035,41.15132191000038],[28.874212485000214,41.15155341799999],[28.87383931600033,41.15198196900019],[28.873450947000265,41.15207920200015],[28.873109239000257,41.152325816000484],[28.872448480000344,41.15230872700005],[28.871683319000226,41.15264150800067],[28.871106176000353,41.152389680000795],[28.870438447000254,41.15251414500017],[28.86888930200024,41.15196544999998],[28.868611930000213,41.15173942100023],[28.867942630000243,41.15163047000033],[28.867509818000315,41.15122346500067],[28.866252420000194,41.15156199100028],[28.865699929000186,41.152293364000286],[28.865438422000352,41.152827471000364],[28.865566678000278,41.153496415999996],[28.866044403000274,41.15393179400036],[28.866496130000257,41.154967150000004],[28.867146070000217,41.15601559400028],[28.867380146000244,41.15661937200031],[28.867277349000346,41.1568745320003],[28.86711020800027,41.15708880600005],[28.8666613270002,41.15707250700024],[28.865706671000225,41.15752205300032],[28.865063948000284,41.15747853700026],[28.86409226300026,41.15780211700036],[28.863947825000196,41.15795709300039],[28.863609419000284,41.158049020000306],[28.8631151160003,41.15838666100041],[28.86264313800035,41.15834922600027],[28.862301156000285,41.15842031800008],[28.862028871000234,41.158678298000325],[28.861777362000282,41.159170554000696],[28.861728606000327,41.15952703400035],[28.861358411000197,41.159748211000306],[28.85934129600014,41.15882865500021],[28.858409727000264,41.158554168000364],[28.85497229300023,41.15693721600047],[28.853405589000317,41.15558569200056],[28.848227122000196,41.15426562200025],[28.848504839000327,41.15388312300064],[28.848571194000215,41.153367109000044],[28.848504877000323,41.15315954000022],[28.84827240700031,41.153061005000325],[28.847212606000255,41.153078980000316],[28.84691700200034,41.152980119000176],[28.846489657000234,41.15228741700059],[28.845846825000308,41.151905744000544],[28.84308421100036,41.15124712800076],[28.842903890000287,41.15107967000023],[28.8424918890002,41.15012416900066],[28.84132467400036,41.14818638000082],[28.840445827000224,41.147298891000844],[28.83924701900031,41.146427232000576],[28.838304250000363,41.14552905400069],[28.835713897000346,41.143585396000276],[28.833756187000233,41.14287440800007],[28.83329633200026,41.14244171700028],[28.832792054000265,41.14170843600027],[28.832659473000263,41.14124967500055],[28.83302636200034,41.14013289400043],[28.83289097000028,41.13829079500016],[28.83257966100024,41.13675624200033],[28.832726022000315,41.1361726560005],[28.83363737100035,41.134501140000395],[28.8336574450002,41.13425622600056],[28.83333901000026,41.133628995000265],[28.834020170000144,41.13387866800008],[28.834269153000037,41.13406901200017],[28.83447997800016,41.13433337300029],[28.834467447000065,41.13445232500004],[28.834875569000133,41.13467288300012],[28.834926403000054,41.13488607100004],[28.83563185100013,41.13522377800018],[28.836196813000186,41.13583140500009],[28.83822755400007,41.13605910700011],[28.840575162000164,41.13716810200009],[28.84258798400009,41.13958187000014],[28.844746281000027,41.14103679000044],[28.845329494000055,41.14230895400004],[28.846113486000093,41.14318575200008],[28.847379499000112,41.1431984300001],[28.855817242000057,41.14232024500018],[28.86078369300003,41.14216581800042],[28.862741470000117,41.140784450000524],[28.864851887000043,41.14038720500025],[28.86662216600007,41.140778872000055],[28.87076735400018,41.14142996300001],[28.87383040700024,41.14270550000066],[28.873509948000276,41.143399135000266],[28.87360944800031,41.14385564600025],[28.87363926604968,41.143911605339326]]],"type":"Polygon"}},{"type":"Feature","properties":{"area_id":"TR-34-033-0","name_tr":"Alibeyköy Barajı","area_level":"neighbourhood","parent_id":"TR-34-033","endeksa_id":0},"geometry":{"coordinates":[[[28.92318095307587,41.10707363490525],[28.923231575001353,41.10728027500136],[28.92400787500128,41.10805941800163],[28.924414970001294,41.10909632000124],[28.924734227001352,41.10922080200123],[28.92444722300138,41.10943611100157],[28.924471954001433,41.10994736200132],[28.924347551001347,41.11004268600158],[28.9238659093798,41.11107839270545],[28.923808802315648,41.11174464178714],[28.92426565882863,41.11185885591544],[28.924855765158156,41.11174464178714],[28.92523647891909,41.11176367747515],[28.925331657359322,41.11191596297954],[28.924722515341784,41.112258605364445],[28.92453215846149,41.112563176373214],[28.924703479653772,41.113210389766664],[28.9244340161855,41.11354581910484],[28.92392301644395,41.113248461142746],[28.923485195618866,41.1130200328862],[28.92327580305033,41.1134197823352],[28.924288880150584,41.11429232446085],[28.925331657359322,41.11555177939641],[28.926288301077193,41.11632066863916],[28.92636767000141,41.116392278001854],[28.92638280769961,41.11638861598129],[28.927178119099835,41.116960420311955],[28.92803472506199,41.11747438388909],[28.928796152583914,41.11808352590663],[28.929386258913382,41.118654596548026],[28.92868193845561,41.11850231104364],[28.927520761484686,41.11804545453049],[28.926721262586852,41.11755052664142],[28.926074049193232,41.11768377645757],[28.925464907175694,41.11779799058587],[28.925369728735404,41.117264991320724],[28.925027086350553,41.11722691994464],[28.924722515341784,41.1167890991195],[28.924132409012486,41.11619899279003],[28.923409052866646,41.116275135542196],[28.923047374793725,41.115209137011504],[28.922095758740227,41.11457941260062],[28.922023580001337,41.11452431900193],[28.92183797900134,41.114758120001284],[28.921804803001237,41.11495673700165],[28.92204494700144,41.115850589001354],[28.921956337001347,41.11609990900138],[28.922045645001276,41.11641760100173],[28.921915493001336,41.116478325001424],[28.921897090001323,41.11673664000142],[28.92208660700129,41.11709100500167],[28.921346124001218,41.117390210001645],[28.921130856001355,41.117646681001816],[28.92109732500137,41.117866736001815],[28.920853165001404,41.11805980400163],[28.920679229001394,41.118004572001496],[28.92054970800143,41.11783420900133],[28.919725389001314,41.11815405900137],[28.919465064001372,41.11837198700124],[28.919248926001274,41.11820081000138],[28.9188681500014,41.11817579600125],[28.918324936001397,41.11818670400129],[28.917980291001356,41.118311519001395],[28.91788882300125,41.11862147000136],[28.918077380001307,41.11936531600128],[28.918101212001318,41.11983248600137],[28.91807268700137,41.120034719001694],[28.91784360700143,41.12038754100138],[28.917763853001418,41.11977690400141],[28.917643424001312,41.11953277100173],[28.917355818001283,41.119301360001316],[28.91707620300133,41.11925465800135],[28.91716228900134,41.11900055300157],[28.91707374300131,41.11882938100143],[28.916907262001303,41.11870393200127],[28.916705712001317,41.11869965600181],[28.916714883001305,41.11842934200132],[28.916367533001335,41.11790433500164],[28.916186198001355,41.11734158000172],[28.915901011001267,41.11715545400176],[28.915367733001403,41.117209279001315],[28.914994538001338,41.11691559100154],[28.914562304001436,41.11687864200178],[28.914339406001318,41.117099533001294],[28.913796137001384,41.1180649900017],[28.91297543600143,41.11900352700127],[28.912905832001343,41.11955605800125],[28.912994735001348,41.11978131600142],[28.913222525001345,41.119952137001235],[28.91328367400132,41.12025575200141],[28.91253331600143,41.12013717600138],[28.911835641001346,41.11991903300134],[28.9114272280014,41.12038402500127],[28.910732835001397,41.12065334000181],[28.910263247001296,41.12104484900124],[28.91022558200126,41.121607685001266],[28.910063041001422,41.12172050100173],[28.91091212600122,41.123034082001254],[28.91067768400137,41.12311286600175],[28.91055018000128,41.12377395900131],[28.910590026001387,41.12403163200173],[28.91081580700137,41.124286298001664],[28.91052713900143,41.124405069001455],[28.910250070001325,41.124389542001325],[28.909449035001217,41.12556069100168],[28.909554614001365,41.125806121001915],[28.910463373001335,41.12618065200155],[28.91151134900133,41.12648216200125],[28.911957586001392,41.126705080001784],[28.912283445001265,41.12666241500153],[28.912284609001347,41.127049800001714],[28.912621981001394,41.1273402980014],[28.913142860001415,41.12739381400138],[28.913426009001284,41.127533710001785],[28.914049832001297,41.12753530500146],[28.91435805764064,41.12761770464999],[28.914394530251343,41.12772062623662],[28.914313702649167,41.12780790880532],[28.91391101100129,41.12781416300163],[28.913488164001365,41.12800600500168],[28.913249164001343,41.12839827100163],[28.9131446780014,41.12900193100148],[28.912931935001268,41.12894846400144],[28.91300113500131,41.12784846300161],[28.912429385001246,41.12789881300171],[28.911566609001284,41.12759953900144],[28.911504611001305,41.1273854930015],[28.91104473800135,41.12714862700125],[28.91057812200131,41.12731955700173],[28.91060871400134,41.12714641000133],[28.910497291001263,41.12702528500154],[28.909986071001242,41.126997578001465],[28.90889493800131,41.126473673001726],[28.908577307001394,41.126400145001355],[28.908065937001368,41.12651479900143],[28.907785645001297,41.12671654900157],[28.907557694001355,41.126953815001286],[28.90747194300144,41.12733680200165],[28.90729889900132,41.12734087800163],[28.90702008600124,41.12705449300165],[28.90699639000144,41.12683056300159],[28.906844487001365,41.1267569360013],[28.905847385001323,41.12699757900191],[28.905431535001355,41.12722233600141],[28.905387782001355,41.12735247400133],[28.90502917800137,41.127317618001655],[28.90445607200138,41.12744939400136],[28.904175711001358,41.12763541000129],[28.904048327001306,41.12824694400126],[28.90387639900132,41.12797562400192],[28.903674259001434,41.12785362900132],[28.90317032900134,41.12822048100168],[28.90244008900129,41.12953716900154],[28.902367728001423,41.129870964001725],[28.902475916001322,41.13018551500136],[28.903113677001443,41.1310921240015],[28.90335831400131,41.13116020700136],[28.90341219100128,41.13125506100175],[28.902972360001343,41.13125278000166],[28.9024078280014,41.13101901200184],[28.90204015700141,41.13069531800153],[28.90189501600139,41.13075140900128],[28.901610788001335,41.13116799600175],[28.901149429001237,41.132153707001294],[28.901189091001356,41.13257147600132],[28.90071218800142,41.13275084500134],[28.900069542001347,41.13365781100123],[28.900255299001344,41.13404713700129],[28.900564997001425,41.13418231500128],[28.90045002600141,41.1342741300017],[28.900443092001353,41.13440628500189],[28.900545689001376,41.134489456001575],[28.89986473600129,41.134225659001686],[28.899490678001428,41.134264968001276],[28.899331716001427,41.13417959000134],[28.898655910001253,41.1348330450013],[28.89859717000138,41.13514219200158],[28.898161270001367,41.135204729001316],[28.897851275001415,41.13546382300126],[28.897812711001393,41.13569692600129],[28.897988868001335,41.135997598001836],[28.897135435001303,41.13591895200136],[28.897055372001375,41.135995612001295],[28.896312974001376,41.13610761900179],[28.89616441100128,41.13627593900151],[28.895782393001298,41.136272278001286],[28.894934994001233,41.13653812400162],[28.895185786001377,41.13825880900163],[28.895444175001387,41.138353604001736],[28.89728293200136,41.138401001001284],[28.89787641000123,41.138724806001335],[28.898089805001405,41.13868396500163],[28.89811092500139,41.13911656600129],[28.89913795600137,41.13960524200155],[28.89917301800142,41.1397699600015],[28.89928525300138,41.139842503001375],[28.90053652900133,41.14020823500124],[28.900857690001374,41.140507904001254],[28.90127529000131,41.14069413800178],[28.901344157001404,41.14081629600139],[28.901235943001325,41.14106898600187],[28.900914135001358,41.14109093000155],[28.89984489100135,41.14037603900147],[28.899342297001283,41.140278921001425],[28.898934386001372,41.140389178001385],[28.898866779001423,41.14019198600124],[28.898501935001434,41.13986687900143],[28.89772649100138,41.13959740100188],[28.8971213580013,41.1390377090014],[28.896909753001296,41.138971657001434],[28.895401321001373,41.13900365700124],[28.89526052900129,41.13907830400183],[28.89500956000137,41.13961145200153],[28.894812373001287,41.13964386700127],[28.89472946100136,41.13932669400123],[28.894085306001273,41.13850288400147],[28.894113410001296,41.13803049200146],[28.89384559300123,41.1368653270016],[28.893685184001413,41.13665985600176],[28.89328358900127,41.13683654200162],[28.893161133001286,41.13709146900129],[28.892901200001347,41.137088971001276],[28.89271289200144,41.13727775100125],[28.892104587001256,41.1372568920014],[28.891643150001357,41.13741254800129],[28.891586703001394,41.1374710870013],[28.891628145001278,41.13785457000165],[28.890993166001408,41.13768645800178],[28.890795372001378,41.13775507200177],[28.89065024400128,41.138147557001275],[28.890341680001313,41.138057390001734],[28.889841226001295,41.13856406100132],[28.8896905680013,41.13878988700168],[28.889691032001338,41.13909864500147],[28.8892625410013,41.13921500200195],[28.889238561001264,41.13941057100152],[28.889397478001342,41.13956397900142],[28.88895420300139,41.13968775600125],[28.888583902001358,41.1406222390014],[28.888602455001376,41.140923191001434],[28.888944680001373,41.14118557500166],[28.888589016001276,41.1414858940019],[28.88878335100128,41.14187490300185],[28.888338100001306,41.14211479800139],[28.888279923001335,41.14276045200131],[28.889285291001386,41.14362919100137],[28.88993797700141,41.14399633200162],[28.89021743700124,41.14404398200128],[28.8908640190013,41.14382626800142],[28.89136711700138,41.14349210100136],[28.891432384001348,41.14354633300144],[28.8912611230013,41.144031400001666],[28.89159068600128,41.144251844001246],[28.89213339800142,41.144307095001295],[28.892184187001305,41.14437905400166],[28.892020416001344,41.14455972900123],[28.891469762001407,41.14458301900174],[28.89091654100139,41.144870724001294],[28.89104473400141,41.14567957800125],[28.89122862400137,41.14598867300134],[28.891715569001406,41.14645553800136],[28.892021236852088,41.14661931410956],[28.89217148878157,41.14701777173701],[28.892076310341338,41.147093914489176],[28.891270374100372,41.1470450590985],[28.89113597500142,41.14700449300136],[28.890429290001293,41.14698418800174],[28.89009415800126,41.14722584500174],[28.889804886001343,41.14755897000168],[28.889637261001383,41.147967239001446],[28.889441000001227,41.14895164400144],[28.889634948001287,41.14922510200137],[28.889625275001322,41.15142344900141],[28.889652535318476,41.151455828492146],[28.889696849335678,41.15208126475761],[28.88967781364761,41.1523477643903],[28.88937324263884,41.15236680007831],[28.888973493189837,41.15158633686838],[28.888802171997384,41.15053937402587],[28.88868795786931,41.14996830338447],[28.888409749759774,41.14890623925464],[28.888457416001017,41.14812560200113],[28.88891023100092,41.14640071100098],[28.88889024000099,41.14607453700097],[28.88863747900092,41.14573856800115],[28.888033435001034,41.145451619001506],[28.887669001001086,41.14551149700111],[28.88717864000091,41.146033661001525],[28.88678611300105,41.146686567000984],[28.886112076000984,41.147406670001146],[28.88534610900109,41.14797102600113],[28.884145523001052,41.148608595001235],[28.883505276000903,41.14872746400118],[28.882527885000968,41.14874776500102],[28.882460309000862,41.14901512400087],[28.882332791000977,41.1490385050011],[28.88201568520975,41.14825495922423],[28.881218829771797,41.1483455109784],[28.879791153168355,41.14695352628979],[28.879005931036204,41.145347390110715],[28.878434860394975,41.144026789252734],[28.87757825443282,41.14327725903581],[28.876400421234905,41.142670496479354],[28.875579507187922,41.14270618839436],[28.875008436546466,41.14292033988505],[28.8745087497353,41.14292033988505],[28.874080446754306,41.14345571861128],[28.87363926604968,41.143911605339326],[28.87360944800031,41.14385564600025],[28.873509948000276,41.143399135000266],[28.87383040700024,41.14270550000066],[28.87456719700026,41.14213319800024],[28.874804257000335,41.14205502300075],[28.875313624000285,41.14207989400023],[28.87579623900035,41.14193477300057],[28.876763546000348,41.1419200750006],[28.877827117000322,41.14214212500036],[28.877919172000247,41.14222018900074],[28.878010209000195,41.14267227000022],[28.879224191000276,41.143722812000306],[28.879579641000362,41.144477757000345],[28.880019178000225,41.144967806000295],[28.880094679000194,41.14520714900061],[28.88006124200035,41.145926347000454],[28.880523763000326,41.146179272000666],[28.881001865000314,41.14665123100036],[28.881405497101355,41.146747227960304],[28.881150886000967,41.14588819400092],[28.881377592000888,41.14587403700091],[28.881706208000935,41.14545316700111],[28.881329886001026,41.14460139400103],[28.881490630001053,41.14460057200097],[28.88193634300103,41.14501873100102],[28.882142665001084,41.14504360500115],[28.88237697800099,41.144904842000926],[28.882852563000995,41.14414297200079],[28.882909334001,41.14311910700104],[28.88301174100104,41.14312010100116],[28.883156006001002,41.143440140000905],[28.883410409000987,41.14353790100091],[28.883688820000998,41.14348297200104],[28.884676293000894,41.1417626270009],[28.884376747001,41.1412141650012],[28.884756802000936,41.14127025800093],[28.885009356001035,41.141151202001026],[28.88553043700108,41.14024856500089],[28.885411297000985,41.139747116000876],[28.885662270001035,41.139720956000986],[28.885845495001035,41.13950831700089],[28.886037637000925,41.139606660001334],[28.88620492900094,41.139497499001095],[28.887823979000927,41.13795507700098],[28.887831602000972,41.137783621001006],[28.887584018000894,41.13760970000095],[28.886571888001015,41.1370853300009],[28.88700346700091,41.13700016300123],[28.888427108000997,41.1372283230009],[28.888852464001047,41.137082338000994],[28.88923680500079,41.13676316400108],[28.88931605400103,41.136548563000986],[28.888844309001,41.13552245500097],[28.8880554610011,41.134447306000936],[28.887254079001025,41.133658687000946],[28.887249860000964,41.13334893900128],[28.887454412000977,41.13330247300098],[28.888106705001064,41.13367375000104],[28.8890816650009,41.13453127900141],[28.889220128000886,41.13454214400133],[28.889495484000975,41.135030801000994],[28.889842005000958,41.13541055500133],[28.89010713800093,41.13538452100113],[28.89045124000097,41.13590433300112],[28.890664231000926,41.135980714001164],[28.891640147001056,41.1356622960011],[28.89211792600105,41.13528380800102],[28.89244194700092,41.135402325000996],[28.89289201400095,41.13530973000104],[28.893060264001008,41.13514219800106],[28.893242199000895,41.13519159400124],[28.894719957000973,41.13477449600117],[28.894968893000964,41.134774502001164],[28.895207832000892,41.1344313520014],[28.895611798000914,41.13454655100105],[28.896762117001003,41.133830953001166],[28.898080851001055,41.13270004000094],[28.898263986000984,41.132263198001056],[28.897510385000885,41.13210589800099],[28.898050947001025,41.13181327600114],[28.898560520001013,41.131677589001015],[28.89875786200099,41.13146597600115],[28.89878705000092,41.131228018001025],[28.898390730000983,41.130809697001325],[28.89894559800109,41.13079117800095],[28.89916859500096,41.130645603001426],[28.89942324300108,41.13011438600108],[28.89910474400091,41.12976558200097],[28.89959591800107,41.129692848001014],[28.899798071000987,41.12947441000142],[28.900008311000988,41.12905473900105],[28.899944418000928,41.12882423000127],[28.900170040000944,41.12870964800118],[28.901097131000995,41.12734267800107],[28.901047182001037,41.126937200000896],[28.901305427001034,41.1270385310014],[28.9015583980011,41.12698376700092],[28.902831436000895,41.12612395200114],[28.902931472001,41.12598196300138],[28.905285513847787,41.124993480667],[28.905534541790416,41.12499348066717],[28.906124648119885,41.12455565984226],[28.906086576743803,41.124022660577054],[28.90530611353404,41.123718089568285],[28.90490636408498,41.12320412599098],[28.904260863726392,41.122519940854716],[28.904229229000975,41.122459831001095],[28.903984813001045,41.122380316001],[28.9039535926467,41.12238404153021],[28.903440616105286,41.12215716314853],[28.902127153630147,41.12219523452444],[28.902381820267465,41.12152384066252],[28.90264111720802,41.1215670568194],[28.903136045097085,41.1215670568194],[28.903783258490705,41.121681270947704],[28.90424011500386,41.12179548507578],[28.9049634711497,41.12183355645209],[28.90562972023116,41.122004877644486],[28.906105612432384,41.12242366278139],[28.90661957600969,41.122385591405305],[28.90651223655931,41.12182520914166],[28.906593031001364,41.12170464400157],[28.906584821352226,41.12162537609305],[28.906848004266237,41.12090080773771],[28.907171610963076,41.12015841590386],[28.907780752980614,41.119282774253804],[28.908237609493597,41.1188830248048],[28.90966528609721,41.11779799058604],[28.91002696416996,41.117245955632825],[28.910198285362526,41.11642742104658],[28.909589143344988,41.11578020765313],[28.909893714353757,41.11541852958021],[28.910483820683112,41.114923601691146],[28.910559963435276,41.11433349536168],[28.91069321325159,41.11414313848121],[28.9110358556365,41.11416217416922],[28.91238738948789,41.11381953178437],[28.916270669849325,41.11361013921584],[28.917945810397384,41.11406699572899],[28.918935666175912,41.112201498300465],[28.918985329748352,41.11176280340726],[28.91915259000126,41.11147579200184],[28.919763833001298,41.11069832000146],[28.91942188300129,41.110421139001346],[28.91983443500129,41.110234418001255],[28.920403461001285,41.10962926700137],[28.920365215001368,41.10956041600127],[28.920604652001373,41.10912489700138],[28.920543496001244,41.10850450900193],[28.920235440001363,41.10824299400133],[28.919627165001373,41.10814961900138],[28.919091723001316,41.10822464400178],[28.91801894700137,41.10864340200129],[28.917339451001283,41.10874374900129],[28.91794594300137,41.10833205500137],[28.91799108900136,41.10819144100128],[28.91791412700138,41.10796772800148],[28.91816147100144,41.10799750200164],[28.91839152500131,41.107897882001566],[28.91909209700134,41.10743369900143],[28.919195781001406,41.10725742200151],[28.919173743001352,41.107064720001404],[28.918595667001284,41.10605297700141],[28.91815401900135,41.105787723001356],[28.918304960001308,41.105495631001304],[28.91818544900127,41.10494751500124],[28.91802860600137,41.10483168700125],[28.917566956001338,41.105017940001346],[28.917339058001346,41.10477946700138],[28.917153688919996,41.10468648787213],[28.9174889538844,41.10418747363292],[28.91773641782902,41.104054223816604],[28.918250381406324,41.10395904537637],[28.919011808928246,41.103407010422984],[28.91952577250555,41.10281690409363],[28.919665416880378,41.102400213697706],[28.922728731799623,41.10169630303551],[28.922759251001708,41.10175662900173],[28.922997877001933,41.102727060001826],[28.922609553968982,41.103730617119766],[28.92262858965705,41.10432072344929],[28.922362090024365,41.105101186659226],[28.92255244690483,41.10546286473215],[28.923332910114823,41.10525347216361],[28.92417048038891,41.10498697253098],[28.92466540827803,41.10479661565046],[28.9252555146075,41.10466336583414],[28.92531262167165,41.10487275840268],[28.924817693782416,41.10525347216361],[28.924722515342125,41.10555804317238],[28.924741551030195,41.10597682830928],[28.924436980021426,41.10597682830928],[28.924151444700726,41.1059387569332],[28.92390398075628,41.1059387569332],[28.923504231307277,41.1062242922539],[28.92287605360167,41.10690957702366],[28.923085446170205,41.107099933904124],[28.92318095307587,41.10707363490525]]],"type":"Polygon"}}]}