{"type":"FeatureCollection","source_id":"endeksa","retrieved_at":"2026-08-23","features":[{"type":"Feature","properties":{"area_id":"TR-31-012-31193","name_tr":"Karşıosb","area_level":"neighbourhood","parent_id":"TR-31-012","endeksa_id":31193},"geometry":{"coordinates":[[[36.21790681800002,36.75373495100024],[36.21540205500003,36.75397955600067],[36.21526556900005,36.75389186799998],[36.21528390200007,36.753249803000244],[36.21553839100011,36.747625943000685],[36.215599897000004,36.74754370700009],[36.21804302600009,36.74757915200013],[36.225889175000134,36.746960620000436],[36.226448732000165,36.747020836000445],[36.2278886360001,36.747915007000074],[36.22624030500003,36.74942693100013],[36.22447959500005,36.75018139500003],[36.223750002000145,36.75123303600009],[36.22320309300011,36.75166240300035],[36.22125097200018,36.75230990600005],[36.22044253300015,36.75302660000034],[36.21985601300008,36.753272161000496],[36.21790681800002,36.75373495100024]]],"type":"Polygon"}},{"type":"Feature","properties":{"area_id":"TR-31-012-31189","name_tr":"Karşı","area_level":"neighbourhood","parent_id":"TR-31-012","endeksa_id":31189},"geometry":{"coordinates":[[[36.21518889500015,36.75555100500003],[36.215148072000034,36.755493697000134],[36.215151169000194,36.755552976000104],[36.21294751500011,36.75566810900017],[36.21174851100005,36.755515898000056],[36.210926209000036,36.753829119000216],[36.20883045700003,36.752824028000134],[36.20688632399998,36.75342996500041],[36.205207908000034,36.7535309810001],[36.20115318500018,36.75154125400019],[36.19948135800013,36.75153244900008],[36.19621155600015,36.753067826000006],[36.192046677000064,36.75334148100001],[36.19165412100011,36.75278691400058],[36.19142986100019,36.750935502000516],[36.19112939600012,36.75026906500017],[36.19099964200001,36.74792373300028],[36.19048388100009,36.74690335300005],[36.1903305620001,36.74472751800005],[36.191654201999995,36.74196675700051],[36.19208398200004,36.74012141000014],[36.19191343600016,36.7396207380001],[36.19201841700004,36.73866761100021],[36.19264024100016,36.73795207400025],[36.193189231000076,36.73659543299999],[36.19438252300006,36.73519453400053],[36.19514747900013,36.73367308700017],[36.19515618200006,36.73299313900037],[36.19167713446785,36.73108239765975],[36.19161000000008,36.73108000000025],[36.19099667682315,36.730708680847954],[36.19025488600005,36.7303012790004],[36.19003320650751,36.730125375024215],[36.188290000000165,36.729070000000206],[36.18758000000008,36.72945000000021],[36.18772000000013,36.729650000000106],[36.18765000000019,36.72974000000022],[36.18691000000007,36.72888000000012],[36.18710000000016,36.728910000000155],[36.18725000000012,36.7290900000001],[36.1874600000001,36.72903000000014],[36.187480000000164,36.72918000000027],[36.1879400000002,36.728920000000244],[36.18749000000008,36.7281900000001],[36.18701000000016,36.726530000000366],[36.18727000000018,36.726500000000215],[36.187390000000164,36.726560000000234],[36.1874600000001,36.7266900000003],[36.18778000000009,36.72793000000007],[36.187860000000114,36.72797000000014],[36.187820000000045,36.72806000000031],[36.18827000000033,36.72867000000019],[36.189294151431,36.729230381642765],[36.18965271235629,36.729067287644],[36.18968200721406,36.72903799278646],[36.18972724514458,36.7288908980579],[36.18960000000004,36.72884000000005],[36.18970000000013,36.72874000000013],[36.18961000000036,36.72867000000019],[36.189740000000086,36.72849000000036],[36.193828312994526,36.730797729684696],[36.19670088300006,36.732351920000156],[36.19748387600009,36.73162920700014],[36.19778593300009,36.73101204800014],[36.195625163000045,36.72962182700013],[36.19619370900017,36.72872119800013],[36.19687959300006,36.728157167999996],[36.19700058400008,36.72813765100011],[36.19792181700018,36.72855562900003],[36.199209574000065,36.72954230100015],[36.199709257999984,36.72967115200004],[36.20036719400008,36.72946795400014],[36.2005241600001,36.72883997600019],[36.2020664370001,36.72699498700007],[36.20088742900003,36.723604426000065],[36.19875383800019,36.72242671599997],[36.198806708999996,36.72232710400044],[36.19911225900006,36.72223772500024],[36.20056920900004,36.72289011300006],[36.20148123800004,36.72296757500004],[36.20209976400008,36.72256920700016],[36.2016197910001,36.721533755999985],[36.20096939000018,36.72121876300031],[36.20061147000007,36.72066751699998],[36.200140709000095,36.72034784200014],[36.19733987500018,36.7211225930007],[36.1977291660001,36.72216790100015],[36.19744116499999,36.722372306000125],[36.19730771100018,36.7223102800001],[36.196717266000064,36.72096038500007],[36.19463331500003,36.7215332870004],[36.19455371498174,36.72151358798038],[36.188440000000185,36.72331000000008],[36.18453000000011,36.723870000000204],[36.18427000000008,36.72400000000016],[36.18379000000016,36.72411000000017],[36.18363000000011,36.723740000000134],[36.188560000000166,36.7229700000002],[36.19410000000005,36.7213100000003],[36.19428000000022,36.72088000000025],[36.1944400000001,36.720610000000306],[36.194790000000125,36.72013000000004],[36.195599942029105,36.71862313110921],[36.19638103500006,36.7166470680005],[36.19627976400011,36.71423047300016],[36.195345977000045,36.71080016000025],[36.195372718000044,36.70838647700015],[36.19747173500008,36.709349150000094],[36.20732656500007,36.71984569000011],[36.210086274000105,36.722312462000104],[36.2164135160001,36.72610941700049],[36.21747138400008,36.72746642700014],[36.22099903700018,36.727995031000034],[36.22116385800007,36.728087342000094],[36.22133126900013,36.728031226999974],[36.221280545000184,36.72814188000052],[36.2215219950001,36.72859129400058],[36.223797758000046,36.730071431000056],[36.22620914000004,36.73313138399999],[36.22618623100004,36.734233642000106],[36.22744932600017,36.735906428000135],[36.22771099500005,36.73664361400034],[36.22832189400009,36.73728871800006],[36.22955036000013,36.73795409200005],[36.23125113100008,36.737451468000074],[36.23189699100004,36.737667998000006],[36.2324058100001,36.737946696000336],[36.2337707960001,36.739774058000364],[36.23709023500004,36.7416604360003],[36.23708527700012,36.741782743000385],[36.23577689100006,36.74288025100009],[36.23544351300018,36.74340001700011],[36.234717250000074,36.74365284300006],[36.23443390600005,36.744670617000054],[36.23499927600011,36.745032064000384],[36.236842432,36.745232546000125],[36.23700545500009,36.74533543800044],[36.238520039000036,36.74647591300021],[36.23855162800004,36.746582195000656],[36.23843866100003,36.74664736800008],[36.233554358000106,36.74665166900019],[36.231115733000024,36.74706415700007],[36.2278886360001,36.747915007000074],[36.226448732000165,36.747020836000445],[36.225889175000134,36.746960620000436],[36.21804302600009,36.74757915200013],[36.215599897000004,36.74754370700009],[36.21553839100011,36.747625943000685],[36.21528390200007,36.753249803000244],[36.21526556900005,36.75389186799998],[36.21540205500003,36.75397955600067],[36.21525878000011,36.754078777000075],[36.21518889500015,36.75555100500003]]],"type":"Polygon"}},{"type":"Feature","properties":{"area_id":"TR-31-012-31186","name_tr":"İstiklal","area_level":"neighbourhood","parent_id":"TR-31-012","endeksa_id":31186},"geometry":{"coordinates":[[[36.239606579428994,36.755181521863165],[36.237797079000075,36.75481150900032],[36.23631825700011,36.75511662700052],[36.23440073400013,36.75501881800051],[36.23427837000014,36.75510547900012],[36.23418544800012,36.75499173600008],[36.22937581800005,36.75408184900016],[36.227545915000064,36.75426525900042],[36.22690211400004,36.75460557200006],[36.220801643000186,36.755976499999974],[36.21844052700004,36.75619523400013],[36.21834791200013,36.75633040000014],[36.21827321800015,36.756206222000344],[36.217862989000025,36.755967298000144],[36.21781836600019,36.753830053000115],[36.21790681800002,36.75373495100024],[36.21985601300008,36.753272161000496],[36.22044253300015,36.75302660000034],[36.22125097200018,36.75230990600005],[36.22320309300011,36.75166240300035],[36.223750002000145,36.75123303600009],[36.22447959500005,36.75018139500003],[36.22624030500003,36.74942693100013],[36.2278886360001,36.747915007000074],[36.231115733000024,36.74706415700007],[36.233554358000106,36.74665166900019],[36.23843866100003,36.74664736800008],[36.23855162800004,36.746582195000656],[36.238520039000036,36.74647591300021],[36.23874747800011,36.74664723300003],[36.238842986478005,36.746921433773366],[36.23847549400017,36.74692545000005],[36.23831841900005,36.74723960100016],[36.237831081000024,36.748121641000125],[36.23756526100004,36.748673420000046],[36.237243054000146,36.749213116000135],[36.23696112400006,36.74965212200004],[36.23693201400016,36.74997100200011],[36.23750555300012,36.75062364900003],[36.23722889600003,36.75086677100006],[36.236436690000005,36.75156295300013],[36.23684479600007,36.75278727200009],[36.23842920900012,36.754443703000106],[36.239606579428994,36.755181521863165]]],"type":"Polygon"}},{"type":"Feature","properties":{"area_id":"TR-31-012-149493","name_tr":"Sincan","area_level":"neighbourhood","parent_id":"TR-31-012","endeksa_id":149493},"geometry":{"coordinates":[[[36.34990000000016,36.754910000000564],[36.34493000000015,36.75772000000018],[36.34399000000019,36.758650000000216],[36.342950000000144,36.758750000000134],[36.3386604860882,36.76046187023098],[36.331388189000165,36.75756191900018],[36.32814393500013,36.75694497300009],[36.32617910300007,36.75724767500009],[36.323045044000025,36.7564445590001],[36.32206193300016,36.755765105000705],[36.32168006700016,36.75316130900006],[36.321592415,36.75307911699997],[36.31745602500007,36.75326488200034],[36.31709100400013,36.75364483400051],[36.314482439000074,36.75373867200028],[36.310980420000135,36.75286085200048],[36.30918705800008,36.75221064300024],[36.304061979000096,36.75189774400019],[36.29995087400005,36.75094078600006],[36.29766040900017,36.74947785300026],[36.29197953100015,36.74854375700005],[36.2869800900001,36.74807879600007],[36.28448524700019,36.747219142000176],[36.28188497100018,36.74716984500043],[36.278108105000115,36.74838782900031],[36.26957133000013,36.74823359800007],[36.266012860000046,36.74791526600001],[36.26402262100015,36.746540702000175],[36.2613253990001,36.745636326000465],[36.25414207,36.74526665600007],[36.252355725000086,36.744979490000105],[36.2505222370001,36.74431100600009],[36.247572588000025,36.74441339399999],[36.24522355300007,36.74492882000004],[36.237324102000116,36.74492966800011],[36.23698433800007,36.74521164300023],[36.23700545500009,36.74533543800044],[36.236842432,36.745232546000125],[36.23499927600011,36.745032064000384],[36.23443390600005,36.744670617000054],[36.234717250000074,36.74365284300006],[36.23544351300018,36.74340001700011],[36.23577689100006,36.74288025100009],[36.23708527700012,36.741782743000385],[36.23709023500004,36.7416604360003],[36.2337707960001,36.739774058000364],[36.2324058100001,36.737946696000336],[36.23189699100004,36.737667998000006],[36.23125113100008,36.737451468000074],[36.22955036000013,36.73795409200005],[36.22832189400009,36.73728871800006],[36.22771099500005,36.73664361400034],[36.22744932600017,36.735906428000135],[36.22618623100004,36.734233642000106],[36.22620914000004,36.73313138399999],[36.223797758000046,36.730071431000056],[36.2215219950001,36.72859129400058],[36.221280545000184,36.72814188000052],[36.22133126900013,36.728031226999974],[36.22629917900014,36.72541141500011],[36.22842344100002,36.72378012700017],[36.23100860600016,36.72301236400011],[36.233614013000135,36.72130970300037],[36.235082527000145,36.719850332000135],[36.237428081000076,36.71909750400039],[36.2416198360001,36.718440302000545],[36.245017021000024,36.71746953000019],[36.2472147740001,36.71639519000007],[36.248734622000086,36.71632427000026],[36.25531484100014,36.71675123400041],[36.26045974500005,36.71748684000016],[36.26357579800003,36.71742166300055],[36.26581807800011,36.717947101000505],[36.26705221100019,36.717585317000044],[36.26846048200008,36.71634011900005],[36.26980813300014,36.71581070000008],[36.27339797900015,36.713225063000095],[36.275934489000065,36.713048677000074],[36.27738478100014,36.71239668700008],[36.27743080100004,36.71227672600003],[36.277556328,36.71234594200007],[36.278278670000134,36.7122329110004],[36.28876912100009,36.71165433800007],[36.29120023500013,36.711184883000044],[36.296208604000185,36.710425917000634],[36.300796825000134,36.71048669500016],[36.30329363900012,36.71084972900053],[36.315179704000116,36.71461433500008],[36.31815182800017,36.715161484000134],[36.319049211000106,36.71524476100001],[36.324778316000106,36.715098364000255],[36.32855801300008,36.71403631200013],[36.332573778000096,36.712263517999986],[36.33696570400002,36.709351175000165],[36.3395644360001,36.70840216800008],[36.345850012000085,36.70695276200041],[36.345975105000036,36.706984986000236],[36.34599194500004,36.70709132600018],[36.343450000000075,36.711350000000266],[36.341370000000154,36.71650000000005],[36.338980000000106,36.720580000000155],[36.33720000000005,36.723210000000336],[36.33600000000007,36.72645000000051],[36.335860000000196,36.73197000000039],[36.33817000000005,36.73503000000005],[36.338520000000244,36.739790000000085],[36.3396800000001,36.74175000000025],[36.34166000000016,36.7440900000006],[36.343640000000164,36.746140000000025],[36.346790000000055,36.74866000000003],[36.349120000000084,36.75109000000015],[36.34971000000007,36.75249000000019],[36.34990000000016,36.754910000000564]]],"type":"Polygon"}},{"type":"Feature","properties":{"area_id":"TR-31-012-31190","name_tr":"Kürtül","area_level":"neighbourhood","parent_id":"TR-31-012","endeksa_id":31190},"geometry":{"coordinates":[[[36.23427837000014,36.75510547900012],[36.233431684000095,36.75893694700005],[36.23342015000003,36.761956383000495],[36.233333875000085,36.76187281700015],[36.22910862600014,36.76088768200009],[36.22865869800006,36.75922125500017],[36.22809754400015,36.7591140680006],[36.22271985399999,36.76107304400068],[36.22001845200015,36.761493347000055],[36.21987311600003,36.7614065490003],[36.2195960090001,36.75878400500005],[36.21834791200013,36.75633040000014],[36.21844052700004,36.75619523400013],[36.220801643000186,36.755976499999974],[36.22690211400004,36.75460557200006],[36.227545915000064,36.75426525900042],[36.22937581800005,36.75408184900016],[36.23418544800012,36.75499173600008],[36.23427837000014,36.75510547900012]]],"type":"Polygon"}},{"type":"Feature","properties":{"area_id":"TR-31-012-31187","name_tr":"Karacami","area_level":"neighbourhood","parent_id":"TR-31-012","endeksa_id":31187},"geometry":{"coordinates":[[[36.203410261000045,36.761726202000546],[36.199966645000075,36.76107315100006],[36.19963832096613,36.761115037102286],[36.1995100000002,36.761500000000126],[36.19960000000003,36.761990000000196],[36.199560000000076,36.762430000000336],[36.19960000000003,36.762650000000065],[36.19943000000018,36.762530000000254],[36.19939000000005,36.761810000000196],[36.19925000000018,36.761340000000246],[36.19894571009172,36.761203397279644],[36.19772678700019,36.761358901999984],[36.19730117000006,36.76101053100007],[36.19690315800017,36.75893911800051],[36.19632225100014,36.75788481000018],[36.19349272500017,36.756210539999984],[36.192046677000064,36.75334148100001],[36.19621155600015,36.753067826000006],[36.19948135800013,36.75153244900008],[36.20115318500018,36.75154125400019],[36.205207908000034,36.7535309810001],[36.20688632399998,36.75342996500041],[36.20883045700003,36.752824028000134],[36.210926209000036,36.753829119000216],[36.21174851100005,36.755515898000056],[36.21294751500011,36.75566810900017],[36.215151169000194,36.755552976000104],[36.215148072000034,36.755493697000134],[36.21518889500015,36.75555100500003],[36.21508971600019,36.760472241000116],[36.21502153500012,36.76047046200006],[36.212188650000144,36.76076297000043],[36.210093246000156,36.760763319000034],[36.206129006000026,36.76043728800016],[36.20602949400018,36.76056296500013],[36.20662167800015,36.76180746700061],[36.2066645160001,36.7622179330001],[36.20660297600017,36.76230161900014],[36.20412063900005,36.76138396800047],[36.203410261000045,36.761726202000546]]],"type":"Polygon"}},{"type":"Feature","properties":{"area_id":"TR-31-012-31188","name_tr":"Karbeyaz","area_level":"neighbourhood","parent_id":"TR-31-012","endeksa_id":31188},"geometry":{"coordinates":[[[36.24301154496061,36.74974103692239],[36.24345399900005,36.74951603100004],[36.24418699200004,36.74970320700061],[36.244516763000036,36.750906919000045],[36.24468898300006,36.75096677099998],[36.246073537000086,36.74901637500011],[36.247360504000085,36.74839515300005],[36.24837186900015,36.74846721800003],[36.248463899000114,36.74854626500013],[36.24860212100003,36.749452870000084],[36.24831891600013,36.75004745500013],[36.24950727600003,36.75125643000007],[36.24939317400003,36.75275754400013],[36.24829626900015,36.75372582900019],[36.24809125100006,36.75434181600008],[36.24819697300006,36.75539543200023],[36.24797362000015,36.75639810100017],[36.2460650970001,36.757887142000186],[36.24469328100008,36.75819901800003],[36.24492384500013,36.75926489200015],[36.24593722300017,36.75951142300016],[36.24563110300005,36.75992076000006],[36.24300369600019,36.760658382000656],[36.24174304200017,36.76155549800012],[36.23982141100004,36.76224444400026],[36.23805457900005,36.762549399000534],[36.23623617600015,36.76204712700019],[36.23610683700019,36.76208052200019],[36.23587815800016,36.762657572000194],[36.235999698000114,36.76330049500018],[36.23694460400014,36.764619859000106],[36.23704215300012,36.765146435000474],[36.23699324700016,36.76526904200023],[36.23594238900006,36.76574385900017],[36.235722257000134,36.76612769900066],[36.235369050000145,36.76619780200019],[36.235239578999995,36.76615201800013],[36.2349913270001,36.76571028700005],[36.23405451800011,36.765728810999974],[36.23394015000008,36.76564110700019],[36.23342015000003,36.761956383000495],[36.233431684000095,36.75893694700005],[36.23427837000014,36.75510547900012],[36.23440073400013,36.75501881800051],[36.23631825700011,36.75511662700052],[36.237797079000075,36.75481150900032],[36.239606579428994,36.755181521863165],[36.239818431000174,36.75522484200013],[36.24070019300012,36.75517319100004],[36.24104648300016,36.7547470060004],[36.24120480509299,36.75267869203856],[36.24155040985562,36.75184209294042],[36.24194122800003,36.75140670100018],[36.24262953600015,36.75107238000015],[36.24315068300018,36.75076755800012],[36.243140850000145,36.75038407200003],[36.24316412000013,36.74991465699998],[36.24301154496061,36.74974103692239]]],"type":"Polygon"}},{"type":"Feature","properties":{"area_id":"TR-31-012-31185","name_tr":"Fatih","area_level":"neighbourhood","parent_id":"TR-31-012","endeksa_id":31185},"geometry":{"coordinates":[[[36.23394015000008,36.76564110700019],[36.23388241900017,36.76575997600003],[36.23270248700004,36.76621916900024],[36.22811321800003,36.766589004000195],[36.22661407700008,36.76694299300044],[36.226278838000155,36.767362111000125],[36.22568447100008,36.76754325300004],[36.22304148800015,36.76814389500015],[36.22246261600003,36.76811839900017],[36.222372986000096,36.7682406080001],[36.21996379100017,36.76331626400048],[36.219823444000156,36.761603319000415],[36.22001845200015,36.761493347000055],[36.22271985399999,36.76107304400068],[36.22809754400015,36.7591140680006],[36.22865869800006,36.75922125500017],[36.22910862600014,36.76088768200009],[36.233333875000085,36.76187281700015],[36.23342015000003,36.761956383000495],[36.23394015000008,36.76564110700019]]],"type":"Polygon"}},{"type":"Feature","properties":{"area_id":"TR-31-012-31191","name_tr":"Yenişehir","area_level":"neighbourhood","parent_id":"TR-31-012","endeksa_id":31191},"geometry":{"coordinates":[[[36.213200598000185,36.781055704000266],[36.21305862100007,36.78115333100044],[36.212414354000146,36.78097160200059],[36.21019020000017,36.779712854000536],[36.20577106600007,36.77864660900019],[36.20464799500019,36.77817994500009],[36.20566357000007,36.77589192600004],[36.20636350100017,36.773499534000166],[36.20657578600009,36.77084814300008],[36.20647260000004,36.76723660000016],[36.20581842900003,36.76546772700004],[36.203590102000135,36.76225366300008],[36.203410261000045,36.761726202000546],[36.20412063900005,36.76138396800047],[36.20660297600017,36.76230161900014],[36.2066645160001,36.7622179330001],[36.20662167800015,36.76180746700061],[36.20602949400018,36.76056296500013],[36.206129006000026,36.76043728800016],[36.210093246000156,36.760763319000034],[36.212188650000144,36.76076297000043],[36.21502153500012,36.76047046200006],[36.21508946200015,36.76056571800012],[36.215259368000034,36.77247413500032],[36.21463084500016,36.776251456000125],[36.21320601800011,36.780664523000496],[36.213200598000185,36.781055704000266]]],"type":"Polygon"}},{"type":"Feature","properties":{"area_id":"TR-31-012-149491","name_tr":"Kozludere","area_level":"neighbourhood","parent_id":"TR-31-012","endeksa_id":149491},"geometry":{"coordinates":[[[36.238842986478005,36.746921433773366],[36.23874747800011,36.74664723300003],[36.238520039000036,36.74647591300021],[36.23700545500009,36.74533543800044],[36.23698433800007,36.74521164300023],[36.237324102000116,36.74492966800011],[36.24522355300007,36.74492882000004],[36.247572588000025,36.74441339399999],[36.2505222370001,36.74431100600009],[36.252355725000086,36.744979490000105],[36.25414207,36.74526665600007],[36.2613253990001,36.745636326000465],[36.26402262100015,36.746540702000175],[36.266012860000046,36.74791526600001],[36.26957133000013,36.74823359800007],[36.278108105000115,36.74838782900031],[36.28188497100018,36.74716984500043],[36.28448524700019,36.747219142000176],[36.2869800900001,36.74807879600007],[36.29197953100015,36.74854375700005],[36.29766040900017,36.74947785300026],[36.29995087400005,36.75094078600006],[36.304061979000096,36.75189774400019],[36.30918705800008,36.75221064300024],[36.310980420000135,36.75286085200048],[36.314482439000074,36.75373867200028],[36.31709100400013,36.75364483400051],[36.31745602500007,36.75326488200034],[36.321592415,36.75307911699997],[36.32168006700016,36.75316130900006],[36.32206193300016,36.755765105000705],[36.323045044000025,36.7564445590001],[36.32617910300007,36.75724767500009],[36.32814393500013,36.75694497300009],[36.331388189000165,36.75756191900018],[36.3386604860882,36.76046187023098],[36.338590000000124,36.7604900000004],[36.34015000000011,36.76155000000017],[36.34108000000009,36.76258000000013],[36.34283000000016,36.763700000000256],[36.34353000000016,36.76594000000017],[36.344690000000185,36.76771000000025],[36.34691000000004,36.7681800000002],[36.348770000000115,36.76930000000033],[36.35332000000017,36.77331000000032],[36.354600000000175,36.77583000000061],[36.35145000000017,36.77723000000009],[36.349240000000066,36.776860000000056],[36.343410000000176,36.778730000000394],[36.341310000000135,36.778910000000394],[36.341011745281946,36.779845068846214],[36.34050761900011,36.78007272800011],[36.33924584700014,36.780074205000176],[36.33648160600012,36.77976707100049],[36.33334078100006,36.78051225700051],[36.33160325600011,36.780179457000145],[36.330581601000006,36.78026999100018],[36.330108997000025,36.780820894000044],[36.328843672000005,36.78103702600032],[36.32758011300018,36.780966560000024],[36.32522031900015,36.78200067500006],[36.31691655200012,36.78219127200043],[36.3163839880001,36.7829581590002],[36.31077044300008,36.78348178800013],[36.30653775400003,36.783377736000034],[36.30217444900006,36.7822641420006],[36.30053576300003,36.78254435600019],[36.296894991000045,36.781056492000175],[36.29683121400001,36.78095052300017],[36.29733021600009,36.77884993400005],[36.297379997000064,36.77798021799998],[36.297192222000035,36.77758926399997],[36.29324759700006,36.77563430700013],[36.28921980300004,36.77497987100003],[36.28169467500004,36.77487655700014],[36.27985513400017,36.774566501000095],[36.27391243800014,36.77430520100012],[36.26726798300007,36.772071409000034],[36.263200513000186,36.77201943900036],[36.25159828000005,36.77370571500012],[36.244380558000046,36.77360443100008],[36.241120115,36.77491819800031],[36.24083863800007,36.772881385999995],[36.240317920000166,36.77239840700008],[36.24029562300018,36.77147646100019],[36.24362011900013,36.77019450900053],[36.24385626500009,36.769670868000105],[36.244545101000085,36.76504058800015],[36.24410419100019,36.76469043400016],[36.24380697700013,36.76410646600016],[36.24300811400019,36.76398780000011],[36.24112818800006,36.76457471599997],[36.24041297700012,36.764403479000464],[36.23874567300004,36.764968395000665],[36.23771595400018,36.76518986900015],[36.23715608400005,36.76523139300008],[36.23704215300012,36.765146435000474],[36.23694460400014,36.764619859000106],[36.235999698000114,36.76330049500018],[36.23587815800016,36.762657572000194],[36.23610683700019,36.76208052200019],[36.23623617600015,36.76204712700019],[36.23805457900005,36.762549399000534],[36.23982141100004,36.76224444400026],[36.24174304200017,36.76155549800012],[36.24300369600019,36.760658382000656],[36.24563110300005,36.75992076000006],[36.24593722300017,36.75951142300016],[36.24492384500013,36.75926489200015],[36.24469328100008,36.75819901800003],[36.2460650970001,36.757887142000186],[36.24797362000015,36.75639810100017],[36.24819697300006,36.75539543200023],[36.24809125100006,36.75434181600008],[36.24829626900015,36.75372582900019],[36.24939317400003,36.75275754400013],[36.24950727600003,36.75125643000007],[36.24831891600013,36.75004745500013],[36.24860212100003,36.749452870000084],[36.248463899000114,36.74854626500013],[36.24837186900015,36.74846721800003],[36.247360504000085,36.74839515300005],[36.246073537000086,36.74901637500011],[36.24468898300006,36.75096677099998],[36.244516763000036,36.750906919000045],[36.24418699200004,36.74970320700061],[36.24345399900005,36.74951603100004],[36.24301154496061,36.74974103692239],[36.24220671800015,36.74954827100004],[36.240898934000086,36.74953843800006],[36.24086510900008,36.749227716000064],[36.24111356000009,36.74754569700008],[36.241045091000046,36.74682878800019],[36.24092426400006,36.746591160000094],[36.24065405700003,36.74668483400018],[36.23980862400015,36.746885174000056],[36.23921254200019,36.74691739500014],[36.238842986478005,36.746921433773366]]],"type":"Polygon"}},{"type":"Feature","properties":{"area_id":"TR-31-012-31192","name_tr":"Yıldırım Beyazıt","area_level":"neighbourhood","parent_id":"TR-31-012","endeksa_id":31192},"geometry":{"coordinates":[[[36.222372986000096,36.7682406080001],[36.22383926200007,36.77259088000011],[36.22409679500015,36.773915598000485],[36.22425279999999,36.77732509200018],[36.22466873200017,36.77912949500018],[36.22557772600004,36.78114651600032],[36.22638399500005,36.78547128300016],[36.22640892600009,36.78639214500015],[36.22635323800006,36.78639448800004],[36.22516809000007,36.78586099900008],[36.224458663000064,36.785110872000416],[36.22333994500008,36.78439463500007],[36.22227274800014,36.78420852500045],[36.221072002000085,36.78353688000021],[36.219624766000095,36.783172279000155],[36.21854908100016,36.782620914999995],[36.21737295500003,36.78236722700069],[36.21600743800008,36.78178964700015],[36.21507538100013,36.781725157000324],[36.21328170700008,36.78121813200005],[36.213200598000185,36.781055704000266],[36.21320601800011,36.780664523000496],[36.21463084500016,36.776251456000125],[36.215259368000034,36.77247413500032],[36.21508946200015,36.76056571800012],[36.21502153500012,36.76047046200006],[36.21508971600019,36.760472241000116],[36.21518889500015,36.75555100500003],[36.21525878000011,36.754078777000075],[36.21540205500003,36.75397955600067],[36.21790681800002,36.75373495100024],[36.21781836600019,36.753830053000115],[36.217862989000025,36.755967298000144],[36.21827321800015,36.756206222000344],[36.21834791200013,36.75633040000014],[36.2195960090001,36.75878400500005],[36.21987311600003,36.7614065490003],[36.22001845200015,36.761493347000055],[36.219823444000156,36.761603319000415],[36.21996379100017,36.76331626400048],[36.222372986000096,36.7682406080001]]],"type":"Polygon"}},{"type":"Feature","properties":{"area_id":"TR-31-012-31184","name_tr":"Cumhuriyet","area_level":"neighbourhood","parent_id":"TR-31-012","endeksa_id":31184},"geometry":{"coordinates":[[[36.23773930567671,36.7789095851482],[36.23773000000011,36.77877000000018],[36.23638000000011,36.77975000000026],[36.23523000000017,36.78038000000049],[36.23300000000006,36.781140000000164],[36.23149000000018,36.78240000000011],[36.22983000000016,36.78448000000009],[36.228000000000065,36.78659000000005],[36.227470000000096,36.78707000000014],[36.22727000000009,36.78707000000014],[36.2267700000001,36.786780000000135],[36.22666068826942,36.78687914319818],[36.22635323800006,36.78639448800004],[36.22640892600009,36.78639214500015],[36.22638399500005,36.78547128300016],[36.22557772600004,36.78114651600032],[36.22466873200017,36.77912949500018],[36.22425279999999,36.77732509200018],[36.22409679500015,36.773915598000485],[36.22383926200007,36.77259088000011],[36.222372986000096,36.7682406080001],[36.22246261600003,36.76811839900017],[36.22304148800015,36.76814389500015],[36.22568447100008,36.76754325300004],[36.226278838000155,36.767362111000125],[36.22661407700008,36.76694299300044],[36.22811321800003,36.766589004000195],[36.23270248700004,36.76621916900024],[36.23388241900017,36.76575997600003],[36.23394015000008,36.76564110700019],[36.23405451800011,36.765728810999974],[36.2349913270001,36.76571028700005],[36.235239578999995,36.76615201800013],[36.235369050000145,36.76619780200019],[36.235722257000134,36.76612769900066],[36.23594238900006,36.76574385900017],[36.23699324700016,36.76526904200023],[36.23704215300012,36.765146435000474],[36.23715608400005,36.76523139300008],[36.23771595400018,36.76518986900015],[36.23874567300004,36.764968395000665],[36.24041297700012,36.764403479000464],[36.24112818800006,36.76457471599997],[36.24300811400019,36.76398780000011],[36.24380697700013,36.76410646600016],[36.24410419100019,36.76469043400016],[36.244545101000085,36.76504058800015],[36.24385626500009,36.769670868000105],[36.24362011900013,36.77019450900053],[36.24029562300018,36.77147646100019],[36.240317920000166,36.77239840700008],[36.24083863800007,36.772881385999995],[36.241120115,36.77491819800031],[36.23773930567671,36.7789095851482]]],"type":"Polygon"}},{"type":"Feature","properties":{"area_id":"TR-31-012-149489","name_tr":"Çağlalık","area_level":"neighbourhood","parent_id":"TR-31-012","endeksa_id":149489},"geometry":{"coordinates":[[[36.29683121400001,36.78095052300017],[36.29677081300008,36.78104634700014],[36.29071527499997,36.78428468600009],[36.287054431000115,36.78699352900031],[36.28188709400007,36.790262206000136],[36.26901931500004,36.79260358000005],[36.26244636800004,36.79314864900016],[36.259237327000164,36.79315296100049],[36.256969604000005,36.79409144900069],[36.254472269000075,36.796014556000046],[36.249970401999974,36.797825334000095],[36.248338303000025,36.798246135],[36.24699408700019,36.79814150600015],[36.24619690900016,36.798301404000085],[36.24538556500016,36.79866063900056],[36.24485662400019,36.799335605000124],[36.24258709700007,36.800241726000195],[36.24089481500005,36.80024572700012],[36.23909339300019,36.80055586800006],[36.238969008161746,36.80049447012698],[36.23668000000009,36.79436000000044],[36.23631000000023,36.79243000000008],[36.23616000000004,36.79038000000014],[36.236270000000104,36.78828000000044],[36.23646000000019,36.78691000000009],[36.237440000000106,36.78249000000028],[36.23773930567671,36.7789095851482],[36.241120115,36.77491819800031],[36.244380558000046,36.77360443100008],[36.25159828000005,36.77370571500012],[36.263200513000186,36.77201943900036],[36.26726798300007,36.772071409000034],[36.27391243800014,36.77430520100012],[36.27985513400017,36.774566501000095],[36.28169467500004,36.77487655700014],[36.28921980300004,36.77497987100003],[36.29324759700006,36.77563430700013],[36.297192222000035,36.77758926399997],[36.297379997000064,36.77798021799998],[36.29733021600009,36.77884993400005],[36.29683121400001,36.78095052300017]]],"type":"Polygon"}},{"type":"Feature","properties":{"area_id":"TR-31-012-453001","name_tr":"Bayraktepe","area_level":"neighbourhood","parent_id":"TR-31-012","endeksa_id":453001},"geometry":{"coordinates":[[[36.241045091000046,36.74682878800019],[36.24111356000009,36.74754569700008],[36.24086510900008,36.749227716000064],[36.240898934000086,36.74953843800006],[36.24220671800015,36.74954827100004],[36.24301154496061,36.74974103692239],[36.24316412000013,36.74991465699998],[36.243140850000145,36.75038407200003],[36.24315068300018,36.75076755800012],[36.24262953600015,36.75107238000015],[36.24194122800003,36.75140670100018],[36.24155040985562,36.75184209294042],[36.24120480509299,36.75267869203856],[36.24104648300016,36.7547470060004],[36.24070019300012,36.75517319100004],[36.239818431000174,36.75522484200013],[36.239606579428994,36.755181521863165],[36.23842920900012,36.754443703000106],[36.23684479600007,36.75278727200009],[36.236436690000005,36.75156295300013],[36.23722889600003,36.75086677100006],[36.23750555300012,36.75062364900003],[36.23693201400016,36.74997100200011],[36.23696112400006,36.74965212200004],[36.237243054000146,36.749213116000135],[36.23756526100004,36.748673420000046],[36.237831081000024,36.748121641000125],[36.23831841900005,36.74723960100016],[36.23847549400017,36.74692545000005],[36.238842986478005,36.746921433773366],[36.23921254200019,36.74691739500014],[36.23980862400015,36.746885174000056],[36.24065405700003,36.74668483400018],[36.24092426400006,36.746591160000094],[36.241045091000046,36.74682878800019]]],"type":"Polygon"}}]}