{"type":"FeatureCollection","source_id":"endeksa","retrieved_at":"2026-08-23","features":[{"type":"Feature","properties":{"area_id":"TR-33-005-182479","name_tr":"Sarıkoyak","area_level":"neighbourhood","parent_id":"TR-33-005","endeksa_id":182479},"geometry":{"coordinates":[[[34.73464893500011,37.09009631500004],[34.7347493530001,37.09031827500007],[34.73240020700001,37.09154218600054],[34.728874046000044,37.10038042600013],[34.72801398600012,37.10278247300005],[34.720710387000054,37.10193573900011],[34.71108023400001,37.094325647000176],[34.710016293000024,37.091867710000145],[34.70848900000004,37.09242110000025],[34.70253223800012,37.08915304400057],[34.70297624900019,37.08799529800052],[34.698508789000186,37.08484709500004],[34.697316731000114,37.08266106100018],[34.69249539300017,37.07257659200019],[34.69233299748805,37.07252677085228],[34.69239955359234,37.07237563157554],[34.68955635000009,37.066428325000174],[34.68790154700008,37.06562495200001],[34.692171923000046,37.062000425000065],[34.69359669500017,37.0630371510004],[34.69516472800018,37.06055152300007],[34.701014432000136,37.062688692999984],[34.70048081300013,37.06063198300035],[34.70224343199999,37.05978197500036],[34.70930252400018,37.064616422000086],[34.712516639000114,37.06389431700012],[34.722643798000036,37.06785308500008],[34.72270821100017,37.072578411999984],[34.722761783000124,37.07260232300064],[34.72283828500008,37.071933501000046],[34.73109335800018,37.07633886800045],[34.7295725140001,37.07814622700033],[34.73142652600001,37.08133611200003],[34.73149445400014,37.08312377400068],[34.73464893500011,37.09009631500004]]],"type":"Polygon"}},{"type":"Feature","properties":{"area_id":"TR-33-005-182473","name_tr":"Kesecik","area_level":"neighbourhood","parent_id":"TR-33-005","endeksa_id":182473},"geometry":{"coordinates":[[[34.647464732456854,37.10592000754173],[34.64602000000019,37.10629000000006],[34.64416000000011,37.10662000000019],[34.643260000000055,37.106510000000355],[34.642610000000104,37.10692000000017],[34.64107000000007,37.106550000000084],[34.639790000000175,37.10536000000042],[34.63794000000007,37.1045100000004],[34.637040000000184,37.10389000000026],[34.63246000000015,37.10366000000005],[34.63096000000019,37.10414000000037],[34.630090000000166,37.10390000000041],[34.62929000000008,37.10412000000014],[34.628610000000094,37.103880000000174],[34.62781000000018,37.10376000000019],[34.627250000000174,37.103260000000034],[34.62505373600004,37.10301328800006],[34.624980000000164,37.1031200000005],[34.620180000000175,37.104100000000585],[34.61871000000025,37.10287000000028],[34.617450000000076,37.10290000000009],[34.61648000000008,37.103260000000034],[34.61497000000003,37.102890000000116],[34.613990000000115,37.1024000000001],[34.61379000000011,37.1015800000003],[34.61269000000004,37.101190000000145],[34.612190000000055,37.100620000000276],[34.61113000000012,37.100100000000054],[34.61003000000005,37.098930000000564],[34.6092000000001,37.09891000000033],[34.608500000000106,37.098460000000046],[34.60787000000005,37.09794000000039],[34.60756000000015,37.09681000000012],[34.60626000000025,37.09584000000018],[34.60514000000012,37.0952400000001],[34.6052600000001,37.094990000000166],[34.60520000000008,37.09490000000039],[34.60570000000007,37.094830000000286],[34.60630000000015,37.09488000000016],[34.606670000000236,37.09463000000005],[34.60668000000015,37.094250000000045],[34.61471000000023,37.09054000000003],[34.62691000000012,37.09069000000022],[34.630680000000154,37.090560000000096],[34.63499000000007,37.089970000000335],[34.637040000000184,37.08863000000031],[34.657570000000135,37.08182000000028],[34.65743000000009,37.07977000000011],[34.65765000000016,37.07206000000008],[34.65861000000024,37.07269000000019],[34.65934000000004,37.07304000000016],[34.661250000000166,37.07335000000006],[34.66174000000018,37.07357000000036],[34.661690000000135,37.07376000000005],[34.664410000000146,37.075570000000425],[34.66675000000015,37.07660000000038],[34.668040000000076,37.0788800000002],[34.669430000000204,37.080440000000124],[34.66985000000011,37.081670000000145],[34.668500000000165,37.08264000000008],[34.668350000000146,37.082970000000216],[34.66843307454917,37.083102035526906],[34.66857912262219,37.08304220022325],[34.668650818711455,37.08310085422988],[34.668998887488954,37.0841482316481],[34.669550000000186,37.084740000000295],[34.66931000000022,37.08648000000005],[34.66778000000011,37.087680000000546],[34.66624000000019,37.08801000000017],[34.6651500000001,37.088510000000326],[34.66417000000018,37.089170000000195],[34.66457000000025,37.09046000000035],[34.66303000000016,37.09234000000032],[34.66312000000016,37.09308000000004],[34.662430000000086,37.09306000000021],[34.66177000000022,37.09333000000049],[34.660790000000134,37.09311000000008],[34.659060000000125,37.093290000000195],[34.65863000000007,37.09321000000051],[34.65815000000015,37.09324000000015],[34.65776000000005,37.09333000000049],[34.65734000000009,37.09348000000011],[34.65656000000007,37.09396000000004],[34.65554000000003,37.09472000000039],[34.654310000000066,37.09513000000021],[34.6535600000002,37.09547000000009],[34.65321000000017,37.095770000000584],[34.65203000000025,37.09624000000042],[34.65162000000004,37.09713000000016],[34.65161000000012,37.09829000000019],[34.65154000000018,37.098460000000046],[34.650970000000086,37.098950000000116],[34.650690000000225,37.100010000000395],[34.650820000000124,37.100260000000105],[34.65136000000024,37.10075000000052],[34.65171000000004,37.10228000000063],[34.65202000000011,37.1027000000002],[34.65204000000017,37.103040000000306],[34.65189000000004,37.10333000000014],[34.650540000000035,37.104440000000295],[34.65008000000017,37.10471000000007],[34.64851000000016,37.1047700000006],[34.648370000000114,37.10486000000026],[34.647870000000125,37.105680000000575],[34.647660000000144,37.105870000000664],[34.647464732456854,37.10592000754173]]],"type":"Polygon"}},{"type":"Feature","properties":{"area_id":"TR-33-005-182469","name_tr":"Giden","area_level":"neighbourhood","parent_id":"TR-33-005","endeksa_id":182469},"geometry":{"coordinates":[[[34.719308675000036,37.12425521900013],[34.719124757000145,37.124324432000094],[34.716957785000034,37.12319664200004],[34.71576502400006,37.12310687800061],[34.71223321000019,37.127742714000135],[34.709890230000155,37.128356588000656],[34.70801980800013,37.132406496000044],[34.701661230000184,37.13566919500005],[34.70153621100019,37.13566977400001],[34.70147439000016,37.13558039000026],[34.70153101700015,37.134313899000176],[34.69968148300006,37.13323883900023],[34.69671245500007,37.13276190900001],[34.698060504000125,37.13149391500008],[34.695037909000064,37.118694900000605],[34.69668679900008,37.117375118000155],[34.69485501500003,37.11577806600013],[34.69629574400011,37.11343429100009],[34.702262285000074,37.11198120500012],[34.70462607300004,37.1128666540003],[34.70581324000017,37.11077624400053],[34.71088904999999,37.1118305490001],[34.71154432600008,37.10982107000001],[34.71599393000014,37.110103634000154],[34.717359625000086,37.10883663300018],[34.725309094000124,37.11153339500021],[34.73238455700016,37.11103864000006],[34.73043784700019,37.11442302800015],[34.730812644000025,37.12321220100017],[34.71956772300018,37.120730709000384],[34.71790656000013,37.12287085899999],[34.71932966100019,37.12394680900002],[34.719308675000036,37.12425521900013]]],"type":"Polygon"}},{"type":"Feature","properties":{"area_id":"TR-33-005-182477","name_tr":"Sarıkavak","area_level":"neighbourhood","parent_id":"TR-33-005","endeksa_id":182477},"geometry":{"coordinates":[[[34.69671245500007,37.13276190900001],[34.6960858110001,37.13335134000039],[34.693743193000046,37.13228494200007],[34.6873822070001,37.131272411000054],[34.686743621000176,37.13900177000005],[34.67687199400007,37.13624131100016],[34.67551284000007,37.131396536000295],[34.67566676600018,37.12917542700046],[34.66307988800003,37.12118829900004],[34.661501085000054,37.11805491500013],[34.65091466700005,37.11498012900029],[34.64711536900012,37.10754893500007],[34.64741386400004,37.106908442000076],[34.64767853500018,37.106011940000144],[34.64757815300004,37.10589711600005],[34.647464732456854,37.10592000754173],[34.647660000000144,37.105870000000664],[34.647870000000125,37.105680000000575],[34.648370000000114,37.10486000000026],[34.64851000000016,37.1047700000006],[34.65008000000017,37.10471000000007],[34.650540000000035,37.104440000000295],[34.65189000000004,37.10333000000014],[34.65204000000017,37.103040000000306],[34.65202000000011,37.1027000000002],[34.65171000000004,37.10228000000063],[34.65136000000024,37.10075000000052],[34.650820000000124,37.100260000000105],[34.650690000000225,37.100010000000395],[34.650970000000086,37.098950000000116],[34.65154000000018,37.098460000000046],[34.65161000000012,37.09829000000019],[34.65162000000004,37.09713000000016],[34.65203000000025,37.09624000000042],[34.65321000000017,37.095770000000584],[34.6535600000002,37.09547000000009],[34.654310000000066,37.09513000000021],[34.65554000000003,37.09472000000039],[34.65656000000007,37.09396000000004],[34.65734000000009,37.09348000000011],[34.65776000000005,37.09333000000049],[34.65815000000015,37.09324000000015],[34.65863000000007,37.09321000000051],[34.659060000000125,37.093290000000195],[34.660790000000134,37.09311000000008],[34.66177000000022,37.09333000000049],[34.662430000000086,37.09306000000021],[34.66312000000016,37.09308000000004],[34.66303000000016,37.09234000000032],[34.66457000000025,37.09046000000035],[34.66417000000018,37.089170000000195],[34.6651500000001,37.088510000000326],[34.66624000000019,37.08801000000017],[34.66778000000011,37.087680000000546],[34.66931000000022,37.08648000000005],[34.669550000000186,37.084740000000295],[34.668998887488954,37.0841482316481],[34.668499225000176,37.082644692000144],[34.673423177000075,37.08133824000021],[34.67232559500002,37.0793694740002],[34.67352144700004,37.0782050610004],[34.67800388300003,37.07923671400005],[34.68388335200001,37.06873064300004],[34.68677739500015,37.06715235500019],[34.687112303000106,37.06953739500017],[34.69010591600011,37.06943764600004],[34.691922977000104,37.07276982800005],[34.69233299748805,37.07252677085228],[34.69249539300017,37.07257659200019],[34.697316731000114,37.08266106100018],[34.698508789000186,37.08484709500004],[34.70297624900019,37.08799529800052],[34.70253223800012,37.08915304400057],[34.70848900000004,37.09242110000025],[34.710016293000024,37.091867710000145],[34.71108023400001,37.094325647000176],[34.720710387000054,37.10193573900011],[34.72074243700001,37.10203417400004],[34.72064780200009,37.10210363300018],[34.71962002600014,37.10260841400009],[34.71801670000019,37.10702615400004],[34.71773656700003,37.108486931000016],[34.71599393000014,37.110103634000154],[34.71154432600008,37.10982107000001],[34.71088904999999,37.1118305490001],[34.70581324000017,37.11077624400053],[34.70462607300004,37.1128666540003],[34.702262285000074,37.11198120500012],[34.69629574400011,37.11343429100009],[34.69485501500003,37.11577806600013],[34.69668679900008,37.117375118000155],[34.695037909000064,37.118694900000605],[34.698060504000125,37.13149391500008],[34.69671245500007,37.13276190900001]]],"type":"Polygon"}},{"type":"Feature","properties":{"area_id":"TR-33-005-182461","name_tr":"Bağçatağı","area_level":"neighbourhood","parent_id":"TR-33-005","endeksa_id":182461},"geometry":{"coordinates":[[[34.77343324000009,37.14281987100003],[34.77324107400017,37.14298167400051],[34.762199070122676,37.14349566271875],[34.76206263926122,37.14357542931174],[34.762077370000156,37.143480155000304],[34.75826393200015,37.142882983000106],[34.758135183000036,37.142931001000136],[34.75037177300004,37.14185249600018],[34.74905337500019,37.13900156100044],[34.74686958300015,37.13956591800019],[34.73258650000008,37.13395895800039],[34.726995128,37.13053668700047],[34.72684611800014,37.12962386900011],[34.7214117100001,37.12551879200015],[34.71933616400014,37.1244343550004],[34.719308675000036,37.12425521900013],[34.71932966100019,37.12394680900002],[34.71790656000013,37.12287085899999],[34.71956772300018,37.120730709000384],[34.730812644000025,37.12321220100017],[34.73043784700019,37.11442302800015],[34.732337344000086,37.11112072000026],[34.73240220000014,37.11113219900005],[34.73238824550015,37.11101813950006],[34.737379312000144,37.11406998600006],[34.73970467600003,37.11830419800043],[34.74491023200011,37.12061930500005],[34.743558550000046,37.12263091700004],[34.751880748000076,37.130010502000005],[34.75319826400005,37.13320222200031],[34.757368875000054,37.13480390400014],[34.758694946000105,37.13758906300063],[34.77343324000009,37.14281987100003]]],"type":"Polygon"}},{"type":"Feature","properties":{"area_id":"TR-33-005-182471","name_tr":"Körmenlik","area_level":"neighbourhood","parent_id":"TR-33-005","endeksa_id":182471},"geometry":{"coordinates":[[[34.67551284000007,37.131396536000295],[34.66853127400009,37.12684213900013],[34.66802708900019,37.130878455000186],[34.663998838000055,37.13113321399999],[34.66222131700016,37.129441764000205],[34.657957092000174,37.130337681000526],[34.65925867700014,37.13058063200015],[34.656972981000024,37.13272835999999],[34.657148728000095,37.13496414499997],[34.65919937700005,37.13789929900037],[34.65718614700006,37.13774895000063],[34.65486445200008,37.140331215000174],[34.654817218999995,37.141499437000164],[34.65423097700017,37.1424273480003],[34.64777457600002,37.14476716200045],[34.64773716978891,37.1450778102498],[34.64763494021122,37.144979401738794],[34.64753183318487,37.14501875599075],[34.647750000000144,37.14476000000042],[34.64529000000016,37.144990000000234],[34.64234000000016,37.14270000000033],[34.637780000000134,37.14057000000008],[34.63652000000019,37.14018000000016],[34.63526000000019,37.13954000000035],[34.634960000000035,37.13850000000042],[34.63321000000019,37.13676000000015],[34.63244000000009,37.1362900000002],[34.6308200000002,37.13598000000013],[34.62720000000013,37.13150000000036],[34.61766000000006,37.12867000000011],[34.61381000000017,37.13008000000008],[34.61179000000021,37.13296000000037],[34.61140000000006,37.13493000000062],[34.60963000000015,37.13905000000045],[34.60851000000025,37.14249000000018],[34.60115000000019,37.14324000000039],[34.59303000000017,37.10310000000027],[34.59262000000018,37.102210000000525],[34.59492000000006,37.1021800000002],[34.59629000000007,37.10189000000037],[34.59727000000015,37.10198000000014],[34.599830000000054,37.10331000000008],[34.60102000000012,37.1036500000003],[34.60248000000013,37.10381000000007],[34.60343000000017,37.10405000000071],[34.604780000000176,37.104840000000195],[34.60580000000016,37.10498000000024],[34.60760000000005,37.104930000000365],[34.6112500000001,37.10457000000042],[34.61192000000011,37.10483000000005],[34.61267000000015,37.10542000000038],[34.614290000000096,37.10464000000036],[34.61493000000013,37.1038700000002],[34.61648000000008,37.103260000000034],[34.617450000000076,37.10290000000009],[34.61871000000025,37.10287000000028],[34.620180000000175,37.104100000000585],[34.624980000000164,37.1031200000005],[34.62505373600004,37.10301328800006],[34.627250000000174,37.103260000000034],[34.62781000000018,37.10376000000019],[34.628610000000094,37.103880000000174],[34.62929000000008,37.10412000000014],[34.630090000000166,37.10390000000041],[34.63096000000019,37.10414000000037],[34.63246000000015,37.10366000000005],[34.637040000000184,37.10389000000026],[34.63794000000007,37.1045100000004],[34.639790000000175,37.10536000000042],[34.64107000000007,37.106550000000084],[34.642610000000104,37.10692000000017],[34.643260000000055,37.106510000000355],[34.64416000000011,37.10662000000019],[34.64602000000019,37.10629000000006],[34.647464732456854,37.10592000754173],[34.64757815300004,37.10589711600005],[34.64767853500018,37.106011940000144],[34.64741386400004,37.106908442000076],[34.64711536900012,37.10754893500007],[34.65091466700005,37.11498012900029],[34.661501085000054,37.11805491500013],[34.66307988800003,37.12118829900004],[34.67566676600018,37.12917542700046],[34.67551284000007,37.131396536000295]]],"type":"Polygon"}},{"type":"Feature","properties":{"area_id":"TR-33-005-182465","name_tr":"Darıpınarı","area_level":"neighbourhood","parent_id":"TR-33-005","endeksa_id":182465},"geometry":{"coordinates":[[[34.75241798300004,37.15282919400016],[34.74894704600018,37.15497010100006],[34.73632780300011,37.15716468700015],[34.731999924000036,37.15753110900005],[34.72773018200007,37.153541558000086],[34.727364702000045,37.153892778000056],[34.72669080600008,37.158269081000185],[34.725770269295424,37.15822760540516],[34.72566191078323,37.15827948993825],[34.72567276007641,37.158370419031655],[34.724760000000174,37.15798000000018],[34.723860000000116,37.158180000000186],[34.723520000000065,37.15814000000006],[34.72338000000019,37.15804000000014],[34.72332000000006,37.15771000000041],[34.72288000000026,37.15739000000019],[34.72284000000013,37.15726000000012],[34.72251000000017,37.156970000000285],[34.72218000000004,37.156200000000354],[34.72173000000009,37.15567000000016],[34.72148000000004,37.15550000000013],[34.72162000000009,37.155110000000036],[34.72105000000016,37.15469000000007],[34.72167000000013,37.15361000000007],[34.71692000000024,37.14874000000003],[34.716540000000236,37.14847000000003],[34.716850000000136,37.14828000000034],[34.716760000000136,37.14767000000029],[34.71618000000012,37.14777000000004],[34.71536000000009,37.14812000000006],[34.715520000000026,37.14851000000016],[34.715710000000115,37.14859000000041],[34.71533000000011,37.14874000000003],[34.71477000000016,37.14866000000012],[34.71427000000017,37.14839000000018],[34.71371000000016,37.14842000000016],[34.71327000000019,37.147960000000126],[34.71236000000005,37.14764000000014],[34.71189000000004,37.14738000000045],[34.71105000000017,37.14751000000018],[34.71073000000018,37.147370000000365],[34.71052000000003,37.14739000000003],[34.71047000000016,37.14726000000047],[34.71017000000023,37.147370000000365],[34.70978000000008,37.14725000000038],[34.70915000000019,37.14720000000034],[34.7084900000001,37.14730000000026],[34.70823000000007,37.14717000000013],[34.708060000000046,37.14696000000038],[34.70780000000025,37.14692000000008],[34.70748000000003,37.14670000000035],[34.707070000000044,37.14673000000016],[34.70669000000004,37.14663000000024],[34.70639000000011,37.14647000000048],[34.706050000000175,37.14614000000017],[34.70584000000025,37.14608000000021],[34.705740000000105,37.1460900000003],[34.70564000000019,37.1462700000003],[34.70569000000006,37.14651000000026],[34.70556000000016,37.14652000000035],[34.70495000000011,37.14614000000017],[34.704430000000116,37.1460900000003],[34.704160000000115,37.14620000000019],[34.70377000000019,37.146040000000426],[34.7036700000001,37.14587000000006],[34.70402000000013,37.14493000000027],[34.70353000000006,37.144650000000524],[34.70375000000013,37.144180000000176],[34.703570000000184,37.143720000000314],[34.70334000000014,37.14351000000016],[34.70195000000007,37.14287000000036],[34.70184000000023,37.14290000000017],[34.70185000000015,37.143070000000534],[34.701710000000105,37.14317000000028],[34.70135000000016,37.143160000000194],[34.70089000000013,37.143280000000175],[34.70060000000012,37.14351000000016],[34.69975000000011,37.14389000000017],[34.69956000000019,37.143870000000106],[34.6994600000001,37.14346000000012],[34.699300000000164,37.143530000000226],[34.69934000000012,37.14366000000035],[34.698974088825366,37.14357555896021],[34.69916669600019,37.14352027700022],[34.69904650100011,37.14349668400013],[34.6990121230001,37.143400761000635],[34.700404331000186,37.13941690800061],[34.69837886700009,37.137351888000126],[34.70146594000016,37.13576937800008],[34.70147439000016,37.13558039000026],[34.70153621100019,37.13566977400001],[34.701661230000184,37.13566919500005],[34.70801980800013,37.132406496000044],[34.709890230000155,37.128356588000656],[34.71223321000019,37.127742714000135],[34.71576502400006,37.12310687800061],[34.716957785000034,37.12319664200004],[34.719124757000145,37.124324432000094],[34.719308675000036,37.12425521900013],[34.71933616400014,37.1244343550004],[34.7214117100001,37.12551879200015],[34.72684611800014,37.12962386900011],[34.726995128,37.13053668700047],[34.73258650000008,37.13395895800039],[34.74686958300015,37.13956591800019],[34.74905337500019,37.13900156100044],[34.75037177300004,37.14185249600018],[34.758135183000036,37.142931001000136],[34.75826393200015,37.142882983000106],[34.762077370000156,37.143480155000304],[34.76206263926122,37.14357542931174],[34.75235005600018,37.14997925600022],[34.75217487800006,37.150085903000104],[34.75204566000008,37.15006059000001],[34.74983319200015,37.14778021300026],[34.7504379020001,37.150716032000105],[34.75241798300004,37.15282919400016]]],"type":"Polygon"}},{"type":"Feature","properties":{"area_id":"TR-33-005-31910","name_tr":"Cumayakası","area_level":"neighbourhood","parent_id":"TR-33-005","endeksa_id":31910},"geometry":{"coordinates":[[[34.60851000000025,37.14249000000018],[34.610760000000255,37.1464200000006],[34.61161000000004,37.149820000000545],[34.611450000000104,37.152230000000316],[34.61205000000018,37.1537800000001],[34.61143000000004,37.15401000000048],[34.61180000000013,37.154620000000364],[34.61180000000013,37.15541000000013],[34.61266000000006,37.15689000000003],[34.612250000000074,37.15702000000016],[34.61183000000011,37.15734000000032],[34.61136000000016,37.15861000000024],[34.610730000000046,37.159490000000574],[34.608680000000106,37.16074000000026],[34.60832000000016,37.160870000000386],[34.60744000000017,37.16089000000005],[34.60674000000017,37.16127000000006],[34.60502000000014,37.161310000000526],[34.60419000000019,37.16143000000051],[34.60167000000007,37.16208000000029],[34.601190000000145,37.162330000000395],[34.59923000000015,37.163730000000385],[34.59787000000006,37.16402000000022],[34.59482000000014,37.16558000000015],[34.593450000000075,37.16663000000017],[34.59229000000005,37.16612000000009],[34.59074000000004,37.1660100000002],[34.5894600000002,37.16519000000039],[34.58747000000022,37.16476000000034],[34.58674000000019,37.1644000000004],[34.586040000000196,37.16476000000034],[34.58500000000009,37.16482000000036],[34.58382000000017,37.16467000000017],[34.58271000000019,37.164680000000146],[34.58011000000016,37.16449000000006],[34.57897000000014,37.16494000000034],[34.578140000000076,37.165430000000356],[34.57650000000007,37.16606000000007],[34.57519000000025,37.16646000000031],[34.57503000000014,37.16737000000029],[34.5739200000001,37.167880000000025],[34.57305000000008,37.16902000000039],[34.57289000000014,37.1698700000004],[34.57241000000005,37.17009000000013],[34.57110000000023,37.169650000000104],[34.570650000000114,37.16982000000013],[34.570460000000196,37.17042000000026],[34.569970000000126,37.170690000000036],[34.569600000000094,37.17043000000052],[34.56924000000015,37.169890000000066],[34.568110000000104,37.16990000000004],[34.56738000000007,37.17037000000039],[34.56697000000008,37.17074000000059],[34.56651000000005,37.17081000000019],[34.56583000000006,37.17056000000008],[34.5642900000002,37.17103000000043],[34.563270000000216,37.17158000000046],[34.56302000000011,37.1712600000003],[34.56293000000011,37.17077000000023],[34.56245000000018,37.170660000000396],[34.560980000000086,37.17120000000028],[34.55942000000016,37.17211000000026],[34.559710000000166,37.171410000000606],[34.559190000000115,37.17026000000067],[34.55855000000008,37.16956000000033],[34.55828000000014,37.16903000000036],[34.54577000000012,37.17358000000041],[34.53696000000019,37.1787300000002],[34.51835000000017,37.185130000000356],[34.51345000000009,37.18762000000032],[34.50836000000015,37.19043000000033],[34.501890000000174,37.19652000000008],[34.49562000000009,37.19995000000017],[34.48269000000016,37.20526000000041],[34.47466000000014,37.20931000000013],[34.470160000000135,37.21274000000028],[34.466630000000066,37.216640000000154],[34.46330000000006,37.220540000000085],[34.459970000000055,37.22320000000008],[34.45017000000013,37.22647000000029],[34.440580000000125,37.228190000000495],[34.431760000000054,37.22959000000037],[34.42275000000012,37.23193000000015],[34.414620000000355,37.23861000000022],[34.41405000000026,37.234730000000354],[34.414040000000284,37.230450000000076],[34.412550000000294,37.22450000000072],[34.411060000000305,37.21926000000059],[34.4128400000003,37.214500000000555],[34.415210000000286,37.209980000000314],[34.41818000000035,37.20522000000011],[34.421440000000246,37.201890000000276],[34.425590000000284,37.199510000000714],[34.42886000000027,37.196410000000185],[34.43153000000024,37.19546000000048],[34.434200000000374,37.192600000000425],[34.43746000000027,37.19070000000079],[34.43924000000027,37.18903000000063],[34.43746000000027,37.18618000000055],[34.433300000000315,37.18285000000071],[34.43062000000026,37.178320000000554],[34.42735000000022,37.174750000000415],[34.426460000000304,37.170230000000515],[34.43032000000028,37.16547000000082],[34.433580000000404,37.163330000000144],[34.4368400000003,37.16024000000027],[34.442780000000255,37.155240000000106],[34.44841000000031,37.15262000000058],[34.4594000000003,37.151430000000346],[34.46444000000025,37.15023000000053],[34.4689000000003,37.14881000000082],[34.477440000000286,37.146320000000856],[34.479580000000055,37.14571000000012],[34.48611000000017,37.14261000000016],[34.49027000000012,37.1416600000004],[34.49561000000017,37.140000000000214],[34.49887000000007,37.13785000000064],[34.51489000000004,37.14516000000009],[34.53520000000009,37.1507000000002],[34.561790000000144,37.15184000000016],[34.57018000000011,37.15090000000038],[34.57308000000006,37.155090000000314],[34.57943000000023,37.15631000000036],[34.58346000000006,37.15383000000014],[34.585300000000075,37.15115000000009],[34.58588000000009,37.15151000000043],[34.587130000000116,37.15145000000041],[34.58756000000017,37.15173000000016],[34.58907000000005,37.15187000000037],[34.58962000000008,37.15168000000028],[34.589850000000126,37.15178000000071],[34.59055000000012,37.15169000000037],[34.59139000000016,37.151310000000194],[34.59238000000022,37.15029000000038],[34.593100000000106,37.14893000000012],[34.59568000000024,37.146750000000225],[34.59575000000012,37.14616000000041],[34.59538000000009,37.14510000000013],[34.595300000000236,37.14506000000034],[34.60115000000019,37.14324000000039],[34.60851000000025,37.14249000000018]]],"type":"Polygon"}},{"type":"Feature","properties":{"area_id":"TR-33-005-182463","name_tr":"Belçınar","area_level":"neighbourhood","parent_id":"TR-33-005","endeksa_id":182463},"geometry":{"coordinates":[[[34.673400000000186,37.17032000000012],[34.67311000000018,37.1701800000003],[34.672400000000096,37.170170000000326],[34.671820000000196,37.169950000000085],[34.6714300000001,37.16990000000004],[34.671010000000194,37.1696900000004],[34.67063000000019,37.16894000000019],[34.67065000000025,37.16882000000021],[34.66986000000003,37.16889000000032],[34.66942000000006,37.16874000000013],[34.66900000000015,37.168870000000084],[34.66676000000007,37.16839000000016],[34.66532000000012,37.16833000000014],[34.66388000000018,37.168620000000146],[34.66270000000003,37.168190000000095],[34.661030000000096,37.16882000000021],[34.65985000000012,37.16906000000017],[34.65816000000012,37.16981000000038],[34.657470000000046,37.16998000000024],[34.65591000000012,37.17011000000036],[34.64845000000014,37.171810000000335],[34.648060000000044,37.17183000000017],[34.64718000000005,37.17159000000004],[34.64674000000025,37.171600000000694],[34.64581000000004,37.17211000000026],[34.64540000000022,37.17210000000017],[34.64492000000013,37.17191000000008],[34.644800000000146,37.17204000000015],[34.6443900000001,37.17347000000052],[34.64320000000009,37.17431000000039],[34.64284000000015,37.174660000000245],[34.64240000000012,37.17538000000013],[34.64160000000004,37.17558000000031],[34.64057000000008,37.176060000000234],[34.64039262522084,37.17606443436972],[34.640254190707026,37.176003743793785],[34.64025039500018,37.175877887000354],[34.639991092000116,37.17594977900012],[34.64161105700015,37.17366350500009],[34.640236542000025,37.16996438700028],[34.64198172500011,37.162756117000185],[34.64194729500008,37.158599247000325],[34.62931735276527,37.15919720602909],[34.62977000000018,37.15882000000056],[34.62968000000018,37.15823000000006],[34.629260000000045,37.157530000000406],[34.629970000000185,37.15673000000032],[34.63078000000007,37.156230000000164],[34.63201000000004,37.156020000000524],[34.633030000000076,37.15526000000017],[34.64434000000006,37.15129000000013],[34.64715000000007,37.15014000000019],[34.64777457600002,37.14476716200045],[34.65423097700017,37.1424273480003],[34.654817218999995,37.141499437000164],[34.65486445200008,37.140331215000174],[34.65718614700006,37.13774895000063],[34.65919937700005,37.13789929900037],[34.657148728000095,37.13496414499997],[34.656972981000024,37.13272835999999],[34.65925867700014,37.13058063200015],[34.657957092000174,37.130337681000526],[34.66222131700016,37.129441764000205],[34.663998838000055,37.13113321399999],[34.66802708900019,37.130878455000186],[34.66853127400009,37.12684213900013],[34.67551284000007,37.131396536000295],[34.67687199400007,37.13624131100016],[34.686743621000176,37.13900177000005],[34.6873822070001,37.131272411000054],[34.693743193000046,37.13228494200007],[34.6960858110001,37.13335134000039],[34.69671245500007,37.13276190900001],[34.69968148300006,37.13323883900023],[34.70153101700015,37.134313899000176],[34.70146594000016,37.13576937800008],[34.69837886700009,37.137351888000126],[34.700404331000186,37.13941690800061],[34.6990121230001,37.143400761000635],[34.69904650100011,37.14349668400013],[34.69916669600019,37.14352027700022],[34.698974088825366,37.14357555896021],[34.69876000000011,37.14396000000028],[34.698610000000144,37.144020000000296],[34.69689000000011,37.144030000000384],[34.69528000000008,37.14483000000013],[34.69396000000012,37.14584000000025],[34.69348000000019,37.146720000000414],[34.69197000000014,37.148460000000284],[34.691300000000126,37.14974000000035],[34.6908200000002,37.15113000000025],[34.69049000000007,37.15183000000059],[34.690440000000194,37.1532100000004],[34.689970000000244,37.154930000000036],[34.69004000000018,37.15588000000031],[34.69024000000019,37.15662000000043],[34.69021000000021,37.15721000000025],[34.689500000000066,37.159520000000214],[34.690340000000106,37.15981000000005],[34.6860200000001,37.16173000000009],[34.685540000000174,37.1616900000007],[34.68565000000018,37.16210000000052],[34.68503000000004,37.16274000000021],[34.684510000000216,37.162680000000194],[34.68413000000021,37.1630100000005],[34.68067000000008,37.16474000000011],[34.679560000000095,37.16514000000052],[34.678660000000036,37.16559000000012],[34.675600000000145,37.16854000000046],[34.675260000000094,37.16864000000021],[34.67520000000013,37.16885000000053],[34.674850000000106,37.1690100000003],[34.674670000000106,37.16956000000033],[34.67413000000005,37.17015000000009],[34.673400000000186,37.17032000000012]]],"type":"Polygon"}},{"type":"Feature","properties":{"area_id":"TR-33-005-182475","name_tr":"Korucak","area_level":"neighbourhood","parent_id":"TR-33-005","endeksa_id":182475},"geometry":{"coordinates":[[[34.7095700000001,37.17254000000031],[34.705210000000136,37.17183000000017],[34.69900000000007,37.17097000000007],[34.69562000000019,37.1698700000004],[34.692330000000084,37.171130000000176],[34.69178000000005,37.171280000000365],[34.69081000000011,37.171320000000264],[34.69045000000017,37.17182000000042],[34.69020000000006,37.17136000000005],[34.68828000000019,37.1724700000002],[34.687900000000184,37.17217000000028],[34.68695000000008,37.172370000000456],[34.68642000000011,37.17267000000027],[34.685970000000225,37.17235000000022],[34.68410000000017,37.17174000000023],[34.68221000000011,37.171600000000694],[34.6808400000001,37.171660000000145],[34.67595000000017,37.17261000000042],[34.67474000000004,37.17270000000008],[34.67276000000021,37.17239000000018],[34.672010000000114,37.17195000000038],[34.673060000000135,37.171630000000334],[34.673400000000186,37.17032000000012],[34.67413000000005,37.17015000000009],[34.674670000000106,37.16956000000033],[34.674850000000106,37.1690100000003],[34.67520000000013,37.16885000000053],[34.675260000000094,37.16864000000021],[34.675600000000145,37.16854000000046],[34.678660000000036,37.16559000000012],[34.679560000000095,37.16514000000052],[34.68067000000008,37.16474000000011],[34.68413000000021,37.1630100000005],[34.684510000000216,37.162680000000194],[34.68503000000004,37.16274000000021],[34.68565000000018,37.16210000000052],[34.685540000000174,37.1616900000007],[34.6860200000001,37.16173000000009],[34.690340000000106,37.15981000000005],[34.689500000000066,37.159520000000214],[34.69021000000021,37.15721000000025],[34.69024000000019,37.15662000000043],[34.69004000000018,37.15588000000031],[34.689970000000244,37.154930000000036],[34.690440000000194,37.1532100000004],[34.69049000000007,37.15183000000059],[34.6908200000002,37.15113000000025],[34.691300000000126,37.14974000000035],[34.69197000000014,37.148460000000284],[34.69348000000019,37.146720000000414],[34.69396000000012,37.14584000000025],[34.69528000000008,37.14483000000013],[34.69689000000011,37.144030000000384],[34.698610000000144,37.144020000000296],[34.69876000000011,37.14396000000028],[34.698974088825366,37.14357555896021],[34.69934000000012,37.14366000000035],[34.699300000000164,37.143530000000226],[34.6994600000001,37.14346000000012],[34.69956000000019,37.143870000000106],[34.69975000000011,37.14389000000017],[34.70060000000012,37.14351000000016],[34.70089000000013,37.143280000000175],[34.70135000000016,37.143160000000194],[34.701710000000105,37.14317000000028],[34.70185000000015,37.143070000000534],[34.70184000000023,37.14290000000017],[34.70195000000007,37.14287000000036],[34.70334000000014,37.14351000000016],[34.703570000000184,37.143720000000314],[34.70375000000013,37.144180000000176],[34.70353000000006,37.144650000000524],[34.70402000000013,37.14493000000027],[34.7036700000001,37.14587000000006],[34.70377000000019,37.146040000000426],[34.704160000000115,37.14620000000019],[34.704430000000116,37.1460900000003],[34.70495000000011,37.14614000000017],[34.70556000000016,37.14652000000035],[34.70569000000006,37.14651000000026],[34.70564000000019,37.1462700000003],[34.705740000000105,37.1460900000003],[34.70584000000025,37.14608000000021],[34.706050000000175,37.14614000000017],[34.70639000000011,37.14647000000048],[34.70669000000004,37.14663000000024],[34.707070000000044,37.14673000000016],[34.70748000000003,37.14670000000035],[34.70780000000025,37.14692000000008],[34.708060000000046,37.14696000000038],[34.70823000000007,37.14717000000013],[34.7084900000001,37.14730000000026],[34.70915000000019,37.14720000000034],[34.70978000000008,37.14725000000038],[34.71017000000023,37.147370000000365],[34.71047000000016,37.14726000000047],[34.71052000000003,37.14739000000003],[34.71073000000018,37.147370000000365],[34.71105000000017,37.14751000000018],[34.71189000000004,37.14738000000045],[34.71236000000005,37.14764000000014],[34.71327000000019,37.147960000000126],[34.71371000000016,37.14842000000016],[34.71427000000017,37.14839000000018],[34.71477000000016,37.14866000000012],[34.71533000000011,37.14874000000003],[34.715710000000115,37.14859000000041],[34.715520000000026,37.14851000000016],[34.71536000000009,37.14812000000006],[34.71618000000012,37.14777000000004],[34.716760000000136,37.14767000000029],[34.716850000000136,37.14828000000034],[34.716540000000236,37.14847000000003],[34.71692000000024,37.14874000000003],[34.72167000000013,37.15361000000007],[34.72105000000016,37.15469000000007],[34.72162000000009,37.155110000000036],[34.72148000000004,37.15550000000013],[34.72173000000009,37.15567000000016],[34.72218000000004,37.156200000000354],[34.72251000000017,37.156970000000285],[34.72284000000013,37.15726000000012],[34.72288000000026,37.15739000000019],[34.72332000000006,37.15771000000041],[34.72338000000019,37.15804000000014],[34.723520000000065,37.15814000000006],[34.723860000000116,37.158180000000186],[34.724760000000174,37.15798000000018],[34.72567276007641,37.158370419031655],[34.72620000000012,37.15872000000013],[34.72636616976945,37.15863626021894],[34.72630357651906,37.158816824520045],[34.72642913993525,37.15897076905787],[34.72613000000018,37.15892000000031],[34.72566000000023,37.15916000000027],[34.72554000000025,37.15936000000033],[34.725530000000106,37.159980000000076],[34.72514000000018,37.16062000000028],[34.72473000000019,37.160760000000494],[34.72418000000016,37.16059000000064],[34.723520000000065,37.16054000000008],[34.72312000000022,37.16064000000051],[34.72260000000017,37.16099000000037],[34.72139000000004,37.16263000000032],[34.721070000000054,37.16374000000013],[34.72040000000004,37.16457000000025],[34.7200400000001,37.16560000000021],[34.7197300000002,37.166080000000136],[34.71954000000011,37.16615000000024],[34.718810000000076,37.16613000000018],[34.71821000000017,37.16675000000015],[34.71770000000009,37.16710000000069],[34.71744000000007,37.16712000000024],[34.717200000000105,37.166980000000194],[34.71696000000014,37.166640000000314],[34.715930000000185,37.16625000000016],[34.71551000000011,37.16622000000035],[34.71525000000008,37.16644000000008],[34.71494000000018,37.16721000000041],[34.714690000000076,37.16818000000052],[34.71450000000016,37.16841000000039],[34.71421000000015,37.16946000000041],[34.713830000000144,37.17007000000058],[34.713520000000074,37.17019000000005],[34.71336000000019,37.1704000000002],[34.712060000000065,37.17107000000021],[34.711840000000166,37.17130000000003],[34.71173000000016,37.17157000000037],[34.71065000000016,37.172150000000045],[34.710230000000195,37.17248000000035],[34.7095700000001,37.17254000000031]]],"type":"Polygon"}},{"type":"Feature","properties":{"area_id":"TR-33-005-31912","name_tr":"Kale","area_level":"neighbourhood","parent_id":"TR-33-005","endeksa_id":31912},"geometry":{"coordinates":[[[34.41583,37.24258],[34.41462,37.23861],[34.42275,37.23193],[34.43176,37.22959],[34.44058,37.22819],[34.45017,37.22647],[34.45997000000009,37.223200000000034],[34.46330000000012,37.22054000000006],[34.46663000000008,37.21663999999995],[34.47016,37.21274],[34.47466000000012,37.20931000000013],[34.48269,37.20526],[34.49562000000003,37.19995000000009],[34.50189000000004,37.19651999999998],[34.50836,37.19043],[34.51345,37.18762],[34.51835,37.18513],[34.53696,37.17873],[34.54577,37.17358],[34.55828,37.16903],[34.55855,37.16956],[34.55919,37.17026],[34.55971,37.17141],[34.559710000000166,37.171410000000606],[34.55942000000037,37.17210999999981],[34.56098,37.1712],[34.56245,37.17066],[34.56293000000007,37.170770000000104],[34.56301999999999,37.171260000000046],[34.56327,37.17158],[34.56429,37.17103],[34.565830000000105,37.17056000000011],[34.56651,37.17081],[34.56697,37.17074],[34.56738,37.17037],[34.56811,37.1699],[34.569240000000015,37.16989000000002],[34.5696,37.17043],[34.5699700000001,37.17069000000008],[34.57046,37.17042],[34.57065,37.16982],[34.5711,37.16965],[34.57240999999991,37.170089999999995],[34.57289,37.16987],[34.57305,37.16902],[34.57392000000006,37.16787999999994],[34.57503,37.16737],[34.57519,37.16646],[34.5765,37.16606],[34.57814,37.16543],[34.57897,37.16494],[34.58011,37.16449],[34.58271,37.16468],[34.58382,37.16467],[34.585,37.16482],[34.58604,37.16476],[34.58674,37.1644],[34.58747,37.16476],[34.58946,37.16519],[34.59074,37.16601],[34.59229,37.16612],[34.593450000000075,37.16663000000008],[34.59482,37.16558],[34.59787000000004,37.164020000000114],[34.59923,37.16373],[34.60119,37.16233],[34.60167,37.16208],[34.60419,37.16143],[34.60502,37.16131],[34.60649920296592,37.161275601429864],[34.60674000000012,37.161269999999874],[34.607440000000146,37.16089000000008],[34.60832,37.16087],[34.60868,37.16074],[34.61073,37.15949],[34.61136,37.15861],[34.61183,37.15734],[34.61225,37.15702],[34.61266000000005,37.15688999999989],[34.6118000000001,37.15541000000001],[34.611799999999974,37.15462000000017],[34.61143000000004,37.15401000000048],[34.61143,37.15401],[34.61205,37.15378],[34.61145,37.15223],[34.61160999999996,37.14982000000022],[34.61108098157503,37.147703962938415],[34.61076000000009,37.1464200000003],[34.61036198353943,37.145724830743596],[34.60851,37.14249],[34.60963,37.13905],[34.6114,37.13493],[34.61179,37.13296],[34.61381,37.13008],[34.61766,37.12867],[34.6272,37.1315],[34.62885773970332,37.13355164687284],[34.63082000000016,37.135979999999954],[34.63244,37.13629],[34.63321,37.13676],[34.63321000000019,37.13676000000015],[34.6335001337757,37.13704848318208],[34.63496,37.1385],[34.63519516383341,37.139315237108626],[34.63526000000005,37.13954000000008],[34.63652,37.14018],[34.63778,37.14057],[34.64234,37.1427],[34.64529000000012,37.144990000000064],[34.64775,37.14476],[34.647750000000144,37.14476000000042],[34.6475323815539,37.14501854668784],[34.6475781565777,37.145001075131646],[34.647635,37.144979],[34.64769265991517,37.145034964077766],[34.64773716978891,37.1450778102498],[34.6471500000001,37.150140000000015],[34.64434000000006,37.15129000000013],[34.633030000000076,37.15526000000017],[34.63201000000004,37.156020000000524],[34.63077999999991,37.15623000000007],[34.629970000000185,37.15673000000032],[34.62926000000023,37.1575300000004],[34.62968,37.15823],[34.62968000000018,37.15823000000006],[34.62977000000018,37.15882000000056],[34.62931735276527,37.15919720602909],[34.62718,37.16042000000003],[34.62543000000005,37.160870000000386],[34.624090000000194,37.16093000000035],[34.62265000000008,37.161220000000185],[34.622320000000116,37.16155000000049],[34.621790000000146,37.1616900000007],[34.62116000000009,37.161590000000274],[34.62059000000016,37.161720000000344],[34.61992000000015,37.16223000000008],[34.617880000000135,37.16274000000008],[34.61765000000008,37.16331000000008],[34.617450000000076,37.16347000000019],[34.61683163031159,37.16354067104231],[34.61675000000004,37.16354999999999],[34.61659999999999,37.163639999999994],[34.616630000000015,37.16384000000019],[34.61648000000008,37.16418000000067],[34.616150000000175,37.164370000000076],[34.61360000000019,37.16490000000056],[34.61313000000024,37.164660000000595],[34.61186000000009,37.163630000000026],[34.61131000000001,37.16302999999987],[34.61011000000007,37.16218000000008],[34.609120000000075,37.162370000000124],[34.60824000000008,37.16231000000016],[34.60811000000018,37.162580000000446],[34.607790000000016,37.16278999999996],[34.60699000000002,37.16287999999985],[34.606670000000236,37.16274000000021],[34.60667,37.16274],[34.60670000000008,37.16235000000011],[34.60633000000013,37.16208000000029],[34.605520000000126,37.16219000000018],[34.605030000000056,37.162150000000395],[34.60459000000009,37.16251000000034],[34.60428000000019,37.16309000000018],[34.6042936046452,37.16310113109047],[34.60439,37.16318],[34.604390000000194,37.16318000000035],[34.60341925789196,37.16415845136449],[34.60313,37.16445],[34.60307470655067,37.16467578238942],[34.6030100000001,37.16494000000034],[34.60272000000009,37.1652600000005],[34.60221000000013,37.165610000000356],[34.601850000000184,37.16607000000005],[34.601630000000114,37.16677000000038],[34.60062000000005,37.16806000000054],[34.59985000000012,37.1687500000001],[34.59935000000002,37.16947999999997],[34.597840000000076,37.17072000000036],[34.5971,37.17155000000002],[34.59734000000006,37.17289000000013],[34.597040000000106,37.17356000000018],[34.596760000000245,37.17393000000021],[34.59513000000021,37.17506000000009],[34.59234000000009,37.17685000000023],[34.590260000000114,37.17746000000028],[34.58695000000017,37.17840000000058],[34.58326000000022,37.17864000000054],[34.58189000000016,37.17862000000031],[34.58041454824418,37.17886590960059],[34.58027,37.17889],[34.580211359049464,37.17890659713159],[34.578150000000164,37.17949000000016],[34.57676000000009,37.18043000000017],[34.57535000000013,37.18559000000005],[34.57535000000013,37.18731000000025],[34.57437000000002,37.19137000000003],[34.570060000000126,37.19745000000012],[34.565560000000076,37.20010999999993],[34.555760000000085,37.20431999999997],[34.552040000000034,37.2057200000001],[34.54930000000019,37.20916000000051],[34.5442000000001,37.21774000000005],[34.53696000000019,37.22600000000034],[34.52912000000012,37.2320900000001],[34.5167800000001,37.23786000000052],[34.50248000000012,37.24876999999999],[34.496365,37.257973],[34.49636227975929,37.257971639879614],[34.496360954972275,37.25797106766354],[34.495426,37.259376],[34.493075,37.275434],[34.493075,37.282806],[34.493208,37.282899],[34.493177,37.282921],[34.486617,37.282103],[34.486526,37.282176],[34.48646,37.282711],[34.486537,37.282071],[34.48207001070785,37.28160000112921],[34.48207000000036,37.28160000000025],[34.477320000000304,37.27970000000079],[34.47079000000036,37.27875000000034],[34.469049,37.277593],[34.46900000000022,37.277560000000506],[34.468999975711405,37.277559992477514],[34.45998,37.274766],[34.4598000000002,37.274710000000425],[34.459154,37.274537],[34.458759988894876,37.274431432224056],[34.45267000000035,37.272800000000984],[34.44963148930111,37.27095430767116],[34.44963140321491,37.270954201607466],[34.449631,37.270954],[34.44962709697798,37.27094889604904],[34.44917984450159,37.27039784756386],[34.449028,37.270211],[34.44895174501814,37.270211505023845],[34.44852901798524,37.27021579081626],[34.448418,37.270217],[34.448417864152326,37.270216917493016],[34.44841755009952,37.27021692067632],[34.44406000000026,37.26757000000043],[34.44360018420461,37.26739699999989],[34.4436,37.267397],[34.44359993239768,37.267396905259936],[34.443599580633816,37.26739677291215],[34.44284423394349,37.26633782993145],[34.44224021817397,37.26549130577322],[34.43818542109963,37.264872412169325],[34.437973,37.26484],[34.437972,37.26484],[34.43662750727774,37.2637640616436],[34.43336000000028,37.261150000000555],[34.430829,37.258108],[34.430390000000216,37.25758000000076],[34.430389966348585,37.25757997812656],[34.424389,37.253679],[34.4243806822914,37.25367186003218],[34.42059,37.25044],[34.419168,37.248813],[34.41851000000048,37.24806000000069],[34.41851,37.24806],[34.41583,37.24258]]],"type":"Polygon"}},{"type":"Feature","properties":{"area_id":"TR-33-005-182459","name_tr":"Sebil","area_level":"neighbourhood","parent_id":"TR-33-005","endeksa_id":182459},"geometry":{"coordinates":[[[34.60115000000019,37.14324000000039],[34.595300000000236,37.14506000000034],[34.59538000000009,37.14510000000013],[34.59575000000012,37.14616000000041],[34.59568000000024,37.146750000000225],[34.593100000000106,37.14893000000012],[34.59238000000022,37.15029000000038],[34.59139000000016,37.151310000000194],[34.59055000000012,37.15169000000037],[34.589850000000126,37.15178000000071],[34.58962000000008,37.15168000000028],[34.58907000000005,37.15187000000037],[34.58756000000017,37.15173000000016],[34.587130000000116,37.15145000000041],[34.58588000000009,37.15151000000043],[34.585300000000075,37.15115000000009],[34.58346000000006,37.15383000000014],[34.57943000000023,37.15631000000036],[34.57308000000006,37.155090000000314],[34.57018000000011,37.15090000000038],[34.561790000000144,37.15184000000016],[34.53520000000009,37.1507000000002],[34.51489000000004,37.14516000000009],[34.49887000000007,37.13785000000064],[34.499460000000056,37.13571000000036],[34.502130000000136,37.132850000000474],[34.509260000000154,37.129280000000676],[34.51489000000004,37.12666000000007],[34.51934000000017,37.12428000000051],[34.52290000000005,37.12047000000007],[34.52831000000003,37.115370000000155],[34.53121000000016,37.112620000000675],[34.536550000000034,37.109050000000195],[34.54130000000015,37.106670000000065],[34.54694000000012,37.10238000000038],[34.550200000000245,37.10024000000027],[34.55346000000014,37.096670000000074],[34.55673000000013,37.094530000000304],[34.562070000000176,37.094530000000304],[34.56652000000014,37.09405000000038],[34.56949000000003,37.092140000000086],[34.574240000000145,37.09322000000009],[34.577210000000036,37.09345000000047],[34.58107000000018,37.096070000000395],[34.585520000000145,37.09702000000027],[34.59062000000006,37.09780000000018],[34.59262000000018,37.102210000000525],[34.59303000000017,37.10310000000027],[34.60115000000019,37.14324000000039]]],"type":"Polygon"}},{"type":"Feature","properties":{"area_id":"TR-33-005-31911","name_tr":"Çayırekinliği","area_level":"neighbourhood","parent_id":"TR-33-005","endeksa_id":31911},"geometry":{"coordinates":[[[34.493075,37.282806],[34.493075,37.275434],[34.495426,37.259376],[34.496361,37.257971],[34.496365,37.257973],[34.49636509560251,37.25797285613933],[34.496365022366774,37.25797282449582],[34.50248000000012,37.24876999999999],[34.51678,37.23786],[34.52912000000012,37.2320900000001],[34.53696,37.226],[34.5442,37.21774],[34.5493,37.20916],[34.55204,37.20572],[34.555760000000085,37.20431999999997],[34.565560000000076,37.20010999999993],[34.57006,37.19745],[34.57437000000002,37.19137000000003],[34.57535,37.18731],[34.57535,37.18559],[34.57676,37.18043],[34.57815,37.17949],[34.580211359049464,37.17890659713159],[34.5802700000001,37.17889000000008],[34.58041454824418,37.17886590960059],[34.58189,37.17862],[34.58326,37.17864],[34.58695,37.1784],[34.59026,37.17746],[34.59234,37.17685],[34.59513,37.17506],[34.59676,37.17393],[34.59704,37.17356],[34.59734000000006,37.17289000000013],[34.5971,37.17155000000002],[34.59784,37.17072],[34.59935000000002,37.16947999999997],[34.59985,37.16875],[34.60062,37.16806],[34.60163,37.16677],[34.60185,37.16607],[34.60221,37.16561],[34.60272,37.16526],[34.60301,37.16494],[34.60307470655067,37.16467578238942],[34.60313000000008,37.16445000000027],[34.60341925789196,37.16415845136449],[34.604389999999874,37.163180000000075],[34.6042936046452,37.16310113109047],[34.60428,37.16309],[34.60459,37.16251],[34.60503,37.16215],[34.60552,37.16219],[34.60633,37.16208],[34.60670000000008,37.16235000000011],[34.60667000000031,37.16274000000013],[34.60699000000002,37.16287999999985],[34.607790000000016,37.16278999999996],[34.60811,37.16258],[34.60824,37.16231],[34.60912,37.16237],[34.61011000000007,37.16218000000008],[34.61131000000001,37.16302999999987],[34.61186000000009,37.163630000000026],[34.61313,37.16466],[34.6136,37.1649],[34.61615,37.16437],[34.61648,37.16418],[34.616630000000015,37.16384000000019],[34.61659999999999,37.163639999999994],[34.61675,37.16355],[34.61675000000008,37.16355000000004],[34.61683163031159,37.16354067104231],[34.61745,37.16347],[34.61765,37.16331],[34.617880000000135,37.16274000000008],[34.61992,37.16223],[34.62059,37.16172],[34.62116,37.16159],[34.62179,37.16169],[34.62232,37.16155],[34.62265,37.16122],[34.62409,37.16093],[34.62543,37.16087],[34.62718,37.16042000000003],[34.629317,37.159197],[34.641947,37.158599],[34.641947002196275,37.15859926087858],[34.64194729500008,37.158599247000325],[34.641965022474736,37.16073961218342],[34.641982,37.162756],[34.640237,37.169964],[34.64121816918601,37.17260619726111],[34.64161105700015,37.17366350500009],[34.64161089899051,37.17366372800882],[34.641611,37.173664],[34.63999117242077,37.17594975670371],[34.64025039500018,37.175877887000354],[34.640254190707026,37.176003743793785],[34.64030432990209,37.17602572516736],[34.640393,37.176064],[34.64039171339094,37.17606403461848],[34.64039262522084,37.17606443436972],[34.64017000000018,37.17607000000038],[34.64005000000003,37.17620000000045],[34.63781,37.17680999999996],[34.63838000000004,37.18877000000026],[34.633319999999955,37.18996999999999],[34.632080000000144,37.1896500000006],[34.62859000000013,37.19185000000013],[34.62686000000008,37.193400000000395],[34.62202000000019,37.19359000000031],[34.62002000000007,37.1927600000007],[34.61739000000001,37.1947099999999],[34.615360000000116,37.193420000000145],[34.61140000000008,37.19722000000012],[34.60826000000014,37.20596000000006],[34.60826000000014,37.21594000000016],[34.60474000000005,37.22530000000012],[34.59964000000008,37.234039999999965],[34.59102000000013,37.239960000000224],[34.5788800000002,37.24121000000059],[34.570650000000114,37.24339000000049],[34.5639900000001,37.2458900000002],[34.563989987964206,37.24589001916089],[34.561765,37.249432],[34.557720000000124,37.25586999999998],[34.558045,37.257418],[34.55928999999998,37.26335000000019],[34.573000000000015,37.262729999999976],[34.57535,37.26616],[34.57535000000013,37.26616000000013],[34.57339000000013,37.27302000000003],[34.56477000000006,37.27957000000016],[34.549890000000175,37.287050000000534],[34.537350000000174,37.291410000000326],[34.51580000000018,37.29609000000033],[34.50480000000027,37.29418000000021],[34.50335791100042,37.29098627700051],[34.500180000000285,37.28803000000062],[34.499968,37.287873],[34.49425,37.28363],[34.493358,37.282968],[34.49333416088462,37.282880987298476],[34.49331775297337,37.28282217291881],[34.493208,37.282899],[34.493075,37.282806]]],"type":"Polygon"}},{"type":"Feature","properties":{"area_id":"TR-33-005-182467","name_tr":"Fakılar","area_level":"neighbourhood","parent_id":"TR-33-005","endeksa_id":182467},"geometry":{"coordinates":[[[34.69457000000017,37.20302000000038],[34.69299000000018,37.20405000000011],[34.69304000000005,37.20454000000052],[34.69278000000003,37.20568000000037],[34.69142000000011,37.206100000000276],[34.68889000000024,37.20761000000016],[34.688450000000046,37.2081500000001],[34.68707000000006,37.209510000000364],[34.6860200000001,37.21015000000017],[34.68344000000013,37.21150000000017],[34.68171000000018,37.21216000000004],[34.680550000000096,37.21271000000007],[34.67923000000013,37.212980000000414],[34.677790000000186,37.2135200000003],[34.676740000000166,37.21381000000014],[34.676120000000026,37.21447000000006],[34.674550000000124,37.21531000000061],[34.67214000000007,37.216140000000394],[34.671540000000164,37.216140000000394],[34.66976000000011,37.21553000000034],[34.66814000000022,37.2151700000004],[34.66699000000011,37.21457000000049],[34.6660100000002,37.21376000000026],[34.66250000000019,37.211280000000045],[34.661780000000135,37.2110100000001],[34.66032000000013,37.209760000000415],[34.65839000000011,37.2087600000001],[34.655240000000106,37.207650000000626],[34.653350000000046,37.20761000000016],[34.652210000000025,37.2077000000005],[34.65086000000008,37.20740000000018],[34.64940000000007,37.206720000000416],[34.64625000000018,37.20552000000009],[34.643560000000036,37.20549000000028],[34.64069000000006,37.203930000000355],[34.638490000000104,37.203130000000385],[34.63630000000006,37.20289000000042],[34.63460000000009,37.20197000000036],[34.63341000000008,37.2007200000001],[34.63162000000011,37.199530000000266],[34.62924000000021,37.19770000000017],[34.62843000000015,37.19723000000039],[34.62728000000021,37.196990000000426],[34.6263400000002,37.19692000000032],[34.624640000000056,37.19709000000017],[34.62221000000011,37.19685000000021],[34.61739000000006,37.19471000000004],[34.62002000000007,37.1927600000007],[34.62202000000019,37.19359000000031],[34.62686000000008,37.193400000000395],[34.6285900000002,37.191850000000045],[34.632080000000144,37.1896500000006],[34.63332000000008,37.18997000000007],[34.63838000000004,37.18877000000026],[34.63781000000017,37.1768100000001],[34.64005000000003,37.17620000000045],[34.64017000000018,37.17607000000038],[34.64057000000008,37.176060000000234],[34.64160000000004,37.17558000000031],[34.64240000000012,37.17538000000013],[34.64284000000015,37.174660000000245],[34.64320000000009,37.17431000000039],[34.6443900000001,37.17347000000052],[34.644800000000146,37.17204000000015],[34.64492000000013,37.17191000000008],[34.64540000000022,37.17210000000017],[34.64581000000004,37.17211000000026],[34.64674000000025,37.171600000000694],[34.64718000000005,37.17159000000004],[34.648060000000044,37.17183000000017],[34.64845000000014,37.171810000000335],[34.65591000000012,37.17011000000036],[34.657470000000046,37.16998000000024],[34.65816000000012,37.16981000000038],[34.65985000000012,37.16906000000017],[34.661030000000096,37.16882000000021],[34.66270000000003,37.168190000000095],[34.66388000000018,37.168620000000146],[34.66532000000012,37.16833000000014],[34.66676000000007,37.16839000000016],[34.66900000000015,37.168870000000084],[34.66942000000006,37.16874000000013],[34.66986000000003,37.16889000000032],[34.67065000000025,37.16882000000021],[34.67063000000019,37.16894000000019],[34.671010000000194,37.1696900000004],[34.6714300000001,37.16990000000004],[34.671820000000196,37.169950000000085],[34.672400000000096,37.170170000000326],[34.67311000000018,37.1701800000003],[34.673400000000186,37.17032000000012],[34.673060000000135,37.171630000000334],[34.672010000000114,37.17195000000038],[34.67276000000021,37.17239000000018],[34.67474000000004,37.17270000000008],[34.67595000000017,37.17261000000042],[34.6808400000001,37.171660000000145],[34.68221000000011,37.171600000000694],[34.68410000000017,37.17174000000023],[34.685970000000225,37.17235000000022],[34.68642000000011,37.17267000000027],[34.68695000000008,37.172370000000456],[34.687900000000184,37.17217000000028],[34.68828000000019,37.1724700000002],[34.69020000000006,37.17136000000005],[34.69045000000017,37.17182000000042],[34.69081000000011,37.171320000000264],[34.69178000000005,37.171280000000365],[34.692330000000084,37.171130000000176],[34.69562000000019,37.1698700000004],[34.69900000000007,37.17097000000007],[34.705210000000136,37.17183000000017],[34.7095700000001,37.17254000000031],[34.706640000000164,37.17721000000017],[34.70665000000008,37.17789000000033],[34.705830000000105,37.17932000000013],[34.70497000000017,37.181970000000376],[34.70488000000023,37.182870000000264],[34.70520000000005,37.18333000000064],[34.70503000000019,37.18494000000027],[34.704650000000186,37.185880000000054],[34.704650000000186,37.187050000000056],[34.70419000000015,37.18867000000051],[34.70463000000012,37.19041000000027],[34.70526000000018,37.19221000000016],[34.704470000000185,37.1938200000003],[34.70432000000005,37.19450000000029],[34.70407000000017,37.194980000000385],[34.70407000000017,37.1954300000001],[34.70314000000013,37.19620000000003],[34.70223000000016,37.197310000000584],[34.701310000000035,37.19767000000053],[34.70014000000003,37.19792000000007],[34.69733000000008,37.19887000000034],[34.69560000000013,37.199970000000405],[34.69509000000022,37.20051000000035],[34.6951600000001,37.20106000000038],[34.694960000000094,37.20223000000016],[34.69457000000017,37.20302000000038]]],"type":"Polygon"}}]}