{"type":"FeatureCollection","source_id":"endeksa","retrieved_at":null,"features":[{"type":"Feature","properties":{"area_id":"TR-34-018-181502","name_tr":"Turgut Özal","area_level":"neighbourhood","parent_id":"TR-34-018","endeksa_id":181502},"geometry":{"coordinates":[[[28.69922408300016,41.005711671000086],[28.698248865000096,41.00620522300039],[28.697697710000057,41.00550834900014],[28.69747545399997,41.00547205900011],[28.69623951400007,41.00600003400001],[28.69481281100002,41.00613479400016],[28.693979194000065,41.00604428300022],[28.693368396000153,41.006574198000635],[28.69252469600019,41.00714456000003],[28.69141321100011,41.00653104200012],[28.690449682000065,41.00616223900039],[28.689918777000116,41.00605614700049],[28.690069419000167,41.005386081000154],[28.68588576400009,41.00416636300008],[28.68568851800012,41.00395225600005],[28.68974760000009,41.000711013],[28.69050773700019,41.00031788400008],[28.691760343000055,40.99992154500006],[28.693189642000107,40.99976339700015],[28.69648467600007,40.99994094000016],[28.697451799000078,40.999850008000124],[28.69849416500017,41.000209683000094],[28.698685250999972,41.00040719500009],[28.698796933000153,41.00075706700045],[28.69903705100012,41.00187692200029],[28.69926021200007,41.00370564400043],[28.69948055600014,41.00461950600004],[28.69949008500015,41.00503452900034],[28.69922408300016,41.005711671000086]]],"type":"Polygon"}},{"type":"Feature","properties":{"area_id":"TR-34-018-40858","name_tr":"Saadetdere","area_level":"neighbourhood","parent_id":"TR-34-018","endeksa_id":40858},"geometry":{"coordinates":[[[28.701873786000306,41.00934513500033],[28.701864152000212,41.009447610000166],[28.7014046030003,41.00982280600033],[28.700270227000203,41.010634671000275],[28.698451457000203,41.011652019000394],[28.696761236000214,41.01246349700057],[28.69702338900015,41.01232842700006],[28.69252469600019,41.00714456000003],[28.693368396000153,41.006574198000635],[28.693979194000065,41.00604428300022],[28.69481281100002,41.00613479400016],[28.69623951400007,41.00600003400001],[28.69747545399997,41.00547205900011],[28.697697710000057,41.00550834900014],[28.698248865000096,41.00620522300039],[28.69922408300016,41.005711671000086],[28.69975352800003,41.00598987600006],[28.700056033000067,41.006349183000225],[28.701428781000175,41.00873656800013],[28.701873786000306,41.00934513500033]]],"type":"Polygon"}},{"type":"Feature","properties":{"area_id":"TR-34-018-40895","name_tr":"Güzelyurt","area_level":"neighbourhood","parent_id":"TR-34-018","endeksa_id":40895},"geometry":{"coordinates":[[[28.678642168000124,41.01272140100042],[28.67794496200014,41.01275284400009],[28.675286274000086,41.01399776700015],[28.672691229000066,41.01349559099998],[28.670382552000092,41.01370777200009],[28.66852446900009,41.01302602200013],[28.668508742000085,41.01261911100016],[28.667190189000166,41.01264296900018],[28.665997565000055,41.012750909000374],[28.665897359000155,41.01282430900005],[28.665881210000123,41.012695794000194],[28.6655639170001,41.01270094000006],[28.66545753200006,41.012598228000115],[28.66519142500016,41.012721468000336],[28.66494584200018,41.01238853400014],[28.662748970000166,41.01341851300003],[28.662652115000014,41.0133581310007],[28.662932132000037,41.012620862000176],[28.66348872700013,41.01234633700011],[28.66358623700006,41.01206080800006],[28.66384606800017,41.00927323900004],[28.664239380000026,41.00810944200015],[28.664117645000147,41.00693582600036],[28.666992924999988,41.006338506000134],[28.668335495000065,41.00619898300005],[28.677909580000062,41.00593365700013],[28.678170954000052,41.007774054000436],[28.678642168000124,41.01272140100042]]],"type":"Polygon"}},{"type":"Feature","properties":{"area_id":"TR-34-018-40856","name_tr":"Namık Kemal","area_level":"neighbourhood","parent_id":"TR-34-018","endeksa_id":40856},"geometry":{"coordinates":[[[28.69328112140016,41.014132838200055],[28.690020596000124,41.015382068000065],[28.69148973500006,41.012058845000126],[28.692194427999993,41.010100733000115],[28.689241118000098,41.00931125300019],[28.687369428000125,41.00865371100048],[28.681931973000076,41.00742576900012],[28.682068572000105,41.00609617100025],[28.68201403400002,41.00558497500009],[28.683764129000167,41.00504569600014],[28.684967463000078,41.00443262900012],[28.68568851800012,41.00395225600005],[28.68588576400009,41.00416636300008],[28.690069419000167,41.005386081000154],[28.689918777000116,41.00605614700049],[28.690449682000065,41.00616223900039],[28.69141321100011,41.00653104200012],[28.69252469600019,41.00714456000003],[28.69702338900015,41.01232842700006],[28.696761236000214,41.01246349700057],[28.69328112140016,41.014132838200055]]],"type":"Polygon"}},{"type":"Feature","properties":{"area_id":"TR-34-018-181492","name_tr":"Mevlana","area_level":"neighbourhood","parent_id":"TR-34-018","endeksa_id":181492},"geometry":{"coordinates":[[[28.661588472000062,41.01426928200033],[28.66029705800014,41.01529022700015],[28.659090276000086,41.01574688000005],[28.658207177000122,41.016692551000006],[28.658128924000152,41.01653751200024],[28.657756663000157,41.01635205900044],[28.656993799000134,41.01623148600032],[28.656228258999988,41.01630382900004],[28.653422403000036,41.01628119999998],[28.649152846000163,41.015746846000184],[28.64847225500006,41.01535660100018],[28.644632554000054,41.01426703600032],[28.650667748000103,41.01195093199999],[28.659058612000138,41.008726002000685],[28.662944279000044,41.00728388100015],[28.664117645000147,41.00693582600036],[28.664239380000026,41.00810944200015],[28.66384606800017,41.00927323900004],[28.66358623700006,41.01206080800006],[28.66348872700013,41.01234633700011],[28.662932132000037,41.012620862000176],[28.662652115000014,41.0133581310007],[28.662748970000166,41.01341851300003],[28.661588472000062,41.01426928200033]]],"type":"Polygon"}},{"type":"Feature","properties":{"area_id":"TR-34-018-40865","name_tr":"Cumhuriyet","area_level":"neighbourhood","parent_id":"TR-34-018","endeksa_id":40865},"geometry":{"coordinates":[[[28.656165488000056,41.018962883000086],[28.655320974000176,41.020009812000126],[28.653584421999994,41.01912769800015],[28.650825542000177,41.0187380370005],[28.649320369000066,41.018772682000076],[28.64702874699998,41.01867050600015],[28.64664339100011,41.0186132310003],[28.646490339000025,41.01846731200004],[28.64643458300003,41.017782072000045],[28.646123136000142,41.01703858500008],[28.64562229500018,41.01625203800006],[28.644833485000106,41.015435683000646],[28.644178683000064,41.01444074600016],[28.644632554000054,41.01426703600032],[28.64847225500006,41.01535660100018],[28.649152846000163,41.015746846000184],[28.653422403000036,41.01628119999998],[28.656228258999988,41.01630382900004],[28.656993799000134,41.01623148600032],[28.657756663000157,41.01635205900044],[28.658128924000152,41.01653751200024],[28.658207177000122,41.016692551000006],[28.656754331000172,41.01848759500007],[28.656165488000056,41.018962883000086]]],"type":"Polygon"}},{"type":"Feature","properties":{"area_id":"TR-34-018-181494","name_tr":"Mehmet Akif Ersoy","area_level":"neighbourhood","parent_id":"TR-34-018","endeksa_id":181494},"geometry":{"coordinates":[[[28.67097390300006,41.01852501000019],[28.670257447000097,41.01905154800005],[28.67011966200016,41.01938186100011],[28.67010325500013,41.01984867800047],[28.669823453000106,41.02018564600064],[28.66862036000009,41.01951798100038],[28.667255230000137,41.019191081000145],[28.666422173000058,41.01888056800016],[28.665243158000123,41.018209099000615],[28.663280665000173,41.01604993700016],[28.663153773000147,41.01614315000012],[28.661588472000062,41.01426928200033],[28.662748970000166,41.01341851300003],[28.66494584200018,41.01238853400014],[28.66519142500016,41.012721468000336],[28.66545753200006,41.012598228000115],[28.6655639170001,41.01270094000006],[28.665881210000123,41.012695794000194],[28.665897359000155,41.01282430900005],[28.665997565000055,41.012750909000374],[28.667190189000166,41.01264296900018],[28.668508742000085,41.01261911100016],[28.66852446900009,41.01302602200013],[28.670382552000092,41.01370777200009],[28.672691229000066,41.01349559099998],[28.675286274000086,41.01399776700015],[28.674737274000165,41.01463998100036],[28.67301685100017,41.01615812200015],[28.67279962900011,41.01621429900041],[28.672332440000105,41.01704427800007],[28.672197044000086,41.01809567000038],[28.67147732600006,41.01827638300017],[28.67097390300006,41.01852501000019]]],"type":"Polygon"}},{"type":"Feature","properties":{"area_id":"TR-34-018-181498","name_tr":"Akevler","area_level":"neighbourhood","parent_id":"TR-34-018","endeksa_id":181498},"geometry":{"coordinates":[[[28.680565056000034,41.02142585500013],[28.67724131300014,41.02350171100011],[28.673413317000097,41.02032767200012],[28.672477637000156,41.01968769400014],[28.672014967000052,41.019165874000464],[28.67097390300006,41.01852501000019],[28.67147732600006,41.01827638300017],[28.672197044000086,41.01809567000038],[28.672332440000105,41.01704427800007],[28.67279962900011,41.01621429900041],[28.67301685100017,41.01615812200015],[28.674737274000165,41.01463998100036],[28.675286274000086,41.01399776700015],[28.67794496200014,41.01275284400009],[28.678642168000124,41.01272140100042],[28.67880393700011,41.01459164400018],[28.67937779100015,41.01748128500026],[28.680565056000034,41.02142585500013]]],"type":"Polygon"}},{"type":"Feature","properties":{"area_id":"TR-34-018-40852","name_tr":"İncirtepe","area_level":"neighbourhood","parent_id":"TR-34-018","endeksa_id":40852},"geometry":{"coordinates":[[[28.69767860200011,41.02311800400008],[28.694879284000137,41.02412474699997],[28.69073658500008,41.02340050300063],[28.68909900100016,41.02281357200047],[28.688530151000123,41.02206018000015],[28.687424157000123,41.02125003080016],[28.689823673000035,41.01726017700008],[28.69015268200019,41.01789695900004],[28.690091060000043,41.01811184500002],[28.69020981200015,41.01824140600036],[28.69383862300009,41.01883119100057],[28.69404597099998,41.01908072800035],[28.69467704200008,41.019101400000636],[28.69477280300009,41.01936025900011],[28.694773493000184,41.0198191030006],[28.696177966000107,41.019778715000086],[28.696719672000143,41.02043194900068],[28.697092350000105,41.02208958200043],[28.69767860200011,41.02311800400008]]],"type":"Polygon"}},{"type":"Feature","properties":{"area_id":"TR-34-018-40854","name_tr":"Mehterçeşme","area_level":"neighbourhood","parent_id":"TR-34-018","endeksa_id":40854},"geometry":{"coordinates":[[[28.669823453000106,41.02018564600064],[28.67021779400011,41.02042001600017],[28.66926384700014,41.02137793999998],[28.66875498400003,41.02250344300012],[28.668198978000078,41.02342731900018],[28.6673076350001,41.02543460000027],[28.666799529000173,41.02530770500016],[28.666452143000015,41.02496101600019],[28.66631076800013,41.02481126300012],[28.666006059000097,41.02408653200064],[28.664828054000054,41.02378827100006],[28.664762916000143,41.0226043050003],[28.662452668000128,41.0221415740001],[28.661281627000164,41.022014533000174],[28.660922074000155,41.02188943500016],[28.660450059000084,41.02161351400048],[28.6586868440001,41.02004643000049],[28.65726991800011,41.01930771400015],[28.656165488000056,41.018962883000086],[28.656754331000172,41.01848759500007],[28.658207177000122,41.016692551000006],[28.659090276000086,41.01574688000005],[28.66029705800014,41.01529022700015],[28.661588472000062,41.01426928200033],[28.663153773000147,41.01614315000012],[28.663280665000173,41.01604993700016],[28.665243158000123,41.018209099000615],[28.666422173000058,41.01888056800016],[28.667255230000137,41.019191081000145],[28.66862036000009,41.01951798100038],[28.669823453000106,41.02018564600064]]],"type":"Polygon"}},{"type":"Feature","properties":{"area_id":"TR-34-018-181500","name_tr":"Zafer","area_level":"neighbourhood","parent_id":"TR-34-018","endeksa_id":181500},"geometry":{"coordinates":[[[28.687424157000123,41.02125003080016],[28.685081516000025,41.02521373400015],[28.684361731000024,41.026767754000616],[28.6823059890001,41.02483028900008],[28.681494043999976,41.023738461000164],[28.680972560000043,41.022706193000204],[28.680565056000034,41.02142585500013],[28.67937779100015,41.01748128500026],[28.67880393700011,41.01459164400018],[28.678642168000124,41.01272140100042],[28.678170954000052,41.007774054000436],[28.677909580000062,41.00593365700013],[28.680523741000115,41.005846535000046],[28.68201403400002,41.00558497500009],[28.682068572000105,41.00609617100025],[28.681931973000076,41.00742576900012],[28.687369428000125,41.00865371100048],[28.689241118000098,41.00931125300019],[28.692194427999993,41.010100733000115],[28.69148973500006,41.012058845000126],[28.690020596000124,41.015382068000065],[28.69328112140016,41.014132838200055],[28.692103068000108,41.014941511000075],[28.69019068700004,41.016785867000124],[28.689823673000035,41.01726017700008],[28.687424157000123,41.02125003080016]]],"type":"Polygon"}},{"type":"Feature","properties":{"area_id":"TR-34-018-181504","name_tr":"Akşemseddin","area_level":"neighbourhood","parent_id":"TR-34-018","endeksa_id":181504},"geometry":{"coordinates":[[[28.70157003300028,41.02466911700043],[28.70164418000013,41.0250419140001],[28.70157767500001,41.02603635500009],[28.7016977400001,41.027523925000025],[28.70094236500006,41.02657545600016],[28.699775360000046,41.025684031000026],[28.69913726599998,41.02470311900004],[28.69767860200011,41.02311800400008],[28.697092350000105,41.02208958200043],[28.696719672000143,41.02043194900068],[28.696177966000107,41.019778715000086],[28.694773493000184,41.0198191030006],[28.69477280300009,41.01936025900011],[28.69467704200008,41.019101400000636],[28.69404597099998,41.01908072800035],[28.69383862300009,41.01883119100057],[28.69020981200015,41.01824140600036],[28.690091060000043,41.01811184500002],[28.69015268200019,41.01789695900004],[28.689823673000035,41.01726017700008],[28.69019068700004,41.016785867000124],[28.692103068000108,41.014941511000075],[28.69328112140016,41.014132838200055],[28.696761236000214,41.01246349700057],[28.700069320000352,41.0153278800002],[28.700306317000354,41.01568294200058],[28.70112218400027,41.01916226400016],[28.70141517200034,41.021592838000004],[28.70157003300028,41.02466911700043]]],"type":"Polygon"}},{"type":"Feature","properties":{"area_id":"TR-34-018-40859","name_tr":"Talatpaşa","area_level":"neighbourhood","parent_id":"TR-34-018","endeksa_id":40859},"geometry":{"coordinates":[[[28.675357375000033,41.02473225200009],[28.674216718000082,41.025399655000115],[28.671370864000153,41.02734860800018],[28.670957359000113,41.02734218900008],[28.66975661800018,41.02760367400015],[28.666942972000072,41.028650618000086],[28.66745624100014,41.02772721200006],[28.667582132000177,41.02726354600043],[28.66783094600015,41.02679194700022],[28.668605340000113,41.02600614000016],[28.668506456000102,41.02584180700012],[28.668113464999976,41.02561014700012],[28.6673076350001,41.02543460000027],[28.668198978000078,41.02342731900018],[28.66875498400003,41.02250344300012],[28.66926384700014,41.02137793999998],[28.67021779400011,41.02042001600017],[28.669823453000106,41.02018564600064],[28.67010325500013,41.01984867800047],[28.67011966200016,41.01938186100011],[28.670257447000097,41.01905154800005],[28.67097390300006,41.01852501000019],[28.672014967000052,41.019165874000464],[28.672477637000156,41.01968769400014],[28.673413317000097,41.02032767200012],[28.67724131300014,41.02350171100011],[28.676659105000056,41.02384990900015],[28.675969803000044,41.024446992000264],[28.675357375000033,41.02473225200009]]],"type":"Polygon"}},{"type":"Feature","properties":{"area_id":"TR-34-018-181486","name_tr":"Piri Reis","area_level":"neighbourhood","parent_id":"TR-34-018","endeksa_id":181486},"geometry":{"coordinates":[[[28.65355929000009,41.02738410500018],[28.65267168300005,41.027193913000076],[28.650548649000086,41.02704471200008],[28.649109112000076,41.02727418500018],[28.647578140000064,41.027956609000114],[28.645997723000164,41.02893658100021],[28.645167995000065,41.02921541000012],[28.644801974000075,41.02873420499998],[28.64450890300003,41.0281560320002],[28.64446019000019,41.02788599650046],[28.644719535000092,41.02564635700014],[28.64455945300017,41.023206922000156],[28.64470075300011,41.02275954600009],[28.645673623000164,41.02091571500006],[28.64652985400005,41.019568606000064],[28.646490339000025,41.01846731200004],[28.64664339100011,41.0186132310003],[28.64702874699998,41.01867050600015],[28.649320369000066,41.018772682000076],[28.650825542000177,41.0187380370005],[28.653584421999994,41.01912769800015],[28.655320974000176,41.020009812000126],[28.654498317000048,41.02214235900027],[28.654246022000052,41.02303397400004],[28.654137371000047,41.023830807000024],[28.65423504200004,41.02476539800017],[28.654187745000115,41.0251495750004],[28.65355929000009,41.02738410500018]]],"type":"Polygon"}},{"type":"Feature","properties":{"area_id":"TR-34-018-181488","name_tr":"Barbaros Hayrettin Paşa","area_level":"neighbourhood","parent_id":"TR-34-018","endeksa_id":181488},"geometry":{"coordinates":[[[28.645167995000065,41.02921541000012],[28.644069109999975,41.029539292000095],[28.639844525000115,41.029966351000326],[28.63947403100019,41.029496828000106],[28.63918683800017,41.028816559000404],[28.638999920000117,41.02727665600008],[28.638633991000177,41.026115497000205],[28.638323004000085,41.02554829400026],[28.637871592000067,41.02501419000015],[28.636676561,41.02322969600044],[28.636113924000085,41.02221230600014],[28.634868772999994,41.02030627700009],[28.633925286000192,41.01839263099998],[28.644178683000064,41.01444074600016],[28.644833485000106,41.015435683000646],[28.64562229500018,41.01625203800006],[28.646123136000142,41.01703858500008],[28.64643458300003,41.017782072000045],[28.646490339000025,41.01846731200004],[28.64652985400005,41.019568606000064],[28.645673623000164,41.02091571500006],[28.64470075300011,41.02275954600009],[28.64455945300017,41.023206922000156],[28.644719535000092,41.02564635700014],[28.64446019000019,41.02788599650046],[28.64450890300003,41.0281560320002],[28.644801974000075,41.02873420499998],[28.645167995000065,41.02921541000012]]],"type":"Polygon"}},{"type":"Feature","properties":{"area_id":"TR-34-018-181496","name_tr":"Üçevler","area_level":"neighbourhood","parent_id":"TR-34-018","endeksa_id":181496},"geometry":{"coordinates":[[[28.684361731000024,41.026767754000616],[28.683487534000108,41.0286150230001],[28.681957453000052,41.031236899000646],[28.680976370000167,41.03098918000012],[28.68112711100008,41.030083462000334],[28.677316575000134,41.028555210000036],[28.677241171000105,41.028630765000116],[28.67656656800017,41.02829120900009],[28.676394108000068,41.028095202000316],[28.675955618000046,41.0279256660005],[28.676209644000096,41.02754551400017],[28.675694244000113,41.02660664299998],[28.67551049400015,41.025669219000406],[28.67531218900018,41.02567031600023],[28.675357375000033,41.02473225200009],[28.675969803000044,41.024446992000264],[28.676659105000056,41.02384990900015],[28.67724131300014,41.02350171100011],[28.680565056000034,41.02142585500013],[28.680972560000043,41.022706193000204],[28.681494043999976,41.023738461000164],[28.6823059890001,41.02483028900008],[28.684361731000024,41.026767754000616]]],"type":"Polygon"}},{"type":"Feature","properties":{"area_id":"TR-34-018-181506","name_tr":"Yunus Emre","area_level":"neighbourhood","parent_id":"TR-34-018","endeksa_id":181506},"geometry":{"coordinates":[[[28.7016977400001,41.027523925000025],[28.70184938600005,41.02871872500066],[28.70141646400009,41.0288204420001],[28.69982855400019,41.02886394700005],[28.697229521000168,41.02929248800007],[28.696357599000123,41.031372339000484],[28.69364051800011,41.03026870400021],[28.69266038900014,41.02937045300007],[28.69227614600004,41.02878050999999],[28.69200524700011,41.0278447070001],[28.691987751000056,41.027532016000066],[28.69231482900011,41.02645619200024],[28.691850097000042,41.02563313100012],[28.691951210000127,41.02511079500039],[28.691791037000144,41.024914783000156],[28.69069217700013,41.024378350999996],[28.69054935000014,41.02406264000007],[28.69073658500008,41.02340050300063],[28.694879284000137,41.02412474699997],[28.69767860200011,41.02311800400008],[28.69913726599998,41.02470311900004],[28.699775360000046,41.025684031000026],[28.70094236500006,41.02657545600016],[28.7016977400001,41.027523925000025]]],"type":"Polygon"}},{"type":"Feature","properties":{"area_id":"TR-34-018-181490","name_tr":"Gökevler","area_level":"neighbourhood","parent_id":"TR-34-018","endeksa_id":181490},"geometry":{"coordinates":[[[28.639844525000115,41.029966351000326],[28.63791938600008,41.03039624600012],[28.637363620000087,41.030611991000455],[28.636482029000092,41.031287944000155],[28.636316864000037,41.03133382100032],[28.63507478700018,41.03116073800015],[28.63485818500004,41.03104415700051],[28.63321577900018,41.02851978699999],[28.631691078000074,41.02917752000019],[28.6302208460001,41.029582969000046],[28.62921090800006,41.02996899300018],[28.628729362000172,41.03031580100014],[28.62613280300019,41.03033672700042],[28.62579636400011,41.03112104900015],[28.625450315000023,41.032403934000115],[28.624498252000024,41.03284463000017],[28.623739975000092,41.03301447200005],[28.625888301000032,41.02950627400003],[28.625717520000023,41.02670146300005],[28.62540589300005,41.02506879800001],[28.625948712000138,41.02444207500048],[28.626560451000046,41.0222821590001],[28.62790204400011,41.02167852600053],[28.629838942000106,41.02020067400014],[28.630742558000122,41.01962892200004],[28.633137606000048,41.01865639000005],[28.633925286000192,41.01839263099998],[28.634868772999994,41.02030627700009],[28.636113924000085,41.02221230600014],[28.636676561,41.02322969600044],[28.637871592000067,41.02501419000015],[28.638323004000085,41.02554829400026],[28.638633991000177,41.026115497000205],[28.638999920000117,41.02727665600008],[28.63918683800017,41.028816559000404],[28.63947403100019,41.029496828000106],[28.639844525000115,41.029966351000326]]],"type":"Polygon"}},{"type":"Feature","properties":{"area_id":"TR-34-018-40866","name_tr":"Yeşilkent","area_level":"neighbourhood","parent_id":"TR-34-018","endeksa_id":40866},"geometry":{"coordinates":[[[28.666942972000072,41.028650618000086],[28.666540356000155,41.028785347000166],[28.666245087000107,41.02907867300024],[28.665972670000087,41.029523018000134],[28.66531435200011,41.03012548300035],[28.665246581000133,41.03076205399998],[28.665523381000128,41.0309980130001],[28.665795829000103,41.031401803999984],[28.665412103000108,41.03188783900015],[28.665412961000186,41.03202666999999],[28.664518396000176,41.03271420000004],[28.66425810100003,41.032520834000024],[28.663022287000103,41.033245792000685],[28.66273041700009,41.03319406200012],[28.66182842400019,41.03174810400003],[28.66066035200015,41.03071710400036],[28.66006953800013,41.03033851700002],[28.653788919000135,41.02836340700003],[28.653553246000115,41.02813630400016],[28.653456896000137,41.02789943700037],[28.65355929000009,41.02738410500018],[28.654187745000115,41.0251495750004],[28.65423504200004,41.02476539800017],[28.654137371000047,41.023830807000024],[28.654246022000052,41.02303397400004],[28.654498317000048,41.02214235900027],[28.655320974000176,41.020009812000126],[28.656165488000056,41.018962883000086],[28.65726991800011,41.01930771400015],[28.6586868440001,41.02004643000049],[28.660450059000084,41.02161351400048],[28.660922074000155,41.02188943500016],[28.661281627000164,41.022014533000174],[28.662452668000128,41.0221415740001],[28.664762916000143,41.0226043050003],[28.664828054000054,41.02378827100006],[28.666006059000097,41.02408653200064],[28.66631076800013,41.02481126300012],[28.666799529000173,41.02530770500016],[28.6673076350001,41.02543460000027],[28.668113464999976,41.02561014700012],[28.668506456000102,41.02584180700012],[28.668605340000113,41.02600614000016],[28.66783094600015,41.02679194700022],[28.667582132000177,41.02726354600043],[28.66745624100014,41.02772721200006],[28.666942972000072,41.028650618000086]]],"type":"Polygon"}},{"type":"Feature","properties":{"area_id":"TR-34-018-40853","name_tr":"İnönü","area_level":"neighbourhood","parent_id":"TR-34-018","endeksa_id":40853},"geometry":{"coordinates":[[[28.69266038900014,41.02937045300007],[28.691739550000023,41.03027521100012],[28.69170955500016,41.03038707900032],[28.691130430999976,41.030528835000325],[28.68944649700012,41.030682235000086],[28.689341015000082,41.03039700900007],[28.688925692999987,41.03035319200012],[28.68893039600016,41.03093357200015],[28.68886132099999,41.03103096900048],[28.68819488600019,41.03147923800003],[28.687263997000173,41.031952545000024],[28.687309316000096,41.03328553299997],[28.68690732200008,41.03341236100016],[28.686719285000038,41.03083731200036],[28.686368008000045,41.02963116400002],[28.68575433900014,41.028350208999996],[28.684946416000173,41.02730122100007],[28.684361731000024,41.026767754000616],[28.685081516000025,41.02521373400015],[28.687424157000123,41.02125003080016],[28.688530151000123,41.02206018000015],[28.68909900100016,41.02281357200047],[28.69073658500008,41.02340050300063],[28.69054935000014,41.02406264000007],[28.69069217700013,41.024378350999996],[28.691791037000144,41.024914783000156],[28.691951210000127,41.02511079500039],[28.691850097000042,41.02563313100012],[28.69231482900011,41.02645619200024],[28.691987751000056,41.027532016000066],[28.69200524700011,41.0278447070001],[28.69227614600004,41.02878050999999],[28.69266038900014,41.02937045300007]]],"type":"Polygon"}},{"type":"Feature","properties":{"area_id":"TR-34-018-181484","name_tr":"Necip Fazıl Kısakürek","area_level":"neighbourhood","parent_id":"TR-34-018","endeksa_id":181484},"geometry":{"coordinates":[[[28.651101625000024,41.03382807100013],[28.650225149000164,41.03404401200015],[28.649508681000043,41.03386144700005],[28.64897043500008,41.03383770400012],[28.648433634000185,41.03391338300008],[28.64768628000013,41.03418848000052],[28.647671511000055,41.033825510000156],[28.64819108100005,41.03272189400013],[28.649114038000164,41.031804631],[28.64948340300009,41.031238370000324],[28.650271735000103,41.031187818000035],[28.65065122900006,41.03070597400017],[28.650963294000007,41.029759882000064],[28.652123876000132,41.02874198200004],[28.652469293000024,41.02770289900013],[28.653295932000105,41.027745548000155],[28.65355929000009,41.02738410500018],[28.653456896000137,41.02789943700037],[28.653553246000115,41.02813630400016],[28.653788919000135,41.02836340700003],[28.66006953800013,41.03033851700002],[28.66066035200015,41.03071710400036],[28.65882043199997,41.03165200200044],[28.658182079000028,41.0318874190001],[28.65520401000009,41.03210626600037],[28.654240160000086,41.032362658000125],[28.65355796400013,41.03262033300018],[28.65239011800014,41.03327279299998],[28.651101625000024,41.03382807100013]]],"type":"Polygon"}},{"type":"Feature","properties":{"area_id":"TR-34-018-40851","name_tr":"Fatih","area_level":"neighbourhood","parent_id":"TR-34-018","endeksa_id":40851},"geometry":{"coordinates":[[[28.681957453000052,41.031236899000646],[28.68017809600019,41.03427155000014],[28.67744037500006,41.033716291000076],[28.677178429000037,41.03334146300034],[28.674176472000113,41.03158122600013],[28.671977252000033,41.03068303200001],[28.668117790999986,41.029552048000596],[28.666942972000072,41.028650618000086],[28.66975661800018,41.02760367400015],[28.670957359000113,41.02734218900008],[28.671370864000153,41.02734860800018],[28.674216718000082,41.025399655000115],[28.675357375000033,41.02473225200009],[28.67531218900018,41.02567031600023],[28.67551049400015,41.025669219000406],[28.675694244000113,41.02660664299998],[28.676209644000096,41.02754551400017],[28.675955618000046,41.0279256660005],[28.676394108000068,41.028095202000316],[28.67656656800017,41.02829120900009],[28.677241171000105,41.028630765000116],[28.677316575000134,41.028555210000036],[28.68112711100008,41.030083462000334],[28.680976370000167,41.03098918000012],[28.681957453000052,41.031236899000646]]],"type":"Polygon"}},{"type":"Feature","properties":{"area_id":"TR-34-018-181482","name_tr":"Hürriyet","area_level":"neighbourhood","parent_id":"TR-34-018","endeksa_id":181482},"geometry":{"coordinates":[[[28.64768628000013,41.03418848000052],[28.647482821000096,41.034406462000106],[28.64608172800007,41.03535457200019],[28.64455972899998,41.03511110100021],[28.641780644000164,41.0344467580004],[28.64037970400011,41.03251374200033],[28.64026935200019,41.03098136600005],[28.639844525000115,41.029966351000326],[28.644069109999975,41.029539292000095],[28.645167995000065,41.02921541000012],[28.645997723000164,41.02893658100021],[28.647578140000064,41.027956609000114],[28.649109112000076,41.02727418500018],[28.650548649000086,41.02704471200008],[28.65267168300005,41.027193913000076],[28.65355929000009,41.02738410500018],[28.653295932000105,41.027745548000155],[28.652469293000024,41.02770289900013],[28.652123876000132,41.02874198200004],[28.650963294000007,41.029759882000064],[28.65065122900006,41.03070597400017],[28.650271735000103,41.031187818000035],[28.64948340300009,41.031238370000324],[28.649114038000164,41.031804631],[28.64819108100005,41.03272189400013],[28.647671511000055,41.033825510000156],[28.64768628000013,41.03418848000052]]],"type":"Polygon"}},{"type":"Feature","properties":{"area_id":"TR-34-018-181524","name_tr":"Şehitler","area_level":"neighbourhood","parent_id":"TR-34-018","endeksa_id":181524},"geometry":{"coordinates":[[[28.66182842400019,41.03174810400003],[28.656118651000156,41.03652889500046],[28.654212717000064,41.03628150000014],[28.65182283000007,41.03543811000003],[28.651651541000035,41.03474110500014],[28.651101625000024,41.03382807100013],[28.65239011800014,41.03327279299998],[28.65355796400013,41.03262033300018],[28.654240160000086,41.032362658000125],[28.65520401000009,41.03210626600037],[28.658182079000028,41.0318874190001],[28.65882043199997,41.03165200200044],[28.66066035200015,41.03071710400036],[28.66182842400019,41.03174810400003]]],"type":"Polygon"}},{"type":"Feature","properties":{"area_id":"TR-34-018-40879","name_tr":"İstiklal","area_level":"neighbourhood","parent_id":"TR-34-018","endeksa_id":40879},"geometry":{"coordinates":[[[28.656118651000156,41.03652889500046],[28.65300730500013,41.03916353200003],[28.65295280800018,41.03938192500044],[28.65172948800017,41.03985699000003],[28.6514646440001,41.0396695390001],[28.64981158000012,41.03961214200007],[28.64791152200013,41.03905993199999],[28.64730443999997,41.03902523200014],[28.646653815000093,41.039117116000114],[28.643752810000137,41.038895303000174],[28.643270815000108,41.03855264800012],[28.642920463000053,41.03795360000015],[28.642478147000077,41.03745439700015],[28.64522707700013,41.03574697500005],[28.64608172800007,41.03535457200019],[28.647482821000096,41.034406462000106],[28.64768628000013,41.03418848000052],[28.648433634000185,41.03391338300008],[28.64897043500008,41.03383770400012],[28.649508681000043,41.03386144700005],[28.650225149000164,41.03404401200015],[28.651101625000024,41.03382807100013],[28.651651541000035,41.03474110500014],[28.65182283000007,41.03543811000003],[28.654212717000064,41.03628150000014],[28.656118651000156,41.03652889500046]]],"type":"Polygon"}},{"type":"Feature","properties":{"area_id":"TR-34-018-181508","name_tr":"Sultaniye","area_level":"neighbourhood","parent_id":"TR-34-018","endeksa_id":181508},"geometry":{"coordinates":[[[28.689357138000105,41.03994655100007],[28.688399982000135,41.040260515000114],[28.68707006900013,41.03950788900056],[28.684906451000188,41.03865774900021],[28.683029435000094,41.03745256900032],[28.681515552000178,41.035563543000194],[28.68126458400019,41.03465859199997],[28.680572738000137,41.0346836600001],[28.68000864200019,41.03459097400025],[28.68017809600019,41.03427155000014],[28.681957453000052,41.031236899000646],[28.683487534000108,41.0286150230001],[28.684361731000024,41.026767754000616],[28.684946416000173,41.02730122100007],[28.68575433900014,41.028350208999996],[28.686368008000045,41.02963116400002],[28.686719285000038,41.03083731200036],[28.68690732200008,41.03341236100016],[28.68713330200012,41.034492182000065],[28.687709953000137,41.03618799500032],[28.689357138000105,41.03994655100007]]],"type":"Polygon"}},{"type":"Feature","properties":{"area_id":"TR-34-018-40864","name_tr":"Pınar","area_level":"neighbourhood","parent_id":"TR-34-018","endeksa_id":40864},"geometry":{"coordinates":[[[28.668724649000126,41.036488388000066],[28.666693436000173,41.03688060600018],[28.66594337700002,41.037217303000034],[28.66563394299999,41.037548106000145],[28.66529990800018,41.03774418200038],[28.66412210300018,41.03812698000007],[28.662174358000186,41.03952053300054],[28.66183006200015,41.03993381300063],[28.661178605000146,41.04048940400014],[28.66062759900001,41.04119645000003],[28.6603634060001,41.04135363600005],[28.65894652100019,41.04061618700007],[28.659093974000086,41.03979282600005],[28.65953116500009,41.038855500000125],[28.659489271000155,41.038648082000066],[28.659669445000134,41.03787555500014],[28.659995748000085,41.03694891200013],[28.660361745000046,41.03631570500005],[28.660496912000156,41.035711249000485],[28.660800436000045,41.035223540000004],[28.661787127000025,41.03427126000008],[28.662176234000185,41.034053653000115],[28.662659001000065,41.03344258499999],[28.66273041700009,41.03319406200012],[28.663022287000103,41.033245792000685],[28.66425810100003,41.032520834000024],[28.664518396000176,41.03271420000004],[28.665412961000186,41.03202666999999],[28.665412103000108,41.03188783900015],[28.665795829000103,41.031401803999984],[28.665523381000128,41.0309980130001],[28.665246581000133,41.03076205399998],[28.66531435200011,41.03012548300035],[28.665972670000087,41.029523018000134],[28.666245087000107,41.02907867300024],[28.666540356000155,41.028785347000166],[28.666942972000072,41.028650618000086],[28.668117790999986,41.029552048000596],[28.671977252000033,41.03068303200001],[28.674176472000113,41.03158122600013],[28.672696197000107,41.03368718800061],[28.67184614900009,41.033422786000074],[28.669566005000092,41.03346966000038],[28.668950010000003,41.03450243200007],[28.66867151499997,41.03521539500014],[28.66858456799997,41.03575767800015],[28.668724649000126,41.036488388000066]]],"type":"Polygon"}},{"type":"Feature","properties":{"area_id":"TR-34-018-40881","name_tr":"Atatürk","area_level":"neighbourhood","parent_id":"TR-34-018","endeksa_id":40881},"geometry":{"coordinates":[[[28.642478147000077,41.03745439700015],[28.64131348899997,41.03782353400004],[28.639383636000105,41.038119529000085],[28.63785131700007,41.038639214],[28.632803445000036,41.04113948800011],[28.631902697999976,41.04148350500009],[28.630493419000175,41.0417255160001],[28.628071194000086,41.041574761000334],[28.626747432000116,41.0413203010001],[28.625818369000115,41.03916686000014],[28.623999479000076,41.03664126000007],[28.623666602000128,41.03602503600007],[28.62347988400012,41.03547787100018],[28.623364823000145,41.03459218500012],[28.623453854000104,41.0338979440001],[28.623739975000092,41.03301447200005],[28.624498252000024,41.03284463000017],[28.625450315000023,41.032403934000115],[28.62579636400011,41.03112104900015],[28.62613280300019,41.03033672700042],[28.628729362000172,41.03031580100014],[28.62921090800006,41.02996899300018],[28.6302208460001,41.029582969000046],[28.631691078000074,41.02917752000019],[28.63321577900018,41.02851978699999],[28.63485818500004,41.03104415700051],[28.63507478700018,41.03116073800015],[28.636316864000037,41.03133382100032],[28.636482029000092,41.031287944000155],[28.637363620000087,41.030611991000455],[28.63791938600008,41.03039624600012],[28.639844525000115,41.029966351000326],[28.64026935200019,41.03098136600005],[28.64037970400011,41.03251374200033],[28.641780644000164,41.0344467580004],[28.64455972899998,41.03511110100021],[28.64608172800007,41.03535457200019],[28.64522707700013,41.03574697500005],[28.642478147000077,41.03745439700015]]],"type":"Polygon"}},{"type":"Feature","properties":{"area_id":"TR-34-018-40855","name_tr":"Bağlarçeşme","area_level":"neighbourhood","parent_id":"TR-34-018","endeksa_id":40855},"geometry":{"coordinates":[[[28.68000864200019,41.03459097400025],[28.678127241000027,41.03861786800019],[28.676412153000058,41.041827515000136],[28.673740741000188,41.04014928099997],[28.671688378000113,41.03927366900018],[28.670630426000173,41.03787739500012],[28.669164509000097,41.03646243800006],[28.668724649000126,41.036488388000066],[28.66858456799997,41.03575767800015],[28.66867151499997,41.03521539500014],[28.668950010000003,41.03450243200007],[28.669566005000092,41.03346966000038],[28.67184614900009,41.033422786000074],[28.672696197000107,41.03368718800061],[28.674176472000113,41.03158122600013],[28.677178429000037,41.03334146300034],[28.67744037500006,41.033716291000076],[28.68017809600019,41.03427155000014],[28.68000864200019,41.03459097400025]]],"type":"Polygon"}},{"type":"Feature","properties":{"area_id":"TR-34-018-40860","name_tr":"Yenikent","area_level":"neighbourhood","parent_id":"TR-34-018","endeksa_id":40860},"geometry":{"coordinates":[[[28.688399982000135,41.040260515000114],[28.68400788300005,41.04158562900017],[28.683204793000073,41.04201101400014],[28.682350411000073,41.04260947500018],[28.681433815000105,41.042913789000636],[28.679727811000134,41.04285206650013],[28.676722808000136,41.04222277300016],[28.676412153000058,41.041827515000136],[28.678127241000027,41.03861786800019],[28.68000864200019,41.03459097400025],[28.680572738000137,41.0346836600001],[28.68126458400019,41.03465859199997],[28.681515552000178,41.035563543000194],[28.683029435000094,41.03745256900032],[28.684906451000188,41.03865774900021],[28.68707006900013,41.03950788900056],[28.688399982000135,41.040260515000114]]],"type":"Polygon"}},{"type":"Feature","properties":{"area_id":"TR-34-018-181510","name_tr":"Balıkyolu","area_level":"neighbourhood","parent_id":"TR-34-018","endeksa_id":181510},"geometry":{"coordinates":[[[28.696357599000123,41.031372339000484],[28.695922082000095,41.031545415000096],[28.695038074000138,41.031687649000105],[28.69344319400011,41.03156174000026],[28.691095503000156,41.03177689600011],[28.69104604000006,41.034725215000435],[28.690989055000045,41.035006901000145],[28.69053193700006,41.035910478000176],[28.690494729000136,41.036224493000134],[28.690675267000188,41.03643804300003],[28.691557615000193,41.03659122000005],[28.691984113000103,41.0367576320001],[28.69311828100018,41.037813190000406],[28.694743712000104,41.03905905900001],[28.69616893900013,41.040411142000096],[28.69676705900008,41.0416208970006],[28.69597074600017,41.041581853000025],[28.69359962800013,41.04209392200039],[28.691930652000053,41.04256418700015],[28.69064947400011,41.04309705300017],[28.689357138000105,41.03994655100007],[28.687709953000137,41.03618799500032],[28.68713330200012,41.034492182000065],[28.68690732200008,41.03341236100016],[28.687309316000096,41.03328553299997],[28.687263997000173,41.031952545000024],[28.68819488600019,41.03147923800003],[28.68886132099999,41.03103096900048],[28.68893039600016,41.03093357200015],[28.688925692999987,41.03035319200012],[28.689341015000082,41.03039700900007],[28.68944649700012,41.030682235000086],[28.691130430999976,41.030528835000325],[28.69170955500016,41.03038707900032],[28.691739550000023,41.03027521100012],[28.69266038900014,41.02937045300007],[28.69364051800011,41.03026870400021],[28.696357599000123,41.031372339000484]]],"type":"Polygon"}},{"type":"Feature","properties":{"area_id":"TR-34-018-181514","name_tr":"Çınar","area_level":"neighbourhood","parent_id":"TR-34-018","endeksa_id":181514},"geometry":{"coordinates":[[[28.673740741000188,41.04014928099997],[28.67181865400005,41.04241475700002],[28.671180641000092,41.04293374000042],[28.67002103599998,41.04349358100029],[28.667333267000117,41.041554645000076],[28.666378330000043,41.042397333],[28.664685220000138,41.044434452000246],[28.663784424000028,41.04406071000005],[28.66260414000004,41.04328675200014],[28.6603634060001,41.04135363600005],[28.66062759900001,41.04119645000003],[28.661178605000146,41.04048940400014],[28.66183006200015,41.03993381300063],[28.662174358000186,41.03952053300054],[28.66412210300018,41.03812698000007],[28.66529990800018,41.03774418200038],[28.66563394299999,41.037548106000145],[28.66594337700002,41.037217303000034],[28.666693436000173,41.03688060600018],[28.668724649000126,41.036488388000066],[28.669164509000097,41.03646243800006],[28.670630426000173,41.03787739500012],[28.671688378000113,41.03927366900018],[28.673740741000188,41.04014928099997]]],"type":"Polygon"}},{"type":"Feature","properties":{"area_id":"TR-34-018-181526","name_tr":"Battalgazi","area_level":"neighbourhood","parent_id":"TR-34-018","endeksa_id":181526},"geometry":{"coordinates":[[[28.65894652100019,41.04061618700007],[28.658175759000187,41.04299914500024],[28.65764162100004,41.04399832200022],[28.65759691599999,41.04558466800006],[28.655174657000032,41.044856896000056],[28.652963885000077,41.04503541100013],[28.65250474200019,41.0451874690001],[28.652901021000048,41.043404728000155],[28.65247441700012,41.042520085000035],[28.65259300400004,41.042415271000095],[28.65264777300007,41.041416024000114],[28.652455755000176,41.040838696000094],[28.65172948800017,41.03985699000003],[28.65295280800018,41.03938192500044],[28.65300730500013,41.03916353200003],[28.656118651000156,41.03652889500046],[28.66182842400019,41.03174810400003],[28.66273041700009,41.03319406200012],[28.662659001000065,41.03344258499999],[28.662176234000185,41.034053653000115],[28.661787127000025,41.03427126000008],[28.660800436000045,41.035223540000004],[28.660496912000156,41.035711249000485],[28.660361745000046,41.03631570500005],[28.659995748000085,41.03694891200013],[28.659669445000134,41.03787555500014],[28.659489271000155,41.038648082000066],[28.65953116500009,41.038855500000125],[28.659093974000086,41.03979282600005],[28.65894652100019,41.04061618700007]]],"type":"Polygon"}},{"type":"Feature","properties":{"area_id":"TR-34-018-181512","name_tr":"Süleymaniye","area_level":"neighbourhood","parent_id":"TR-34-018","endeksa_id":181512},"geometry":{"coordinates":[[[28.69064947400011,41.04309705300017],[28.69074719100007,41.044113024000296],[28.690654570000163,41.04519800200018],[28.690361379000137,41.046233584000106],[28.689705761000084,41.04746026800012],[28.68737406100007,41.04659122999999],[28.686457316000144,41.04614299000002],[28.685918223000044,41.04560871600006],[28.684595902000126,41.04638720300011],[28.684013406000076,41.046466217000045],[28.682856174000108,41.04636391300011],[28.67996377300011,41.0457662810004],[28.679405243000076,41.04543309100018],[28.678268732000106,41.043983266000396],[28.6769791210001,41.042639049000286],[28.676722808000136,41.04222277300016],[28.679727811000134,41.04285206650013],[28.681433815000105,41.042913789000636],[28.682350411000073,41.04260947500018],[28.683204793000073,41.04201101400014],[28.68400788300005,41.04158562900017],[28.688399982000135,41.040260515000114],[28.689357138000105,41.03994655100007],[28.69064947400011,41.04309705300017]]],"type":"Polygon"}},{"type":"Feature","properties":{"area_id":"TR-34-018-40857","name_tr":"Örnek","area_level":"neighbourhood","parent_id":"TR-34-018","endeksa_id":40857},"geometry":{"coordinates":[[[28.676412153000058,41.041827515000136],[28.675998366000044,41.042507948000036],[28.673004083000023,41.050207490000105],[28.670946223999977,41.04816481900008],[28.668760857999985,41.046347616000446],[28.66692401900019,41.045297222000045],[28.664685220000138,41.044434452000246],[28.666378330000043,41.042397333],[28.667333267000117,41.041554645000076],[28.67002103599998,41.04349358100029],[28.671180641000092,41.04293374000042],[28.67181865400005,41.04241475700002],[28.673740741000188,41.04014928099997],[28.676412153000058,41.041827515000136]]],"type":"Polygon"}},{"type":"Feature","properties":{"area_id":"TR-34-018-40861","name_tr":"Ardıçlı","area_level":"neighbourhood","parent_id":"TR-34-018","endeksa_id":40861},"geometry":{"coordinates":[[[28.682290818000183,41.0549997760001],[28.68222018500012,41.055064604000165],[28.68040543600017,41.05457016400044],[28.67751738100003,41.05405840700064],[28.674734722000096,41.05387687900054],[28.673160802000098,41.053858783000464],[28.670306580000158,41.05407778000023],[28.67022015800012,41.05335951300003],[28.67078567700014,41.05231653800013],[28.67127329900012,41.05183611799998],[28.672489035000183,41.050939916999994],[28.673004083000023,41.050207490000105],[28.675998366000044,41.042507948000036],[28.676412153000058,41.041827515000136],[28.676722808000136,41.04222277300016],[28.6769791210001,41.042639049000286],[28.678268732000106,41.043983266000396],[28.679405243000076,41.04543309100018],[28.67996377300011,41.0457662810004],[28.682856174000108,41.04636391300011],[28.684013406000076,41.046466217000045],[28.684595902000126,41.04638720300011],[28.685918223000044,41.04560871600006],[28.686457316000144,41.04614299000002],[28.68737406100007,41.04659122999999],[28.689705761000084,41.04746026800012],[28.688867376000076,41.04841336700002],[28.68722062700016,41.04993051000042],[28.683577857000046,41.05302403100018],[28.682916265000188,41.05383377900017],[28.682290818000183,41.0549997760001]]],"type":"Polygon"}},{"type":"Feature","properties":{"area_id":"TR-34-018-181480","name_tr":"Osmangazi","area_level":"neighbourhood","parent_id":"TR-34-018","endeksa_id":181480},"geometry":{"coordinates":[[[28.646436965000078,41.05357926400052],[28.643765239000174,41.05378011900035],[28.64322540600017,41.05403189500004],[28.64207453200015,41.05480859600027],[28.640868162000174,41.055387840000094],[28.63691206500016,41.05603719400017],[28.635539504000178,41.05669714200002],[28.63326657400006,41.0581568610001],[28.632545308000033,41.058721385000126],[28.631809108000084,41.05893564800033],[28.631193114000098,41.05900506800003],[28.630420316000084,41.05945626900018],[28.627380925000068,41.05983015700053],[28.625030221000088,41.058958850000295],[28.627696229000037,41.054014901000414],[28.628076292000117,41.0530409350003],[28.627843415000143,41.044733321000194],[28.627699730000074,41.04396540400052],[28.626747432000116,41.0413203010001],[28.628071194000086,41.041574761000334],[28.630493419000175,41.0417255160001],[28.631902697999976,41.04148350500009],[28.632803445000036,41.04113948800011],[28.63785131700007,41.038639214],[28.639383636000105,41.038119529000085],[28.64131348899997,41.03782353400004],[28.642478147000077,41.03745439700015],[28.642920463000053,41.03795360000015],[28.643270815000108,41.03855264800012],[28.643752810000137,41.038895303000174],[28.646653815000093,41.039117116000114],[28.64730443999997,41.03902523200014],[28.64791152200013,41.03905993199999],[28.64981158000012,41.03961214200007],[28.6514646440001,41.0396695390001],[28.65172948800017,41.03985699000003],[28.652455755000176,41.040838696000094],[28.65264777300007,41.041416024000114],[28.65259300400004,41.042415271000095],[28.65247441700012,41.042520085000035],[28.652901021000048,41.043404728000155],[28.65250474200019,41.0451874690001],[28.650607026000046,41.04577970900044],[28.650798266000038,41.046655083000076],[28.650836251999976,41.0482870190001],[28.650965207000127,41.048796374000005],[28.65213018200012,41.050401996000176],[28.652642508000042,41.05124972400017],[28.652936970999974,41.05136715500004],[28.651181915999985,41.05164170000006],[28.650254837000148,41.05159572900027],[28.64804254000012,41.0519730350004],[28.647555749000105,41.05213149500037],[28.647173524000152,41.052335548000144],[28.646554845000026,41.0529324270002],[28.646381624000185,41.053294895000704],[28.646436965000078,41.05357926400052]]],"type":"Polygon"}},{"type":"Feature","properties":{"area_id":"TR-34-018-40862","name_tr":"Esenkent","area_level":"neighbourhood","parent_id":"TR-34-018","endeksa_id":40862},"geometry":{"coordinates":[[[28.691228055000067,41.05859060200038],[28.68952067800012,41.059112200000186],[28.687714628000094,41.06002175800012],[28.68708648600017,41.0604664010001],[28.68640430000005,41.06125400200011],[28.686003746000097,41.06144683600013],[28.682485468000152,41.06254846500002],[28.68245323900004,41.06236732500014],[28.673189920000027,41.05518094300044],[28.67131217300016,41.055036727000584],[28.67039740200005,41.0545771930004],[28.670306580000158,41.05407778000023],[28.673160802000098,41.053858783000464],[28.674734722000096,41.05387687900054],[28.67751738100003,41.05405840700064],[28.68040543600017,41.05457016400044],[28.68222018500012,41.055064604000165],[28.682290818000183,41.0549997760001],[28.691664884999966,41.0578542450001],[28.691228055000067,41.05859060200038]]],"type":"Polygon"}},{"type":"Feature","properties":{"area_id":"TR-34-018-181516","name_tr":"Selahaddin Eyyubi","area_level":"neighbourhood","parent_id":"TR-34-018","endeksa_id":181516},"geometry":{"coordinates":[[[28.655419916000028,41.0604811040003],[28.65429073400003,41.06161893000012],[28.65306119700017,41.06311522600015],[28.651997803000086,41.064792451000244],[28.65148830400011,41.06576090700008],[28.65014250900009,41.065367280000146],[28.64982029000015,41.06516003200005],[28.649777100000108,41.06495727500038],[28.650284427000088,41.06393557700022],[28.650522780000188,41.06363973800035],[28.650927995000018,41.06329840600017],[28.652140818000134,41.0626603110004],[28.651759457000082,41.061522043000366],[28.651752175000183,41.06049862200018],[28.652920223000024,41.059670251000625],[28.652190093,41.059094497000046],[28.651948420000167,41.059293971000045],[28.65166145200004,41.05932909400019],[28.651527518000023,41.05892354000002],[28.649927706000142,41.05773353600034],[28.64878745600015,41.05610498300018],[28.64682707899999,41.05408407900063],[28.646436965000078,41.05357926400052],[28.646381624000185,41.053294895000704],[28.646554845000026,41.0529324270002],[28.647173524000152,41.052335548000144],[28.647555749000105,41.05213149500037],[28.64804254000012,41.0519730350004],[28.650254837000148,41.05159572900027],[28.651181915999985,41.05164170000006],[28.652936970999974,41.05136715500004],[28.652642508000042,41.05124972400017],[28.65213018200012,41.050401996000176],[28.650965207000127,41.048796374000005],[28.650836251999976,41.0482870190001],[28.650798266000038,41.046655083000076],[28.650607026000046,41.04577970900044],[28.65250474200019,41.0451874690001],[28.652963885000077,41.04503541100013],[28.655174657000032,41.044856896000056],[28.65759691599999,41.04558466800006],[28.65764162100004,41.04399832200022],[28.658175759000187,41.04299914500024],[28.65894652100019,41.04061618700007],[28.6603634060001,41.04135363600005],[28.66260414000004,41.04328675200014],[28.663784424000028,41.04406071000005],[28.664685220000138,41.044434452000246],[28.66692401900019,41.045297222000045],[28.668760857999985,41.046347616000446],[28.670946223999977,41.04816481900008],[28.673004083000023,41.050207490000105],[28.672489035000183,41.050939916999994],[28.67127329900012,41.05183611799998],[28.67078567700014,41.05231653800013],[28.67022015800012,41.05335951300003],[28.670306580000158,41.05407778000023],[28.66875917500016,41.05426180600068],[28.666137455000126,41.05482364000045],[28.66385488200018,41.05550372100032],[28.661781194000184,41.05635849900017],[28.659205357000133,41.05764968400018],[28.658157888000062,41.05829246700017],[28.65603320600013,41.05989884200062],[28.655419916000028,41.0604811040003]]],"type":"Polygon"}},{"type":"Feature","properties":{"area_id":"TR-34-018-181518","name_tr":"Aşık Veysel","area_level":"neighbourhood","parent_id":"TR-34-018","endeksa_id":181518},"geometry":{"coordinates":[[[28.682485468000152,41.06254846500002],[28.680935740000166,41.06262949000006],[28.678977107000037,41.06310493300009],[28.67626262900012,41.06355094200046],[28.674233260000165,41.06405961500036],[28.67245142900009,41.0646847080003],[28.666556266000043,41.06887656200007],[28.665871154000172,41.06613578200046],[28.6661462350001,41.06420389200031],[28.666913502000114,41.063913363000154],[28.668468222000115,41.06306083100014],[28.668759907000037,41.06280457800017],[28.66885694600012,41.06259494700032],[28.66895015800003,41.061572010000134],[28.669191109000167,41.061066659000346],[28.669915582000158,41.06013393400053],[28.670353030000115,41.05930699500004],[28.67128403900017,41.058184913000105],[28.671459311000092,41.057670388000076],[28.671394406000104,41.056884669],[28.671197223000092,41.056138028000134],[28.67050294700016,41.055180888000166],[28.67039740200005,41.0545771930004],[28.67131217300016,41.055036727000584],[28.673189920000027,41.05518094300044],[28.68245323900004,41.06236732500014],[28.682485468000152,41.06254846500002]]],"type":"Polygon"}},{"type":"Feature","properties":{"area_id":"TR-34-018-181522","name_tr":"Koza","area_level":"neighbourhood","parent_id":"TR-34-018","endeksa_id":181522},"geometry":{"coordinates":[[[28.666556266000043,41.06887656200007],[28.65555372400007,41.075879215999976],[28.655114116000107,41.074803743000075],[28.656839358000013,41.07345833500017],[28.658327785000154,41.07202372100011],[28.662252560000127,41.06740461800064],[28.662995839000075,41.06671271100032],[28.655982489999985,41.06080134500024],[28.655419916000028,41.0604811040003],[28.65603320600013,41.05989884200062],[28.658157888000062,41.05829246700017],[28.659205357000133,41.05764968400018],[28.661781194000184,41.05635849900017],[28.66385488200018,41.05550372100032],[28.666137455000126,41.05482364000045],[28.66875917500016,41.05426180600068],[28.670306580000158,41.05407778000023],[28.67050294700016,41.055180888000166],[28.671197223000092,41.056138028000134],[28.671394406000104,41.056884669],[28.671459311000092,41.057670388000076],[28.67128403900017,41.058184913000105],[28.670353030000115,41.05930699500004],[28.669915582000158,41.06013393400053],[28.669191109000167,41.061066659000346],[28.66895015800003,41.061572010000134],[28.66885694600012,41.06259494700032],[28.668759907000037,41.06280457800017],[28.668468222000115,41.06306083100014],[28.666913502000114,41.063913363000154],[28.6661462350001,41.06420389200031],[28.665871154000172,41.06613578200046],[28.666556266000043,41.06887656200007]]],"type":"Polygon"}},{"type":"Feature","properties":{"area_id":"TR-34-018-40880","name_tr":"Akçaburgaz","area_level":"neighbourhood","parent_id":"TR-34-018","endeksa_id":40880},"geometry":{"coordinates":[[[28.65148830400011,41.06576090700008],[28.64873369200012,41.0713645510001],[28.64742796500019,41.07360085400012],[28.646020498000155,41.07561193499998],[28.64460342500007,41.077347177000036],[28.639543192000133,41.082880192000516],[28.636454368000045,41.08610804400007],[28.635722885000177,41.08699901400007],[28.63380777300017,41.08886184600004],[28.631083960000126,41.08571274300016],[28.629357696000284,41.08645955800023],[28.62867088300021,41.08558095800032],[28.62832821600034,41.08483372100022],[28.62862008000036,41.08440307100034],[28.629346782000255,41.08402035200021],[28.62839272700029,41.083204367000235],[28.627477512000326,41.08225081600034],[28.626788811000267,41.081391900000824],[28.62596821800031,41.08013897900031],[28.620762247000243,41.069539334000524],[28.620534444000327,41.06836757700046],[28.620565312000224,41.06781867700033],[28.620879633000357,41.06678385900034],[28.625030221000088,41.058958850000295],[28.627380925000068,41.05983015700053],[28.630420316000084,41.05945626900018],[28.631193114000098,41.05900506800003],[28.631809108000084,41.05893564800033],[28.632545308000033,41.058721385000126],[28.63326657400006,41.0581568610001],[28.635539504000178,41.05669714200002],[28.63691206500016,41.05603719400017],[28.640868162000174,41.055387840000094],[28.64207453200015,41.05480859600027],[28.64322540600017,41.05403189500004],[28.643765239000174,41.05378011900035],[28.646436965000078,41.05357926400052],[28.64682707899999,41.05408407900063],[28.64878745600015,41.05610498300018],[28.649927706000142,41.05773353600034],[28.651527518000023,41.05892354000002],[28.65166145200004,41.05932909400019],[28.651948420000167,41.059293971000045],[28.652190093,41.059094497000046],[28.652920223000024,41.059670251000625],[28.651752175000183,41.06049862200018],[28.651759457000082,41.061522043000366],[28.652140818000134,41.0626603110004],[28.650927995000018,41.06329840600017],[28.650522780000188,41.06363973800035],[28.650284427000088,41.06393557700022],[28.649777100000108,41.06495727500038],[28.64982029000015,41.06516003200005],[28.65014250900009,41.065367280000146],[28.65148830400011,41.06576090700008]]],"type":"Polygon"}},{"type":"Feature","properties":{"area_id":"TR-34-018-40863","name_tr":"Orhan Gazi","area_level":"neighbourhood","parent_id":"TR-34-018","endeksa_id":40863},"geometry":{"coordinates":[[[28.63986566000017,41.09810543100019],[28.639668940999968,41.0982300740003],[28.639571183000044,41.09822037500015],[28.63959510000018,41.09811090000005],[28.63925192000005,41.09811090000005],[28.639465692000158,41.09726369500004],[28.63969019600006,41.09692017000009],[28.639784814000052,41.09655448700016],[28.639067539000166,41.09598923599998],[28.637243424000133,41.0957292060005],[28.63644249500004,41.095386685000165],[28.63620359100014,41.095430257000544],[28.636186333000126,41.09518520200061],[28.636081962000105,41.09507738500048],[28.634811049000007,41.091303046000064],[28.6337784480001,41.09042026000003],[28.633180582000023,41.08998258700046],[28.632868804000168,41.08971907000006],[28.63380777300017,41.08886184600004],[28.635722885000177,41.08699901400007],[28.636454368000045,41.08610804400007],[28.639543192000133,41.082880192000516],[28.64460342500007,41.077347177000036],[28.646020498000155,41.07561193499998],[28.64742796500019,41.07360085400012],[28.64873369200012,41.0713645510001],[28.65148830400011,41.06576090700008],[28.651997803000086,41.064792451000244],[28.65306119700017,41.06311522600015],[28.65429073400003,41.06161893000012],[28.655419916000028,41.0604811040003],[28.655982489999985,41.06080134500024],[28.662995839000075,41.06671271100032],[28.662252560000127,41.06740461800064],[28.658327785000154,41.07202372100011],[28.656839358000013,41.07345833500017],[28.655114116000107,41.074803743000075],[28.65555372400007,41.075879215999976],[28.655309123000166,41.07606583600051],[28.654655562000187,41.07715416200017],[28.65293592600017,41.08028709800004],[28.652782378999973,41.08089482300011],[28.652839625000126,41.0822382190006],[28.652764278000177,41.08281788800019],[28.651737337000043,41.08606033600006],[28.651488875000098,41.08641492800024],[28.645931779000023,41.09177155000009],[28.644738914000186,41.09496567700012],[28.64450692300005,41.09526917600027],[28.63986566000017,41.09810543100019]]],"type":"Polygon"}}]}