{"type":"FeatureCollection","source_id":"endeksa","retrieved_at":"2026-08-23","features":[{"type":"Feature","properties":{"area_id":"TR-33-008-31823","name_tr":"Hürriyet","area_level":"neighbourhood","parent_id":"TR-33-008","endeksa_id":31823},"geometry":{"coordinates":[[[34.43756434500011,36.69084311000012],[34.4377488830001,36.6907535440007],[34.441891689000045,36.69281884300011],[34.441665828000055,36.69459123900003],[34.44132217100014,36.69489783800009],[34.44007027300012,36.69434204900034],[34.43947351600008,36.69432508500017],[34.43861127300005,36.69497296800023],[34.437044393000065,36.69664190800012],[34.43650356300009,36.69695212400006],[34.43638218600006,36.69692709000009],[34.435429419,36.69611553800007],[34.435315629,36.69597695400034],[34.43545403799999,36.69549736400063],[34.43786904399997,36.69445228600017],[34.43835761899999,36.69385238300015],[34.43825088300008,36.693209234000165],[34.437659822000114,36.692855648000545],[34.43756434500011,36.69084311000012]]],"type":"Polygon"}},{"type":"Feature","properties":{"area_id":"TR-33-008-31821","name_tr":"Deniz","area_level":"neighbourhood","parent_id":"TR-33-008","endeksa_id":31821},"geometry":{"coordinates":[[[34.440165838000155,36.70644699500008],[34.44006413200009,36.70634742400006],[34.43874175499997,36.70623339400004],[34.43672753800007,36.706711104000135],[34.436178241000164,36.70659178200003],[34.4361842190001,36.706444262000105],[34.43831189800005,36.70519737400048],[34.43839547800019,36.704699385000026],[34.43716081200017,36.70323856600004],[34.436303582000164,36.70275397500001],[34.43521973200018,36.70290650700019],[34.434389810000084,36.70356303100016],[34.434231550000106,36.70356303100016],[34.434003562999976,36.70319362400005],[34.433693135000055,36.70137056700048],[34.43315680400019,36.70112807000004],[34.43311150700009,36.70102010100044],[34.43441671200014,36.697458415000085],[34.43511738400002,36.69648304900056],[34.43523475800015,36.69613222000004],[34.435429419,36.69611553800007],[34.43638218600006,36.69692709000009],[34.43650356300009,36.69695212400006],[34.437044393000065,36.69664190800012],[34.43861127300005,36.69497296800023],[34.43947351600008,36.69432508500017],[34.44007027300012,36.69434204900034],[34.44132217100014,36.69489783800009],[34.441665828000055,36.69459123900003],[34.441891689000045,36.69281884300011],[34.4377488830001,36.6907535440007],[34.43756434500011,36.69084311000012],[34.43753379800012,36.69064286000042],[34.43702908200015,36.69025639600005],[34.432461844000045,36.68816685200005],[34.43240205400008,36.688063739000086],[34.434482881000065,36.68637144500008],[34.4348032850001,36.68561639000001],[34.434228899000175,36.68522336300009],[34.4340260510001,36.684851501000594],[34.43404989600003,36.684760046000065],[34.43953440400014,36.68119076600016],[34.44045506000009,36.68116563000018],[34.440677655000115,36.68123994600029],[34.44042714400007,36.6812399010002],[34.44100831200001,36.68136669800015],[34.44228313500008,36.6831115600001],[34.460762015000114,36.6983689880002],[34.45959639600005,36.70042669200063],[34.458762706000186,36.70151344600049],[34.45685460000004,36.702319597000155],[34.456119430000115,36.70295015400035],[34.45590665600014,36.70289391200049],[34.452939567000044,36.70098623300015],[34.45072855200016,36.699828423999975],[34.44999340000004,36.69970885400039],[34.44942012500013,36.70031643600004],[34.44668003800018,36.70206219000005],[34.44633029800019,36.702497352000364],[34.446034965000024,36.70350066500015],[34.44441791600008,36.70397668300046],[34.441811324000014,36.70562102900027],[34.44046947300012,36.70598444800004],[34.440165838000155,36.70644699500008]]],"type":"Polygon"}},{"type":"Feature","properties":{"area_id":"TR-33-008-31824","name_tr":"Tece","area_level":"neighbourhood","parent_id":"TR-33-008","endeksa_id":31824},"geometry":{"coordinates":[[[34.4435889130001,36.71976933500014],[34.4434481720001,36.71977926600016],[34.442487257000096,36.71925697200044],[34.44204222800016,36.718204824000054],[34.442110506999995,36.71557483600009],[34.44264838700013,36.714429865000454],[34.44238716700016,36.71339001500007],[34.44197069700016,36.712984901000084],[34.44199097100005,36.71228232600049],[34.44162060300016,36.71087715600004],[34.44209996800009,36.7103108120001],[34.44245357400007,36.70805217800006],[34.44235687100013,36.7079743110001],[34.441441977000125,36.70788182700028],[34.439645293000126,36.70856300700018],[34.43911934800008,36.70841788000013],[34.43909057600018,36.70829427600006],[34.44015507100005,36.70688279400031],[34.440165838000155,36.70644699500008],[34.44046947300012,36.70598444800004],[34.441811324000014,36.70562102900027],[34.44441791600008,36.70397668300046],[34.446034965000024,36.70350066500015],[34.44633029800019,36.702497352000364],[34.44668003800018,36.70206219000005],[34.44942012500013,36.70031643600004],[34.44999340000004,36.69970885400039],[34.45072855200016,36.699828423999975],[34.452939567000044,36.70098623300015],[34.45590665600014,36.70289391200049],[34.45593644200011,36.70302092600019],[34.455384401000174,36.70359796100007],[34.45488698500003,36.70546601300009],[34.45455090100012,36.706032873000595],[34.453261872000155,36.707166170000164],[34.45263907800012,36.70834060700008],[34.45092105200007,36.70965402200045],[34.45057804500004,36.710590904000696],[34.44902641300007,36.71142976600015],[34.447602136000114,36.71282305800014],[34.44558885300006,36.713571038],[34.44391718500009,36.714739586000235],[34.44367365400012,36.71563555500006],[34.44382061900012,36.7169020500001],[34.44500089500008,36.71832980400046],[34.44500090600013,36.71877233200013],[34.4435889130001,36.71976933500014]]],"type":"Polygon"}},{"type":"Feature","properties":{"area_id":"TR-33-008-31794","name_tr":"Davultepe","area_level":"neighbourhood","parent_id":"TR-33-008","endeksa_id":31794},"geometry":{"coordinates":[[[34.47605064324813,36.72384473068166],[34.475896089000344,36.723840947000724],[34.47365997095886,36.72528547168281],[34.47326654096963,36.72536357215415],[34.47309381958098,36.72527812638742],[34.472703914000306,36.724280272000215],[34.469274209000275,36.72372194600024],[34.46813228725131,36.725560018194074],[34.46649272300033,36.72566323300015],[34.46571870755611,36.726668198889],[34.46513721529374,36.726963855015924],[34.464665525704504,36.72674448163269],[34.46365007600025,36.72420720300033],[34.464639791000366,36.721644775000414],[34.4648605638709,36.72004201926762],[34.46608674400045,36.71976398100037],[34.46727454300037,36.71902620200052],[34.47073628608314,36.71534216283328],[34.47445046932751,36.71322255322741],[34.47607673800047,36.71258291400051],[34.476590878000366,36.71179902700055],[34.476567655663985,36.710888150316805],[34.47721013631593,36.71063505187823],[34.48247389200043,36.7139201650009],[34.48444307288082,36.71477964091713],[34.484277715358985,36.71503254065669],[34.48410000000047,36.71495000000061],[34.48266539921724,36.71648190757435],[34.48112000000049,36.71587000000085],[34.48061000000058,36.716620000000376],[34.480815476037264,36.716909973283805],[34.48037578060911,36.71787613729754],[34.47873000000044,36.71947000000051],[34.47777000000059,36.72072000000088],[34.47658547238382,36.72295104519162],[34.47601000000043,36.7233800000007],[34.47599000000059,36.72354000000047],[34.4761655610738,36.72374680601598],[34.47605064324813,36.72384473068166]]],"type":"Polygon"}},{"type":"Feature","properties":{"area_id":"TR-33-008-31792","name_tr":"Cumhuriyet","area_level":"neighbourhood","parent_id":"TR-33-008","endeksa_id":31792},"geometry":{"coordinates":[[[34.46365007600025,36.72420720300033],[34.46355251300025,36.72413973500022],[34.46131651500036,36.72391122900035],[34.4608184990002,36.722371414000236],[34.460400153000364,36.7220095160003],[34.457204440000226,36.721882557000356],[34.45550354400035,36.726528708000444],[34.4553989060002,36.729484603000344],[34.45500426000024,36.73069116500068],[34.45437221600014,36.73111577300028],[34.45348787900025,36.73224723700031],[34.45192438000032,36.73635544400065],[34.4517547340003,36.73641708700069],[34.44924190300031,36.73534519900011],[34.4488097160002,36.733108404000575],[34.44867647700028,36.732913731000224],[34.44740567900027,36.73200669400023],[34.44767952500035,36.731376531000365],[34.45037424700024,36.72807047900022],[34.45194067600022,36.72745345600026],[34.45310859400024,36.725925634000816],[34.453519759000244,36.72416006300034],[34.45487858200033,36.72292520700063],[34.45470069700025,36.72149238200029],[34.45498188500022,36.720568066000226],[34.45462155600035,36.719206592000205],[34.45626448400026,36.718362456000136],[34.456590691000315,36.7178598940003],[34.458740317000206,36.71654865500028],[34.45971474300035,36.7152328790001],[34.45986796300025,36.71468169100035],[34.46285668100023,36.71176838499997],[34.46399149500036,36.71182676200027],[34.46503387900026,36.71069233500032],[34.46613651100034,36.70994969900033],[34.466995361000215,36.70852150600035],[34.46764089500033,36.70861144200069],[34.46812429500034,36.7083544970003],[34.469880222000256,36.70642025100034],[34.469928407000396,36.706449885000495],[34.4701682190007,36.70624018700073],[34.47721013631593,36.71063505187823],[34.476567655663985,36.710888150316805],[34.476590878000366,36.71179902700055],[34.47607673800047,36.71258291400051],[34.47445046932751,36.71322255322741],[34.47073628608314,36.71534216283328],[34.46727454300037,36.71902620200052],[34.46608674400045,36.71976398100037],[34.4648605638709,36.72004201926762],[34.464639791000366,36.721644775000414],[34.46365007600025,36.72420720300033]]],"type":"Polygon"}},{"type":"Feature","properties":{"area_id":"TR-33-008-31825","name_tr":"Şahin Tepesi","area_level":"neighbourhood","parent_id":"TR-33-008","endeksa_id":31825},"geometry":{"coordinates":[[[34.43694216800003,36.7345577320001],[34.436786534000134,36.734612436000134],[34.434643061000145,36.73391379200007],[34.43140213200013,36.73445855600005],[34.430910581000035,36.73577433900027],[34.42999612200015,36.73644758500001],[34.42708807900016,36.73656425700011],[34.42418325600005,36.7363912400001],[34.41984728700004,36.73454880400021],[34.419809905000136,36.73400990800002],[34.42061132900017,36.73202321600013],[34.41761900300003,36.73058603099997],[34.41705664300008,36.72918075000018],[34.41693516100014,36.72909395100015],[34.41696200100006,36.72885619900006],[34.41643580800013,36.72779535200027],[34.415065200000015,36.72715781200009],[34.41488074300014,36.72546198800012],[34.415180824000174,36.72492975400013],[34.41521101900014,36.7240694890001],[34.41456864100007,36.723120564],[34.41457956000016,36.72223854200007],[34.41554811500009,36.721638331000065],[34.41660493700016,36.72063281300018],[34.41685750500011,36.7202138750003],[34.416826485,36.71983995599999],[34.41682605600005,36.719648964000044],[34.41786720300013,36.71799128800052],[34.41885277600005,36.71736873999998],[34.41989255300007,36.71575682500014],[34.42042261100005,36.71532640700002],[34.421493613000166,36.713219659000174],[34.422430629000075,36.71256726600012],[34.422849795000104,36.711865252999985],[34.42608936500011,36.709655981000026],[34.42817603300011,36.707503375000044],[34.429506832000186,36.70710807400047],[34.431248569000104,36.70531570200018],[34.43167259800015,36.70431851800009],[34.43220027600012,36.70176874500021],[34.43311150700009,36.70102010100044],[34.43315680400019,36.70112807000004],[34.433693135000055,36.70137056700048],[34.434003562999976,36.70319362400005],[34.434231550000106,36.70356303100016],[34.434389810000084,36.70356303100016],[34.43521973200018,36.70290650700019],[34.436303582000164,36.70275397500001],[34.43716081200017,36.70323856600004],[34.43839547800019,36.704699385000026],[34.43831189800005,36.70519737400048],[34.4361842190001,36.706444262000105],[34.436178241000164,36.70659178200003],[34.43672753800007,36.706711104000135],[34.43874175499997,36.70623339400004],[34.44006413200009,36.70634742400006],[34.440165838000155,36.70644699500008],[34.44015507100005,36.70688279400031],[34.43909057600018,36.70829427600006],[34.43911934800008,36.70841788000013],[34.439645293000126,36.70856300700018],[34.441441977000125,36.70788182700028],[34.44235687100013,36.7079743110001],[34.44245357400007,36.70805217800006],[34.44209996800009,36.7103108120001],[34.44162060300016,36.71087715600004],[34.44199097100005,36.71228232600049],[34.44197069700016,36.712984901000084],[34.44238716700016,36.71339001500007],[34.44264838700013,36.714429865000454],[34.442110506999995,36.71557483600009],[34.44204222800016,36.718204824000054],[34.442487257000096,36.71925697200044],[34.4434481720001,36.71977926600016],[34.4435889130001,36.71976933500014],[34.443274620000125,36.72027913200009],[34.44083487800009,36.722269894000135],[34.440687447000016,36.72317980500003],[34.441287542000055,36.724703749000355],[34.44094967300009,36.72520261400018],[34.43998514600008,36.72529724200052],[34.4392185480001,36.72611408100016],[34.43955260800004,36.72812012500009],[34.438186717000065,36.729705190000004],[34.43803561800007,36.730306559000155],[34.43838695000005,36.73178850500017],[34.43694216800003,36.7345577320001]]],"type":"Polygon"}},{"type":"Feature","properties":{"area_id":"TR-33-008-31822","name_tr":"Seymenli","area_level":"neighbourhood","parent_id":"TR-33-008","endeksa_id":31822},"geometry":{"coordinates":[[[34.44867647700028,36.732913731000224],[34.4487078680001,36.73302809400019],[34.44844774800009,36.73335075300065],[34.44673045899998,36.735302095000634],[34.44555529900009,36.73620625500013],[34.44472468100014,36.73776999400013],[34.443952828000135,36.738592297000196],[34.43833750800019,36.73595899500009],[34.437756543000035,36.73561010000009],[34.43692995499998,36.73468748700009],[34.43694216800003,36.7345577320001],[34.43838695000005,36.73178850500017],[34.43803561800007,36.730306559000155],[34.438186717000065,36.729705190000004],[34.43955260800004,36.72812012500009],[34.4392185480001,36.72611408100016],[34.43998514600008,36.72529724200052],[34.44094967300009,36.72520261400018],[34.441287542000055,36.724703749000355],[34.440687447000016,36.72317980500003],[34.44083487800009,36.722269894000135],[34.443274620000125,36.72027913200009],[34.4435889130001,36.71976933500014],[34.44500090600013,36.71877233200013],[34.44500089500008,36.71832980400046],[34.44382061900012,36.7169020500001],[34.44367365400012,36.71563555500006],[34.44391718500009,36.714739586000235],[34.44558885300006,36.713571038],[34.447602136000114,36.71282305800014],[34.44902641300007,36.71142976600015],[34.45057804500004,36.710590904000696],[34.45092105200007,36.70965402200045],[34.45263907800012,36.70834060700008],[34.453261872000155,36.707166170000164],[34.45455090100012,36.706032873000595],[34.45488698500003,36.70546601300009],[34.455384401000174,36.70359796100007],[34.45593644200011,36.70302092600019],[34.45590665600014,36.70289391200049],[34.456119430000115,36.70295015400035],[34.45685460000004,36.702319597000155],[34.458762706000186,36.70151344600049],[34.45959639600005,36.70042669200063],[34.460762015000114,36.6983689880002],[34.46161786500005,36.69884695800016],[34.46242243700004,36.69977334300012],[34.4666616130001,36.703280526000185],[34.467655209999975,36.70389281600018],[34.4678289850001,36.70424632400011],[34.468826984000145,36.70507199500014],[34.469880222000256,36.70642025100034],[34.46812429500034,36.7083544970003],[34.46764089500033,36.70861144200069],[34.466995361000215,36.70852150600035],[34.46613651100034,36.70994969900033],[34.46503387900026,36.71069233500032],[34.46399149500036,36.71182676200027],[34.46285668100023,36.71176838499997],[34.45986796300025,36.71468169100035],[34.45971474300035,36.7152328790001],[34.458740317000206,36.71654865500028],[34.456590691000315,36.7178598940003],[34.45626448400026,36.718362456000136],[34.45462155600035,36.719206592000205],[34.45498188500022,36.720568066000226],[34.45470069700025,36.72149238200029],[34.45487858200033,36.72292520700063],[34.453519759000244,36.72416006300034],[34.45310859400024,36.725925634000816],[34.45194067600022,36.72745345600026],[34.45037424700024,36.72807047900022],[34.44767952500035,36.731376531000365],[34.44740567900027,36.73200669400023],[34.44867647700028,36.732913731000224]]],"type":"Polygon"}},{"type":"Feature","properties":{"area_id":"TR-33-008-31795","name_tr":"75.Yıl","area_level":"neighbourhood","parent_id":"TR-33-008","endeksa_id":31795},"geometry":{"coordinates":[[[34.4813088060003,36.73435247100025],[34.48114745800024,36.734425883000426],[34.48007100000035,36.7390858200003],[34.47824950800032,36.739390261000665],[34.47802208100023,36.73952767200058],[34.47780792400033,36.736013685000216],[34.47799386700035,36.735132689000466],[34.479518560000315,36.73360787800016],[34.479549163000286,36.7329992990002],[34.479100821000316,36.731895438000265],[34.47934329569432,36.73166946863614],[34.4793200551195,36.731529956725296],[34.4805300000005,36.73058000000049],[34.48211000000049,36.728040000000476],[34.48498000000046,36.722260000000745],[34.485887653658665,36.72000490173639],[34.487855763489506,36.71736661243824],[34.48831993361637,36.716910008226364],[34.48840915990547,36.716671589048474],[34.48872015019748,36.71664642978482],[34.49955866100032,36.72137704600016],[34.50358406000021,36.72234059100026],[34.50449712400024,36.723386771000264],[34.50521864400025,36.72384742300039],[34.50613384800033,36.724246876000336],[34.50585608600028,36.72431658000022],[34.505723929000226,36.72422321200082],[34.50373591000033,36.724661734000335],[34.500435302000255,36.724949784000216],[34.4969562940002,36.72630300900033],[34.49642437100033,36.72668454900031],[34.49588021600033,36.72923047900008],[34.4958745900002,36.73059301300037],[34.49539744800035,36.73159319800044],[34.49400581400033,36.732775546000255],[34.49355838500031,36.73523336700009],[34.48832276800027,36.733438351000075],[34.48799632000026,36.7330441310005],[34.48666160000033,36.729562520000286],[34.48655312800025,36.729494066000484],[34.486101298000335,36.72949940900048],[34.48565236800033,36.729801293000264],[34.483610032000286,36.72990607000082],[34.4824620900003,36.73044309900058],[34.48120181800033,36.734227601000214],[34.4813088060003,36.73435247100025]]],"type":"Polygon"}},{"type":"Feature","properties":{"area_id":"TR-33-008-31811","name_tr":"Akdeniz","area_level":"neighbourhood","parent_id":"TR-33-008","endeksa_id":31811},"geometry":{"coordinates":[[[34.51629236600007,36.73566609000011],[34.508720670000116,36.73891285900061],[34.50317471500017,36.7434470930001],[34.50231113500013,36.74386508500004],[34.5021479290001,36.74414686200015],[34.50206950400013,36.74401206100009],[34.501717539000026,36.74411468799997],[34.500528115000066,36.74378065800005],[34.49745808200015,36.74105328800016],[34.49339196000017,36.73830849400025],[34.492795081000054,36.73810629900015],[34.492634282000154,36.73816991000018],[34.49262180500011,36.73802391000015],[34.49100858800011,36.73715259599999],[34.4813088060003,36.73435247100025],[34.48120181800033,36.734227601000214],[34.4824620900003,36.73044309900058],[34.483610032000286,36.72990607000082],[34.48565236800033,36.729801293000264],[34.486101298000335,36.72949940900048],[34.48655312800025,36.729494066000484],[34.48666160000033,36.729562520000286],[34.48799632000026,36.7330441310005],[34.48832276800027,36.733438351000075],[34.49355838500031,36.73523336700009],[34.49400581400033,36.732775546000255],[34.49539744800035,36.73159319800044],[34.4958745900002,36.73059301300037],[34.49588021600033,36.72923047900008],[34.49642437100033,36.72668454900031],[34.4969562940002,36.72630300900033],[34.500435302000255,36.724949784000216],[34.50373591000033,36.724661734000335],[34.505723929000226,36.72422321200082],[34.50585608600028,36.72431658000022],[34.506167343000186,36.725879817000134],[34.50729066900004,36.726736902000084],[34.50854206200012,36.727284822000115],[34.508813808000184,36.72783833200009],[34.5098584160001,36.72824300300027],[34.51062514500006,36.72898929100006],[34.512660480000136,36.73021350000033],[34.51830268000015,36.732219694000094],[34.516888942000094,36.73410415800004],[34.51685562200015,36.73474363100007],[34.51629236600007,36.73566609000011]]],"type":"Polygon"}},{"type":"Feature","properties":{"area_id":"TR-33-008-31793","name_tr":"İstiklal","area_level":"neighbourhood","parent_id":"TR-33-008","endeksa_id":31793},"geometry":{"coordinates":[[[34.48872015019748,36.71664642978482],[34.48840915990547,36.716671589048474],[34.48831993361637,36.716910008226364],[34.487855763489506,36.71736661243824],[34.485887653658665,36.72000490173639],[34.48498000000046,36.722260000000745],[34.48211000000049,36.728040000000476],[34.4805300000005,36.73058000000049],[34.4793200551195,36.731529956725296],[34.47875000000033,36.73091000000022],[34.478710000000206,36.73069000000049],[34.47885000000025,36.729220000000396],[34.47852000000029,36.72807000000046],[34.478710000000206,36.7268600000005],[34.47861000000029,36.726500000000556],[34.47776000000027,36.72590000000065],[34.47747000000027,36.725630000000365],[34.47724000000028,36.72519000000034],[34.47707834090971,36.725103056818625],[34.47700000000032,36.72509000000042],[34.47668000000027,36.724390000000426],[34.476430699671994,36.72406113573766],[34.47605064324813,36.72384473068166],[34.4761655610738,36.72374680601598],[34.47599000000059,36.72354000000047],[34.47601000000043,36.7233800000007],[34.47658547238382,36.72295104519162],[34.47777000000059,36.72072000000088],[34.47873000000044,36.71947000000051],[34.48037578060911,36.71787613729754],[34.480815476037264,36.716909973283805],[34.48061000000058,36.716620000000376],[34.48112000000049,36.71587000000085],[34.48266539921724,36.71648190757435],[34.48410000000047,36.71495000000061],[34.484277715358985,36.71503254065669],[34.48444307288082,36.71477964091713],[34.48872015019748,36.71664642978482]]],"type":"Polygon"}},{"type":"Feature","properties":{"area_id":"TR-33-008-31815","name_tr":"Menderes","area_level":"neighbourhood","parent_id":"TR-33-008","endeksa_id":31815},"geometry":{"coordinates":[[[34.53014891400011,36.74903924700038],[34.52991965800015,36.74907156600011],[34.519044767000025,36.74066855100057],[34.517503925000085,36.73871185900032],[34.51625506800019,36.735917036000444],[34.51629236600007,36.73566609000011],[34.51685562200015,36.73474363100007],[34.516888942000094,36.73410415800004],[34.51830268000015,36.732219694000094],[34.519350099000064,36.732162170000095],[34.521107012000186,36.732390935000126],[34.52147240700015,36.73290780400015],[34.522726608000085,36.733736923000095],[34.52573680400013,36.73523628200007],[34.53338761700013,36.73729462600056],[34.533359974000064,36.73820236199998],[34.532828466000126,36.73984331700018],[34.533035168000026,36.744278740000084],[34.53125731199998,36.74812015000009],[34.53090115100008,36.74860596200017],[34.53014891400011,36.74903924700038]]],"type":"Polygon"}},{"type":"Feature","properties":{"area_id":"TR-33-008-31791","name_tr":"Anayurt","area_level":"neighbourhood","parent_id":"TR-33-008","endeksa_id":31791},"geometry":{"coordinates":[[[34.47707834090971,36.725103056818625],[34.47604659900003,36.72714606400001],[34.47580805300015,36.72943494800006],[34.47495391600012,36.731119531000104],[34.473995499000125,36.732457275000115],[34.47275945000007,36.733329456000035],[34.47209062500008,36.73814771100018],[34.47119089900008,36.741099546999976],[34.467677620000075,36.744194316000346],[34.46694218300007,36.74516076900011],[34.46696709000008,36.745287810000036],[34.46792709200008,36.74594927300018],[34.46806890700003,36.745951474000094],[34.46066485300008,36.74998036300008],[34.44159557900002,36.741091100999995],[34.44145603200013,36.7388160160005],[34.442589588000146,36.73795300600068],[34.443952828000135,36.738592297000196],[34.44472468100014,36.73776999400013],[34.44555529900009,36.73620625500013],[34.44673045899998,36.735302095000634],[34.44844774800009,36.73335075300065],[34.4487078680001,36.73302809400019],[34.44867647700028,36.732913731000224],[34.4488097160002,36.733108404000575],[34.44924190300031,36.73534519900011],[34.4517547340003,36.73641708700069],[34.45192438000032,36.73635544400065],[34.45348787900025,36.73224723700031],[34.45437221600014,36.73111577300028],[34.45500426000024,36.73069116500068],[34.4553989060002,36.729484603000344],[34.45550354400035,36.726528708000444],[34.457204440000226,36.721882557000356],[34.460400153000364,36.7220095160003],[34.4608184990002,36.722371414000236],[34.46131651500036,36.72391122900035],[34.46355251300025,36.72413973500022],[34.46365007600025,36.72420720300033],[34.464665525704504,36.72674448163269],[34.46513721529374,36.726963855015924],[34.46571870755611,36.726668198889],[34.46649272300033,36.72566323300015],[34.46813228725131,36.725560018194074],[34.469274209000275,36.72372194600024],[34.472703914000306,36.724280272000215],[34.47309381958098,36.72527812638742],[34.47326654096963,36.72536357215415],[34.47365997095886,36.72528547168281],[34.475896089000344,36.723840947000724],[34.47605064324813,36.72384473068166],[34.476430699671994,36.72406113573766],[34.47668000000027,36.724390000000426],[34.47700000000032,36.72509000000042],[34.47707834090971,36.725103056818625]]],"type":"Polygon"}},{"type":"Feature","properties":{"area_id":"TR-33-008-31817","name_tr":"Viranşehir","area_level":"neighbourhood","parent_id":"TR-33-008","endeksa_id":31817},"geometry":{"coordinates":[[[34.547861872000055,36.7506614600004],[34.543352679000066,36.752238925000086],[34.53930349800015,36.750864351000075],[34.53839360100011,36.74991226300017],[34.53709010700004,36.74931196700021],[34.53446403400011,36.74958849200044],[34.53315451900005,36.74982382900009],[34.53203506400007,36.750532718000045],[34.53013554600011,36.749191867000036],[34.53014891400011,36.74903924700038],[34.53090115100008,36.74860596200017],[34.53125731199998,36.74812015000009],[34.533035168000026,36.744278740000084],[34.532828466000126,36.73984331700018],[34.533359974000064,36.73820236199998],[34.53338761700013,36.73729462600056],[34.534258766000164,36.73729813200032],[34.5353760000001,36.73757400000005],[34.535997400000156,36.73784450000005],[34.537158500000146,36.738119400000414],[34.53912300000013,36.73885000000047],[34.53991578300008,36.73898698099998],[34.54074477400019,36.73892691800012],[34.541276000000096,36.73826310000004],[34.54147190000015,36.73828250000008],[34.541508000000135,36.738434000000154],[34.541194000000075,36.738695000000064],[34.541140400000074,36.73888190000008],[34.54164120000013,36.739573700000165],[34.541810000000055,36.739587400000005],[34.541934200000185,36.73985550000003],[34.54214209999998,36.740032100000576],[34.54171582400005,36.74066317100011],[34.54173451300011,36.74111467400007],[34.54217774700004,36.74161664400009],[34.54281110000011,36.742099900000426],[34.54291580000006,36.74208020000003],[34.54301435200006,36.74249861000055],[34.54484250000013,36.74389180000003],[34.54527950000005,36.744404500000144],[34.54523667100017,36.74466998400027],[34.54563704900005,36.74808271100011],[34.54616319999997,36.74874110000013],[34.546831725000175,36.74932515800015],[34.548069121000026,36.75009253100012],[34.54803532000017,36.75018412999998],[34.54843660000017,36.75011080000013],[34.54878330000008,36.75039830000014],[34.547861872000055,36.7506614600004]]],"type":"Polygon"}},{"type":"Feature","properties":{"area_id":"TR-33-008-31816","name_tr":"Merkez","area_level":"neighbourhood","parent_id":"TR-33-008","endeksa_id":31816},"geometry":{"coordinates":[[[34.525085854000054,36.757773266000186],[34.52481934700012,36.757834871],[34.52484544400005,36.75760173600003],[34.52180382100005,36.755777198000374],[34.5199971350001,36.75512319600011],[34.51985735700009,36.75370301500044],[34.517756793000046,36.75242158400005],[34.51591277600011,36.75049955000014],[34.51594990500007,36.749737092000146],[34.516666346000136,36.748168843000485],[34.51625829300019,36.747761702000105],[34.515686498000036,36.746029002000114],[34.51478614900009,36.74499248300003],[34.512466245000155,36.74420828900003],[34.50993870799999,36.74441334200003],[34.50695150000013,36.745011126000065],[34.506785033000085,36.74516343500051],[34.506796691000034,36.74506685400024],[34.50669541000008,36.74500810600017],[34.503264523000155,36.744823495000446],[34.50215549100005,36.744326360000116],[34.5021479290001,36.74414686200015],[34.50231113500013,36.74386508500004],[34.50317471500017,36.7434470930001],[34.508720670000116,36.73891285900061],[34.51629236600007,36.73566609000011],[34.51625506800019,36.735917036000444],[34.517503925000085,36.73871185900032],[34.519044767000025,36.74066855100057],[34.52991965800015,36.74907156600011],[34.53014891400011,36.74903924700038],[34.53013554600011,36.749191867000036],[34.53203506400007,36.750532718000045],[34.5321234860001,36.75067216000008],[34.53118744300019,36.75163399200022],[34.52936154300011,36.75257165400018],[34.52666769700011,36.755061425000065],[34.52548044500014,36.757514707000155],[34.52502152800008,36.757642529000066],[34.525085854000054,36.757773266000186]]],"type":"Polygon"}},{"type":"Feature","properties":{"area_id":"TR-33-008-31820","name_tr":"Esenbağlar","area_level":"neighbourhood","parent_id":"TR-33-008","endeksa_id":31820},"geometry":{"coordinates":[[[34.492634282000154,36.73816991000018],[34.49144372400008,36.739168920000566],[34.49027578400006,36.73969683700028],[34.48962687400018,36.73969229599999],[34.4878864800001,36.74149036600011],[34.48769041100013,36.74197065500016],[34.488054813000076,36.74229065500049],[34.487895994000155,36.74277890500002],[34.48578972700005,36.74375584100039],[34.48580316599998,36.744218093000086],[34.4868778820001,36.74467343900011],[34.486594439000044,36.74568495400058],[34.48615303399998,36.746092694000026],[34.48530019300006,36.7462040370001],[34.48483972500014,36.7464677330006],[34.48418169200016,36.74791942400054],[34.48294287800013,36.74885988300014],[34.482181244000174,36.74977093000007],[34.477921789000106,36.752958487000114],[34.47657746300007,36.753440978000185],[34.47544864700012,36.75456267200025],[34.474901813000145,36.75566844600007],[34.473882669000034,36.75616864400007],[34.473842392000165,36.75710098200011],[34.47494957000009,36.75765735600015],[34.47500099600012,36.75775617199997],[34.474787757000115,36.75840123700033],[34.47351840300007,36.75929379100046],[34.47403288600009,36.760703382000145],[34.473838616000194,36.76132825400066],[34.47250873000013,36.76268916200013],[34.47236625300013,36.76304531000062],[34.47224429300019,36.76310016500008],[34.467074590000095,36.76270022300008],[34.45795402100015,36.75585102000008],[34.457792232000145,36.75459814900006],[34.45814723800004,36.752372265000645],[34.45947152000019,36.750776937000126],[34.46066485300008,36.74998036300008],[34.46806890700003,36.745951474000094],[34.46792709200008,36.74594927300018],[34.46696709000008,36.745287810000036],[34.46694218300007,36.74516076900011],[34.467677620000075,36.744194316000346],[34.47119089900008,36.741099546999976],[34.47209062500008,36.73814771100018],[34.47275945000007,36.733329456000035],[34.473995499000125,36.732457275000115],[34.47495391600012,36.731119531000104],[34.47580805300015,36.72943494800006],[34.47604659900003,36.72714606400001],[34.47707834090971,36.725103056818625],[34.47724000000028,36.72519000000034],[34.47747000000027,36.725630000000365],[34.47776000000027,36.72590000000065],[34.47861000000029,36.726500000000556],[34.478710000000206,36.7268600000005],[34.47852000000029,36.72807000000046],[34.47885000000025,36.729220000000396],[34.478710000000206,36.73069000000049],[34.47875000000033,36.73091000000022],[34.4793200551195,36.731529956725296],[34.47934329569432,36.73166946863614],[34.479100821000316,36.731895438000265],[34.479549163000286,36.7329992990002],[34.479518560000315,36.73360787800016],[34.47799386700035,36.735132689000466],[34.47780792400033,36.736013685000216],[34.47802208100023,36.73952767200058],[34.47824950800032,36.739390261000665],[34.48007100000035,36.7390858200003],[34.48114745800024,36.734425883000426],[34.4813088060003,36.73435247100025],[34.49100858800011,36.73715259599999],[34.49262180500011,36.73802391000015],[34.492634282000154,36.73816991000018]]],"type":"Polygon"}},{"type":"Feature","properties":{"area_id":"TR-33-008-31818","name_tr":"Yeni","area_level":"neighbourhood","parent_id":"TR-33-008","endeksa_id":31818},"geometry":{"coordinates":[[[34.54296653799997,36.75762939300006],[34.542978865000066,36.75772673300014],[34.54287953500017,36.75778533600044],[34.54256124800003,36.75766078700019],[34.54027041200004,36.759633370000074],[34.537078362000045,36.763572348000025],[34.53707373000003,36.76366689600036],[34.53717454100013,36.76372188500005],[34.53638183400017,36.763568672000076],[34.531994686000075,36.76108216600005],[34.531043374000035,36.76001286600018],[34.5305070120001,36.75969515400004],[34.527007717000174,36.75826553100029],[34.52527357900004,36.757937943],[34.525085854000054,36.757773266000186],[34.52502152800008,36.757642529000066],[34.52548044500014,36.757514707000155],[34.52666769700011,36.755061425000065],[34.52936154300011,36.75257165400018],[34.53118744300019,36.75163399200022],[34.5321234860001,36.75067216000008],[34.53203506400007,36.750532718000045],[34.53315451900005,36.74982382900009],[34.53446403400011,36.74958849200044],[34.53709010700004,36.74931196700021],[34.53839360100011,36.74991226300017],[34.53930349800015,36.750864351000075],[34.543352679000066,36.752238925000086],[34.54350305500009,36.75262779500065],[34.544855255000016,36.754117541000085],[34.54515646599998,36.75506711900033],[34.54287269400004,36.75740862800018],[34.54296653799997,36.75762939300006]]],"type":"Polygon"}},{"type":"Feature","properties":{"area_id":"TR-33-008-31814","name_tr":"Fatih","area_level":"neighbourhood","parent_id":"TR-33-008","endeksa_id":31814},"geometry":{"coordinates":[[[34.5535329220001,36.76472217500054],[34.55335643700016,36.7647386740004],[34.5430879700001,36.75792371700061],[34.54308945200006,36.75776856200014],[34.54296653799997,36.75762939300006],[34.54287269400004,36.75740862800018],[34.54515646599998,36.75506711900033],[34.544855255000016,36.754117541000085],[34.54350305500009,36.75262779500065],[34.543352679000066,36.752238925000086],[34.547861872000055,36.7506614600004],[34.5491788920001,36.75104916000015],[34.548337583000034,36.75368850600057],[34.548348265000016,36.755515016000174],[34.549802672000055,36.757846115000405],[34.55127433500019,36.75877850300009],[34.552610912000034,36.76045929500026],[34.555103118000034,36.762585393000165],[34.555074861000094,36.76306537200014],[34.5535329220001,36.76472217500054]]],"type":"Polygon"}},{"type":"Feature","properties":{"area_id":"TR-33-008-183335","name_tr":"Doğlu","area_level":"neighbourhood","parent_id":"TR-33-008","endeksa_id":183335},"geometry":{"coordinates":[[[34.4539549320001,36.74685249100014],[34.450093235000054,36.75092704500008],[34.45436405800018,36.75511837800008],[34.457108770000104,36.75519374900068],[34.457515264000165,36.75950460700017],[34.44464476100006,36.76717597499999],[34.444328295265734,36.76698289892647],[34.444188223241724,36.767058198278676],[34.44421178937836,36.76719027370302],[34.44293025600007,36.76597105100012],[34.44294023100008,36.765858830000354],[34.44151527100013,36.764757717000464],[34.43789276700011,36.756733507000035],[34.43776164200017,36.756664547000696],[34.43459015900004,36.75878132000042],[34.425640273000056,36.755683619000024],[34.418157908000126,36.762119700000085],[34.40731111499997,36.76382222899997],[34.40716498800009,36.763721520000104],[34.40770160700015,36.7508663080003],[34.40819053199999,36.750812857000085],[34.41228469600003,36.745572655000615],[34.41137991200014,36.741959721000285],[34.41392572600006,36.74064456100018],[34.41208869400015,36.73711865100012],[34.41455370000017,36.7309038810007],[34.41693516100014,36.72909395100015],[34.41705664300008,36.72918075000018],[34.41761900300003,36.73058603099997],[34.42061132900017,36.73202321600013],[34.419809905000136,36.73400990800002],[34.41984728700004,36.73454880400021],[34.42418325600005,36.7363912400001],[34.42708807900016,36.73656425700011],[34.42999612200015,36.73644758500001],[34.430910581000035,36.73577433900027],[34.43140213200013,36.73445855600005],[34.434643061000145,36.73391379200007],[34.436786534000134,36.734612436000134],[34.43694216800003,36.7345577320001],[34.43692995499998,36.73468748700009],[34.437756543000035,36.73561010000009],[34.43833750800019,36.73595899500009],[34.442589588000146,36.73795300600068],[34.44145603200013,36.7388160160005],[34.44159557900002,36.741091100999995],[34.4539549320001,36.74685249100014]]],"type":"Polygon"}},{"type":"Feature","properties":{"area_id":"TR-33-008-31813","name_tr":"Eski Mezitli","area_level":"neighbourhood","parent_id":"TR-33-008","endeksa_id":31813},"geometry":{"coordinates":[[[34.50255625700015,36.75516675400013],[34.502408033000165,36.75514654700015],[34.48332111700006,36.763153371000044],[34.47669088200013,36.76737741400024],[34.47646845000003,36.76737783100003],[34.47650346300014,36.767196065000064],[34.47237614900007,36.76313883400019],[34.47224429300019,36.76310016500008],[34.47236625300013,36.76304531000062],[34.47250873000013,36.76268916200013],[34.473838616000194,36.76132825400066],[34.47403288600009,36.760703382000145],[34.47351840300007,36.75929379100046],[34.474787757000115,36.75840123700033],[34.47500099600012,36.75775617199997],[34.47494957000009,36.75765735600015],[34.473842392000165,36.75710098200011],[34.473882669000034,36.75616864400007],[34.474901813000145,36.75566844600007],[34.47544864700012,36.75456267200025],[34.47657746300007,36.753440978000185],[34.477921789000106,36.752958487000114],[34.482181244000174,36.74977093000007],[34.48294287800013,36.74885988300014],[34.48418169200016,36.74791942400054],[34.48483972500014,36.7464677330006],[34.48530019300006,36.7462040370001],[34.48615303399998,36.746092694000026],[34.486594439000044,36.74568495400058],[34.4868778820001,36.74467343900011],[34.48580316599998,36.744218093000086],[34.48578972700005,36.74375584100039],[34.487895994000155,36.74277890500002],[34.488054813000076,36.74229065500049],[34.48769041100013,36.74197065500016],[34.4878864800001,36.74149036600011],[34.48962687400018,36.73969229599999],[34.49027578400006,36.73969683700028],[34.49144372400008,36.739168920000566],[34.492634282000154,36.73816991000018],[34.492795081000054,36.73810629900015],[34.49339196000017,36.73830849400025],[34.49745808200015,36.74105328800016],[34.500528115000066,36.74378065800005],[34.501717539000026,36.74411468799997],[34.50206950400013,36.74401206100009],[34.5021479290001,36.74414686200015],[34.50215549100005,36.744326360000116],[34.503264523000155,36.744823495000446],[34.50669541000008,36.74500810600017],[34.506796691000034,36.74506685400024],[34.506785033000085,36.74516343500051],[34.50571011300019,36.74641171400032],[34.5057628510001,36.747287530000165],[34.506004522000126,36.747866300000055],[34.504993899000056,36.749537231000375],[34.505036029000166,36.749630375000265],[34.50591968399999,36.75014606100012],[34.505433923000055,36.75158276300016],[34.5045423900001,36.75280346200003],[34.50356200200014,36.75343510400006],[34.50252394700016,36.75504993800024],[34.50255625700015,36.75516675400013]]],"type":"Polygon"}},{"type":"Feature","properties":{"area_id":"TR-33-008-31812","name_tr":"Atatürk","area_level":"neighbourhood","parent_id":"TR-33-008","endeksa_id":31812},"geometry":{"coordinates":[[[34.5535329220001,36.76472217500054],[34.552047877000064,36.76703027200011],[34.55177326900008,36.767768970000304],[34.55162807300019,36.767944678000276],[34.545187832000124,36.766719920000185],[34.54411035000015,36.767133989000115],[34.54354677900011,36.76694189500017],[34.53971242900013,36.76426929000013],[34.53929690700005,36.76430538300019],[34.53880714400009,36.76382728100003],[34.53717454100013,36.76372188500005],[34.53707373000003,36.76366689600036],[34.537078362000045,36.763572348000025],[34.54027041200004,36.759633370000074],[34.54256124800003,36.75766078700019],[34.54287953500017,36.75778533600044],[34.542978865000066,36.75772673300014],[34.54296653799997,36.75762939300006],[34.54308945200006,36.75776856200014],[34.5430879700001,36.75792371700061],[34.55335643700016,36.7647386740004],[34.5535329220001,36.76472217500054]]],"type":"Polygon"}},{"type":"Feature","properties":{"area_id":"TR-33-008-31810","name_tr":"Kuyuluk","area_level":"neighbourhood","parent_id":"TR-33-008","endeksa_id":31810},"geometry":{"coordinates":[[[34.52481934700012,36.757834871],[34.52467109200006,36.758074817000136],[34.52271728900013,36.758903079000106],[34.520632104000185,36.76127249900003],[34.51909208000012,36.76171456200029],[34.51813148700012,36.762478619000035],[34.51496060000005,36.769333157000176],[34.51385223799997,36.76907801000061],[34.51350747200007,36.76870376000005],[34.513333649000174,36.767684398000085],[34.51278364300015,36.767450686000075],[34.51338911800002,36.76750533000052],[34.51437031100011,36.7668923920001],[34.5147475710001,36.76635307000004],[34.51508662900005,36.76499790700012],[34.51513985600013,36.76351700300012],[34.51548046600004,36.76254463600009],[34.51528221100011,36.76145042900038],[34.51457116200015,36.7600605760004],[34.51287007600007,36.75846453800068],[34.512504117000105,36.75834395700002],[34.51246213200005,36.758228107000036],[34.51164522300007,36.757034492000116],[34.51059517300007,36.75644666400052],[34.50923562500003,36.75594027700009],[34.507369113000095,36.75640482699998],[34.506846395000025,36.755843883000296],[34.505614298000125,36.755235196000115],[34.502994717000036,36.755437011000026],[34.50255625700015,36.75516675400013],[34.50252394700016,36.75504993800024],[34.50356200200014,36.75343510400006],[34.5045423900001,36.75280346200003],[34.505433923000055,36.75158276300016],[34.50591968399999,36.75014606100012],[34.505036029000166,36.749630375000265],[34.504993899000056,36.749537231000375],[34.506004522000126,36.747866300000055],[34.5057628510001,36.747287530000165],[34.50571011300019,36.74641171400032],[34.506785033000085,36.74516343500051],[34.50695150000013,36.745011126000065],[34.50993870799999,36.74441334200003],[34.512466245000155,36.74420828900003],[34.51478614900009,36.74499248300003],[34.515686498000036,36.746029002000114],[34.51625829300019,36.747761702000105],[34.516666346000136,36.748168843000485],[34.51594990500007,36.749737092000146],[34.51591277600011,36.75049955000014],[34.517756793000046,36.75242158400005],[34.51985735700009,36.75370301500044],[34.5199971350001,36.75512319600011],[34.52180382100005,36.755777198000374],[34.52484544400005,36.75760173600003],[34.52481934700012,36.757834871]]],"type":"Polygon"}},{"type":"Feature","properties":{"area_id":"TR-33-008-31808","name_tr":"Çamlıca","area_level":"neighbourhood","parent_id":"TR-33-008","endeksa_id":31808},"geometry":{"coordinates":[[[34.51246213200005,36.758228107000036],[34.51236618800016,36.75839747800046],[34.501605163000136,36.766207269000176],[34.496730116000094,36.766247744000054],[34.49411381100009,36.767591749000474],[34.492933251000125,36.767797087000076],[34.48952055400008,36.77079452500044],[34.48508473100014,36.7718681450001],[34.484124450000024,36.772485185000164],[34.482548794000024,36.77417041299998],[34.48214061400017,36.77435370900008],[34.473789658000044,36.77441278500032],[34.473162426000044,36.77464980700006],[34.47192162700014,36.77558376400049],[34.471720560999984,36.775542714000096],[34.47129941835266,36.77416880305492],[34.471134731092604,36.774105228732935],[34.47100651129176,36.77421283553946],[34.471539529000154,36.771019132000106],[34.476157151999985,36.76783057500052],[34.47646845000003,36.76737783100003],[34.47669088200013,36.76737741400024],[34.48332111700006,36.763153371000044],[34.502408033000165,36.75514654700015],[34.50255625700015,36.75516675400013],[34.502994717000036,36.755437011000026],[34.505614298000125,36.755235196000115],[34.506846395000025,36.755843883000296],[34.507369113000095,36.75640482699998],[34.50923562500003,36.75594027700009],[34.51059517300007,36.75644666400052],[34.51164522300007,36.757034492000116],[34.51246213200005,36.758228107000036]]],"type":"Polygon"}},{"type":"Feature","properties":{"area_id":"TR-33-008-31809","name_tr":"Çankaya","area_level":"neighbourhood","parent_id":"TR-33-008","endeksa_id":31809},"geometry":{"coordinates":[[[34.499277576000054,36.773083433000465],[34.498864650000144,36.773444301000154],[34.498380728000086,36.774742133000075],[34.497640759000035,36.77564349000028],[34.494648804000065,36.77659459100005],[34.49439270400018,36.77723613400025],[34.492792660000134,36.77842521400004],[34.49075186300013,36.77828610900019],[34.490357402000086,36.77840935400019],[34.49030262200017,36.778491752000036],[34.4903666620001,36.77963543599998],[34.49025476700018,36.77973861700008],[34.48271425700011,36.78029224600016],[34.48259545000019,36.78039866600011],[34.482511133,36.78027296199997],[34.475210446000176,36.778800914000044],[34.47452795300012,36.778553604000365],[34.471832977000076,36.77576696600005],[34.47192162700014,36.77558376400049],[34.473162426000044,36.77464980700006],[34.473789658000044,36.77441278500032],[34.48214061400017,36.77435370900008],[34.482548794000024,36.77417041299998],[34.484124450000024,36.772485185000164],[34.48508473100014,36.7718681450001],[34.48952055400008,36.77079452500044],[34.492933251000125,36.767797087000076],[34.49411381100009,36.767591749000474],[34.496730116000094,36.766247744000054],[34.501605163000136,36.766207269000176],[34.51236618800016,36.75839747800046],[34.51246213200005,36.758228107000036],[34.512504117000105,36.75834395700002],[34.51287007600007,36.75846453800068],[34.51457116200015,36.7600605760004],[34.51528221100011,36.76145042900038],[34.51548046600004,36.76254463600009],[34.51513985600013,36.76351700300012],[34.51508662900005,36.76499790700012],[34.5147475710001,36.76635307000004],[34.51437031100011,36.7668923920001],[34.51338911800002,36.76750533000052],[34.51278364300015,36.767450686000075],[34.51099755000007,36.76781428000032],[34.510218297000165,36.77044769000025],[34.50814954100019,36.77049880500016],[34.50790086100005,36.77184321000061],[34.50419055600014,36.77273279500008],[34.50264624700014,36.77197507900024],[34.49995530200016,36.772491147000665],[34.499277576000054,36.773083433000465]]],"type":"Polygon"}},{"type":"Feature","properties":{"area_id":"TR-33-008-31819","name_tr":"Kaleköy","area_level":"neighbourhood","parent_id":"TR-33-008","endeksa_id":31819},"geometry":{"coordinates":[[[34.53971242900013,36.76426929000013],[34.53911592100019,36.76442724400039],[34.53829590900017,36.765536275000045],[34.53812070000015,36.76639436099998],[34.53841063100009,36.767443289000084],[34.53801979900004,36.76833081299998],[34.53597330500003,36.768807159000175],[34.53561886699998,36.76932449000003],[34.53671745900016,36.77094959500016],[34.53663829200008,36.7714303730001],[34.53464576400006,36.77335974200014],[34.53277858100017,36.773309458000426],[34.52662459200019,36.777308949000144],[34.52550585000017,36.77864436700014],[34.5249758810001,36.779003929000055],[34.524712765000004,36.77948961100009],[34.52461971100013,36.781155096000134],[34.523889733000146,36.78256489800026],[34.522551438000164,36.78270208900051],[34.52183636500007,36.78300133700003],[34.52040190900004,36.783062489000486],[34.51898705100001,36.782841403000134],[34.517525627000055,36.78246322500013],[34.51498006400004,36.781117350000216],[34.51391717800004,36.78101561100004],[34.513223820000064,36.78131442200004],[34.51269119400018,36.7812287980002],[34.51233401000013,36.78020698300065],[34.51120564800004,36.779947742000104],[34.51088949399997,36.78014052500066],[34.510556052000084,36.77840984500028],[34.499277576000054,36.773083433000465],[34.49995530200016,36.772491147000665],[34.50264624700014,36.77197507900024],[34.50419055600014,36.77273279500008],[34.50790086100005,36.77184321000061],[34.50814954100019,36.77049880500016],[34.510218297000165,36.77044769000025],[34.51099755000007,36.76781428000032],[34.51278364300015,36.767450686000075],[34.513333649000174,36.767684398000085],[34.51350747200007,36.76870376000005],[34.51385223799997,36.76907801000061],[34.51496060000005,36.769333157000176],[34.51813148700012,36.762478619000035],[34.51909208000012,36.76171456200029],[34.520632104000185,36.76127249900003],[34.52271728900013,36.758903079000106],[34.52467109200006,36.758074817000136],[34.52481934700012,36.757834871],[34.525085854000054,36.757773266000186],[34.52527357900004,36.757937943],[34.527007717000174,36.75826553100029],[34.5305070120001,36.75969515400004],[34.531043374000035,36.76001286600018],[34.531994686000075,36.76108216600005],[34.53638183400017,36.763568672000076],[34.53717454100013,36.76372188500005],[34.53880714400009,36.76382728100003],[34.53929690700005,36.76430538300019],[34.53971242900013,36.76426929000013]]],"type":"Polygon"}},{"type":"Feature","properties":{"area_id":"TR-33-008-183309","name_tr":"Çevlik","area_level":"neighbourhood","parent_id":"TR-33-008","endeksa_id":183309},"geometry":{"coordinates":[[[34.46416543099997,36.79334317800033],[34.4641089750001,36.79357036100021],[34.46176435500013,36.794903502000466],[34.4587103880001,36.79372955200017],[34.45431065200006,36.794467355000165],[34.45142521600002,36.79727107800011],[34.44732645500011,36.798124566000524],[34.44687028600009,36.80115291800013],[34.442531481,36.8019196300001],[34.441135006000025,36.80427476800014],[34.44099941100012,36.80421442600027],[34.43941137200005,36.80091338300008],[34.43633755400009,36.80079058200016],[34.43622554100017,36.80068897700016],[34.437147775000085,36.77539742500011],[34.4443764130001,36.76734689300014],[34.44421178937836,36.76719027370302],[34.444188223241724,36.767058198278676],[34.444328295265734,36.76698289892647],[34.44464476100006,36.76717597499999],[34.457515264000165,36.75950460700017],[34.457108770000104,36.75519374900068],[34.45436405800018,36.75511837800008],[34.450093235000054,36.75092704500008],[34.4539549320001,36.74685249100014],[34.46066485300008,36.74998036300008],[34.45947152000019,36.750776937000126],[34.45814723800004,36.752372265000645],[34.457792232000145,36.75459814900006],[34.45795402100015,36.75585102000008],[34.467074590000095,36.76270022300008],[34.47224429300019,36.76310016500008],[34.47237614900007,36.76313883400019],[34.47650346300014,36.767196065000064],[34.47646845000003,36.76737783100003],[34.476157151999985,36.76783057500052],[34.471539529000154,36.771019132000106],[34.47100651129176,36.77421283553946],[34.470046442000125,36.780019220000156],[34.464806820000035,36.78537364500022],[34.46416543099997,36.79334317800033]]],"type":"Polygon"}},{"type":"Feature","properties":{"area_id":"TR-33-008-183325","name_tr":"Pelitkoyağı","area_level":"neighbourhood","parent_id":"TR-33-008","endeksa_id":183325},"geometry":{"coordinates":[[[34.428834893999976,36.807111110000164],[34.42613705400004,36.80774729300009],[34.425407952000114,36.80773230900013],[34.42535287300012,36.807651818000465],[34.42538378700016,36.80792324100008],[34.42457320900007,36.80776716200006],[34.424647659000186,36.80769689200014],[34.42116500500015,36.80400709700007],[34.42613386700009,36.797773222000046],[34.426702382000144,36.79188936900039],[34.42318659000017,36.78312795900007],[34.423803797000176,36.779963019000036],[34.420902642000044,36.77570866100007],[34.422585262000155,36.77278895000035],[34.418339241000126,36.7688847120001],[34.41073790300004,36.771430899000336],[34.407339387000036,36.768159752000486],[34.40720464400016,36.768131954000125],[34.40712367900011,36.76822109700032],[34.40715926800016,36.76392515200041],[34.40731111499997,36.76382222899997],[34.418157908000126,36.762119700000085],[34.425640273000056,36.755683619000024],[34.43459015900004,36.75878132000042],[34.43776164200017,36.756664547000696],[34.43789276700011,36.756733507000035],[34.44151527100013,36.764757717000464],[34.44294023100008,36.765858830000354],[34.44293025600007,36.76597105100012],[34.4443764130001,36.76734689300014],[34.437147775000085,36.77539742500011],[34.43622554100017,36.80068897700016],[34.436161553000034,36.80081271800054],[34.430902575999994,36.80306640300023],[34.428834893999976,36.807111110000164]]],"type":"Polygon"}},{"type":"Feature","properties":{"area_id":"TR-33-008-183329","name_tr":"Takanlı","area_level":"neighbourhood","parent_id":"TR-33-008","endeksa_id":183329},"geometry":{"coordinates":[[[34.42457320900007,36.80776716200006],[34.424429519000114,36.80801279500008],[34.421022159000074,36.806548276000285],[34.41838203700013,36.80718084900013],[34.41831366700012,36.807099768000114],[34.41804349299997,36.80434529600012],[34.4049103210001,36.80459891700019],[34.39872538800006,36.79653142500007],[34.392318148000186,36.796229580000045],[34.389788399,36.79336624600046],[34.389266323000186,36.79002451700012],[34.39063058000016,36.788899533999995],[34.39060992800006,36.788728899000034],[34.390802715999996,36.788761284000145],[34.393227632000105,36.786831596000184],[34.395199293000076,36.787821499000074],[34.398521488000085,36.78556262700005],[34.400861187000146,36.786324274000094],[34.406305859000156,36.78289451400053],[34.406411848999994,36.78207345300018],[34.40569024299998,36.77868286300031],[34.405778689000044,36.77859421200003],[34.40651114600013,36.778537328000084],[34.406609376999995,36.778452419000075],[34.40712367900011,36.76822109700032],[34.40720464400016,36.768131954000125],[34.407339387000036,36.768159752000486],[34.41073790300004,36.771430899000336],[34.418339241000126,36.7688847120001],[34.422585262000155,36.77278895000035],[34.420902642000044,36.77570866100007],[34.423803797000176,36.779963019000036],[34.42318659000017,36.78312795900007],[34.426702382000144,36.79188936900039],[34.42613386700009,36.797773222000046],[34.42116500500015,36.80400709700007],[34.424647659000186,36.80769689200014],[34.42457320900007,36.80776716200006]]],"type":"Polygon"}},{"type":"Feature","properties":{"area_id":"TR-33-008-183311","name_tr":"Bozön","area_level":"neighbourhood","parent_id":"TR-33-008","endeksa_id":183311},"geometry":{"coordinates":[[[34.533542691125206,36.81885696211049],[34.532730000000186,36.81870000000015],[34.53143000000006,36.81802000000039],[34.52942000000019,36.81821000000008],[34.527290000000164,36.81747000000013],[34.52573000000007,36.81606000000039],[34.52290000000005,36.81563000000034],[34.51977000000005,36.81671000000017],[34.51801000000012,36.821910000000514],[34.515450000000044,36.82118000000037],[34.51193000000012,36.821190000000115],[34.508980000000065,36.82074000000034],[34.506710000000226,36.82093000000043],[34.50287544643612,36.82077975220972],[34.507770861000154,36.81106659200003],[34.50766975400006,36.81095818500006],[34.50693866500001,36.81103196000004],[34.50629791900013,36.81266535400033],[34.50621092500006,36.81272873299997],[34.49216851300008,36.81399040600019],[34.492069301000015,36.813891944000034],[34.49224900900015,36.810983442000065],[34.489148581000165,36.80239439500008],[34.47973277099999,36.80330703900006],[34.47368004500015,36.80512807800005],[34.47351451300011,36.80503405200005],[34.47366486400006,36.79521801200019],[34.47304797400017,36.79535118000001],[34.46429737000017,36.79323951700019],[34.46416543099997,36.79334317800033],[34.464806820000035,36.78537364500022],[34.470046442000125,36.780019220000156],[34.47100651129176,36.77421283553946],[34.471134731092604,36.774105228732935],[34.47129941835266,36.77416880305492],[34.471720560999984,36.775542714000096],[34.47192162700014,36.77558376400049],[34.471832977000076,36.77576696600005],[34.47452795300012,36.778553604000365],[34.475210446000176,36.778800914000044],[34.482511133,36.78027296199997],[34.48259545000019,36.78039866600011],[34.48271425700011,36.78029224600016],[34.49025476700018,36.77973861700008],[34.4903666620001,36.77963543599998],[34.49030262200017,36.778491752000036],[34.490357402000086,36.77840935400019],[34.49075186300013,36.77828610900019],[34.492792660000134,36.77842521400004],[34.49439270400018,36.77723613400025],[34.494648804000065,36.77659459100005],[34.497640759000035,36.77564349000028],[34.498380728000086,36.774742133000075],[34.498864650000144,36.773444301000154],[34.499277576000054,36.773083433000465],[34.510556052000084,36.77840984500028],[34.51088949399997,36.78014052500066],[34.50915017900007,36.781443999000146],[34.50856342900016,36.78236319900003],[34.50851742999998,36.783340237000004],[34.510436590000154,36.78858010600004],[34.510418968000124,36.78922092700003],[34.5098827810001,36.78926785500005],[34.50979068800018,36.789346903000194],[34.509845876000156,36.79140028900042],[34.51086032200004,36.79245285000002],[34.51561688800018,36.795218113000146],[34.51569590600013,36.79545336500007],[34.515839255000174,36.79534137500019],[34.5162121730001,36.795525808000264],[34.51675459300003,36.79647480600045],[34.51764768900006,36.79914571800009],[34.51832737400008,36.79934545100019],[34.52739714100011,36.79713271000003],[34.528704232000166,36.796593188000145],[34.52926965200004,36.79675772400009],[34.53142575800007,36.79881936500004],[34.52921199000008,36.800797210000326],[34.529249803000084,36.80137007400015],[34.529884892000155,36.80195472800017],[34.52951529699999,36.80542276200009],[34.52961580300018,36.80549710100007],[34.53088421300015,36.80552734600019],[34.53099226800009,36.80559837800001],[34.53123092100003,36.80757124400037],[34.53126289700003,36.810179717000096],[34.53213945200014,36.81043467100005],[34.53323352000007,36.81039791800015],[34.53333908200011,36.810522326000296],[34.53320708800004,36.81091746300007],[34.533261130000085,36.81101065200005],[34.53468010000006,36.81116056300061],[34.53477828500007,36.811270623000155],[34.533542691125206,36.81885696211049]]],"type":"Polygon"}},{"type":"Feature","properties":{"area_id":"TR-33-008-183307","name_tr":"Cemilli","area_level":"neighbourhood","parent_id":"TR-33-008","endeksa_id":183307},"geometry":{"coordinates":[[[34.469930174000126,36.81917992900031],[34.46872595700006,36.81966875900008],[34.46751551800014,36.827284416000396],[34.46661954699999,36.82876485800017],[34.46610131900013,36.82909710300004],[34.46597610000015,36.8291016900003],[34.43912956700012,36.819267696000054],[34.43898398900012,36.819294176000085],[34.438975873000174,36.819412900000316],[34.428834893999976,36.807111110000164],[34.430902575999994,36.80306640300023],[34.436161553000034,36.80081271800054],[34.43622554100017,36.80068897700016],[34.43633755400009,36.80079058200016],[34.43941137200005,36.80091338300008],[34.44099941100012,36.80421442600027],[34.441135006000025,36.80427476800014],[34.442531481,36.8019196300001],[34.44687028600009,36.80115291800013],[34.44732645500011,36.798124566000524],[34.45142521600002,36.79727107800011],[34.45431065200006,36.794467355000165],[34.4587103880001,36.79372955200017],[34.46176435500013,36.794903502000466],[34.4641089750001,36.79357036100021],[34.46416543099997,36.79334317800033],[34.46429737000017,36.79323951700019],[34.47304797400017,36.79535118000001],[34.47366486400006,36.79521801200019],[34.47351451300011,36.80503405200005],[34.47343588000007,36.80520155300013],[34.46602515000012,36.807446638000044],[34.4637921100001,36.814993120000054],[34.46093039500005,36.817162472999996],[34.46180681600015,36.81985757700011],[34.46497620600019,36.821412760000044],[34.46510514200003,36.82138133400065],[34.465121250000095,36.82127379600013],[34.46431480000018,36.82051796200062],[34.464337052000076,36.82038207500011],[34.466049369000075,36.82096540599997],[34.46907191100007,36.81864641600049],[34.46995117400007,36.819010651000156],[34.47000023500016,36.81910102000012],[34.469930174000126,36.81917992900031]]],"type":"Polygon"}},{"type":"Feature","properties":{"area_id":"TR-33-008-183323","name_tr":"Kuzucu","area_level":"neighbourhood","parent_id":"TR-33-008","endeksa_id":183323},"geometry":{"coordinates":[[[34.414528618689474,36.84828313273562],[34.41308000000009,36.84812000000056],[34.41046000000023,36.847400000000675],[34.40888000000024,36.84829000000042],[34.40611000000018,36.8491200000002],[34.40590000000003,36.84961000000021],[34.40482000000003,36.84911000000005],[34.404550000000086,36.84832000000006],[34.404030000000034,36.84832000000006],[34.39853000000005,36.84710000000018],[34.398728018858264,36.848642705056875],[34.39859913329167,36.848779888622914],[34.39842064829281,36.848689305276935],[34.39639653600011,36.8421502920001],[34.40037251600012,36.828809548000095],[34.39986010500007,36.822362073000704],[34.40032912000004,36.821820805000186],[34.400306047000186,36.81809992800004],[34.400726338000084,36.816321445000085],[34.40236219100012,36.81632153700042],[34.40247783100011,36.816250189000016],[34.40186124900009,36.8111749210002],[34.40494765800008,36.80464761900032],[34.4049103210001,36.80459891700019],[34.41804349299997,36.80434529600012],[34.41831366700012,36.807099768000114],[34.41838203700013,36.80718084900013],[34.421022159000074,36.806548276000285],[34.424429519000114,36.80801279500008],[34.42457320900007,36.80776716200006],[34.42538378700016,36.80792324100008],[34.42535287300012,36.807651818000465],[34.425407952000114,36.80773230900013],[34.42613705400004,36.80774729300009],[34.428834893999976,36.807111110000164],[34.438975873000174,36.819412900000316],[34.441081490000045,36.82195028900003],[34.43265625000015,36.82977680600038],[34.433477899000025,36.83194997800007],[34.43225704600019,36.83508037700017],[34.43434992700003,36.836146300000166],[34.43113536300018,36.837856332000115],[34.43198470100009,36.84208411100008],[34.41455890200007,36.8459375610002],[34.41454015900001,36.84821523100004],[34.41438815500004,36.84818491500016],[34.414528618689474,36.84828313273562]]],"type":"Polygon"}},{"type":"Feature","properties":{"area_id":"TR-33-008-183313","name_tr":"Kuzucubelen","area_level":"neighbourhood","parent_id":"TR-33-008","endeksa_id":183313},"geometry":{"coordinates":[[[34.46374869600004,36.84305139600008],[34.46359967000018,36.843059726000206],[34.46357038500014,36.843178063000494],[34.46464321399998,36.84453845700011],[34.463197775000026,36.844872667000004],[34.463203369000155,36.84496843000039],[34.46414767600004,36.846051217000365],[34.462289419,36.848479489000056],[34.46211926600006,36.84850072300003],[34.45994537000013,36.84710024300011],[34.460525040000164,36.85000091200004],[34.46009741600011,36.85023380200016],[34.458682114000055,36.85038570699999],[34.45626865700012,36.84850761100006],[34.45612977500019,36.84849102400017],[34.45606284500013,36.84859711700034],[34.45652485300019,36.85038194900022],[34.452992963000156,36.850726630000054],[34.453741273000105,36.85408076200014],[34.44977607200019,36.85442487600034],[34.44932181200011,36.854217979],[34.4477941830001,36.84987974600017],[34.44762305100011,36.84995323800018],[34.447316582999974,36.852321631000166],[34.444041786000184,36.85347055200009],[34.442688262000104,36.84990693000009],[34.44102612299997,36.85040002700015],[34.440719294000075,36.85034273800011],[34.439401289000045,36.850928862000444],[34.435719199000175,36.84623981500016],[34.43557505600006,36.84621282600017],[34.43490963900018,36.8465183200002],[34.43477261200013,36.846478230000116],[34.43196671900006,36.84199612500004],[34.43113536300018,36.837856332000115],[34.43434992700003,36.836146300000166],[34.43225704600019,36.83508037700017],[34.433477899000025,36.83194997800007],[34.43265625000015,36.82977680600038],[34.441081490000045,36.82195028900003],[34.438975873000174,36.819412900000316],[34.43898398900012,36.819294176000085],[34.43912956700012,36.819267696000054],[34.46597610000015,36.8291016900003],[34.466048294000075,36.82919189600011],[34.465970396000046,36.82984346000006],[34.46320510300012,36.83433547400011],[34.463249243000064,36.83443233000014],[34.46484676200015,36.835347788000036],[34.46475834000012,36.83544939100051],[34.463053033000165,36.83574495500045],[34.463538445000154,36.83841106000051],[34.46087964400016,36.83972952500062],[34.46325918300016,36.842784628000175],[34.46374869600004,36.84305139600008]]],"type":"Polygon"}},{"type":"Feature","properties":{"area_id":"TR-33-008-183319","name_tr":"Doğançay","area_level":"neighbourhood","parent_id":"TR-33-008","endeksa_id":183319},"geometry":{"coordinates":[[[34.43503497721605,36.86252894158923],[34.434230000000184,36.863140000000044],[34.4341500000001,36.86285000000004],[34.43378000000007,36.862790000000075],[34.43368000000015,36.86263000000031],[34.43329000000017,36.862790000000075],[34.43182000000007,36.8613900000002],[34.43183000000016,36.86093000000034],[34.4315900000002,36.86092000000025],[34.430540000000235,36.860060000000146],[34.428530000000194,36.85986000000008],[34.428560000000175,36.859790000000146],[34.42795000000012,36.85953000000035],[34.42784000000012,36.8597400000001],[34.42685000000006,36.86035000000015],[34.42563000000018,36.859940000000165],[34.424790000000144,36.85891000000021],[34.424810000000036,36.85872000000012],[34.42459000000014,36.858550000000264],[34.4237500000001,36.85851000000048],[34.42332000000005,36.857990000000086],[34.42261000000008,36.85752000000031],[34.42157000000003,36.85720000000009],[34.421590000000094,36.856380000000456],[34.42142000000024,36.85589000000027],[34.42011000000019,36.85413000000045],[34.41795000000019,36.85358000000042],[34.41778000000011,36.853040000000135],[34.416980000000194,36.85264000000012],[34.416110000000174,36.85188000000045],[34.41597000000013,36.85194000000007],[34.415650000000085,36.85181000000034],[34.41455000000025,36.85114000000033],[34.41485000000017,36.85038000000014],[34.41503000000017,36.85017000000039],[34.414990000000046,36.849850000000174],[34.414780000000064,36.84969000000007],[34.415120000000115,36.84937000000025],[34.415300000000116,36.8483700000001],[34.414528618689474,36.84828313273562],[34.41438815500004,36.84818491500016],[34.41454015900001,36.84821523100004],[34.41455890200007,36.8459375610002],[34.43198470100009,36.84208411100008],[34.43196671900006,36.84199612500004],[34.43477261200013,36.846478230000116],[34.43490963900018,36.8465183200002],[34.43557505600006,36.84621282600017],[34.435719199000175,36.84623981500016],[34.439401289000045,36.850928862000444],[34.440719294000075,36.85034273800011],[34.44102612299997,36.85040002700015],[34.442688262000104,36.84990693000009],[34.444041786000184,36.85347055200009],[34.447316582999974,36.852321631000166],[34.44762305100011,36.84995323800018],[34.4477941830001,36.84987974600017],[34.44932181200011,36.854217979],[34.44977607200019,36.85442487600034],[34.44992398500011,36.854547868000054],[34.44983567500009,36.85572728200009],[34.450827016999995,36.85864144900006],[34.442652032000126,36.86065749100044],[34.442672673000175,36.860786635000466],[34.44488904400015,36.862303791000045],[34.444871136000074,36.86245293300067],[34.44360958700008,36.86308315300005],[34.43503497721605,36.86252894158923]]],"type":"Polygon"}},{"type":"Feature","properties":{"area_id":"TR-33-008-183331","name_tr":"Tol","area_level":"neighbourhood","parent_id":"TR-33-008","endeksa_id":183331},"geometry":{"coordinates":[[[34.398728018858264,36.848642705056875],[34.3989600000001,36.85045000000008],[34.39663000000007,36.85120000000035],[34.39770000000016,36.85196000000013],[34.397460000000194,36.85321000000039],[34.39822000000015,36.8541400000002],[34.39701000000008,36.85557000000023],[34.39654000000007,36.85704000000038],[34.39658000000003,36.858550000000264],[34.39374000000004,36.860600000000034],[34.39386000000019,36.86212000000006],[34.39293000000015,36.863600000000304],[34.38588000000004,36.86206000000004],[34.384850000000085,36.8515900000001],[34.38461000000012,36.85129000000012],[34.364850000000104,36.837820000000306],[34.363230000000215,36.83741000000032],[34.36316000000011,36.83676000000014],[34.363230000000215,36.8364000000002],[34.363600000000076,36.83596000000057],[34.36609000000004,36.834820000000036],[34.36670000000004,36.83472000000029],[34.36756000000014,36.8347100000002],[34.36812000000015,36.83456000000018],[34.369370000000174,36.83366000000069],[34.37004000000019,36.833430000000135],[34.37061000000011,36.83304000000055],[34.37164000000007,36.832660000000374],[34.3721000000001,36.8320800000007],[34.37251000000009,36.83187000000038],[34.37346000000019,36.830760000000225],[34.37400000000008,36.83037000000007],[34.37449000000015,36.83019000000013],[34.37540000000013,36.82966000000016],[34.37576000000007,36.82894000000027],[34.37573000000009,36.8266000000001],[34.3753200000001,36.8255200000001],[34.37540000000013,36.82467000000008],[34.37567000000007,36.82430000000005],[34.3763100000001,36.82269000000042],[34.37533000000019,36.82192000000009],[34.3751400000001,36.821290000000374],[34.376180000000204,36.820020000000454],[34.37663000000009,36.818160000000034],[34.3761300000001,36.81524000000019],[34.37639000000013,36.8141500000001],[34.37576000000007,36.81236000000047],[34.374760000000094,36.81102000000044],[34.374410000000125,36.81003000000027],[34.38673000000017,36.792750000000126],[34.38926000000009,36.790000000000646],[34.3893515893522,36.789954205323966],[34.389266323000186,36.79002451700012],[34.389788399,36.79336624600046],[34.392318148000186,36.796229580000045],[34.39872538800006,36.79653142500007],[34.40494765800008,36.80464761900032],[34.40186124900009,36.8111749210002],[34.40247783100011,36.816250189000016],[34.40236219100012,36.81632153700042],[34.400726338000084,36.816321445000085],[34.400306047000186,36.81809992800004],[34.40032912000004,36.821820805000186],[34.39986010500007,36.822362073000704],[34.40037251600012,36.828809548000095],[34.39639653600011,36.8421502920001],[34.39842064829281,36.848689305276935],[34.39859913329167,36.848779888622914],[34.398728018858264,36.848642705056875]]],"type":"Polygon"}},{"type":"Feature","properties":{"area_id":"TR-33-008-183333","name_tr":"Zeybekler","area_level":"neighbourhood","parent_id":"TR-33-008","endeksa_id":183333},"geometry":{"coordinates":[[[34.366980000000126,36.88232000000022],[34.36284000000006,36.88372000000021],[34.35681000000011,36.884700000000294],[34.356410000000096,36.88397000000032],[34.355240000000094,36.88412000000062],[34.35511000000014,36.88472000000053],[34.355150000000094,36.88490000000036],[34.35136000000023,36.885560000000396],[34.35099000000014,36.88551000000052],[34.350620000000106,36.88526000000007],[34.34969000000007,36.8853000000002],[34.34786000000014,36.88623000000041],[34.346850000000074,36.88693000000006],[34.34621000000004,36.887050000000045],[34.3450600000001,36.88760000000008],[34.344000000000165,36.88764000000003],[34.34312000000017,36.88743000000022],[34.3406100000002,36.88749000000024],[34.34027000000009,36.88756000000035],[34.33954000000011,36.88796000000019],[34.33753000000007,36.88471000000027],[34.33627000000007,36.88129000000026],[34.33602000000019,36.87564000000032],[34.335270000000094,36.87040000000019],[34.33371000000017,36.866700000000264],[34.33398000000017,36.86513000000042],[34.333860000000186,36.86502000000053],[34.33301000000017,36.86414000000019],[34.332600000000184,36.86338000000018],[34.33398000000017,36.86124000000041],[34.33491000000015,36.858860000000334],[34.334580000000244,36.85752000000031],[34.33547000000016,36.85665000000006],[34.33893000000006,36.856010000000026],[34.33943000000005,36.855360000000076],[34.34033000000011,36.85499000000004],[34.34070000000014,36.85401000000047],[34.341950000000224,36.85277000000019],[34.34249000000011,36.85268000000042],[34.3428100000001,36.852820000000065],[34.34312000000017,36.8523100000005],[34.34300000000019,36.8511900000002],[34.344220000000064,36.850680000000125],[34.34578000000022,36.849410000000034],[34.34618000000006,36.84767000000028],[34.348300000000165,36.84736000000021],[34.347150000000056,36.84499000000022],[34.34931000000006,36.84338000000059],[34.35045000000025,36.84378000000032],[34.35455000000019,36.84342000000038],[34.35875000000004,36.841290000000356],[34.359760000000165,36.840150000000506],[34.36036000000024,36.839870000000076],[34.361500000000035,36.83834000000013],[34.36205000000007,36.83785000000012],[34.362920000000145,36.837330000000236],[34.364850000000104,36.837820000000306],[34.38461000000012,36.85129000000012],[34.384850000000085,36.8515900000001],[34.38588000000004,36.86206000000004],[34.38196000000005,36.86690000000033],[34.37985000000009,36.87799000000007],[34.366980000000126,36.88232000000022]]],"type":"Polygon"}},{"type":"Feature","properties":{"area_id":"TR-33-008-183321","name_tr":"Kocayer","area_level":"neighbourhood","parent_id":"TR-33-008","endeksa_id":183321},"geometry":{"coordinates":[[[34.33954000000011,36.88796000000019],[34.33911000000006,36.888500000000136],[34.338850000000036,36.88868000000008],[34.33823000000007,36.888910000000465],[34.337210000000255,36.88905000000068],[34.336320000000114,36.890020000000106],[34.33468000000016,36.89066000000031],[34.33435000000003,36.890920000000506],[34.333590000000186,36.892280000000085],[34.333560000000034,36.89247000000017],[34.33383000000015,36.893520000000365],[34.33415000000019,36.89405000000016],[34.334240000000136,36.89437000000032],[34.33425000000011,36.89537000000064],[34.33442000000014,36.89607000000029],[34.33434000000011,36.896410000000174],[34.33407000000011,36.896650000000136],[34.33296000000013,36.897020000000055],[34.33245000000022,36.89788000000016],[34.3317100000001,36.898760000000095],[34.3292800000001,36.90052000000043],[34.32883000000015,36.900460000000294],[34.328200000000095,36.899960000000306],[34.32617000000016,36.897450000000106],[34.325690000000066,36.89695000000063],[34.32524000000012,36.896650000000136],[34.32443000000012,36.89578000000046],[34.324330000000145,36.89558000000028],[34.324200000000076,36.8947100000002],[34.3231600000002,36.89463000000052],[34.32189000000005,36.89419000000038],[34.3215100000001,36.89348000000007],[34.32119000000006,36.89313000000004],[34.32029000000023,36.892530000000136],[34.31998000000016,36.892010000000084],[34.31923000000006,36.89133000000032],[34.31691000000012,36.89233000000013],[34.31589000000014,36.89223000000021],[34.314730000000054,36.89239000000009],[34.31382000000008,36.89205000000021],[34.31337000000019,36.892190000000426],[34.311440000000175,36.89203000000015],[34.31119000000007,36.89221000000066],[34.30522000000013,36.88870000000014],[34.30285000000015,36.88813000000005],[34.29835000000014,36.88813000000005],[34.2923100000001,36.88699000000008],[34.28781000000009,36.88499000000013],[34.282480000000135,36.88214000000022],[34.27513000000005,36.879950000000235],[34.266370000000165,36.87709000000018],[34.25731000000019,36.87544000000008],[34.253520000000094,36.872430000000065],[34.25440000000009,36.8713300000004],[34.255190000000084,36.86981000000037],[34.25630000000007,36.86729000000008],[34.256770000000074,36.865240000000256],[34.26375000000013,36.86263000000031],[34.26676000000009,36.86002000000036],[34.273710000000165,36.860060000000146],[34.27833000000015,36.861680000000035],[34.28447000000011,36.86284000000012],[34.28487000000018,36.86406000000068],[34.286690000000135,36.86365000000018],[34.28782000000018,36.86482000000035],[34.2920400000001,36.86683000000039],[34.293100000000095,36.86724000000021],[34.29350000000011,36.867130000000316],[34.29554000000019,36.865340000000174],[34.29690000000005,36.86504000000008],[34.29758000000004,36.8641700000004],[34.30129000000005,36.86423000000053],[34.30298000000005,36.86343000000005],[34.30300000000011,36.86325000000045],[34.30338000000012,36.86317000000025],[34.30409000000009,36.86265000000054],[34.3045800000001,36.86293000000029],[34.30457000000018,36.863410000000215],[34.30474000000004,36.86343000000005],[34.30489000000017,36.86316000000011],[34.306140000000255,36.863260000000025],[34.306080000000065,36.863970000000336],[34.30532000000005,36.864280000000406],[34.30510000000015,36.86458000000039],[34.309490000000096,36.86509000000012],[34.31010000000015,36.86497000000065],[34.31037000000009,36.86406000000068],[34.31036000000017,36.86293000000029],[34.310920000000124,36.86285000000004],[34.31238000000013,36.86297000000019],[34.31317000000013,36.86290000000008],[34.31528000000009,36.861990000000105],[34.315960000000075,36.86190000000033],[34.316610000000026,36.861400000000174],[34.31700000000012,36.861640000000136],[34.32744000000008,36.86328000000009],[34.32794000000007,36.86260000000016],[34.32853000000006,36.86286000000018],[34.32942000000014,36.86348000000032],[34.32954000000012,36.863230000000215],[34.33001000000013,36.86371000000014],[34.33177000000006,36.8642100000003],[34.333860000000186,36.86502000000053],[34.33398000000017,36.86513000000042],[34.33371000000017,36.866700000000264],[34.335270000000094,36.87040000000019],[34.33602000000019,36.87564000000032],[34.33627000000007,36.88129000000026],[34.33753000000007,36.88471000000027],[34.33954000000011,36.88796000000019]]],"type":"Polygon"}},{"type":"Feature","properties":{"area_id":"TR-33-008-183327","name_tr":"Sarılar","area_level":"neighbourhood","parent_id":"TR-33-008","endeksa_id":183327},"geometry":{"coordinates":[[[34.3292800000001,36.90052000000043],[34.32855000000012,36.902850000000115],[34.324480000000165,36.907550000000185],[34.32085000000018,36.9102000000002],[34.318070000000034,36.91397000000006],[34.317360000000065,36.91252000000014],[34.31256000000013,36.90967000000006],[34.311320000000194,36.909040000000516],[34.30974000000003,36.90797000000009],[34.30834000000016,36.90727000000044],[34.3076200000001,36.90680000000009],[34.30730000000011,36.906410000000335],[34.30716000000007,36.90602000000007],[34.30668000000014,36.905260000000396],[34.30677000000014,36.90503000000018],[34.30669000000006,36.904800000000705],[34.30588000000023,36.904020000000116],[34.30532000000005,36.903990000000476],[34.30501000000015,36.90406000000007],[34.303850000000125,36.904480000000376],[34.303630000000226,36.90466000000049],[34.30356000000012,36.904830000000345],[34.302490000000034,36.90534000000008],[34.301990000000046,36.90569000000045],[34.30189000000013,36.905660000000125],[34.30170000000004,36.90482000000026],[34.30151000000012,36.90454000000051],[34.301250000000095,36.904370000000654],[34.30101000000013,36.90436000000017],[34.29968000000025,36.904950000000326],[34.29888000000011,36.9050000000002],[34.29856000000012,36.90513000000033],[34.29829000000018,36.90506000000022],[34.29802000000018,36.90510000000012],[34.29798000000011,36.90519000000029],[34.297750000000065,36.90519000000029],[34.29765000000015,36.90509000000054],[34.297220000000095,36.90530000000018],[34.29674000000017,36.90572000000009],[34.29624000000018,36.905880000000536],[34.29572000000013,36.904800000000705],[34.29548000000017,36.90478000000047],[34.2952600000001,36.904890000000364],[34.2942700000001,36.90484000000009],[34.29442000000006,36.90376000000009],[34.29457000000019,36.90327000000059],[34.29393000000016,36.90309000000008],[34.29293000000024,36.90212000000065],[34.292580000000044,36.902010000000075],[34.29268000000013,36.90149000000042],[34.29244000000017,36.90115000000014],[34.292270000000144,36.901050000000225],[34.291770000000156,36.90164000000004],[34.28823000000017,36.898330000000044],[34.27942000000007,36.89513000000068],[34.27813000000009,36.89509000000021],[34.27666000000016,36.894910000000266],[34.27599000000015,36.89404000000019],[34.27413000000007,36.893520000000365],[34.27367000000004,36.89330000000007],[34.269220000000075,36.89309000000031],[34.26781000000011,36.892370000000426],[34.26772000000011,36.892900000000225],[34.26592000000005,36.8926800000001],[34.2592800000001,36.891440000000216],[34.25876000000005,36.89162000000016],[34.25740000000013,36.89046000000013],[34.256640000000175,36.89000000000004],[34.232320000000186,36.889780000000144],[34.232230000000186,36.88977000000057],[34.23489000000018,36.88826000000017],[34.24042000000014,36.885190000000364],[34.240970000000175,36.88344000000012],[34.241620000000125,36.8839100000003],[34.24214000000018,36.88356000000033],[34.24353000000008,36.8838300000001],[34.244660000000124,36.88329000000016],[34.245180000000175,36.88217000000003],[34.246800000000064,36.88054000000017],[34.24682000000013,36.88043000000016],[34.24858000000012,36.88077000000055],[34.24947000000003,36.879580000000146],[34.25069000000008,36.878900000000044],[34.25148000000007,36.878750000000025],[34.25281000000018,36.878280000000586],[34.253480000000195,36.87768000000017],[34.25372000000016,36.87759000000034],[34.25425000000013,36.87749000000008],[34.25653000000011,36.87765000000036],[34.25731000000019,36.87544000000008],[34.266370000000165,36.87709000000018],[34.27513000000005,36.879950000000235],[34.282480000000135,36.88214000000022],[34.28781000000009,36.88499000000013],[34.2923100000001,36.88699000000008],[34.29835000000014,36.88813000000005],[34.30285000000015,36.88813000000005],[34.30522000000013,36.88870000000014],[34.31119000000007,36.89221000000066],[34.311440000000175,36.89203000000015],[34.31337000000019,36.892190000000426],[34.31382000000008,36.89205000000021],[34.314730000000054,36.89239000000009],[34.31589000000014,36.89223000000021],[34.31691000000012,36.89233000000013],[34.31923000000006,36.89133000000032],[34.31998000000016,36.892010000000084],[34.32029000000023,36.892530000000136],[34.32119000000006,36.89313000000004],[34.3215100000001,36.89348000000007],[34.32189000000005,36.89419000000038],[34.3231600000002,36.89463000000052],[34.324200000000076,36.8947100000002],[34.324330000000145,36.89558000000028],[34.32443000000012,36.89578000000046],[34.32524000000012,36.896650000000136],[34.325690000000066,36.89695000000063],[34.32617000000016,36.897450000000106],[34.328200000000095,36.899960000000306],[34.32883000000015,36.900460000000294],[34.3292800000001,36.90052000000043]]],"type":"Polygon"}},{"type":"Feature","properties":{"area_id":"TR-33-008-183315","name_tr":"Akarca","area_level":"neighbourhood","parent_id":"TR-33-008","endeksa_id":183315},"geometry":{"coordinates":[[[34.44357000000008,36.912100000000066],[34.41144000000014,36.918210000000386],[34.39913000000013,36.904210000000205],[34.38245000000006,36.90253000000047],[34.38197000000014,36.90050000000019],[34.384020000000135,36.899440000000595],[34.384360000000186,36.89781000000005],[34.38514000000009,36.896530000000155],[34.38412000000005,36.89508000000012],[34.38623000000018,36.89307000000008],[34.38607000000013,36.8909900000001],[34.38459000000006,36.891200000000254],[34.3842600000001,36.88979000000012],[34.38335000000012,36.88886000000059],[34.366980000000126,36.88232000000022],[34.37985000000009,36.87799000000007],[34.38196000000005,36.86690000000033],[34.38588000000004,36.86206000000004],[34.39293000000015,36.863600000000304],[34.39386000000019,36.86212000000006],[34.39374000000004,36.860600000000034],[34.39658000000003,36.858550000000264],[34.39654000000007,36.85704000000038],[34.39701000000008,36.85557000000023],[34.39822000000015,36.8541400000002],[34.397460000000194,36.85321000000039],[34.39770000000016,36.85196000000013],[34.39663000000007,36.85120000000035],[34.3989600000001,36.85045000000008],[34.39853000000005,36.84710000000018],[34.404030000000034,36.84832000000006],[34.404550000000086,36.84832000000006],[34.40482000000003,36.84911000000005],[34.40590000000003,36.84961000000021],[34.40611000000018,36.8491200000002],[34.40888000000024,36.84829000000042],[34.41046000000023,36.847400000000675],[34.41308000000009,36.84812000000056],[34.415300000000116,36.8483700000001],[34.415120000000115,36.84937000000025],[34.414780000000064,36.84969000000007],[34.414990000000046,36.849850000000174],[34.41503000000017,36.85017000000039],[34.41485000000017,36.85038000000014],[34.41455000000025,36.85114000000033],[34.415650000000085,36.85181000000034],[34.41597000000013,36.85194000000007],[34.416110000000174,36.85188000000045],[34.416980000000194,36.85264000000012],[34.41778000000011,36.853040000000135],[34.41795000000019,36.85358000000042],[34.42011000000019,36.85413000000045],[34.42142000000024,36.85589000000027],[34.421590000000094,36.856380000000456],[34.42157000000003,36.85720000000009],[34.42261000000008,36.85752000000031],[34.42332000000005,36.857990000000086],[34.4237500000001,36.85851000000048],[34.42459000000014,36.858550000000264],[34.424810000000036,36.85872000000012],[34.424790000000144,36.85891000000021],[34.42563000000018,36.859940000000165],[34.42685000000006,36.86035000000015],[34.42784000000012,36.8597400000001],[34.42795000000012,36.85953000000035],[34.428560000000175,36.859790000000146],[34.428530000000194,36.85986000000008],[34.430540000000235,36.860060000000146],[34.4315900000002,36.86092000000025],[34.43183000000016,36.86093000000034],[34.43182000000007,36.8613900000002],[34.43329000000017,36.862790000000075],[34.43368000000015,36.86263000000031],[34.43378000000007,36.862790000000075],[34.4341500000001,36.86285000000004],[34.434230000000184,36.863140000000044],[34.43503497721605,36.86252894158923],[34.43530000000004,36.86407000000008],[34.43524000000008,36.86424000000011],[34.43555000000015,36.86461000000003],[34.43617000000012,36.86826000000019],[34.43580000000003,36.8688200000002],[34.436280000000124,36.86979000000014],[34.436460000000125,36.87070000000011],[34.43622000000016,36.879460000000165],[34.431230000000085,36.89251000000007],[34.44357000000008,36.912100000000066]]],"type":"Polygon"}},{"type":"Feature","properties":{"area_id":"TR-33-008-183305","name_tr":"Tepeköy","area_level":"neighbourhood","parent_id":"TR-33-008","endeksa_id":183305},"geometry":{"coordinates":[[[34.26557000000025,36.96525000000014],[34.23892000000018,36.96891000000028],[34.221390000000156,36.96926000000013],[34.20881000000003,36.94971000000044],[34.18383000000017,36.94925000000006],[34.180690000000254,36.94896000000023],[34.17950000000019,36.93942000000027],[34.180040000000076,36.93861000000004],[34.18059000000011,36.9385400000001],[34.18328000000014,36.93787000000009],[34.183290000000056,36.93753000000021],[34.18427000000014,36.937040000000195],[34.18489000000011,36.936510000000396],[34.18687000000017,36.93635000000063],[34.18750000000006,36.93579000000034],[34.19095000000004,36.9340000000002],[34.19149000000016,36.9332500000001],[34.191410000000076,36.932390000000396],[34.19121000000007,36.931810000000155],[34.190910000000144,36.931380000000104],[34.190820000000144,36.930850000000305],[34.19157000000018,36.930040000000076],[34.19224000000003,36.93031000000042],[34.19259000000005,36.930190000000266],[34.192340000000115,36.92973000000018],[34.19335000000024,36.928220000000124],[34.19474000000014,36.91832000000028],[34.19532000000015,36.91320000000013],[34.20399000000003,36.908670000000086],[34.21480000000008,36.899470000000235],[34.22026000000011,36.89834000000053],[34.222630000000095,36.89548000000036],[34.22757000000007,36.89266000000026],[34.22822000000019,36.89220000000017],[34.232320000000186,36.889780000000144],[34.256640000000175,36.89000000000004],[34.25740000000013,36.89046000000013],[34.25876000000005,36.89162000000016],[34.2592800000001,36.891440000000216],[34.26592000000005,36.8926800000001],[34.26772000000011,36.892900000000225],[34.26781000000011,36.892370000000426],[34.269220000000075,36.89309000000031],[34.27367000000004,36.89330000000007],[34.27413000000007,36.893520000000365],[34.27599000000015,36.89404000000019],[34.27666000000016,36.894910000000266],[34.27813000000009,36.89509000000021],[34.27942000000007,36.89513000000068],[34.28823000000017,36.898330000000044],[34.291770000000156,36.90164000000004],[34.292270000000144,36.901050000000225],[34.29244000000017,36.90115000000014],[34.29268000000013,36.90149000000042],[34.292580000000044,36.902010000000075],[34.29293000000024,36.90212000000065],[34.29393000000016,36.90309000000008],[34.29457000000019,36.90327000000059],[34.29442000000006,36.90376000000009],[34.2942700000001,36.90484000000009],[34.2952600000001,36.904890000000364],[34.29548000000017,36.90478000000047],[34.29572000000013,36.904800000000705],[34.29624000000018,36.905880000000536],[34.29674000000017,36.90572000000009],[34.297220000000095,36.90530000000018],[34.29765000000015,36.90509000000054],[34.297750000000065,36.90519000000029],[34.29798000000011,36.90519000000029],[34.29802000000018,36.90510000000012],[34.29829000000018,36.90506000000022],[34.29856000000012,36.90513000000033],[34.29888000000011,36.9050000000002],[34.29968000000025,36.904950000000326],[34.30101000000013,36.90436000000017],[34.301250000000095,36.904370000000654],[34.30151000000012,36.90454000000051],[34.30170000000004,36.90482000000026],[34.30189000000013,36.905660000000125],[34.301990000000046,36.90569000000045],[34.302490000000034,36.90534000000008],[34.30356000000012,36.904830000000345],[34.303630000000226,36.90466000000049],[34.303850000000125,36.904480000000376],[34.30501000000015,36.90406000000007],[34.30532000000005,36.903990000000476],[34.30588000000023,36.904020000000116],[34.30669000000006,36.904800000000705],[34.30677000000014,36.90503000000018],[34.30668000000014,36.905260000000396],[34.30716000000007,36.90602000000007],[34.30730000000011,36.906410000000335],[34.3076200000001,36.90680000000009],[34.30834000000016,36.90727000000044],[34.30974000000003,36.90797000000009],[34.311320000000194,36.909040000000516],[34.31256000000013,36.90967000000006],[34.317360000000065,36.91252000000014],[34.318070000000034,36.91397000000006],[34.31871000000024,36.91456000000039],[34.31920000000008,36.91645000000028],[34.31561000000005,36.92219000000017],[34.30483000000004,36.93237000000033],[34.30075000000011,36.93707000000052],[34.29018000000008,36.94332000000037],[34.27925000000005,36.94622000000015],[34.27568000000008,36.94707000000017],[34.26738000000006,36.949310000000025],[34.26557000000025,36.96525000000014]]],"type":"Polygon"}},{"type":"Feature","properties":{"area_id":"TR-33-008-183303","name_tr":"Fındıkpınarı","area_level":"neighbourhood","parent_id":"TR-33-008","endeksa_id":183303},"geometry":{"coordinates":[[[34.41144000000014,36.918210000000386],[34.39891000000006,36.92420000000004],[34.397280000000194,36.92541000000017],[34.39726000000013,36.92550000000034],[34.39536000000015,36.925890000000095],[34.39534000000009,36.92634000000021],[34.38407000000018,36.935090000000116],[34.382660000000044,36.935400000000186],[34.383180000000095,36.935800000000086],[34.384200000000135,36.93583000000024],[34.38314000000014,36.93649000000016],[34.38292000000007,36.936420000000055],[34.38375000000019,36.93732000000006],[34.384080000000154,36.93750000000057],[34.38385000000011,36.93870000000038],[34.38326000000012,36.9387200000001],[34.38049000000012,36.949800000000096],[34.37575000000015,36.94867000000039],[34.37483000000003,36.948190000000295],[34.3752300000001,36.949190000000044],[34.37328000000019,36.94975000000022],[34.35280000000017,36.959710000000086],[34.34569000000005,36.963280000000054],[34.34008000000017,36.96680000000049],[34.339040000000125,36.97006000000022],[34.339350000000195,36.97041000000007],[34.33934000000005,36.97076000000004],[34.33963000000011,36.97133000000014],[34.3344800000001,36.972660000000076],[34.32586000000009,36.96952000000033],[34.31695000000008,36.96426000000065],[34.315130000000124,36.96358000000015],[34.31452000000013,36.96323000000018],[34.31213000000008,36.963180000000136],[34.27841000000018,36.95923000000016],[34.27174000000019,36.96247000000034],[34.270710000000065,36.96281000000005],[34.26837000000012,36.96423000000033],[34.26781000000011,36.9643200000001],[34.26557000000025,36.96525000000014],[34.26738000000006,36.949310000000025],[34.27568000000008,36.94707000000017],[34.27925000000005,36.94622000000015],[34.29018000000008,36.94332000000037],[34.30075000000011,36.93707000000052],[34.30483000000004,36.93237000000033],[34.31561000000005,36.92219000000017],[34.31920000000008,36.91645000000028],[34.31871000000024,36.91456000000039],[34.318070000000034,36.91397000000006],[34.32085000000018,36.9102000000002],[34.324480000000165,36.907550000000185],[34.32855000000012,36.902850000000115],[34.3292800000001,36.90052000000043],[34.3317100000001,36.898760000000095],[34.33245000000022,36.89788000000016],[34.33296000000013,36.897020000000055],[34.33407000000011,36.896650000000136],[34.33434000000011,36.896410000000174],[34.33442000000014,36.89607000000029],[34.33425000000011,36.89537000000064],[34.334240000000136,36.89437000000032],[34.33415000000019,36.89405000000016],[34.33383000000015,36.893520000000365],[34.333560000000034,36.89247000000017],[34.333590000000186,36.892280000000085],[34.33435000000003,36.890920000000506],[34.33468000000016,36.89066000000031],[34.336320000000114,36.890020000000106],[34.337210000000255,36.88905000000068],[34.33823000000007,36.888910000000465],[34.338850000000036,36.88868000000008],[34.33911000000006,36.888500000000136],[34.33954000000011,36.88796000000019],[34.34027000000009,36.88756000000035],[34.3406100000002,36.88749000000024],[34.34312000000017,36.88743000000022],[34.344000000000165,36.88764000000003],[34.3450600000001,36.88760000000008],[34.34621000000004,36.887050000000045],[34.346850000000074,36.88693000000006],[34.34786000000014,36.88623000000041],[34.34969000000007,36.8853000000002],[34.350620000000106,36.88526000000007],[34.35099000000014,36.88551000000052],[34.35136000000023,36.885560000000396],[34.355150000000094,36.88490000000036],[34.35511000000014,36.88472000000053],[34.355240000000094,36.88412000000062],[34.356410000000096,36.88397000000032],[34.35681000000011,36.884700000000294],[34.36284000000006,36.88372000000021],[34.366980000000126,36.88232000000022],[34.38335000000012,36.88886000000059],[34.3842600000001,36.88979000000012],[34.38459000000006,36.891200000000254],[34.38607000000013,36.8909900000001],[34.38623000000018,36.89307000000008],[34.38412000000005,36.89508000000012],[34.38514000000009,36.896530000000155],[34.384360000000186,36.89781000000005],[34.384020000000135,36.899440000000595],[34.38197000000014,36.90050000000019],[34.38245000000006,36.90253000000047],[34.39913000000013,36.904210000000205],[34.41144000000014,36.918210000000386]]],"type":"Polygon"}},{"type":"Feature","properties":{"area_id":"TR-33-008-183317","name_tr":"Demirışık","area_level":"neighbourhood","parent_id":"TR-33-008","endeksa_id":183317},"geometry":{"coordinates":[[[34.47281000000015,36.941720000000146],[34.45751000000007,36.95301000000063],[34.431380000000104,36.96256000000017],[34.43037000000015,36.96177000000068],[34.43025000000017,36.96171000000015],[34.430080000000146,36.96182000000056],[34.430080000000146,36.96163000000047],[34.42897000000016,36.96174000000036],[34.428530000000194,36.961260000000266],[34.4247000000002,36.96313000000026],[34.42136000000005,36.96518000000003],[34.420600000000036,36.96624000000037],[34.420390000000054,36.9662800000001],[34.420170000000155,36.96656000000053],[34.420130000000086,36.966810000000066],[34.41928000000007,36.96670000000006],[34.41894000000019,36.966880000000174],[34.41871000000015,36.967220000000054],[34.418740000000184,36.967310000000055],[34.41756000000004,36.96778000000006],[34.41798000000017,36.96808000000016],[34.41789000000017,36.968800000000044],[34.417660000000126,36.96910000000037],[34.416540000000225,36.96949000000012],[34.41634000000016,36.96971000000042],[34.41625000000022,36.97008000000045],[34.41594000000015,36.96993000000015],[34.41475000000008,36.969780000000355],[34.41423000000003,36.9700900000002],[34.413720000000126,36.970560000000376],[34.41300000000007,36.97053000000005],[34.41210000000018,36.971580000000245],[34.41144000000014,36.972140000000365],[34.405170000000226,36.9740000000001],[34.40457000000015,36.97395000000023],[34.40113000000008,36.97430000000003],[34.400990000000036,36.97501000000051],[34.400350000000174,36.97538000000003],[34.40060000000011,36.97589000000016],[34.40009000000015,36.97602000000023],[34.39078000000006,36.979730000000245],[34.38763000000006,36.980480000000114],[34.38539000000014,36.9817300000002],[34.38537000000008,36.98209000000014],[34.38369000000017,36.981960000000186],[34.38201000000009,36.98209000000014],[34.379900000000134,36.982050000000356],[34.37849000000017,36.981840000000034],[34.37771000000009,36.981710000000135],[34.37797000000012,36.981590000000665],[34.37816000000004,36.981180000000165],[34.37756000000013,36.98089000000033],[34.37743000000006,36.98063000000013],[34.37458000000015,36.98030000000051],[34.37437000000017,36.98043000000007],[34.37343000000021,36.98040000000026],[34.37196000000006,36.98000000000019],[34.37103000000019,36.97989000000018],[34.36903000000012,36.98115000000013],[34.36697000000004,36.98839000000055],[34.36009000000007,36.98566000000062],[34.350986484593534,36.98274947751662],[34.349760000000174,36.98158000000018],[34.33754000000016,36.979390000000535],[34.3344800000001,36.972660000000076],[34.33963000000011,36.97133000000014],[34.33934000000005,36.97076000000004],[34.339350000000195,36.97041000000007],[34.339040000000125,36.97006000000022],[34.34008000000017,36.96680000000049],[34.34569000000005,36.963280000000054],[34.35280000000017,36.959710000000086],[34.37328000000019,36.94975000000022],[34.3752300000001,36.949190000000044],[34.37483000000003,36.948190000000295],[34.37575000000015,36.94867000000039],[34.38049000000012,36.949800000000096],[34.38326000000012,36.9387200000001],[34.38385000000011,36.93870000000038],[34.384080000000154,36.93750000000057],[34.38375000000019,36.93732000000006],[34.38292000000007,36.936420000000055],[34.38314000000014,36.93649000000016],[34.384200000000135,36.93583000000024],[34.383180000000095,36.935800000000086],[34.382660000000044,36.935400000000186],[34.38407000000018,36.935090000000116],[34.39534000000009,36.92634000000021],[34.39536000000015,36.925890000000095],[34.39726000000013,36.92550000000034],[34.397280000000194,36.92541000000017],[34.39891000000006,36.92420000000004],[34.41144000000014,36.918210000000386],[34.44357000000008,36.912100000000066],[34.444360000000074,36.92369000000048],[34.47281000000015,36.941720000000146]]],"type":"Polygon"}}]}