{"type":"FeatureCollection","source_id":"endeksa","retrieved_at":"2026-08-23","features":[{"type":"Feature","properties":{"area_id":"TR-31-011-149777","name_tr":"Batıayrancı","area_level":"neighbourhood","parent_id":"TR-31-011","endeksa_id":149777},"geometry":{"coordinates":[[[36.56077000000005,36.324180000000126],[36.560250000000224,36.32492000000008],[36.5600800000002,36.32581000000039],[36.5601200000001,36.32593000000037],[36.560590000000104,36.32625000000053],[36.56074000000007,36.32659000000024],[36.56069000000019,36.32677000000024],[36.56047000000012,36.32698000000039],[36.56036000000006,36.32742000000019],[36.56052000000017,36.32763000000034],[36.56057000000004,36.32790000000011],[36.560490000000186,36.328020000000606],[36.56043000000017,36.32872000000026],[36.560250000000224,36.32884000000024],[36.56004000000007,36.32923000000039],[36.56027000000006,36.329720000000066],[36.56044000000014,36.3298700000002],[36.56047000000012,36.330070000000035],[36.560410000000104,36.33006000000029],[36.56047000000012,36.33055000000036],[36.56033000000008,36.331210000000226],[36.55360000000013,36.32965000000047],[36.5510000000001,36.32918000000012],[36.550920000000076,36.33167000000009],[36.552690000000155,36.33186000000018],[36.55223000000012,36.334280000000035],[36.55104000000006,36.33415000000048],[36.55036000000007,36.33398000000011],[36.54972000000009,36.33599000000015],[36.54887000000008,36.335820000000126],[36.5487100000002,36.3362800000005],[36.546180000000106,36.335740000000044],[36.545940000000144,36.33637000000016],[36.53718000000009,36.3334200000001],[36.53651000000008,36.33371000000034],[36.53633000000008,36.33398000000011],[36.53642000000008,36.33489000000009],[36.53620000000018,36.335390000000075],[36.53555000000006,36.33607000000018],[36.5352000000002,36.33689000000038],[36.53455000000008,36.33764000000008],[36.53314000000012,36.33972000000023],[36.53296000000017,36.340600000000165],[36.532310000000166,36.341000000000236],[36.53222000000022,36.34126000000043],[36.532280000000185,36.34161000000029],[36.53198000000009,36.34226000000007],[36.5317800000002,36.34260000000046],[36.531410000000164,36.342890000000295],[36.531190000000095,36.34335000000016],[36.52907000000016,36.3428100000001],[36.52573000000024,36.341530000000034],[36.520250000000146,36.339910000000316],[36.52155000000005,36.336450000000355],[36.52014000000008,36.335890000000234],[36.51866000000018,36.3351600000002],[36.51901000000004,36.3348100000004],[36.518860000000245,36.334650000000124],[36.51919000000015,36.33423000000016],[36.52022000000011,36.33419000000026],[36.521560000000136,36.33389000000028],[36.52243000000021,36.333380000000034],[36.52449000000013,36.331580000000315],[36.52541000000019,36.33038000000033],[36.52584000000007,36.3294800000001],[36.52643000000006,36.32913000000008],[36.5259200000001,36.328890000000115],[36.52620000000019,36.32829000000021],[36.526300000000106,36.328240000000335],[36.52623000000017,36.32819000000046],[36.526270000000125,36.32806000000039],[36.52638000000019,36.327990000000284],[36.52631000000008,36.32794000000041],[36.52662000000015,36.32736000000017],[36.52721000000008,36.326780000000326],[36.52737000000019,36.32632000000012],[36.52751000000006,36.32546000000053],[36.5281700000001,36.32500000000016],[36.528250000000185,36.32507000000027],[36.52845000000019,36.324950000000285],[36.52894000000009,36.32435000000038],[36.5290100000002,36.324370000000044],[36.52939000000015,36.32305000000008],[36.52932000000004,36.32302000000044],[36.52935000000008,36.322260000000085],[36.529240000000186,36.321790000000306],[36.528780000000154,36.32128000000017],[36.52839000000023,36.320990000000165],[36.528150000000096,36.32060000000058],[36.529870000000074,36.31837000000013],[36.52991000000003,36.31821000000036],[36.52969000000013,36.3172900000003],[36.52980000000019,36.31688000000031],[36.531310000000246,36.31607000000025],[36.53155000000021,36.31575000000004],[36.533580000000086,36.31651000000039],[36.53772000000015,36.31763000000069],[36.53712000000007,36.318670000000054],[36.54215000000005,36.319560000000365],[36.54655000000014,36.320520000000386],[36.54666000000003,36.31993000000057],[36.555230000000165,36.32036000000062],[36.555110000000184,36.32153000000011],[36.55931000000004,36.32197000000025],[36.55927000000014,36.322760000000244],[36.55950000000013,36.323190000000295],[36.5600300000001,36.32386000000031],[36.56077000000005,36.324180000000126]]],"type":"Polygon"}},{"type":"Feature","properties":{"area_id":"TR-31-011-149779","name_tr":"Doğuayrancı","area_level":"neighbourhood","parent_id":"TR-31-011","endeksa_id":149779},"geometry":{"coordinates":[[[36.563410000000204,36.35630000000015],[36.562290000000075,36.35712000000035],[36.56023000000016,36.35824000000008],[36.55959000000013,36.35284000000007],[36.55415000000016,36.35524000000038],[36.55415000000016,36.35588000000007],[36.54512000000017,36.35378000000037],[36.54536000000013,36.352890000000116],[36.54024000000015,36.35143000000062],[36.54099000000019,36.349080000000185],[36.53700000000009,36.34787000000023],[36.53066000000007,36.34575000000035],[36.53072000000009,36.34533000000039],[36.53094000000016,36.34492000000057],[36.53102000000024,36.34423000000032],[36.53125000000006,36.3437500000004],[36.531190000000095,36.34335000000016],[36.531410000000164,36.342890000000295],[36.5317800000002,36.34260000000046],[36.53198000000009,36.34226000000007],[36.532280000000185,36.34161000000029],[36.53222000000022,36.34126000000043],[36.532310000000166,36.341000000000236],[36.53296000000017,36.340600000000165],[36.53314000000012,36.33972000000023],[36.53455000000008,36.33764000000008],[36.5352000000002,36.33689000000038],[36.53555000000006,36.33607000000018],[36.53620000000018,36.335390000000075],[36.53642000000008,36.33489000000009],[36.53633000000008,36.33398000000011],[36.53651000000008,36.33371000000034],[36.53718000000009,36.3334200000001],[36.545940000000144,36.33637000000016],[36.546180000000106,36.335740000000044],[36.5487100000002,36.3362800000005],[36.54887000000008,36.335820000000126],[36.54972000000009,36.33599000000015],[36.55036000000007,36.33398000000011],[36.55104000000006,36.33415000000048],[36.55223000000012,36.334280000000035],[36.552690000000155,36.33186000000018],[36.550920000000076,36.33167000000009],[36.5510000000001,36.32918000000012],[36.55360000000013,36.32965000000047],[36.56033000000008,36.331210000000226],[36.56047000000012,36.33055000000036],[36.560410000000104,36.33006000000029],[36.56047000000012,36.330070000000035],[36.56044000000014,36.3298700000002],[36.56027000000006,36.329720000000066],[36.56004000000007,36.32923000000039],[36.560250000000224,36.32884000000024],[36.56043000000017,36.32872000000026],[36.560490000000186,36.328020000000606],[36.56057000000004,36.32790000000011],[36.56052000000017,36.32763000000034],[36.56036000000006,36.32742000000019],[36.56047000000012,36.32698000000039],[36.56069000000019,36.32677000000024],[36.56074000000007,36.32659000000024],[36.560590000000104,36.32625000000053],[36.5601200000001,36.32593000000037],[36.5600800000002,36.32581000000039],[36.560250000000224,36.32492000000008],[36.56077000000005,36.324180000000126],[36.561990000000094,36.326010000000565],[36.562260000000094,36.32665000000026],[36.56299000000007,36.327370000000144],[36.56380000000013,36.32847000000021],[36.564150000000154,36.329360000000634],[36.56428000000005,36.33010000000007],[36.56426000000016,36.331150000000264],[36.56408000000022,36.33272000000011],[36.56373000000019,36.334680000000276],[36.56376000000017,36.33495000000005],[36.56398000000007,36.335390000000075],[36.56429000000014,36.33546000000018],[36.56448000000006,36.33571000000023],[36.56450000000012,36.33590000000032],[36.5642000000002,36.336360000000184],[36.564310000000035,36.33665000000042],[36.56362000000013,36.337710000000186],[36.56342000000012,36.33889000000045],[36.56287000000009,36.33955000000037],[36.56319000000008,36.34008000000017],[36.56389000000013,36.340220000000386],[36.56491000000011,36.3412000000003],[36.56479000000013,36.34251000000012],[36.56630000000018,36.34319000000028],[36.566420000000164,36.34332000000035],[36.5664900000001,36.34468000000061],[36.56687000000011,36.34519000000017],[36.56690000000009,36.346270000000175],[36.56814000000003,36.34806000000032],[36.566820000000064,36.353450000000066],[36.567370000000096,36.35360000000043],[36.56525000000022,36.35485000000011],[36.563410000000204,36.35630000000015]]],"type":"Polygon"}},{"type":"Feature","properties":{"area_id":"TR-31-011-149775","name_tr":"Aktaş","area_level":"neighbourhood","parent_id":"TR-31-011","endeksa_id":149775},"geometry":{"coordinates":[[[36.37840468504237,36.378708615421885],[36.378290000000106,36.38134000000019],[36.37443000000013,36.38033000000013],[36.371790000000146,36.37915000000055],[36.367860000000064,36.37754000000024],[36.36307000000005,36.380590000000325],[36.3600400000002,36.37798000000038],[36.35523000000012,36.37547000000018],[36.3540900000001,36.37454000000014],[36.34084000000013,36.37216000000058],[36.3382900000002,36.37159000000031],[36.33610000000016,36.370830000000126],[36.334280000000035,36.36995000000036],[36.33344000000017,36.369440000000054],[36.33264000000008,36.3694900000001],[36.330350000000124,36.367510000000266],[36.32699000000014,36.36538000000024],[36.325790000000154,36.36564000000004],[36.323060000000226,36.36430000000041],[36.325420000000065,36.3636300000004],[36.326350000000105,36.362340000000245],[36.32806000000022,36.36190000000005],[36.32881000000009,36.36109000000016],[36.33041000000014,36.359060000000284],[36.331000000000074,36.35839000000027],[36.33119000000016,36.358340000000396],[36.33228000000014,36.356920000000116],[36.3330900000002,36.357020000000034],[36.335170000000176,36.358070000000055],[36.33572000000021,36.35700000000037],[36.336970000000065,36.357330000000104],[36.33726000000007,36.356670000000065],[36.338060000000155,36.355500000000575],[36.33844000000016,36.35511000000031],[36.33972000000023,36.354170000000124],[36.34081000000015,36.354600000000175],[36.34105000000011,36.354450000000384],[36.341180000000236,36.35412000000008],[36.34195000000017,36.353510000000085],[36.34221000000019,36.35316000000023],[36.34216000000015,36.352800000000286],[36.34316000000007,36.35174000000018],[36.34334000000007,36.351410000000385],[36.343540000000075,36.35135000000042],[36.344340000000216,36.35021000000006],[36.34511000000015,36.349580000000344],[36.345390000000236,36.34911000000051],[36.348060000000146,36.350260000000446],[36.34625000000011,36.35254000000009],[36.34619000000015,36.35288000000037],[36.35143000000011,36.35081000000048],[36.35375000000005,36.34942000000058],[36.35566000000017,36.34945000000022],[36.36074000000019,36.348930000000166],[36.36666000000008,36.34876000000014],[36.36999000000009,36.348650000000134],[36.370180000000175,36.34969000000018],[36.37028493204366,36.35118766644047],[36.370360000000176,36.3541800000001],[36.371010000000126,36.35778000000022],[36.37242000000009,36.36164000000042],[36.372810000000186,36.36460000000034],[36.37847000000005,36.377210000000105],[36.37840468504237,36.378708615421885]]],"type":"Polygon"}},{"type":"Feature","properties":{"area_id":"TR-31-011-149785","name_tr":"Hatayhamamı","area_level":"neighbourhood","parent_id":"TR-31-011","endeksa_id":149785},"geometry":{"coordinates":[[[36.606911253002295,36.3258777695919],[36.60561980700021,36.326255680000315],[36.605315752000024,36.32664002400014],[36.6037240040003,36.33232101800013],[36.602716833000216,36.33247466500086],[36.601959571000236,36.337687707000214],[36.60001471400017,36.34337308700003],[36.5991691370001,36.34922473600005],[36.60472977200004,36.34989769500004],[36.611800577000224,36.35241537200079],[36.61846129800023,36.35747928900065],[36.61161790700004,36.36196313700003],[36.60779148300014,36.363860136000085],[36.60355337400006,36.36672002600005],[36.60331050300027,36.36763842100032],[36.600221272000056,36.36838497400015],[36.59977996200013,36.36867143900014],[36.59895837300007,36.370014139000034],[36.597196362000034,36.37169376600019],[36.59702531100021,36.37223253799999],[36.601741196000205,36.37347639600006],[36.602471545000355,36.3738626330005],[36.60518940100013,36.37662988200003],[36.60600177400033,36.37892897700033],[36.606064845000105,36.379465332000166],[36.605644689000314,36.38050176600012],[36.605315129000246,36.38055720700072],[36.60551384400026,36.38067582200085],[36.60552075200013,36.38096771400012],[36.60495426700004,36.38260140000011],[36.604958518290914,36.38309512914623],[36.604865316818234,36.382980554811525],[36.59436000000022,36.37927000000053],[36.59168000000017,36.378820000000246],[36.59087000000011,36.37836000000004],[36.589490000000126,36.37738000000047],[36.58814000000018,36.37593000000004],[36.5881100000002,36.37565000000018],[36.5872500000001,36.37438000000026],[36.58653000000021,36.373520000000156],[36.58616000000012,36.37270000000035],[36.585900000000095,36.37155000000041],[36.586240000000146,36.3708800000004],[36.586180000000184,36.370370000000264],[36.585680000000195,36.3689200000004],[36.585460000000126,36.36853000000008],[36.58510000000018,36.36811000000017],[36.584970000000055,36.36807000000039],[36.5819400000002,36.36758000000037],[36.58299000000022,36.366890000000126],[36.584620000000086,36.36446000000012],[36.585280000000125,36.3639800000002],[36.58474000000007,36.36344000000031],[36.58474000000007,36.36332000000033],[36.58458000000013,36.36336000000006],[36.584380000000124,36.363240000000076],[36.58395000000007,36.36322000000041],[36.58371000000011,36.363430000000164],[36.582620000000134,36.363150000000076],[36.581960000000095,36.363520000000506],[36.581650000000195,36.363830000000576],[36.581380000000195,36.36415000000005],[36.581070000000125,36.36483000000021],[36.57429000000013,36.362810000000195],[36.574590000000114,36.36178000000007],[36.574710000000096,36.36155000000025],[36.57492000000025,36.36147000000017],[36.57497000000012,36.3612700000005],[36.57489000000004,36.36087000000009],[36.574720000000184,36.360570000000166],[36.57513000000017,36.36013000000014],[36.57542000000018,36.35998000000035],[36.57581000000016,36.360020000000134],[36.576020000000085,36.35970000000009],[36.57582000000008,36.35941000000008],[36.57544000000007,36.35959000000008],[36.575210000000084,36.35959000000008],[36.5750000000001,36.359430000000316],[36.574930000000165,36.35924000000023],[36.57452000000018,36.35911000000016],[36.57412000000011,36.35885000000064],[36.57405000000017,36.358680000000106],[36.574060000000145,36.35806000000014],[36.574130000000025,36.35799000000054],[36.57810000000006,36.35787000000005],[36.57836000000009,36.35781000000003],[36.578310000000045,36.35668000000015],[36.581160000000125,36.35642000000013],[36.58035000000007,36.35555000000045],[36.58021000000025,36.351130000000126],[36.57875000000024,36.35124000000053],[36.57347000000016,36.35077000000018],[36.57086000000004,36.35124000000053],[36.56907000000007,36.35174000000018],[36.56786000000017,36.352860000000305],[36.567370000000096,36.35360000000043],[36.566820000000064,36.353450000000066],[36.56814000000003,36.34806000000032],[36.56690000000009,36.346270000000175],[36.56687000000011,36.34519000000017],[36.5664900000001,36.34468000000061],[36.566420000000164,36.34332000000035],[36.56687000000011,36.343200000000365],[36.56707000000017,36.34266000000008],[36.568000000000154,36.33901000000043],[36.575990000000104,36.3398500000003],[36.576300000000174,36.33427000000046],[36.57700000000017,36.32817000000023],[36.57693000000006,36.326840000000345],[36.577530000000195,36.32420000000019],[36.57777000000016,36.32361000000026],[36.586550000000045,36.323960000000056],[36.58554000000015,36.32251000000019],[36.585240000000226,36.32171000000005],[36.58424000000008,36.319720000000245],[36.58578000000011,36.319380000000535],[36.58344000000011,36.31655000000018],[36.582950000000096,36.315820000000144],[36.585770000000196,36.31544000000014],[36.586520000000064,36.313430000000096],[36.586550000000045,36.30985000000004],[36.5891000000002,36.310030000000154],[36.59159000000017,36.309810000000255],[36.59496000000013,36.309780000000615],[36.59574000000015,36.31038000000052],[36.59563000000014,36.308070000000384],[36.59586000000013,36.307140000000345],[36.59601000000015,36.30688000000015],[36.596090000000174,36.30611000000039],[36.596310000000074,36.30549000000025],[36.59656000000018,36.30518000000018],[36.596490000000244,36.30377000000004],[36.597450000000094,36.30377000000004],[36.59938000000005,36.304320000000075],[36.59964000000008,36.30448000000035],[36.59986000000015,36.30487000000011],[36.59993818526925,36.3058824388653],[36.59998000000013,36.30623000000037],[36.60057000000012,36.306870000000174],[36.60088000000019,36.3082100000002],[36.60037000000011,36.30850000000004],[36.59944000000007,36.30882000000008],[36.598940000000084,36.30921000000035],[36.598320000000115,36.30998000000011],[36.59833000000026,36.31066000000027],[36.598040000000026,36.31109000000032],[36.59789000000006,36.31115000000028],[36.59721000000013,36.31106000000011],[36.59707000000009,36.31110000000041],[36.59675000000004,36.31143000000003],[36.5966600000001,36.31159000000008],[36.596710000000144,36.31241000000011],[36.59663000000006,36.31271000000004],[36.597300000000075,36.31336000000016],[36.59751000000006,36.3142500000003],[36.597880000000146,36.315040000000295],[36.598190000000216,36.31534000000022],[36.59942000000018,36.315810000000056],[36.601260000000195,36.316900000000146],[36.60149000000024,36.31714000000011],[36.60180000000008,36.31784000000033],[36.602090000000146,36.31819000000013],[36.60332000000011,36.318450000000325],[36.6039100000001,36.318760000000395],[36.60435000000007,36.31887000000029],[36.60488000000004,36.31881000000027],[36.60537000000011,36.31891000000019],[36.60621000000015,36.31952000000007],[36.60627000000011,36.31985000000037],[36.60584000000006,36.320740000000114],[36.60583000000014,36.321460000000684],[36.606250000000045,36.32234000000034],[36.60655000000003,36.32256000000007],[36.60732000000013,36.32345000000049],[36.607460000000174,36.32376000000056],[36.6075400000002,36.32456000000013],[36.6077200000002,36.32478000000026],[36.606911253002295,36.3258777695919]]],"type":"Polygon"}},{"type":"Feature","properties":{"area_id":"TR-31-011-149769","name_tr":"Akkerpiç","area_level":"neighbourhood","parent_id":"TR-31-011","endeksa_id":149769},"geometry":{"coordinates":[[[36.41855111025575,36.35489533215838],[36.410448142000064,36.36280438099999],[36.41221391300007,36.36478214000016],[36.41215306600009,36.365001552000024],[36.41228001200011,36.36516515000005],[36.41193336900011,36.36579377800052],[36.41155038900007,36.367174800000214],[36.41111250200015,36.367282399000146],[36.410848808000026,36.3677606010001],[36.408290204000025,36.36797590800006],[36.40877812600007,36.374598835000484],[36.411652285000116,36.37134929300038],[36.423525179000194,36.37182122299998],[36.42109278200007,36.377326840000194],[36.41397602700005,36.38243781400013],[36.41143026900005,36.386960051000074],[36.41110496400006,36.38727094300003],[36.410944782000115,36.3872889810001],[36.40826424200003,36.38580246300057],[36.40536293800017,36.38463229100006],[36.40090191600018,36.38366694500013],[36.38960404200009,36.38031369400005],[36.38650736200003,36.37915061300015],[36.38516263400015,36.379032160000065],[36.38504010800011,36.37912808600015],[36.38493946200015,36.379012472],[36.382701261000136,36.37882571900013],[36.380411561000074,36.38021187900006],[36.380498276000026,36.378821426],[36.38039697400018,36.37872380200014],[36.37840468504237,36.378708615421885],[36.37847000000005,36.377210000000105],[36.372810000000186,36.36460000000034],[36.37242000000009,36.36164000000042],[36.371010000000126,36.35778000000022],[36.370360000000176,36.3541800000001],[36.37028493204366,36.35118766644047],[36.37029326600015,36.35125974600021],[36.37698863800006,36.35144406400036],[36.376938365000115,36.35312222700003],[36.377121187000114,36.35303714400004],[36.37737961400012,36.35273793400012],[36.38066898300019,36.34827511200035],[36.38109726500011,36.34843359700005],[36.38203769500012,36.3473447570002],[36.381967805000045,36.347245616000066],[36.38204588000019,36.347155410000255],[36.384517592000066,36.346732283000506],[36.392188162000025,36.34675109300014],[36.3922386000001,36.346661746999985],[36.392380112000126,36.346753218],[36.396030529000086,36.34699118400016],[36.40788189300008,36.34979314200018],[36.41434357037832,36.350511755466016],[36.41376620500006,36.350890556000024],[36.413880041000084,36.3532431750001],[36.41553066900008,36.35476099400017],[36.41632752400017,36.35347084800003],[36.41855111025575,36.35489533215838]]],"type":"Polygon"}},{"type":"Feature","properties":{"area_id":"TR-31-011-149781","name_tr":"Gülova","area_level":"neighbourhood","parent_id":"TR-31-011","endeksa_id":149781},"geometry":{"coordinates":[[[36.323060000000226,36.36430000000041],[36.32084000000003,36.36557000000033],[36.32112000000012,36.36652000000004],[36.31892000000016,36.367700000000355],[36.31976000000003,36.36869000000053],[36.31202000000013,36.37333000000007],[36.3092700000002,36.37652000000037],[36.30532000000022,36.37865000000039],[36.29669000000007,36.386630000000025],[36.28935000000007,36.38873000000024],[36.27951000000019,36.389570000000106],[36.27718000000016,36.389320000000055],[36.27568000000019,36.389260000000036],[36.27439000000004,36.38933000000014],[36.274198338807366,36.3846602847762],[36.271980000000156,36.38506000000018],[36.27157000000017,36.38496000000026],[36.27134245049592,36.384488642740905],[36.26981000000018,36.38231000000053],[36.26928000000004,36.378760000000284],[36.26832000000019,36.375720000000285],[36.267400000000066,36.37338000000011],[36.26700000000022,36.37197000000049],[36.26595000000003,36.36715000000032],[36.26543000000015,36.36505000000011],[36.265170000000126,36.3644900000001],[36.264430000000175,36.35966000000019],[36.26341000000019,36.35630000000015],[36.26305000000025,36.35549000000009],[36.2629500000001,36.352020000000266],[36.2583200000002,36.35167000000058],[36.259340000000236,36.350630000000365],[36.257060000000195,36.3504300000003],[36.25620000000009,36.350260000000446],[36.25511000000017,36.349830000000395],[36.254830000000084,36.34963000000022],[36.25446000000005,36.34907000000004],[36.254420000000096,36.34870000000069],[36.2544900000002,36.348370000000386],[36.25248000000016,36.34455000000037],[36.25342000000012,36.342110000000275],[36.25229000000007,36.33944000000048],[36.24669000000017,36.334160000000054],[36.24465000000015,36.33423000000016],[36.243360000000166,36.33367000000055],[36.24298000000016,36.33367000000055],[36.242490000000146,36.33389000000028],[36.24053000000015,36.33191000000005],[36.243680000000154,36.329790000000685],[36.246310000000165,36.327460000000315],[36.246830000000045,36.32556000000028],[36.24815000000018,36.32323000000008],[36.25130000000007,36.31964000000005],[36.25787000000008,36.31710000000021],[36.260220000000174,36.311790000000656],[36.26331000000005,36.3112100000003],[36.26287000000008,36.31601000000023],[36.2631300000001,36.31791000000004],[36.26497000000012,36.31939000000011],[36.267860000000155,36.32108000000051],[36.269170000000145,36.32383000000016],[36.26996000000014,36.327430000000106],[36.27259000000015,36.33060000000023],[36.274430000000166,36.332080000000076],[36.27653000000004,36.33250000000038],[36.28143000000006,36.33275000000009],[36.28257000000008,36.33420000000035],[36.28519000000017,36.333350000000394],[36.28703000000013,36.33483000000007],[36.28677000000016,36.337370000000305],[36.28650000000016,36.3390600000003],[36.28650000000016,36.34139000000039],[36.288870000000145,36.342450000000156],[36.29176000000018,36.34266000000008],[36.29307000000006,36.342020000000105],[36.29496000000012,36.339980000000025],[36.30013000000014,36.34560000000016],[36.302130000000034,36.349430000000154],[36.327120000000036,36.34515000000005],[36.33064000000013,36.351930000000095],[36.33228000000014,36.356920000000116],[36.33119000000016,36.358340000000396],[36.331000000000074,36.35839000000027],[36.33041000000014,36.359060000000284],[36.32881000000009,36.36109000000016],[36.32806000000022,36.36190000000005],[36.326350000000105,36.362340000000245],[36.325420000000065,36.3636300000004],[36.323060000000226,36.36430000000041]]],"type":"Polygon"}},{"type":"Feature","properties":{"area_id":"TR-31-011-31312","name_tr":"Gökçeoğlu","area_level":"neighbourhood","parent_id":"TR-31-011","endeksa_id":31312},"geometry":{"coordinates":[[[36.445441189000064,36.36526099600013],[36.415814581042355,36.35756637103236],[36.422152437000136,36.35138019200008],[36.421878612590035,36.3513497395499],[36.42677416500004,36.347242454000025],[36.43057241800017,36.34418532400019],[36.439176208220374,36.340965841409115],[36.43941011100003,36.34073568700012],[36.43955674176266,36.340721321767774],[36.440930000000094,36.341650000000186],[36.4430900000001,36.341650000000186],[36.44512000000003,36.34216000000032],[36.447770000000105,36.34328000000005],[36.44980000000015,36.34362000000033],[36.45141000000018,36.34418000000045],[36.45241534339982,36.34435517347157],[36.45285241400012,36.346130771000105],[36.450421532000064,36.354994596000154],[36.44956121898423,36.355871141388775],[36.44993000000011,36.35802000000018],[36.45059000000015,36.358680000000106],[36.454710000000205,36.36077000000034],[36.45497000000017,36.36100000000022],[36.45530734396186,36.3623782910438],[36.45529000000005,36.362930000000176],[36.4543700000001,36.36477000000019],[36.454056002905645,36.36480059257116],[36.45402440291832,36.36497905455252],[36.45117000000022,36.36429000000027],[36.44641417436998,36.36254843005139],[36.445441189000064,36.36526099600013]]],"type":"Polygon"}},{"type":"Feature","properties":{"area_id":"TR-31-011-31310","name_tr":"Cumhuriyet","area_level":"neighbourhood","parent_id":"TR-31-011","endeksa_id":31310},"geometry":{"coordinates":[[[36.44641417436998,36.36254843005139],[36.45117000000022,36.36429000000027],[36.45402440291832,36.36497905455252],[36.45410591000012,36.365065077],[36.45239683900019,36.3682185560001],[36.44887299700014,36.37277531800015],[36.440884875000165,36.381501444000094],[36.43536120700003,36.39167244599997],[36.435291944000085,36.391765478000025],[36.43528427500007,36.39171135000004],[36.434714501408166,36.39179208045965],[36.4285900000001,36.39076000000051],[36.42228238073409,36.38935801629236],[36.416480782000065,36.3888141920001],[36.412264606000065,36.388138562000506],[36.41107040600002,36.38744721600017],[36.41110496400006,36.38727094300003],[36.41143026900005,36.386960051000074],[36.41397602700005,36.38243781400013],[36.42109278200007,36.377326840000194],[36.423525179000194,36.37182122299998],[36.411652285000116,36.37134929300038],[36.40877812600007,36.374598835000484],[36.408290204000025,36.36797590800006],[36.410848808000026,36.3677606010001],[36.41111250200015,36.367282399000146],[36.41155038900007,36.367174800000214],[36.41193336900011,36.36579377800052],[36.41228001200011,36.36516515000005],[36.41215306600009,36.365001552000024],[36.41221391300007,36.36478214000016],[36.410448142000064,36.36280438099999],[36.415814581042355,36.35756637103236],[36.445441189000064,36.36526099600013],[36.44641417436998,36.36254843005139]]],"type":"Polygon"}},{"type":"Feature","properties":{"area_id":"TR-31-011-31311","name_tr":"Fevzi Çakmak","area_level":"neighbourhood","parent_id":"TR-31-011","endeksa_id":31311},"geometry":{"coordinates":[[[36.462158321000175,36.377010776000475],[36.4554947580001,36.38208230599997],[36.4478682190001,36.388953259000175],[36.44605258700017,36.39365004000018],[36.445937432000164,36.39429113400047],[36.445861926000134,36.394261360000314],[36.44576632776216,36.39441867707984],[36.43850000000009,36.39243000000016],[36.434714501408166,36.39179208045965],[36.43528427500007,36.39171135000004],[36.435291944000085,36.391765478000025],[36.43536120700003,36.39167244599997],[36.440884875000165,36.381501444000094],[36.44887299700014,36.37277531800015],[36.45239683900019,36.3682185560001],[36.45410591000012,36.365065077],[36.45402440291832,36.36497905455252],[36.454056002905645,36.36480059257116],[36.4543700000001,36.36477000000019],[36.45529000000005,36.362930000000176],[36.45530734396186,36.3623782910438],[36.45566610300017,36.3626329680003],[36.45814928599998,36.363701826000124],[36.45987961800017,36.36395845200019],[36.47169478100017,36.361208242000544],[36.47296949100007,36.36101956400006],[36.47310759800007,36.36108573700062],[36.47345408800015,36.360961984000596],[36.47306718800007,36.36125593600008],[36.474636637000174,36.365132121000045],[36.47457774000003,36.365905531000124],[36.47229971100012,36.36934744600006],[36.468686731000105,36.37394527500004],[36.46309546300006,36.376231530000155],[36.46267794800008,36.3764932360001],[36.46248828199998,36.37699477800004],[36.46236545700003,36.37702139500004],[36.46225284300016,36.37693890000003],[36.462158321000175,36.377010776000475]]],"type":"Polygon"}},{"type":"Feature","properties":{"area_id":"TR-31-011-149771","name_tr":"Akkuyu","area_level":"neighbourhood","parent_id":"TR-31-011","endeksa_id":149771},"geometry":{"coordinates":[[[36.462158321000175,36.377010776000475],[36.462314801000105,36.377003032000005],[36.46256533999997,36.37724914300003],[36.47362854200003,36.40275822900003],[36.47359367000013,36.40286554000011],[36.47345899999999,36.402880104000076],[36.467569478000144,36.400553787000035],[36.46491070800005,36.39889917200003],[36.46231438500007,36.397990589000074],[36.461225409000065,36.39772165200009],[36.46108167400013,36.39782457600012],[36.46124244655613,36.400229473891784],[36.458870000000104,36.399700000000394],[36.457600000000184,36.39952000000005],[36.45379000000008,36.39953000000014],[36.452330000000075,36.39962000000031],[36.44391000000007,36.399670000000185],[36.44576632776216,36.39441867707984],[36.445861926000134,36.394261360000314],[36.445937432000164,36.39429113400047],[36.44605258700017,36.39365004000018],[36.4478682190001,36.388953259000175],[36.4554947580001,36.38208230599997],[36.462158321000175,36.377010776000475]]],"type":"Polygon"}},{"type":"Feature","properties":{"area_id":"TR-31-011-149791","name_tr":"Kırcaoğlu","area_level":"neighbourhood","parent_id":"TR-31-011","endeksa_id":149791},"geometry":{"coordinates":[[[36.54398000000015,36.39333000000016],[36.54380000000015,36.39381000000009],[36.54349000000008,36.394060000000195],[36.542990000000145,36.39392000000049],[36.54275000000018,36.3939900000006],[36.54187000000019,36.39382000000006],[36.54118000000011,36.39429000000041],[36.540270000000135,36.39464000000038],[36.54019000000011,36.39479000000017],[36.539830000000165,36.39488000000034],[36.53938000000005,36.395200000000386],[36.53797000000009,36.39572000000021],[36.53463000000011,36.39553000000012],[36.53264000000013,36.39532000000014],[36.53168000000011,36.39494000000036],[36.531630000000064,36.394500000000164],[36.53173000000015,36.394280000000435],[36.531410000000164,36.394060000000195],[36.5279500000002,36.39376000000004],[36.52717000000018,36.39359000000019],[36.52738000000011,36.39311000000026],[36.52749000000017,36.39182000000011],[36.52762000000007,36.39142000000027],[36.52752000000015,36.39075000000042],[36.5272700000001,36.390220000000056],[36.526490000000194,36.38913000000014],[36.526050000000055,36.38828000000012],[36.5257900000002,36.38795000000039],[36.524910000000034,36.38761000000011],[36.52403000000004,36.38710000000037],[36.52059000000003,36.385480000000086],[36.519820000000095,36.385330000000295],[36.51931000000013,36.38500000000016],[36.51895000000019,36.38444000000004],[36.51805000000019,36.38385000000005],[36.516820000000166,36.38345000000038],[36.51601000000011,36.38303000000042],[36.515390000000195,36.3828900000002],[36.51483000000019,36.38252000000017],[36.514370000000156,36.38242000000042],[36.513630000000035,36.38241000000028],[36.51378000000017,36.38340000000011],[36.513540000000205,36.38394000000039],[36.51328000000018,36.38426000000004],[36.512920000000065,36.38451000000066],[36.51231000000007,36.38441000000023],[36.51195000000013,36.38473000000039],[36.511960000000045,36.38488000000018],[36.51181000000008,36.38504000000046],[36.51181000000008,36.38527000000033],[36.51157000000012,36.38578000000007],[36.511740000000145,36.38600000000031],[36.51164000000006,36.38617000000016],[36.511650000000145,36.38636000000025],[36.50939000000005,36.38495000000012],[36.50113000000016,36.379220000000146],[36.50325000000004,36.37579000000039],[36.50430000000006,36.373680000000036],[36.50513000000018,36.37154000000044],[36.50729000000018,36.37237000000022],[36.507410000000164,36.3705700000001],[36.51005000000009,36.366400000000056],[36.510130000000174,36.365930000000276],[36.50999000000013,36.365440000000206],[36.51020000000011,36.36530000000016],[36.510500000000036,36.365320000000224],[36.510750000000144,36.36515000000037],[36.51089000000019,36.36360000000019],[36.5107000000001,36.36328000000054],[36.51084000000009,36.362990000000195],[36.51102000000009,36.36294000000015],[36.51098000000013,36.36344000000031],[36.51104000000015,36.36356000000029],[36.51163000000008,36.36371000000008],[36.51209000000017,36.36328000000054],[36.5129500000001,36.36311000000069],[36.51315000000011,36.36294000000015],[36.513230000000135,36.36270000000019],[36.51317000000017,36.362310000000036],[36.51294000000013,36.36218000000048],[36.51224000000013,36.362150000000156],[36.511960000000045,36.36177000000066],[36.51228000000026,36.36144000000036],[36.51116000000013,36.36109000000016],[36.50747000000018,36.359680000000424],[36.50476000000009,36.35885000000064],[36.5051000000002,36.35832000000016],[36.504250000000184,36.35783000000009],[36.497060000000204,36.354750000000365],[36.49721625924343,36.352891269634256],[36.497300000000166,36.35244000000034],[36.497210000000166,36.35157000000015],[36.49757000000011,36.34910000000042],[36.497650000000135,36.34867000000037],[36.49895000000009,36.34705000000008],[36.499190000000056,36.34684000000027],[36.499350000000106,36.34684000000027],[36.499850000000094,36.346580000000074],[36.50049000000013,36.34603000000004],[36.50109000000003,36.34581000000031],[36.501950000000136,36.34573000000012],[36.50281000000007,36.3460000000004],[36.50315000000012,36.345930000000294],[36.50325000000004,36.345800000000224],[36.5041300000002,36.345490000000154],[36.505730000000085,36.34426000000013],[36.50621000000018,36.34400000000011],[36.50686000000013,36.34399000000036],[36.50758000000019,36.343510000000435],[36.50862000000012,36.342270000000156],[36.50882000000013,36.34185000000025],[36.50930000000005,36.340070000000026],[36.510030000000256,36.3392800000002],[36.5103900000002,36.33800000000019],[36.510720000000106,36.33778000000029],[36.511770000000126,36.33726000000058],[36.51232000000016,36.33687000000032],[36.51355000000018,36.33658000000008],[36.51440000000014,36.33658000000008],[36.51632000000018,36.33615000000003],[36.51866000000018,36.3351600000002],[36.52014000000008,36.335890000000234],[36.52155000000005,36.336450000000355],[36.520250000000146,36.339910000000316],[36.52573000000024,36.341530000000034],[36.52907000000016,36.3428100000001],[36.531190000000095,36.34335000000016],[36.53125000000006,36.3437500000004],[36.53102000000024,36.34423000000032],[36.53094000000016,36.34492000000057],[36.53072000000009,36.34533000000039],[36.53066000000007,36.34575000000035],[36.53700000000009,36.34787000000023],[36.54099000000019,36.349080000000185],[36.54024000000015,36.35143000000062],[36.54536000000013,36.352890000000116],[36.54512000000017,36.35378000000037],[36.55415000000016,36.35588000000007],[36.55415000000016,36.35524000000038],[36.55959000000013,36.35284000000007],[36.56023000000016,36.35824000000008],[36.562290000000075,36.35712000000035],[36.563410000000204,36.35630000000015],[36.562110000000075,36.36078000000032],[36.56190000000015,36.36181000000005],[36.561890000000176,36.36742000000061],[36.561680000000194,36.367550000000165],[36.56092000000024,36.3672700000003],[36.56026000000014,36.367330000000265],[36.55995000000007,36.36774000000008],[36.559040000000095,36.36785000000066],[36.55881000000005,36.36828000000071],[36.55862000000019,36.3684100000001],[36.5583400000001,36.36824000000024],[36.55824000000018,36.36791000000011],[36.55772000000013,36.36793000000017],[36.55748000000017,36.368130000000406],[36.55710000000016,36.36818000000028],[36.55670000000009,36.36858000000012],[36.556810000000155,36.3690000000006],[36.55634000000015,36.369190000000685],[36.55623000000014,36.369410000000414],[36.55604000000005,36.36955000000012],[36.55562000000009,36.369660000000124],[36.555040000000076,36.37008000000043],[36.55477000000013,36.37003000000004],[36.55477000000013,36.369740000000036],[36.55469000000005,36.369710000000396],[36.554360000000145,36.36997000000042],[36.554400000000044,36.370150000000535],[36.55432000000019,36.370370000000264],[36.5541300000001,36.37059000000016],[36.55434000000008,36.37097000000017],[36.55403000000018,36.37136000000032],[36.55455000000023,36.3717000000002],[36.55454000000009,36.37186000000008],[36.556940000000054,36.37735000000015],[36.554180000000144,36.37713000000042],[36.554890000000114,36.38184000000018],[36.55348000000015,36.382470000000296],[36.55254000000019,36.38308000000029],[36.551020000000165,36.38448000000034],[36.54887000000008,36.3861500000001],[36.547300000000234,36.388270000000034],[36.545230000000174,36.39153000000027],[36.544170000000065,36.39294000000041],[36.54398000000015,36.39333000000016]]],"type":"Polygon"}},{"type":"Feature","properties":{"area_id":"TR-31-011-149793","name_tr":"Muharrem","area_level":"neighbourhood","parent_id":"TR-31-011","endeksa_id":149793},"geometry":{"coordinates":[[[36.487512184666286,36.40300410552362],[36.48755936981223,36.403167156580366],[36.48425592100011,36.40810343800007],[36.48413500200013,36.408154349000256],[36.48167685300007,36.40703675800006],[36.47806184500007,36.4046998390001],[36.47345899999999,36.402880104000076],[36.47359367000013,36.40286554000011],[36.47362854200003,36.40275822900003],[36.46256533999997,36.37724914300003],[36.462314801000105,36.377003032000005],[36.462158321000175,36.377010776000475],[36.46225284300016,36.37693890000003],[36.46236545700003,36.37702139500004],[36.46248828199998,36.37699477800004],[36.46267794800008,36.3764932360001],[36.46309546300006,36.376231530000155],[36.468686731000105,36.37394527500004],[36.47229971100012,36.36934744600006],[36.47457774000003,36.365905531000124],[36.474636637000174,36.365132121000045],[36.47306718800007,36.36125593600008],[36.47345408800015,36.360961984000596],[36.47383901900008,36.36074099400025],[36.4751139550001,36.360363152000104],[36.47744144900008,36.3587501990001],[36.47757139400011,36.35855380400011],[36.47757937800003,36.358652791000225],[36.477694594000184,36.35869625100008],[36.47978586000016,36.35832883800015],[36.48467294900013,36.357956731],[36.487210566000044,36.35683600300018],[36.489878871000144,36.355320258999996],[36.49543209000012,36.35429667300008],[36.49721625924343,36.352891269634256],[36.497060000000204,36.354750000000365],[36.504250000000184,36.35783000000009],[36.5051000000002,36.35832000000016],[36.50476000000009,36.35885000000064],[36.50747000000018,36.359680000000424],[36.51116000000013,36.36109000000016],[36.51228000000026,36.36144000000036],[36.511960000000045,36.36177000000066],[36.51224000000013,36.362150000000156],[36.51294000000013,36.36218000000048],[36.51317000000017,36.362310000000036],[36.513230000000135,36.36270000000019],[36.51315000000011,36.36294000000015],[36.5129500000001,36.36311000000069],[36.51209000000017,36.36328000000054],[36.51163000000008,36.36371000000008],[36.51104000000015,36.36356000000029],[36.51098000000013,36.36344000000031],[36.51102000000009,36.36294000000015],[36.51084000000009,36.362990000000195],[36.5107000000001,36.36328000000054],[36.51089000000019,36.36360000000019],[36.510750000000144,36.36515000000037],[36.510500000000036,36.365320000000224],[36.51020000000011,36.36530000000016],[36.50999000000013,36.365440000000206],[36.510130000000174,36.365930000000276],[36.51005000000009,36.366400000000056],[36.507410000000164,36.3705700000001],[36.50729000000018,36.37237000000022],[36.50513000000018,36.37154000000044],[36.50430000000006,36.373680000000036],[36.50325000000004,36.37579000000039],[36.50113000000016,36.379220000000146],[36.50939000000005,36.38495000000012],[36.511650000000145,36.38636000000025],[36.511830000000145,36.386660000000234],[36.511870000000044,36.386910000000285],[36.51173000000023,36.3872300000001],[36.51155000000006,36.38714000000016],[36.51093000000009,36.387530000000424],[36.510900000000106,36.38769000000019],[36.5104300000001,36.38814000000008],[36.5105200000001,36.38835000000006],[36.510470000000055,36.388520000000085],[36.50861000000015,36.38819000000035],[36.50782000000015,36.38820000000044],[36.50773000000021,36.3882900000001],[36.50712000000016,36.388020000000324],[36.506350000000054,36.38894000000005],[36.50609000000003,36.388770000000704],[36.50584000000015,36.38906000000054],[36.504890000000046,36.38859000000019],[36.50410000000005,36.388480000000186],[36.503750000000025,36.38833000000017],[36.50337000000019,36.38869000000034],[36.50277000000011,36.3884400000004],[36.502510000000086,36.38854000000015],[36.50178000000011,36.38833000000017],[36.500380000000064,36.39005000000003],[36.500380000000064,36.39101000000005],[36.49930000000006,36.392700000000445],[36.49890000000022,36.39295000000038],[36.4979800000001,36.39249000000012],[36.49781000000007,36.39249000000012],[36.49768000000017,36.39277000000004],[36.49663000000015,36.39348000000035],[36.49632000000008,36.393570000000125],[36.495570000000214,36.394000000000176],[36.495230000000106,36.39456000000018],[36.494180000000085,36.394220000000075],[36.49320000000023,36.39554000000027],[36.49281000000008,36.39508000000018],[36.49263000000013,36.395090000000664],[36.492350000000044,36.39550000000048],[36.49228000000011,36.3958300000001],[36.49237000000011,36.39597000000032],[36.492220000000145,36.39655000000016],[36.492130000000145,36.39652000000035],[36.49175000000014,36.397320000000434],[36.491390000000195,36.397810000000106],[36.49115000000006,36.39798000000036],[36.49101000000019,36.398460000000284],[36.49022000000019,36.39928000000009],[36.490060000000085,36.40006000000011],[36.48924000000011,36.40077000000025],[36.48807000000011,36.40214000000009],[36.487512184666286,36.40300410552362]]],"type":"Polygon"}},{"type":"Feature","properties":{"area_id":"TR-31-011-149787","name_tr":"Kaletepe","area_level":"neighbourhood","parent_id":"TR-31-011","endeksa_id":149787},"geometry":{"coordinates":[[[36.56632833585638,36.41966733358157],[36.5637269720001,36.426999296000474],[36.56384558928892,36.42728907829144],[36.56372504002161,36.42720580752092],[36.56236000000018,36.42707000000064],[36.561520000000144,36.42721000000017],[36.55958000000021,36.4255500000001],[36.55280000000016,36.42296000000022],[36.55050000000011,36.421760000000404],[36.546340000000214,36.42001000000005],[36.5440200000001,36.41869000000008],[36.53852000000012,36.4166500000004],[36.539400000000114,36.41529000000014],[36.53845000000018,36.41505000000018],[36.53704000000005,36.41501000000039],[36.532370000000185,36.41405000000054],[36.523200000000145,36.410080000000335],[36.521100000000104,36.40931000000057],[36.52102000000008,36.40935000000036],[36.520470000000046,36.407380000000046],[36.51988000000006,36.40651000000054],[36.519950000000165,36.40646000000015],[36.51878000000016,36.40532000000013],[36.51788000000016,36.40454000000028],[36.516660000000115,36.40372000000008],[36.513190000000236,36.40207000000015],[36.51058000000012,36.40578000000039],[36.50967000000014,36.407690000000116],[36.50956000000008,36.408250000000294],[36.50840000000022,36.41129000000029],[36.508254731039756,36.411012766564625],[36.504030000000114,36.40925000000004],[36.50218000000018,36.4086700000002],[36.493220000000065,36.40499000000017],[36.49166726507383,36.40445681297501],[36.49147258382368,36.404546003230166],[36.49142964806691,36.40437406787339],[36.487512184666286,36.40300410552362],[36.48807000000011,36.40214000000009],[36.48924000000011,36.40077000000025],[36.490060000000085,36.40006000000011],[36.49022000000019,36.39928000000009],[36.49101000000019,36.398460000000284],[36.49115000000006,36.39798000000036],[36.491390000000195,36.397810000000106],[36.49175000000014,36.397320000000434],[36.492130000000145,36.39652000000035],[36.492220000000145,36.39655000000016],[36.49237000000011,36.39597000000032],[36.49228000000011,36.3958300000001],[36.492350000000044,36.39550000000048],[36.49263000000013,36.395090000000664],[36.49281000000008,36.39508000000018],[36.49320000000023,36.39554000000027],[36.494180000000085,36.394220000000075],[36.495230000000106,36.39456000000018],[36.495570000000214,36.394000000000176],[36.49632000000008,36.393570000000125],[36.49663000000015,36.39348000000035],[36.49768000000017,36.39277000000004],[36.49781000000007,36.39249000000012],[36.4979800000001,36.39249000000012],[36.49890000000022,36.39295000000038],[36.49930000000006,36.392700000000445],[36.500380000000064,36.39101000000005],[36.500380000000064,36.39005000000003],[36.50178000000011,36.38833000000017],[36.502510000000086,36.38854000000015],[36.50277000000011,36.3884400000004],[36.50337000000019,36.38869000000034],[36.503750000000025,36.38833000000017],[36.50410000000005,36.388480000000186],[36.504890000000046,36.38859000000019],[36.50584000000015,36.38906000000054],[36.50609000000003,36.388770000000704],[36.506350000000054,36.38894000000005],[36.50712000000016,36.388020000000324],[36.50773000000021,36.3882900000001],[36.50782000000015,36.38820000000044],[36.50861000000015,36.38819000000035],[36.510470000000055,36.388520000000085],[36.5105200000001,36.38835000000006],[36.5104300000001,36.38814000000008],[36.510900000000106,36.38769000000019],[36.51093000000009,36.387530000000424],[36.51155000000006,36.38714000000016],[36.51173000000023,36.3872300000001],[36.511870000000044,36.386910000000285],[36.511830000000145,36.386660000000234],[36.511650000000145,36.38636000000025],[36.51164000000006,36.38617000000016],[36.511740000000145,36.38600000000031],[36.51157000000012,36.38578000000007],[36.51181000000008,36.38527000000033],[36.51181000000008,36.38504000000046],[36.511960000000045,36.38488000000018],[36.51195000000013,36.38473000000039],[36.51231000000007,36.38441000000023],[36.512920000000065,36.38451000000066],[36.51328000000018,36.38426000000004],[36.513540000000205,36.38394000000039],[36.51378000000017,36.38340000000011],[36.513630000000035,36.38241000000028],[36.514370000000156,36.38242000000042],[36.51483000000019,36.38252000000017],[36.515390000000195,36.3828900000002],[36.51601000000011,36.38303000000042],[36.516820000000166,36.38345000000038],[36.51805000000019,36.38385000000005],[36.51895000000019,36.38444000000004],[36.51931000000013,36.38500000000016],[36.519820000000095,36.385330000000295],[36.52059000000003,36.385480000000086],[36.52403000000004,36.38710000000037],[36.524910000000034,36.38761000000011],[36.5257900000002,36.38795000000039],[36.526050000000055,36.38828000000012],[36.526490000000194,36.38913000000014],[36.5272700000001,36.390220000000056],[36.52752000000015,36.39075000000042],[36.52762000000007,36.39142000000027],[36.52749000000017,36.39182000000011],[36.52738000000011,36.39311000000026],[36.52717000000018,36.39359000000019],[36.5279500000002,36.39376000000004],[36.531410000000164,36.394060000000195],[36.53173000000015,36.394280000000435],[36.531630000000064,36.394500000000164],[36.53168000000011,36.39494000000036],[36.53264000000013,36.39532000000014],[36.53463000000011,36.39553000000012],[36.53797000000009,36.39572000000021],[36.53938000000005,36.395200000000386],[36.539830000000165,36.39488000000034],[36.54019000000011,36.39479000000017],[36.540270000000135,36.39464000000038],[36.54118000000011,36.39429000000041],[36.54187000000019,36.39382000000006],[36.54275000000018,36.3939900000006],[36.542990000000145,36.39392000000049],[36.54349000000008,36.394060000000195],[36.54380000000015,36.39381000000009],[36.54398000000015,36.39333000000016],[36.544290000000046,36.39395000000013],[36.5439300000001,36.39404000000047],[36.543950000000166,36.39423000000056],[36.54546000000005,36.3950100000003],[36.545780000000036,36.39540000000005],[36.54602000000017,36.395450000000096],[36.54611000000017,36.39569000000006],[36.54642000000007,36.395990000000154],[36.54705000000013,36.39641000000046],[36.54717000000011,36.3966200000001],[36.547860000000185,36.39715000000058],[36.54881000000012,36.397500000000264],[36.549000000000206,36.39767000000029],[36.54951000000011,36.39786000000038],[36.55055000000016,36.397930000000315],[36.55134000000015,36.39823000000041],[36.55202000000014,36.398370000000114],[36.55237000000011,36.39864000000023],[36.552600000000155,36.398710000000335],[36.55355000000009,36.399550000000204],[36.55424000000016,36.3998100000004],[36.555230000000165,36.4006700000005],[36.55559000000011,36.40075000000019],[36.55601000000024,36.40104000000042],[36.556410000000085,36.40107000000023],[36.556930000000136,36.401340000000516],[36.55720000000008,36.40172000000018],[36.55711000000008,36.402710000000184],[36.55780000000016,36.402890000000184],[36.55887000000007,36.40402000000006],[36.56091000000009,36.40486000000044],[36.56348000000014,36.40643000000034],[36.56586000000004,36.40742000000051],[36.56865000000016,36.408310000000256],[36.56640000000016,36.41899000000018],[36.56632833585638,36.41966733358157]]],"type":"Polygon"}},{"type":"Feature","properties":{"area_id":"TR-31-011-149783","name_tr":"Hamam","area_level":"neighbourhood","parent_id":"TR-31-011","endeksa_id":149783},"geometry":{"coordinates":[[[36.604958518290914,36.38309512914623],[36.60500598800019,36.388608085000044],[36.60621925200036,36.392385812000384],[36.60719414600021,36.3929846760002],[36.60738804900035,36.39337167200006],[36.59895013200003,36.39284216900057],[36.59257717300005,36.39284154400008],[36.58632591133761,36.392092219260576],[36.586330000000146,36.391680000000065],[36.58654000000013,36.39107000000058],[36.579460000000154,36.38843000000031],[36.57908000000015,36.3867900000003],[36.583270000000084,36.38568000000015],[36.58300000000014,36.38461000000041],[36.578830000000096,36.385670000000175],[36.579490000000135,36.37887000000012],[36.58008000000012,36.37900000000025],[36.580110000000104,36.3789000000001],[36.58132000000006,36.379200000000424],[36.58214000000004,36.37926000000027],[36.583670000000154,36.379630000000475],[36.58418000000006,36.376030000000355],[36.582640000000026,36.37562000000037],[36.58267000000018,36.37517000000025],[36.58557000000013,36.37531000000007],[36.58814000000018,36.37593000000004],[36.589490000000126,36.37738000000047],[36.59087000000011,36.37836000000004],[36.59168000000017,36.378820000000246],[36.59436000000022,36.37927000000053],[36.604865316818234,36.382980554811525],[36.604958518290914,36.38309512914623]]],"type":"Polygon"}},{"type":"Feature","properties":{"area_id":"TR-31-011-149789","name_tr":"Keli","area_level":"neighbourhood","parent_id":"TR-31-011","endeksa_id":149789},"geometry":{"coordinates":[[[36.58632591133761,36.392092219260576],[36.58362901400017,36.39804147200044],[36.58072136200008,36.4062826870001],[36.580499978000034,36.40736554700004],[36.58038740600017,36.4074307250001],[36.57937857500008,36.407385427000406],[36.57920965000005,36.408842061000314],[36.57674580200012,36.413941468000075],[36.575675077000085,36.41581745900032],[36.57542394900008,36.416006557000514],[36.57531138400009,36.415956002000144],[36.57519726400005,36.416689989000076],[36.573044683000035,36.417743982000104],[36.57161172300016,36.419734421000044],[36.567780747000086,36.419278325000505],[36.56745348700019,36.41907702000009],[36.56733471300009,36.41920851600014],[36.566674032000094,36.419115549000026],[36.56632833585638,36.41966733358157],[36.56640000000016,36.41899000000018],[36.56865000000016,36.408310000000256],[36.56586000000004,36.40742000000051],[36.56348000000014,36.40643000000034],[36.56091000000009,36.40486000000044],[36.55887000000007,36.40402000000006],[36.55780000000016,36.402890000000184],[36.55711000000008,36.402710000000184],[36.55720000000008,36.40172000000018],[36.556930000000136,36.401340000000516],[36.556410000000085,36.40107000000023],[36.55601000000024,36.40104000000042],[36.55559000000011,36.40075000000019],[36.555230000000165,36.4006700000005],[36.55424000000016,36.3998100000004],[36.55355000000009,36.399550000000204],[36.552600000000155,36.398710000000335],[36.55237000000011,36.39864000000023],[36.55202000000014,36.398370000000114],[36.55134000000015,36.39823000000041],[36.55055000000016,36.397930000000315],[36.54951000000011,36.39786000000038],[36.549000000000206,36.39767000000029],[36.54881000000012,36.397500000000264],[36.547860000000185,36.39715000000058],[36.54717000000011,36.3966200000001],[36.54705000000013,36.39641000000046],[36.54642000000007,36.395990000000154],[36.54611000000017,36.39569000000006],[36.54602000000017,36.395450000000096],[36.545780000000036,36.39540000000005],[36.54546000000005,36.3950100000003],[36.543950000000166,36.39423000000056],[36.5439300000001,36.39404000000047],[36.544290000000046,36.39395000000013],[36.54398000000015,36.39333000000016],[36.544170000000065,36.39294000000041],[36.545230000000174,36.39153000000027],[36.547300000000234,36.388270000000034],[36.54887000000008,36.3861500000001],[36.551020000000165,36.38448000000034],[36.55254000000019,36.38308000000029],[36.55348000000015,36.382470000000296],[36.554890000000114,36.38184000000018],[36.554180000000144,36.37713000000042],[36.556940000000054,36.37735000000015],[36.55454000000009,36.37186000000008],[36.55455000000023,36.3717000000002],[36.55403000000018,36.37136000000032],[36.55434000000008,36.37097000000017],[36.5541300000001,36.37059000000016],[36.55432000000019,36.370370000000264],[36.554400000000044,36.370150000000535],[36.554360000000145,36.36997000000042],[36.55469000000005,36.369710000000396],[36.55477000000013,36.369740000000036],[36.55477000000013,36.37003000000004],[36.555040000000076,36.37008000000043],[36.55562000000009,36.369660000000124],[36.55604000000005,36.36955000000012],[36.55623000000014,36.369410000000414],[36.55634000000015,36.369190000000685],[36.556810000000155,36.3690000000006],[36.55670000000009,36.36858000000012],[36.55710000000016,36.36818000000028],[36.55748000000017,36.368130000000406],[36.55772000000013,36.36793000000017],[36.55824000000018,36.36791000000011],[36.5583400000001,36.36824000000024],[36.55862000000019,36.3684100000001],[36.55881000000005,36.36828000000071],[36.559040000000095,36.36785000000066],[36.55995000000007,36.36774000000008],[36.56026000000014,36.367330000000265],[36.56092000000024,36.3672700000003],[36.561680000000194,36.367550000000165],[36.561890000000176,36.36742000000061],[36.56190000000015,36.36181000000005],[36.562110000000075,36.36078000000032],[36.563410000000204,36.35630000000015],[36.56525000000022,36.35485000000011],[36.567370000000096,36.35360000000043],[36.56786000000017,36.352860000000305],[36.56907000000007,36.35174000000018],[36.57086000000004,36.35124000000053],[36.57347000000016,36.35077000000018],[36.57875000000024,36.35124000000053],[36.58021000000025,36.351130000000126],[36.58035000000007,36.35555000000045],[36.581160000000125,36.35642000000013],[36.578310000000045,36.35668000000015],[36.57836000000009,36.35781000000003],[36.57810000000006,36.35787000000005],[36.574130000000025,36.35799000000054],[36.574060000000145,36.35806000000014],[36.57405000000017,36.358680000000106],[36.57412000000011,36.35885000000064],[36.57452000000018,36.35911000000016],[36.574930000000165,36.35924000000023],[36.5750000000001,36.359430000000316],[36.575210000000084,36.35959000000008],[36.57544000000007,36.35959000000008],[36.57582000000008,36.35941000000008],[36.576020000000085,36.35970000000009],[36.57581000000016,36.360020000000134],[36.57542000000018,36.35998000000035],[36.57513000000017,36.36013000000014],[36.574720000000184,36.360570000000166],[36.57489000000004,36.36087000000009],[36.57497000000012,36.3612700000005],[36.57492000000025,36.36147000000017],[36.574710000000096,36.36155000000025],[36.574590000000114,36.36178000000007],[36.57429000000013,36.362810000000195],[36.581070000000125,36.36483000000021],[36.581380000000195,36.36415000000005],[36.581650000000195,36.363830000000576],[36.581960000000095,36.363520000000506],[36.582620000000134,36.363150000000076],[36.58371000000011,36.363430000000164],[36.58395000000007,36.36322000000041],[36.584380000000124,36.363240000000076],[36.58458000000013,36.36336000000006],[36.58474000000007,36.36332000000033],[36.58474000000007,36.36344000000031],[36.585280000000125,36.3639800000002],[36.584620000000086,36.36446000000012],[36.58299000000022,36.366890000000126],[36.5819400000002,36.36758000000037],[36.584970000000055,36.36807000000039],[36.58510000000018,36.36811000000017],[36.585460000000126,36.36853000000008],[36.585680000000195,36.3689200000004],[36.586180000000184,36.370370000000264],[36.586240000000146,36.3708800000004],[36.585900000000095,36.37155000000041],[36.58616000000012,36.37270000000035],[36.58653000000021,36.373520000000156],[36.5872500000001,36.37438000000026],[36.5881100000002,36.37565000000018],[36.58814000000018,36.37593000000004],[36.58557000000013,36.37531000000007],[36.58267000000018,36.37517000000025],[36.582640000000026,36.37562000000037],[36.58418000000006,36.376030000000355],[36.583670000000154,36.379630000000475],[36.58214000000004,36.37926000000027],[36.58132000000006,36.379200000000424],[36.580110000000104,36.3789000000001],[36.58008000000012,36.37900000000025],[36.579490000000135,36.37887000000012],[36.578830000000096,36.385670000000175],[36.58300000000014,36.38461000000041],[36.583270000000084,36.38568000000015],[36.57908000000015,36.3867900000003],[36.579460000000154,36.38843000000031],[36.58654000000013,36.39107000000058],[36.586330000000146,36.391680000000065],[36.58632591133761,36.392092219260576]]],"type":"Polygon"}},{"type":"Feature","properties":{"area_id":"TR-31-011-149773","name_tr":"Akpınar","area_level":"neighbourhood","parent_id":"TR-31-011","endeksa_id":149773},"geometry":{"coordinates":[[[36.555791745069484,36.45197297460663],[36.55564961968065,36.45204112683098],[36.55542000000008,36.45196000000021],[36.554920000000095,36.452170000000365],[36.5510000000001,36.45170000000019],[36.5486600000001,36.452110000000516],[36.54708000000011,36.45194000000015],[36.543370000000095,36.45253000000008],[36.54086000000012,36.453480000000184],[36.539620000000184,36.45446000000027],[36.53676000000013,36.45608000000004],[36.53784000000013,36.45721000000043],[36.53761000000014,36.457990000000336],[36.53570000000019,36.458340000000135],[36.52767000000017,36.456020000000194],[36.52390000000014,36.4565800000002],[36.522270000000105,36.45670000000018],[36.52192000000008,36.457130000000234],[36.52037000000013,36.4580100000004],[36.51997000000006,36.45985000000019],[36.51919000000015,36.46136000000007],[36.51860000000022,36.46329000000043],[36.51866000000018,36.46486000000033],[36.51790000000017,36.465460000000235],[36.516850000000204,36.46666000000005],[36.515830000000165,36.46903000000003],[36.51348000000007,36.467160000000206],[36.51271000000014,36.4649900000004],[36.51064000000008,36.46372000000048],[36.50884721875752,36.4634192754047],[36.50703899400037,36.462036515000364],[36.50589685300014,36.461465445000044],[36.50780042200017,36.460323302999996],[36.51636648200014,36.4601329470006],[36.50924456600006,36.455385003000174],[36.50940717790695,36.45651368638477],[36.50931411970174,36.456371202233186],[36.50913332040051,36.45631530065896],[36.50894757095,36.456370382053876],[36.508853317107935,36.45651411496749],[36.50906942100005,36.45498658600013],[36.50042178399997,36.448600510000574],[36.502871554000194,36.446107947000485],[36.4946144970001,36.44225173700028],[36.49908875300008,36.436542670000506],[36.50550761900007,36.43371129300027],[36.50501262100016,36.43215711800019],[36.499911996000094,36.43189177400012],[36.50807320700005,36.42695753800007],[36.5065007660001,36.41758589599999],[36.507634298000085,36.41373661900013],[36.50830183100015,36.41110876800019],[36.508254731039756,36.411012766564625],[36.50840000000022,36.41129000000029],[36.50956000000008,36.408250000000294],[36.50967000000014,36.407690000000116],[36.51058000000012,36.40578000000039],[36.513190000000236,36.40207000000015],[36.516660000000115,36.40372000000008],[36.51788000000016,36.40454000000028],[36.51878000000016,36.40532000000013],[36.519950000000165,36.40646000000015],[36.51988000000006,36.40651000000054],[36.520470000000046,36.407380000000046],[36.52102000000008,36.40935000000036],[36.521100000000104,36.40931000000057],[36.523200000000145,36.410080000000335],[36.532370000000185,36.41405000000054],[36.53704000000005,36.41501000000039],[36.53845000000018,36.41505000000018],[36.539400000000114,36.41529000000014],[36.53852000000012,36.4166500000004],[36.5440200000001,36.41869000000008],[36.546340000000214,36.42001000000005],[36.55050000000011,36.421760000000404],[36.55280000000016,36.42296000000022],[36.55958000000021,36.4255500000001],[36.561520000000144,36.42721000000017],[36.56236000000018,36.42707000000064],[36.56372504002161,36.42720580752092],[36.56384558928892,36.42728907829144],[36.564277798000035,36.428326763000086],[36.5647755550001,36.42855238600055],[36.56511197800012,36.43032953400018],[36.56568672000009,36.43170942400013],[36.5660238800001,36.435146637],[36.56655486000017,36.43795152500013],[36.56503165900017,36.44039134200011],[36.56183767400012,36.43887286000006],[36.56141534700009,36.438872837000304],[36.55510469500018,36.443250297000475],[36.555481790000044,36.447717055000396],[36.55743209900004,36.45025046200067],[36.55735132500007,36.45031225000008],[36.557431122000025,36.45041587500009],[36.55611427400015,36.451469573000054],[36.555791745069484,36.45197297460663]]],"type":"Polygon"}}]}