{"type":"FeatureCollection","source_id":"endeksa","retrieved_at":"2026-08-23","features":[{"type":"Feature","properties":{"area_id":"TR-37-018-2018815","name_tr":"Gürpelit Köyü","area_level":"neighbourhood","parent_id":"TR-37-018","endeksa_id":2018815},"geometry":{"coordinates":[[[33.19800843400003,41.77685983200013],[33.19027821499998,41.77725787800034],[33.18341817200002,41.78177284999998],[33.177636760084965,41.782088327997485],[33.17686000000009,41.77929000000029],[33.174680000000194,41.77378000000016],[33.171020000000055,41.77048000000036],[33.16549000000009,41.762010000000146],[33.16273000000018,41.7588300000001],[33.16381000000018,41.757580000000246],[33.17264000000017,41.75686000000036],[33.17745000000025,41.75612000000024],[33.183840000000146,41.75529000000046],[33.18724000000009,41.7551200000006],[33.19180000000006,41.75637000000029],[33.19728000000015,41.75670000000059],[33.20002000000022,41.75670000000059],[33.20246418271188,41.75644687992212],[33.20263618402532,41.756572574242114],[33.20256645100011,41.7591438350002],[33.20306270200007,41.76183299400003],[33.19807340400007,41.76283560400003],[33.19797798399998,41.76291193800017],[33.196764292000125,41.76855931100016],[33.1981068070001,41.776694492000445],[33.198120015000086,41.776853697000206],[33.19800843400003,41.77685983200013]]],"type":"Polygon"}},{"type":"Feature","properties":{"area_id":"TR-37-018-2018821","name_tr":"Salman Köyü","area_level":"neighbourhood","parent_id":"TR-37-018","endeksa_id":2018821},"geometry":{"coordinates":[[[33.228569475000086,41.76854488200013],[33.22850934400003,41.768623677000164],[33.22898789900006,41.76883273600009],[33.22889666000009,41.76895229200005],[33.23259817300004,41.77177708700009],[33.232627145000095,41.77188208200016],[33.229307014000085,41.7773554800001],[33.22065714500019,41.78386772400012],[33.213261865000106,41.77813831700013],[33.20605383100019,41.78206971800057],[33.201678538000124,41.78135425800019],[33.19819541300012,41.776931703000116],[33.19800843400003,41.77685983200013],[33.198120015000086,41.776853697000206],[33.1981068070001,41.776694492000445],[33.196764292000125,41.76855931100016],[33.19797798399998,41.76291193800017],[33.19807340400007,41.76283560400003],[33.20306270200007,41.76183299400003],[33.20256645100011,41.7591438350002],[33.20269013600017,41.75458320700051],[33.207521329668,41.74784044767756],[33.20951000000008,41.748510000000124],[33.2106500000001,41.74853000000036],[33.21059000000008,41.748750000000086],[33.21068000000008,41.7489700000005],[33.21177000000017,41.749690000000385],[33.21184000000011,41.75001000000003],[33.21159000000006,41.75044000000008],[33.21171000000004,41.75060000000036],[33.211850000000084,41.75061000000011],[33.21276000000006,41.750370000000146],[33.21323000000018,41.750330000000076],[33.21393000000023,41.74844000000019],[33.21682083536899,41.74647031217239],[33.22518683600009,41.75276281000043],[33.2229302720001,41.757947067000146],[33.219424753,41.75980754500023],[33.22081000500003,41.764947711000445],[33.224296436000145,41.765466312000456],[33.22647215200004,41.76710203600044],[33.22656056800008,41.76703067400007],[33.2271823910001,41.76749231800022],[33.22713892200011,41.76756073800004],[33.22780569000008,41.76801944000067],[33.22794545800008,41.76799568600012],[33.228569475000086,41.76854488200013]]],"type":"Polygon"}},{"type":"Feature","properties":{"area_id":"TR-37-018-2018807","name_tr":"Celallı Köyü","area_level":"neighbourhood","parent_id":"TR-37-018","endeksa_id":2018807},"geometry":{"coordinates":[[[33.17565000000013,41.79196000000053],[33.17410000000018,41.79202000000015],[33.1738900000002,41.792130000000384],[33.172390000000064,41.792370000000346],[33.16943000000015,41.793610000000626],[33.16905000000014,41.7938400000001],[33.16775000000018,41.794140000000425],[33.165600000000154,41.794880000000546],[33.16468000000003,41.795060000000376],[33.164300000000196,41.795380000000705],[33.163680000000056,41.79638000000034],[33.16262000000012,41.797330000000045],[33.16161000000005,41.798010000000204],[33.16017000000011,41.79836000000017],[33.1597000000001,41.798600000000135],[33.15893000000017,41.79877000000016],[33.1575400000001,41.79954000000032],[33.15660000000014,41.79963000000009],[33.15568000000019,41.79945000000066],[33.15483000000023,41.79951000000011],[33.15370000000013,41.799070000000484],[33.15258000000023,41.79833000000036],[33.15117000000009,41.79759000000024],[33.15028000000018,41.797300000000405],[33.149840000000154,41.79727000000008],[33.149340000000166,41.797360000000424],[33.14895000000007,41.79780000000005],[33.148170000000164,41.799280000000124],[33.14603000000005,41.79762000000005],[33.144470000000126,41.796590000000094],[33.143050000000244,41.79535000000038],[33.14190000000008,41.79399000000012],[33.139950000000056,41.79263000000054],[33.13789000000014,41.791010000000085],[33.13641000000007,41.78930000000071],[33.13476000000014,41.78818000000041],[33.1333200000002,41.7872500000002],[33.1275500000001,41.784720000000334],[33.1235200000001,41.781400000000076],[33.11756000000025,41.779480000000376],[33.1191300000001,41.77581000000009],[33.12353000000019,41.77136000000013],[33.13263000000012,41.76246000000026],[33.13455000000016,41.75533000000024],[33.14864000000017,41.75772000000029],[33.16273000000018,41.7588300000001],[33.16549000000009,41.762010000000146],[33.171020000000055,41.77048000000036],[33.174680000000194,41.77378000000016],[33.17686000000009,41.77929000000029],[33.177636760084965,41.782088327997485],[33.17720000000014,41.78273000000013],[33.1770200000002,41.78355000000033],[33.176810000000046,41.78536000000014],[33.17690000000022,41.785680000000355],[33.17755000000017,41.7866800000001],[33.17771000000005,41.78710000000058],[33.177520000000186,41.789530000000184],[33.177340000000186,41.78999000000027],[33.17620727370877,41.79114242587923],[33.17565000000013,41.79196000000053]]],"type":"Polygon"}},{"type":"Feature","properties":{"area_id":"TR-37-018-41906","name_tr":"Merkez","area_level":"neighbourhood","parent_id":"TR-37-018","endeksa_id":41906},"geometry":{"coordinates":[[[33.24282094527973,41.818088047691276],[33.24272000000019,41.81817000000058],[33.241590000000144,41.81699000000032],[33.24069000000014,41.816600000000165],[33.238920000000235,41.816100000000176],[33.23664000000019,41.81510000000026],[33.23554000000013,41.81429000000071],[33.234650000000045,41.81339000000014],[33.234490000000164,41.81347000000039],[33.23448000000019,41.81357000000014],[33.23393000000016,41.813660000000084],[33.23305000000016,41.81426000000039],[33.23292000000009,41.813530000000355],[33.232720000000086,41.81333000000018],[33.23244000000017,41.813530000000355],[33.23236000000014,41.8133600000005],[33.232010000000116,41.81237000000033],[33.231800000000135,41.810860000000275],[33.23131000000012,41.81000000000034],[33.2312100000002,41.8099500000003],[33.23091000000005,41.81001000000043],[33.23055000000011,41.81041000000016],[33.22885952088183,41.81147476919773],[33.22883000000007,41.811210000000244],[33.228980000000035,41.810900000000174],[33.22963000000021,41.809970000000135],[33.22908000000018,41.8099500000003],[33.22912000000008,41.80970000000036],[33.2286900000002,41.809600000000614],[33.22884000000022,41.80930000000012],[33.22859000000011,41.80890000000028],[33.22815000000014,41.80859000000021],[33.22813000000008,41.80832000000004],[33.22682000000003,41.80723000000012],[33.226810000000114,41.806620000000066],[33.22660000000013,41.80602000000016],[33.227090000000146,41.80527000000046],[33.22835000000015,41.80640000000017],[33.2291800000001,41.80682000000013],[33.23237000000006,41.80741000000006],[33.234030000000075,41.80621000000008],[33.23435000000012,41.80624000000006],[33.23450000000008,41.806690000000174],[33.234340000000145,41.80714000000029],[33.234870000000114,41.807270000000415],[33.23544005363823,41.80756569162236],[33.23582000000005,41.80766000000017],[33.23633000000012,41.80762000000021],[33.2364300000001,41.80753000000004],[33.23648000000014,41.80779000000007],[33.235920000000135,41.80843000000044],[33.23628000000008,41.8087800000003],[33.236410000000035,41.80937000000006],[33.237160000000074,41.81004000000007],[33.23732000000018,41.810430000000395],[33.23795000000007,41.81117000000012],[33.2383700000002,41.81142000000057],[33.23912000000007,41.81210000000016],[33.2396700000001,41.812290000000075],[33.240530000000035,41.81283000000019],[33.241270000000156,41.81350000000003],[33.24192000000011,41.81390000000005],[33.24237000000005,41.81435000000016],[33.24288000000013,41.814640000000395],[33.243470000000116,41.81479000000019],[33.24525000000011,41.814450000000306],[33.245490000000075,41.81451000000044],[33.24531000000013,41.814640000000395],[33.244960000000106,41.81547000000029],[33.24514000000005,41.815790000000334],[33.24489000000017,41.81662000000023],[33.24362000000008,41.817800000000375],[33.243200000000115,41.818050000000085],[33.24282094527973,41.818088047691276]]],"type":"Polygon"}},{"type":"Feature","properties":{"area_id":"TR-37-018-2018806","name_tr":"Başçavuş Köyü","area_level":"neighbourhood","parent_id":"TR-37-018","endeksa_id":2018806},"geometry":{"coordinates":[[[33.25900964900006,41.79174901400012],[33.25880691700013,41.79166588500044],[33.25004576200007,41.795872695000526],[33.2499290130001,41.79576115000009],[33.25094202800017,41.790800149000574],[33.250118025999996,41.79007459500008],[33.24496776300015,41.79070472100017],[33.24110139000004,41.78992451400018],[33.240940807000186,41.78999815500015],[33.24085932500003,41.78987575500014],[33.23858947200006,41.789415175000045],[33.238494744000036,41.78932665200006],[33.239311522000094,41.78665002800011],[33.24209113000006,41.784980345000065],[33.24159429000014,41.7826250130006],[33.23969695200003,41.78092327100012],[33.23975375500004,41.78082374999997],[33.24108476000009,41.780241044000434],[33.24007172600011,41.7754828730001],[33.22919800800014,41.76857458400042],[33.22910105700004,41.768727187000025],[33.228759444000104,41.76829595500004],[33.228569475000086,41.76854488200013],[33.22794545800008,41.76799568600012],[33.22780569000008,41.76801944000067],[33.22713892200011,41.76756073800004],[33.2271823910001,41.76749231800022],[33.22656056800008,41.76703067400007],[33.22647215200004,41.76710203600044],[33.224296436000145,41.765466312000456],[33.22081000500003,41.764947711000445],[33.219424753,41.75980754500023],[33.2229302720001,41.757947067000146],[33.22518683600009,41.75276281000043],[33.21682083536899,41.74647031217239],[33.219340000000216,41.744200000000205],[33.22772000000009,41.74158000000011],[33.23599000000007,41.74338000000017],[33.24125000000009,41.74208000000027],[33.24218000000013,41.74719000000033],[33.24491000000006,41.747060000000204],[33.24915000000004,41.747240000000204],[33.25597000000016,41.751880000000426],[33.267450000000224,41.761400000000094],[33.27747000000005,41.76300000000032],[33.28388000000018,41.762980000000084],[33.287340000000086,41.76381000000055],[33.2922200000001,41.7646900000002],[33.29715000000016,41.76545000000016],[33.29774000000015,41.76622000000032],[33.29950000000008,41.76763000000028],[33.30356000000012,41.76828000000023],[33.30117000000007,41.77937000000048],[33.295408048507966,41.777793894234605],[33.285060925000096,41.77489291400042],[33.284888870000145,41.774957383000185],[33.28482094000003,41.774826216000406],[33.28200175200004,41.774042675000146],[33.27322424800013,41.77378289900014],[33.269018306000135,41.76923683700005],[33.26701806300008,41.769222083000614],[33.264012661000095,41.770336393000264],[33.26056977900015,41.77612950200006],[33.26352390000005,41.785516519000566],[33.26079376400014,41.790691735000166],[33.25905568900009,41.79154658099998],[33.25900964900006,41.79174901400012]]],"type":"Polygon"}},{"type":"Feature","properties":{"area_id":"TR-37-018-2018816","name_tr":"Harmangeriş Köyü","area_level":"neighbourhood","parent_id":"TR-37-018","endeksa_id":2018816},"geometry":{"coordinates":[[[33.20605383100019,41.78206971800057],[33.20792303800005,41.79000779000012],[33.211583985000175,41.793363308000096],[33.21124458700018,41.79664582100037],[33.20690301500014,41.798855756000194],[33.205675157000144,41.79522758300044],[33.19200355800001,41.78811272400003],[33.18703855000007,41.78956759100038],[33.19030861700003,41.79278351300019],[33.182173300000045,41.79585396300007],[33.17620727370877,41.79114242587923],[33.177340000000186,41.78999000000027],[33.177520000000186,41.789530000000184],[33.17771000000005,41.78710000000058],[33.17755000000017,41.7866800000001],[33.17690000000022,41.785680000000355],[33.176810000000046,41.78536000000014],[33.1770200000002,41.78355000000033],[33.17720000000014,41.78273000000013],[33.177636760084965,41.782088327997485],[33.18341817200002,41.78177284999998],[33.19027821499998,41.77725787800034],[33.19800843400003,41.77685983200013],[33.19819541300012,41.776931703000116],[33.201678538000124,41.78135425800019],[33.20605383100019,41.78206971800057]]],"type":"Polygon"}},{"type":"Feature","properties":{"area_id":"TR-37-018-41900","name_tr":"Çevrik","area_level":"neighbourhood","parent_id":"TR-37-018","endeksa_id":41900},"geometry":{"coordinates":[[[33.223397722000186,41.79995778300031],[33.22324364200006,41.800337631000104],[33.22402742700018,41.80126828700003],[33.22406597900016,41.801733505000186],[33.215986944000065,41.80281923700028],[33.20690301500014,41.798855756000194],[33.21124458700018,41.79664582100037],[33.211583985000175,41.793363308000096],[33.20792303800005,41.79000779000012],[33.20605383100019,41.78206971800057],[33.213261865000106,41.77813831700013],[33.22461788700019,41.78693626400053],[33.228399611999976,41.79126462400001],[33.227553736000175,41.793694364000146],[33.22997760700008,41.79348312500019],[33.229459764000126,41.79488489300019],[33.22383042700005,41.79889105300015],[33.223397722000186,41.79995778300031]]],"type":"Polygon"}},{"type":"Feature","properties":{"area_id":"TR-37-018-2018813","name_tr":"Furuncuk Köyü","area_level":"neighbourhood","parent_id":"TR-37-018","endeksa_id":2018813},"geometry":{"coordinates":[[[33.25926703200008,41.80382415400038],[33.25908156000003,41.80383439000019],[33.255066157000044,41.80232744500012],[33.25482180800003,41.80238190000006],[33.25488768400015,41.80229839600008],[33.25483064500014,41.80221476500003],[33.242976543000054,41.79608304600043],[33.24181873400005,41.795592469999974],[33.239708522000114,41.79526109100004],[33.239582945999985,41.79508522900005],[33.239433625000174,41.79520653500015],[33.22976554200005,41.79405717100008],[33.22997760700008,41.79348312500019],[33.227553736000175,41.793694364000146],[33.228399611999976,41.79126462400001],[33.22461788700019,41.78693626400053],[33.22065714500019,41.78386772400012],[33.229307014000085,41.7773554800001],[33.232627145000095,41.77188208200016],[33.23259817300004,41.77177708700009],[33.22889666000009,41.76895229200005],[33.22898789900006,41.76883273600009],[33.22850934400003,41.768623677000164],[33.228759444000104,41.76829595500004],[33.22910105700004,41.768727187000025],[33.22919800800014,41.76857458400042],[33.24007172600011,41.7754828730001],[33.24108476000009,41.780241044000434],[33.23975375500004,41.78082374999997],[33.23969695200003,41.78092327100012],[33.24159429000014,41.7826250130006],[33.24209113000006,41.784980345000065],[33.239311522000094,41.78665002800011],[33.238494744000036,41.78932665200006],[33.23858947200006,41.789415175000045],[33.24085932500003,41.78987575500014],[33.240940807000186,41.78999815500015],[33.24110139000004,41.78992451400018],[33.24496776300015,41.79070472100017],[33.250118025999996,41.79007459500008],[33.25094202800017,41.790800149000574],[33.2499290130001,41.79576115000009],[33.25004576200007,41.795872695000526],[33.25880691700013,41.79166588500044],[33.25900964900006,41.79174901400012],[33.259098965000135,41.800887456000225],[33.25938745100001,41.80367089400016],[33.25926703200008,41.80382415400038]]],"type":"Polygon"}},{"type":"Feature","properties":{"area_id":"TR-37-018-41901","name_tr":"Dibekli","area_level":"neighbourhood","parent_id":"TR-37-018","endeksa_id":41901},"geometry":{"coordinates":[[[33.247087719000035,41.79820961600035],[33.24146675900016,41.802262558000166],[33.24024450000019,41.80374483000003],[33.23798029699998,41.805043968000234],[33.23382657800016,41.804195204000166],[33.228157215000124,41.802361997000105],[33.22798483300005,41.80242410599999],[33.22792601500015,41.8023056990001],[33.22642129300016,41.80174614700013],[33.223397722000186,41.79995778300031],[33.22383042700005,41.79889105300015],[33.229459764000126,41.79488489300019],[33.22976554200005,41.79405717100008],[33.239433625000174,41.79520653500015],[33.239582945999985,41.79508522900005],[33.239708522000114,41.79526109100004],[33.24181873400005,41.795592469999974],[33.242976543000054,41.79608304600043],[33.247087719000035,41.79820961600035]]],"type":"Polygon"}},{"type":"Feature","properties":{"area_id":"TR-37-018-2018814","name_tr":"Gürleyik Köyü","area_level":"neighbourhood","parent_id":"TR-37-018","endeksa_id":2018814},"geometry":{"coordinates":[[[33.27745432155501,41.79342394825062],[33.271614155000066,41.80811294500023],[33.27145336400014,41.80820972100042],[33.26266214700007,41.80529906200002],[33.26046117900006,41.804315337000105],[33.26042966600005,41.80438584500007],[33.259727523000095,41.8039874290003],[33.259685505000164,41.804081440000175],[33.25952995800003,41.803899127000136],[33.25926703200008,41.80382415400038],[33.25938745100001,41.80367089400016],[33.259098965000135,41.800887456000225],[33.25900964900006,41.79174901400012],[33.25905568900009,41.79154658099998],[33.26079376400014,41.790691735000166],[33.26352390000005,41.785516519000566],[33.26056977900015,41.77612950200006],[33.264012661000095,41.770336393000264],[33.26701806300008,41.769222083000614],[33.269018306000135,41.76923683700005],[33.27322424800013,41.77378289900014],[33.28200175200004,41.774042675000146],[33.28482094000003,41.774826216000406],[33.284888870000145,41.774957383000185],[33.285060925000096,41.77489291400042],[33.295408048507966,41.777793894234605],[33.295510621874314,41.77794719998792],[33.29531476835848,41.778035294810024],[33.290900000000136,41.77703000000014],[33.28658000000013,41.78059000000053],[33.28236000000015,41.784230000000434],[33.27811000000008,41.789400000000455],[33.27601000000004,41.792160000000194],[33.27745432155501,41.79342394825062]]],"type":"Polygon"}},{"type":"Feature","properties":{"area_id":"TR-37-018-2018810","name_tr":"Dereköy Köyü","area_level":"neighbourhood","parent_id":"TR-37-018","endeksa_id":2018810},"geometry":{"coordinates":[[[33.17255000000017,41.8035600000004],[33.17023000000006,41.80494000000016],[33.16720000000015,41.80412000000052],[33.166720000000055,41.80446000000023],[33.16642000000013,41.80434000000025],[33.16618000000017,41.80437000000006],[33.166190000000086,41.80451000000011],[33.16601000000014,41.80463000000009],[33.165720000000135,41.80460000000045],[33.16574000000014,41.80481000000009],[33.16530000000017,41.80485000000016],[33.16495000000015,41.80497000000037],[33.164920000000166,41.805070000000285],[33.16476000000006,41.80506000000014],[33.164490000000114,41.80481000000009],[33.163930000000164,41.80466000000007],[33.163440000000094,41.80481000000009],[33.16342000000003,41.80497000000037],[33.16318000000007,41.805110000000184],[33.162720000000036,41.805010000000266],[33.16268000000014,41.80481000000009],[33.16230000000013,41.804360000000486],[33.161670000000186,41.80421000000018],[33.16178000000008,41.803770000000156],[33.16160000000008,41.80366000000015],[33.16137000000009,41.80289000000039],[33.16079000000025,41.8033800000004],[33.15868000000006,41.80327000000017],[33.15729000000016,41.80440000000027],[33.156650000000184,41.80440000000027],[33.15626000000003,41.80429000000038],[33.15580000000017,41.804390000000126],[33.15542000000016,41.804580000000215],[33.155350000000055,41.804700000000196],[33.155620000000226,41.80483000000032],[33.15587000000011,41.80510000000061],[33.15582000000006,41.80525000000023],[33.15542000000016,41.805350000000146],[33.15464000000014,41.80509000000012],[33.154350000000136,41.80561000000017],[33.15403000000009,41.80553000000066],[33.15397000000013,41.80561000000017],[33.154040000000236,41.80583000000007],[33.15375000000023,41.80658000000017],[33.15329000000014,41.80689000000024],[33.15252000000004,41.807090000000414],[33.15069000000017,41.80780000000021],[33.14863000000025,41.80819000000048],[33.14721000000014,41.8086000000003],[33.14620000000008,41.80921000000035],[33.14561000000009,41.80872000000028],[33.14548000000019,41.8085200000001],[33.14546000000013,41.807420000000036],[33.14505000000014,41.807080000000326],[33.14441000000011,41.80676000000011],[33.14385000000016,41.80626000000012],[33.14349000000004,41.80552000000017],[33.14350000000013,41.80513000000025],[33.14372000000026,41.804700000000196],[33.145840000000135,41.802380000000085],[33.14629000000008,41.80215000000027],[33.14747000000017,41.80196000000018],[33.14797000000016,41.80177000000009],[33.14799000000005,41.79979000000037],[33.148170000000164,41.799280000000124],[33.14895000000007,41.79780000000005],[33.149340000000166,41.797360000000424],[33.149840000000154,41.79727000000008],[33.15028000000018,41.797300000000405],[33.15117000000009,41.79759000000024],[33.15258000000023,41.79833000000036],[33.15370000000013,41.799070000000484],[33.15483000000023,41.79951000000011],[33.15568000000019,41.79945000000066],[33.15660000000014,41.79963000000009],[33.1575400000001,41.79954000000032],[33.15893000000017,41.79877000000016],[33.1597000000001,41.798600000000135],[33.16017000000011,41.79836000000017],[33.16161000000005,41.798010000000204],[33.16262000000012,41.797330000000045],[33.163680000000056,41.79638000000034],[33.164300000000196,41.795380000000705],[33.16468000000003,41.795060000000376],[33.165600000000154,41.794880000000546],[33.16775000000018,41.794140000000425],[33.16905000000014,41.7938400000001],[33.16943000000015,41.793610000000626],[33.172390000000064,41.792370000000346],[33.1738900000002,41.792130000000384],[33.17410000000018,41.79202000000015],[33.17565000000013,41.79196000000053],[33.175580000000025,41.792960000000164],[33.17490000000009,41.79349000000013],[33.175670000000025,41.7943700000003],[33.175950000000114,41.794450000000495],[33.17600000000016,41.794980000000294],[33.17618000000016,41.795130000000086],[33.17657000000008,41.79595000000029],[33.17661000000021,41.79622000000006],[33.17618000000016,41.796430000000214],[33.1762300000002,41.79650000000032],[33.176070000000095,41.79663000000039],[33.17518000000018,41.798010000000204],[33.17530000000016,41.79833000000036],[33.17559000000017,41.79818000000006],[33.17583000000013,41.798350000000596],[33.17557000000011,41.798560000000236],[33.1752800000001,41.79902000000061],[33.17432000000008,41.798910000000035],[33.17421000000019,41.79930000000036],[33.174240000000225,41.799520000000086],[33.174090000000035,41.79964000000007],[33.1742000000001,41.799900000000264],[33.173810000000174,41.80054000000007],[33.17432000000008,41.801510000000576],[33.17433000000017,41.80175000000054],[33.17255000000017,41.8035600000004]]],"type":"Polygon"}},{"type":"Feature","properties":{"area_id":"TR-37-018-2018825","name_tr":"Yarımca Köyü","area_level":"neighbourhood","parent_id":"TR-37-018","endeksa_id":2018825},"geometry":{"coordinates":[[[33.30415000000011,41.81454000000008],[33.30433000000005,41.821610000000305],[33.30421000000007,41.82511000000068],[33.30409000000009,41.82602000000065],[33.30389000000008,41.826730000000055],[33.30330000000009,41.827530000000536],[33.30274000000014,41.82785000000018],[33.30197000000021,41.82811000000021],[33.303010000000086,41.82915000000031],[33.3024200000001,41.82944000000015],[33.30203000000017,41.82952000000034],[33.30135000000007,41.829450000000236],[33.30021000000005,41.82907000000006],[33.299600000000225,41.82860000000028],[33.2993400000002,41.827930000000265],[33.29896000000019,41.827560000000176],[33.298330000000135,41.82723000000004],[33.2976900000001,41.82704000000035],[33.29589000000021,41.826790000000415],[33.2940900000001,41.825670000000116],[33.292660000000126,41.825580000000116],[33.290897983029936,41.82582036102508],[33.287680000000194,41.825950000000546],[33.28701000000018,41.826080000000104],[33.2864100000001,41.82632000000007],[33.28559000000007,41.82686000000052],[33.28478000000024,41.82672000000031],[33.28444000000013,41.82587000000035],[33.2841600000001,41.82569000000035],[33.28327000000013,41.825670000000116],[33.28233000000017,41.825080000000355],[33.28199000000012,41.824650000000304],[33.281910000000096,41.823820000000524],[33.28207000000015,41.82269000000014],[33.28216000000015,41.82235000000043],[33.282270541757384,41.822235579584856],[33.2825062,41.820224694000046],[33.282384909191535,41.82021906599124],[33.282549532901385,41.82014401340132],[33.283000000000186,41.8191800000003],[33.28302000000008,41.81835000000018],[33.282910000000186,41.81816000000009],[33.28228000000013,41.81786000000051],[33.28219000000013,41.81770000000006],[33.282220000000166,41.81747000000024],[33.282790000000034,41.8168500000001],[33.28304000000014,41.815640000000144],[33.282910000000186,41.81503000000015],[33.28293000000008,41.81461000000019],[33.283190000000104,41.81410000000062],[33.28374000000014,41.813530000000355],[33.28382000000016,41.813280000000304],[33.2836700000002,41.81252000000063],[33.28304000000014,41.81175000000019],[33.28295000000014,41.81153000000029],[33.28352000000007,41.81079000000034],[33.283530000000155,41.80912000000069],[33.28361000000024,41.80883000000017],[33.28432000000015,41.80821000000071],[33.28457000000009,41.80790000000013],[33.28470000000016,41.8075400000007],[33.28457000000009,41.80620000000067],[33.28420000000017,41.804920000000095],[33.28460000000007,41.80364000000009],[33.28460000000007,41.80255000000011],[33.28549000000015,41.80063000000024],[33.285480000000064,41.80007000000012],[33.285110000000145,41.79927000000015],[33.284670000000176,41.798870000000306],[33.284520000000214,41.798570000000325],[33.28461000000016,41.7980900000004],[33.27773076492133,41.79334664262632],[33.27756340563974,41.79332380101931],[33.27745432155501,41.79342394825062],[33.27601000000004,41.792160000000194],[33.27811000000008,41.789400000000455],[33.28236000000015,41.784230000000434],[33.28658000000013,41.78059000000053],[33.290900000000136,41.77703000000014],[33.29531476835848,41.778035294810024],[33.295510621874314,41.77794719998792],[33.295408048507966,41.777793894234605],[33.30117000000007,41.77937000000048],[33.30339000000009,41.78105000000022],[33.30559000000005,41.78397000000024],[33.30562000000003,41.787700000000484],[33.30491000000006,41.79187000000019],[33.30479000000008,41.79654000000005],[33.304780000000164,41.810560000000464],[33.30415000000011,41.81454000000008]]],"type":"Polygon"}},{"type":"Feature","properties":{"area_id":"TR-37-018-2018804","name_tr":"Aşıklı Köyü","area_level":"neighbourhood","parent_id":"TR-37-018","endeksa_id":2018804},"geometry":{"coordinates":[[[33.20380894000016,41.823933086000466],[33.204158877000054,41.82485063199999],[33.200403028000096,41.82238807300007],[33.19022680708099,41.82213943493264],[33.18792000000019,41.82002000000017],[33.18534000000005,41.81817000000058],[33.18153000000012,41.81488000000036],[33.18011000000007,41.81254000000018],[33.17974000000015,41.808480000000316],[33.17812000000009,41.80729000000008],[33.17644000000013,41.807120000000054],[33.175200000000245,41.80651000000006],[33.17255000000017,41.8035600000004],[33.17433000000017,41.80175000000054],[33.17432000000008,41.801510000000576],[33.173810000000174,41.80054000000007],[33.1742000000001,41.799900000000264],[33.174090000000035,41.79964000000007],[33.174240000000225,41.799520000000086],[33.17421000000019,41.79930000000036],[33.17432000000008,41.798910000000035],[33.1752800000001,41.79902000000061],[33.17557000000011,41.798560000000236],[33.17583000000013,41.798350000000596],[33.17559000000017,41.79818000000006],[33.17530000000016,41.79833000000036],[33.17518000000018,41.798010000000204],[33.176070000000095,41.79663000000039],[33.1762300000002,41.79650000000032],[33.17618000000016,41.796430000000214],[33.17661000000021,41.79622000000006],[33.17657000000008,41.79595000000029],[33.17618000000016,41.795130000000086],[33.17600000000016,41.794980000000294],[33.175950000000114,41.794450000000495],[33.175670000000025,41.7943700000003],[33.17490000000009,41.79349000000013],[33.175580000000025,41.792960000000164],[33.17565000000013,41.79196000000053],[33.17620727370877,41.79114242587923],[33.182173300000045,41.79585396300007],[33.19030861700003,41.79278351300019],[33.18703855000007,41.78956759100038],[33.19200355800001,41.78811272400003],[33.205675157000144,41.79522758300044],[33.20690301500014,41.798855756000194],[33.20691453800009,41.798860784000226],[33.207740473000115,41.80240902500009],[33.20462997000004,41.80824211600003],[33.20103689300004,41.810102790000144],[33.200886543000024,41.81627047500035],[33.20380894000016,41.823933086000466]]],"type":"Polygon"}},{"type":"Feature","properties":{"area_id":"TR-37-018-41903","name_tr":"Karaman","area_level":"neighbourhood","parent_id":"TR-37-018","endeksa_id":41903},"geometry":{"coordinates":[[[33.22885952088183,41.81147476919773],[33.22738214999998,41.81486271200049],[33.22953805300011,41.81551703700018],[33.22928155800014,41.81759327800029],[33.22384721000009,41.82288517300003],[33.2231247090001,41.82766282500006],[33.21127233800007,41.82739632600067],[33.20380894000016,41.823933086000466],[33.200886543000024,41.81627047500035],[33.20103689300004,41.810102790000144],[33.20462997000004,41.80824211600003],[33.207740473000115,41.80240902500009],[33.20691453800009,41.798860784000226],[33.215986944000065,41.80281923700028],[33.22406597900016,41.801733505000186],[33.22402742700018,41.80126828700003],[33.22324364200006,41.800337631000104],[33.223397722000186,41.79995778300031],[33.22642129300016,41.80174614700013],[33.22792601500015,41.8023056990001],[33.22798483300005,41.80242410599999],[33.228157215000124,41.802361997000105],[33.23382657800016,41.804195204000166],[33.23798029699998,41.805043968000234],[33.23485653100016,41.806836301000146],[33.23544005363823,41.80756569162236],[33.234870000000114,41.807270000000415],[33.234340000000145,41.80714000000029],[33.23450000000008,41.806690000000174],[33.23435000000012,41.80624000000006],[33.234030000000075,41.80621000000008],[33.23237000000006,41.80741000000006],[33.2291800000001,41.80682000000013],[33.22835000000015,41.80640000000017],[33.227090000000146,41.80527000000046],[33.22660000000013,41.80602000000016],[33.226810000000114,41.806620000000066],[33.22682000000003,41.80723000000012],[33.22813000000008,41.80832000000004],[33.22815000000014,41.80859000000021],[33.22859000000011,41.80890000000028],[33.22884000000022,41.80930000000012],[33.2286900000002,41.809600000000614],[33.22912000000008,41.80970000000036],[33.22908000000018,41.8099500000003],[33.22963000000021,41.809970000000135],[33.228980000000035,41.810900000000174],[33.22883000000007,41.811210000000244],[33.22885952088183,41.81147476919773]]],"type":"Polygon"}},{"type":"Feature","properties":{"area_id":"TR-37-018-41905","name_tr":"Kuztekke","area_level":"neighbourhood","parent_id":"TR-37-018","endeksa_id":41905},"geometry":{"coordinates":[[[33.282384909191535,41.82021906599124],[33.27571448600008,41.81990955200013],[33.27119825300008,41.81390779100008],[33.26511229000005,41.816234783000596],[33.26186758500006,41.82194850800022],[33.25754003500015,41.82383709400034],[33.25509455100013,41.82389090999999],[33.24776307000002,41.8216910590005],[33.24475926700012,41.820252223000466],[33.24313572500006,41.81915004600012],[33.242573517000096,41.818131447000496],[33.2427292860001,41.818209427000056],[33.24282094527973,41.818088047691276],[33.243200000000115,41.818050000000085],[33.24362000000008,41.817800000000375],[33.24489000000017,41.81662000000023],[33.24514000000005,41.815790000000334],[33.244960000000106,41.81547000000029],[33.24531000000013,41.814640000000395],[33.245490000000075,41.81451000000044],[33.24525000000011,41.814450000000306],[33.243470000000116,41.81479000000019],[33.24288000000013,41.814640000000395],[33.24237000000005,41.81435000000016],[33.24192000000011,41.81390000000005],[33.241270000000156,41.81350000000003],[33.240530000000035,41.81283000000019],[33.2396700000001,41.812290000000075],[33.23912000000007,41.81210000000016],[33.2383700000002,41.81142000000057],[33.23795000000007,41.81117000000012],[33.23732000000018,41.810430000000395],[33.237160000000074,41.81004000000007],[33.236410000000035,41.80937000000006],[33.23628000000008,41.8087800000003],[33.235920000000135,41.80843000000044],[33.23648000000014,41.80779000000007],[33.2364300000001,41.80753000000004],[33.23633000000012,41.80762000000021],[33.23582000000005,41.80766000000017],[33.23544005363823,41.80756569162236],[33.23485653100016,41.806836301000146],[33.24024450000019,41.80374483000003],[33.24146675900016,41.802262558000166],[33.247087719000035,41.79820961600035],[33.25483064500014,41.80221476500003],[33.25488768400015,41.80229839600008],[33.25482180800003,41.80238190000006],[33.255066157000044,41.80232744500012],[33.25908156000003,41.80383439000019],[33.25926703200008,41.80382415400038],[33.25952995800003,41.803899127000136],[33.259685505000164,41.804081440000175],[33.259727523000095,41.8039874290003],[33.26042966600005,41.80438584500007],[33.26046117900006,41.804315337000105],[33.26266214700007,41.80529906200002],[33.27145336400014,41.80820972100042],[33.271614155000066,41.80811294500023],[33.27745432155501,41.79342394825062],[33.27756340563974,41.79332380101931],[33.27773076492133,41.79334664262632],[33.28461000000016,41.7980900000004],[33.284520000000214,41.798570000000325],[33.284670000000176,41.798870000000306],[33.285110000000145,41.79927000000015],[33.285480000000064,41.80007000000012],[33.28549000000015,41.80063000000024],[33.28460000000007,41.80255000000011],[33.28460000000007,41.80364000000009],[33.28420000000017,41.804920000000095],[33.28457000000009,41.80620000000067],[33.28470000000016,41.8075400000007],[33.28457000000009,41.80790000000013],[33.28432000000015,41.80821000000071],[33.28361000000024,41.80883000000017],[33.283530000000155,41.80912000000069],[33.28352000000007,41.81079000000034],[33.28295000000014,41.81153000000029],[33.28304000000014,41.81175000000019],[33.2836700000002,41.81252000000063],[33.28382000000016,41.813280000000304],[33.28374000000014,41.813530000000355],[33.283190000000104,41.81410000000062],[33.28293000000008,41.81461000000019],[33.282910000000186,41.81503000000015],[33.28304000000014,41.815640000000144],[33.282790000000034,41.8168500000001],[33.282220000000166,41.81747000000024],[33.28219000000013,41.81770000000006],[33.28228000000013,41.81786000000051],[33.282910000000186,41.81816000000009],[33.28302000000008,41.81835000000018],[33.283000000000186,41.8191800000003],[33.282549532901385,41.82014401340132],[33.282384909191535,41.82021906599124]]],"type":"Polygon"}},{"type":"Feature","properties":{"area_id":"TR-37-018-41902","name_tr":"Güneytekke","area_level":"neighbourhood","parent_id":"TR-37-018","endeksa_id":41902},"geometry":{"coordinates":[[[33.25279315,41.83494818600059],[33.25028391100017,41.83602779400002],[33.24662116700017,41.835688707000486],[33.246154269000044,41.83574472600009],[33.24295400900013,41.83543833200014],[33.24286077400012,41.83534058000055],[33.24254487300004,41.83539425100014],[33.24123885600005,41.8351904280002],[33.23456709300001,41.83457277500003],[33.232080107000115,41.832621553000195],[33.226079654000046,41.82816402600008],[33.22309963900017,41.827828606000196],[33.22384721000009,41.82288517300003],[33.22928155800014,41.81759327800029],[33.22953805300011,41.81551703700018],[33.22738214999998,41.81486271200049],[33.22885952088183,41.81147476919773],[33.23055000000011,41.81041000000016],[33.23091000000005,41.81001000000043],[33.2312100000002,41.8099500000003],[33.23131000000012,41.81000000000034],[33.231800000000135,41.810860000000275],[33.232010000000116,41.81237000000033],[33.23236000000014,41.8133600000005],[33.23244000000017,41.813530000000355],[33.232720000000086,41.81333000000018],[33.23292000000009,41.813530000000355],[33.23305000000016,41.81426000000039],[33.23393000000016,41.813660000000084],[33.23448000000019,41.81357000000014],[33.234490000000164,41.81347000000039],[33.234650000000045,41.81339000000014],[33.23554000000013,41.81429000000071],[33.23664000000019,41.81510000000026],[33.238920000000235,41.816100000000176],[33.24069000000014,41.816600000000165],[33.241590000000144,41.81699000000032],[33.24272000000019,41.81817000000058],[33.24282094527973,41.818088047691276],[33.2427292860001,41.818209427000056],[33.242573517000096,41.818131447000496],[33.24313572500006,41.81915004600012],[33.24475926700012,41.820252223000466],[33.24776307000002,41.8216910590005],[33.25573129500003,41.82408196800003],[33.253759259000105,41.825575880000144],[33.25508359999998,41.82792017100007],[33.25279315,41.83494818600059]]],"type":"Polygon"}},{"type":"Feature","properties":{"area_id":"TR-37-018-2018808","name_tr":"Dağlı Köyü","area_level":"neighbourhood","parent_id":"TR-37-018","endeksa_id":2018808},"geometry":{"coordinates":[[[33.14620000000008,41.80921000000035],[33.14635000000004,41.80939000000029],[33.14641000000006,41.80965000000049],[33.14631000000014,41.810250000000394],[33.146140000000116,41.81041000000016],[33.14537000000013,41.81078000000019],[33.14461000000017,41.811730000000125],[33.14372000000026,41.81258000000008],[33.14319000000006,41.813720000000444],[33.14214000000004,41.81412000000017],[33.141440000000046,41.81544000000065],[33.140850000000114,41.81616000000054],[33.14033000000006,41.81769000000065],[33.13982000000016,41.818050000000085],[33.139210000000105,41.81896000000006],[33.13851000000011,41.81948000000028],[33.137970000000166,41.82010000000042],[33.13774000000018,41.82105000000013],[33.1369600000001,41.82209000000023],[33.136880000000076,41.82233000000019],[33.136880000000076,41.823940000000505],[33.136790000000076,41.82475000000005],[33.133850000000166,41.82631000000049],[33.13138000000009,41.829290000000356],[33.13151000000016,41.83093000000048],[33.132990106795205,41.83242731733975],[33.13421374600006,41.834861898000554],[33.13394849000014,41.83536550300039],[33.13204833896879,41.8374111075608],[33.11924427900004,41.82776826200018],[33.10760663700012,41.82717662099998],[33.10750253800012,41.8270513810001],[33.107934869000076,41.826649302000135],[33.10788501300004,41.826515910000296],[33.10290983699997,41.82564373000025],[33.101782157000116,41.82373730500052],[33.10168145300014,41.82298711200053],[33.10204287300019,41.82137739800004],[33.10198631000003,41.820699772000125],[33.09811195100019,41.81709555600014],[33.10021075800006,41.807523533000165],[33.09362515000015,41.80237450200019],[33.09160215012798,41.797062131751034],[33.09511000000009,41.80054000000007],[33.099280000000135,41.80381000000045],[33.10927000000015,41.79872000000012],[33.113930000000096,41.79583000000031],[33.115330000000085,41.78727000000043],[33.11756000000025,41.779480000000376],[33.1235200000001,41.781400000000076],[33.1275500000001,41.784720000000334],[33.1333200000002,41.7872500000002],[33.13476000000014,41.78818000000041],[33.13641000000007,41.78930000000071],[33.13789000000014,41.791010000000085],[33.139950000000056,41.79263000000054],[33.14190000000008,41.79399000000012],[33.143050000000244,41.79535000000038],[33.144470000000126,41.796590000000094],[33.14603000000005,41.79762000000005],[33.148170000000164,41.799280000000124],[33.14799000000005,41.79979000000037],[33.14797000000016,41.80177000000009],[33.14747000000017,41.80196000000018],[33.14629000000008,41.80215000000027],[33.145840000000135,41.802380000000085],[33.14372000000026,41.804700000000196],[33.14350000000013,41.80513000000025],[33.14349000000004,41.80552000000017],[33.14385000000016,41.80626000000012],[33.14441000000011,41.80676000000011],[33.14505000000014,41.807080000000326],[33.14546000000013,41.807420000000036],[33.14548000000019,41.8085200000001],[33.14561000000009,41.80872000000028],[33.14620000000008,41.80921000000035]]],"type":"Polygon"}},{"type":"Feature","properties":{"area_id":"TR-37-018-41904","name_tr":"Korucak","area_level":"neighbourhood","parent_id":"TR-37-018","endeksa_id":41904},"geometry":{"coordinates":[[[33.28821362600007,41.84398465800007],[33.28515725300008,41.84614841200022],[33.26570921800004,41.845061382000154],[33.26733419200019,41.84133260200019],[33.26729488200016,41.841229132000194],[33.255730007000125,41.83729253300049],[33.25279315,41.83494818600059],[33.25508359999998,41.82792017100007],[33.253759259000105,41.825575880000144],[33.25573129500003,41.82408196800003],[33.25509455100013,41.82389090999999],[33.25754003500015,41.82383709400034],[33.26186758500006,41.82194850800022],[33.26511229000005,41.816234783000596],[33.27119825300008,41.81390779100008],[33.27571448600008,41.81990955200013],[33.2825062,41.820224694000046],[33.282270541757384,41.822235579584856],[33.28216000000015,41.82235000000043],[33.28207000000015,41.82269000000014],[33.281910000000096,41.823820000000524],[33.28199000000012,41.824650000000304],[33.28233000000017,41.825080000000355],[33.28327000000013,41.825670000000116],[33.2841600000001,41.82569000000035],[33.28444000000013,41.82587000000035],[33.28478000000024,41.82672000000031],[33.28559000000007,41.82686000000052],[33.2864100000001,41.82632000000007],[33.28701000000018,41.826080000000104],[33.287680000000194,41.825950000000546],[33.290897983029936,41.82582036102508],[33.29055513300011,41.8354855020001],[33.287703101000034,41.84310951100008],[33.28775297100009,41.84333648699999],[33.28821362600007,41.84398465800007]]],"type":"Polygon"}},{"type":"Feature","properties":{"area_id":"TR-37-018-2018823","name_tr":"Tepecik Köyü","area_level":"neighbourhood","parent_id":"TR-37-018","endeksa_id":2018823},"geometry":{"coordinates":[[[33.17139000000009,41.84814000000051],[33.16705000000019,41.848870000000375],[33.165010000000166,41.84866000000022],[33.16020000000009,41.847790000000145],[33.13204000000019,41.83742000000029],[33.13394849000014,41.83536550300039],[33.13421374600006,41.834861898000554],[33.132990106795205,41.83242731733975],[33.13151000000016,41.83093000000048],[33.13138000000009,41.829290000000356],[33.133850000000166,41.82631000000049],[33.136790000000076,41.82475000000005],[33.136880000000076,41.823940000000505],[33.136880000000076,41.82233000000019],[33.1369600000001,41.82209000000023],[33.13774000000018,41.82105000000013],[33.137970000000166,41.82010000000042],[33.13851000000011,41.81948000000028],[33.139210000000105,41.81896000000006],[33.13982000000016,41.818050000000085],[33.14033000000006,41.81769000000065],[33.140850000000114,41.81616000000054],[33.141440000000046,41.81544000000065],[33.14214000000004,41.81412000000017],[33.14319000000006,41.813720000000444],[33.14372000000026,41.81258000000008],[33.14461000000017,41.811730000000125],[33.14537000000013,41.81078000000019],[33.146140000000116,41.81041000000016],[33.14631000000014,41.810250000000394],[33.14641000000006,41.80965000000049],[33.14635000000004,41.80939000000029],[33.14620000000008,41.80921000000035],[33.14721000000014,41.8086000000003],[33.14863000000025,41.80819000000048],[33.15069000000017,41.80780000000021],[33.15252000000004,41.807090000000414],[33.15329000000014,41.80689000000024],[33.15375000000023,41.80658000000017],[33.154040000000236,41.80583000000007],[33.15397000000013,41.80561000000017],[33.15403000000009,41.80553000000066],[33.154350000000136,41.80561000000017],[33.15464000000014,41.80509000000012],[33.15542000000016,41.805350000000146],[33.15582000000006,41.80525000000023],[33.15587000000011,41.80510000000061],[33.155620000000226,41.80483000000032],[33.155350000000055,41.804700000000196],[33.15542000000016,41.804580000000215],[33.15580000000017,41.804390000000126],[33.15626000000003,41.80429000000038],[33.156650000000184,41.80440000000027],[33.15729000000016,41.80440000000027],[33.15868000000006,41.80327000000017],[33.16079000000025,41.8033800000004],[33.16137000000009,41.80289000000039],[33.16160000000008,41.80366000000015],[33.16178000000008,41.803770000000156],[33.161670000000186,41.80421000000018],[33.16230000000013,41.804360000000486],[33.16268000000014,41.80481000000009],[33.162720000000036,41.805010000000266],[33.16318000000007,41.805110000000184],[33.16342000000003,41.80497000000037],[33.163440000000094,41.80481000000009],[33.163930000000164,41.80466000000007],[33.164490000000114,41.80481000000009],[33.16476000000006,41.80506000000014],[33.164920000000166,41.805070000000285],[33.16495000000015,41.80497000000037],[33.16530000000017,41.80485000000016],[33.16574000000014,41.80481000000009],[33.165720000000135,41.80460000000045],[33.16601000000014,41.80463000000009],[33.166190000000086,41.80451000000011],[33.16618000000017,41.80437000000006],[33.16642000000013,41.80434000000025],[33.166720000000055,41.80446000000023],[33.16720000000015,41.80412000000052],[33.17023000000006,41.80494000000016],[33.17255000000017,41.8035600000004],[33.175200000000245,41.80651000000006],[33.17644000000013,41.807120000000054],[33.17812000000009,41.80729000000008],[33.17974000000015,41.808480000000316],[33.18011000000007,41.81254000000018],[33.18153000000012,41.81488000000036],[33.18534000000005,41.81817000000058],[33.18792000000019,41.82002000000017],[33.19022680708099,41.82213943493264],[33.18912000000017,41.82541000000009],[33.18482000000023,41.83321000000012],[33.18198000000007,41.8368100000003],[33.179450000000145,41.838930000000175],[33.176080000000184,41.842710000000295],[33.173780000000136,41.844600000000355],[33.17139000000009,41.84814000000051]]],"type":"Polygon"}},{"type":"Feature","properties":{"area_id":"TR-37-018-2018818","name_tr":"Az.Kalaycı Köyü","area_level":"neighbourhood","parent_id":"TR-37-018","endeksa_id":2018818},"geometry":{"coordinates":[[[33.31131830800007,41.85751120800069],[33.31127960700013,41.85766083500005],[33.31042426500011,41.857869255000026],[33.29743752900009,41.853846983000096],[33.29359893700007,41.846631932000435],[33.28821362600007,41.84398465800007],[33.28775297100009,41.84333648699999],[33.287703101000034,41.84310951100008],[33.29055513300011,41.8354855020001],[33.290897983029936,41.82582036102508],[33.292660000000126,41.825580000000116],[33.2940900000001,41.825670000000116],[33.29589000000021,41.826790000000415],[33.2976900000001,41.82704000000035],[33.298330000000135,41.82723000000004],[33.29896000000019,41.827560000000176],[33.2993400000002,41.827930000000265],[33.299600000000225,41.82860000000028],[33.30021000000005,41.82907000000006],[33.30135000000007,41.829450000000236],[33.30203000000017,41.82952000000034],[33.3024200000001,41.82944000000015],[33.303010000000086,41.82915000000031],[33.30197000000021,41.82811000000021],[33.30274000000014,41.82785000000018],[33.30330000000009,41.827530000000536],[33.30389000000008,41.826730000000055],[33.30409000000009,41.82602000000065],[33.30421000000007,41.82511000000068],[33.30433000000005,41.821610000000305],[33.30415000000011,41.81454000000008],[33.30757000000011,41.81457000000006],[33.311310000000105,41.8150100000006],[33.31564000000009,41.81566000000038],[33.31749000000019,41.81568000000061],[33.3313100000002,41.81756000000041],[33.331640000000164,41.8240500000004],[33.33139011019017,41.82442992383693],[33.33205795784875,41.82519338039873],[33.33217632600014,41.825572261000104],[33.331112067572064,41.82610754307245],[33.3308746818214,41.826394342799404],[33.330599847814995,41.826499555002044],[33.330346939548576,41.82637037184401],[33.33047558700002,41.8268756030003],[33.32996387900016,41.82989636800022],[33.32406331700008,41.83439655100051],[33.318311250000136,41.83804518800014],[33.31237856400003,41.84241334100017],[33.30811485100014,41.8475752060005],[33.307400257000154,41.84968427700011],[33.307402956000146,41.851484243000186],[33.30843108100004,41.8546076560001],[33.30877199700018,41.85518647900045],[33.31131830800007,41.85751120800069]]],"type":"Polygon"}},{"type":"Feature","properties":{"area_id":"TR-37-018-2018803","name_tr":"Alancık Köyü","area_level":"neighbourhood","parent_id":"TR-37-018","endeksa_id":2018803},"geometry":{"coordinates":[[[33.202847593000115,41.85970524900006],[33.202713846000165,41.85977553400028],[33.19080572400003,41.85930955300017],[33.17858697100007,41.86186493900004],[33.178631022615775,41.86182711642954],[33.177750000000174,41.86077000000034],[33.17794000000009,41.85827000000023],[33.175240000000144,41.857020000000546],[33.17119000000008,41.85591000000039],[33.169750000000136,41.85348000000039],[33.17082000000022,41.851750000000095],[33.17139000000009,41.84814000000051],[33.173780000000136,41.844600000000355],[33.176080000000184,41.842710000000295],[33.179450000000145,41.838930000000175],[33.18198000000007,41.8368100000003],[33.18482000000023,41.83321000000012],[33.18912000000017,41.82541000000009],[33.19022680708099,41.82213943493264],[33.200403028000096,41.82238807300007],[33.204158877000054,41.82485063199999],[33.20380894000016,41.823933086000466],[33.21127233800007,41.82739632600067],[33.203593009000144,41.84746773600017],[33.20838967800012,41.85007400800066],[33.21115238699997,41.85195205299999],[33.21025496800007,41.854312240000354],[33.204371854000044,41.85592969000004],[33.202847593000115,41.85970524900006]]],"type":"Polygon"}},{"type":"Feature","properties":{"area_id":"TR-37-018-2018809","name_tr":"Demirkaya Köyü","area_level":"neighbourhood","parent_id":"TR-37-018","endeksa_id":2018809},"geometry":{"coordinates":[[[33.235615584000186,41.85812316700043],[33.23539213800018,41.85812590700016],[33.231871739000155,41.86129491100013],[33.22663514000004,41.86215527100012],[33.223884296454514,41.85873400827131],[33.22366409090722,41.8586946868017],[33.223587989365114,41.85885078914714],[33.222770135000076,41.85734756100038],[33.21521407300014,41.85607276900009],[33.21496697700013,41.85307520500038],[33.210546550541494,41.854250597153225],[33.21038315139572,41.854220573234045],[33.21033754043907,41.854095076783494],[33.21115238699997,41.85195205299999],[33.20838967800012,41.85007400800066],[33.203593009000144,41.84746773600017],[33.21127233800007,41.82739632600067],[33.2231247090001,41.82766282500006],[33.22309963900017,41.827828606000196],[33.226079654000046,41.82816402600008],[33.232080107000115,41.832621553000195],[33.23456709300001,41.83457277500003],[33.24123885600005,41.8351904280002],[33.24254487300004,41.83539425100014],[33.24286077400012,41.83534058000055],[33.24295400900013,41.83543833200014],[33.246154269000044,41.83574472600009],[33.24604384700018,41.83583866700013],[33.24568767800008,41.84290432000006],[33.243978708999975,41.844183377000434],[33.246596404000115,41.845965482],[33.24370732300008,41.848019159000046],[33.24454899400018,41.849882611],[33.235566331000086,41.85796901200001],[33.235615584000186,41.85812316700043]]],"type":"Polygon"}},{"type":"Feature","properties":{"area_id":"TR-37-018-2018812","name_tr":"Edeler Köyü","area_level":"neighbourhood","parent_id":"TR-37-018","endeksa_id":2018812},"geometry":{"coordinates":[[[33.2913321277627,41.87564303386529],[33.29103750000013,41.87571203700037],[33.28974542200018,41.87432664600004],[33.283271839000065,41.87662275900004],[33.282772872000066,41.87652874900044],[33.28141078200014,41.87695893000006],[33.27781441400015,41.87559452400018],[33.27658414100006,41.872596441000155],[33.27084140400012,41.87365513000009],[33.26838487134785,41.87268612193077],[33.268413556000155,41.870761747000074],[33.2652536490001,41.87047131500003],[33.265199135000046,41.870358830000555],[33.262045861000104,41.86049142300027],[33.26249020200015,41.85961079300006],[33.26376200500016,41.85771414200025],[33.260260634000076,41.85230699200014],[33.26022873800008,41.84895789000018],[33.26570921800004,41.845061382000154],[33.28515725300008,41.84614841200022],[33.28821362600007,41.84398465800007],[33.29359893700007,41.846631932000435],[33.29743752900009,41.853846983000096],[33.31042426500011,41.857869255000026],[33.31127960700013,41.85766083500005],[33.31131830800007,41.85751120800069],[33.3125037800001,41.85850953900007],[33.314262630000144,41.85906887400006],[33.31407232400005,41.85909493800045],[33.30373887600018,41.87111793800011],[33.30319137100008,41.871379780000325],[33.302776915000095,41.871847797000385],[33.29710355476783,41.874291276125405],[33.2913321277627,41.87564303386529]]],"type":"Polygon"}},{"type":"Feature","properties":{"area_id":"TR-37-018-2018805","name_tr":"Aybasan Köyü","area_level":"neighbourhood","parent_id":"TR-37-018","endeksa_id":2018805},"geometry":{"coordinates":[[[33.26838487134785,41.87268612193077],[33.26835862000007,41.87394379199998],[33.267528162000076,41.87531006800009],[33.26528091200015,41.87454866200011],[33.25506900800002,41.878877205000094],[33.25485415100013,41.8788305180002],[33.254863289000184,41.878748955000106],[33.2544931650001,41.87901204900021],[33.25420183400007,41.87859829900026],[33.25444731900001,41.878178184000035],[33.254099930000166,41.87839314700034],[33.253805375000184,41.87762885700016],[33.253740293000135,41.877669130000015],[33.253296705000025,41.87677610600002],[33.253210275000185,41.87683909500004],[33.252892343000156,41.876275026000144],[33.252790591000064,41.876317675000564],[33.246401632000186,41.86599276600026],[33.24659727500011,41.861693297000045],[33.235615584000186,41.85812316700043],[33.235566331000086,41.85796901200001],[33.24454899400018,41.849882611],[33.24370732300008,41.848019159000046],[33.246596404000115,41.845965482],[33.243978708999975,41.844183377000434],[33.24568767800008,41.84290432000006],[33.24604384700018,41.83583866700013],[33.246154269000044,41.83574472600009],[33.24662116700017,41.835688707000486],[33.25028391100017,41.83602779400002],[33.25279315,41.83494818600059],[33.255730007000125,41.83729253300049],[33.26729488200016,41.841229132000194],[33.26733419200019,41.84133260200019],[33.26570921800004,41.845061382000154],[33.26022873800008,41.84895789000018],[33.260260634000076,41.85230699200014],[33.26376200500016,41.85771414200025],[33.26249020200015,41.85961079300006],[33.262045861000104,41.86049142300027],[33.265199135000046,41.870358830000555],[33.2652536490001,41.87047131500003],[33.268413556000155,41.870761747000074],[33.26838487134785,41.87268612193077]]],"type":"Polygon"}},{"type":"Feature","properties":{"area_id":"TR-37-018-2018811","name_tr":"Dördül Köyü","area_level":"neighbourhood","parent_id":"TR-37-018","endeksa_id":2018811},"geometry":{"coordinates":[[[33.25420183400007,41.87859829900026],[33.25413352900017,41.87873097200031],[33.23994383600018,41.88325138300013],[33.22084147800007,41.88431502400016],[33.21852412800018,41.88501352300028],[33.21510417100012,41.88555967899998],[33.21100169062123,41.88682741120596],[33.21093868000014,41.886815298000045],[33.211372662042265,41.8845071216233],[33.21399704208852,41.882711553434376],[33.218447759000185,41.88146718000007],[33.21882945500016,41.87966717900008],[33.22237057700005,41.879679359000534],[33.219735102000186,41.87367680700004],[33.21758785800017,41.87246768900019],[33.21982032800014,41.864895049000154],[33.22123413900016,41.86399293400035],[33.222480243000064,41.86109671500026],[33.22463421200018,41.86082376000013],[33.223587989365114,41.85885078914714],[33.22366409090722,41.8586946868017],[33.223884296454514,41.85873400827131],[33.22663514000004,41.86215527100012],[33.231871739000155,41.86129491100013],[33.23539213800018,41.85812590700016],[33.235615584000186,41.85812316700043],[33.24659727500011,41.861693297000045],[33.246401632000186,41.86599276600026],[33.252790591000064,41.876317675000564],[33.252892343000156,41.876275026000144],[33.253210275000185,41.87683909500004],[33.253296705000025,41.87677610600002],[33.253740293000135,41.877669130000015],[33.253805375000184,41.87762885700016],[33.254099930000166,41.87839314700034],[33.25444731900001,41.878178184000035],[33.25420183400007,41.87859829900026]]],"type":"Polygon"}},{"type":"Feature","properties":{"area_id":"TR-37-018-2018822","name_tr":"Sefer Köyü","area_level":"neighbourhood","parent_id":"TR-37-018","endeksa_id":2018822},"geometry":{"coordinates":[[[33.20832451700011,41.887731702000565],[33.20761769600017,41.887958150000145],[33.201106653000124,41.888761578000185],[33.19993078900018,41.88704942800007],[33.19637800300006,41.8841027790001],[33.1982228330001,41.88238549900012],[33.19569954900004,41.87960279100059],[33.198666396000135,41.87750304700023],[33.19868905000004,41.87739346300003],[33.21174101200012,41.86824967100006],[33.20686970100019,41.86426286000011],[33.20801526100013,41.863809565],[33.20581483600006,41.86173957100016],[33.20643255000016,41.86009620000016],[33.20293595300012,41.85987848400009],[33.20283107500018,41.85981444400011],[33.202847593000115,41.85970524900006],[33.204371854000044,41.85592969000004],[33.21025496800007,41.854312240000354],[33.21033754043907,41.854095076783494],[33.21038315139572,41.854220573234045],[33.210546550541494,41.854250597153225],[33.21496697700013,41.85307520500038],[33.21521407300014,41.85607276900009],[33.222770135000076,41.85734756100038],[33.223587989365114,41.85885078914714],[33.22463421200018,41.86082376000013],[33.222480243000064,41.86109671500026],[33.22123413900016,41.86399293400035],[33.21982032800014,41.864895049000154],[33.21758785800017,41.87246768900019],[33.219735102000186,41.87367680700004],[33.22237057700005,41.879679359000534],[33.21882945500016,41.87966717900008],[33.218447759000185,41.88146718000007],[33.21399704208852,41.882711553434376],[33.211372662042265,41.8845071216233],[33.21093868000014,41.886815298000045],[33.21100169062123,41.88682741120596],[33.20832451700011,41.887731702000565]]],"type":"Polygon"}},{"type":"Feature","properties":{"area_id":"TR-37-018-2018824","name_tr":"Uzunyol Köyü","area_level":"neighbourhood","parent_id":"TR-37-018","endeksa_id":2018824},"geometry":{"coordinates":[[[33.28361853700011,41.88753370799998],[33.27648724400012,41.88989866700018],[33.263869070000055,41.88783314000011],[33.2542787590001,41.88138863200015],[33.25375062400019,41.881110469000134],[33.25375507600006,41.88103672700004],[33.253485685000044,41.88085570099997],[33.25479381100007,41.87942468500006],[33.2544931650001,41.87901204900021],[33.254863289000184,41.878748955000106],[33.25485415100013,41.8788305180002],[33.25506900800002,41.878877205000094],[33.26528091200015,41.87454866200011],[33.267528162000076,41.87531006800009],[33.26835862000007,41.87394379199998],[33.26838487134785,41.87268612193077],[33.27084140400012,41.87365513000009],[33.27658414100006,41.872596441000155],[33.27781441400015,41.87559452400018],[33.28141078200014,41.87695893000006],[33.282772872000066,41.87652874900044],[33.283271839000065,41.87662275900004],[33.28974542200018,41.87432664600004],[33.29103750000013,41.87571203700037],[33.2913321277627,41.87564303386529],[33.29116471587088,41.87574193173879],[33.291126134039985,41.875895501535865],[33.29122940510922,41.87603005036573],[33.291426364601136,41.87608269530142],[33.28910693100005,41.87610826400038],[33.28539360200017,41.8808834940001],[33.282104840000045,41.88250199000004],[33.278975980000155,41.88139338800033],[33.27883144600008,41.88145198100011],[33.277607876000104,41.88583501800031],[33.28361853700011,41.88753370799998]]],"type":"Polygon"}},{"type":"Feature","properties":{"area_id":"TR-37-018-2018820","name_tr":"Büyükmutlu Köyü","area_level":"neighbourhood","parent_id":"TR-37-018","endeksa_id":2018820},"geometry":{"coordinates":[[[33.3136440880001,41.88573632600031],[33.31703386400011,41.88719693100046],[33.329420570000025,41.89469787600052],[33.328275598000175,41.90095085299998],[33.329278563000116,41.90230341800009],[33.33380314100003,41.902351243000226],[33.345806057000175,41.90811584900024],[33.34584763400011,41.9082453000002],[33.34258495600017,41.90872331200018],[33.33409630300008,41.90591148100009],[33.329924009000024,41.90817710699997],[33.32548102200002,41.90343587300026],[33.304705726000066,41.900823708000075],[33.3045975010001,41.90069676800056],[33.304580242000156,41.90047013800046],[33.30402626500006,41.90010255300018],[33.3025806280001,41.89982659700041],[33.302540782000165,41.89972445100017],[33.30277977600002,41.89935147600045],[33.30202803200018,41.898949271000106],[33.30201021400012,41.89879715900014],[33.30789980200018,41.89446349100058],[33.308108235000134,41.89450887900006],[33.30809670700006,41.89490369800018],[33.310587429000066,41.89402783200018],[33.31267924700012,41.885931919000086],[33.31282575400007,41.8858702710001],[33.31325063700018,41.885937938000154],[33.313280656000074,41.885749440000154],[33.31358594000011,41.88586737300005],[33.3136440880001,41.88573632600031]]],"type":"Polygon"}},{"type":"Feature","properties":{"area_id":"TR-37-018-2018817","name_tr":"Himmet Köyü","area_level":"neighbourhood","parent_id":"TR-37-018","endeksa_id":2018817},"geometry":{"coordinates":[[[33.30202803200018,41.898949271000106],[33.30182371400019,41.8989346900006],[33.29917522500017,41.9008797840001],[33.289956532000076,41.90449337600012],[33.286344093000025,41.90935244700006],[33.283848073000115,41.911305459000175],[33.28137662400019,41.91237472400013],[33.28128071800006,41.91276204799999],[33.28108247300008,41.91271359899997],[33.279951849000156,41.91011825600009],[33.27978517700001,41.910065070000314],[33.27970335000009,41.910186130000056],[33.27720710000017,41.903811277000045],[33.281386575,41.896495678000235],[33.28042042400011,41.89192069899997],[33.28361853700011,41.88753370799998],[33.277607876000104,41.88583501800031],[33.27883144600008,41.88145198100011],[33.278975980000155,41.88139338800033],[33.282104840000045,41.88250199000004],[33.28539360200017,41.8808834940001],[33.28910693100005,41.87610826400038],[33.291426364601136,41.87608269530142],[33.29122940510922,41.87603005036573],[33.291126134039985,41.875895501535865],[33.29116471587088,41.87574193173879],[33.2913321277627,41.87564303386529],[33.29710355476783,41.874291276125405],[33.302776915000095,41.871847797000385],[33.30319137100008,41.871379780000325],[33.30373887600018,41.87111793800011],[33.31407232400005,41.85909493800045],[33.314262630000144,41.85906887400006],[33.32171619400009,41.86319513300015],[33.32204002200007,41.86446418600008],[33.33148147600019,41.87004696800051],[33.33354208600019,41.871681284000374],[33.33815071696375,41.87312975127344],[33.338203345000125,41.873238762000085],[33.33801114800008,41.87322902200003],[33.33400673200009,41.876084556000194],[33.33129837700005,41.87605488700012],[33.33028683000015,41.874113704000195],[33.33017297500004,41.87405259000013],[33.32700254600019,41.87539425700004],[33.32458872500018,41.87387379300014],[33.32088057700014,41.87544191800049],[33.320542003000014,41.873495371000104],[33.31785173600008,41.87346014200011],[33.31617851200002,41.87086331200055],[33.31603723700016,41.870810397000525],[33.31338545700015,41.87202620600067],[33.31280765300011,41.87410842000014],[33.31024783300006,41.87375876300007],[33.303625319000105,41.877304871000035],[33.30812104500012,41.88508354000015],[33.31279664599998,41.88531588500007],[33.3136440880001,41.88573632600031],[33.31358594000011,41.88586737300005],[33.313280656000074,41.885749440000154],[33.31325063700018,41.885937938000154],[33.31282575400007,41.8858702710001],[33.31267924700012,41.885931919000086],[33.310587429000066,41.89402783200018],[33.30809670700006,41.89490369800018],[33.308108235000134,41.89450887900006],[33.30789980200018,41.89446349100058],[33.30201021400012,41.89879715900014],[33.30202803200018,41.898949271000106]]],"type":"Polygon"}},{"type":"Feature","properties":{"area_id":"TR-37-018-2018819","name_tr":"Küçükmutlu Köyü","area_level":"neighbourhood","parent_id":"TR-37-018","endeksa_id":2018819},"geometry":{"coordinates":[[[33.34064186100005,41.91513751300016],[33.338139116000036,41.91624175200013],[33.33818325600015,41.91634352700015],[33.33744858699998,41.91664875900051],[33.33741612200009,41.916582583000036],[33.33600327300013,41.91724924000005],[33.33581470000007,41.917151459000024],[33.33390901700005,41.91514837000011],[33.330048575000035,41.91586159800016],[33.323254405000114,41.916563972000176],[33.31926062400015,41.91451316400014],[33.31836815500009,41.91324715300061],[33.3115968890001,41.91121512900003],[33.31161006000008,41.90964445700024],[33.311536163000085,41.90955782000009],[33.30801268500005,41.91098924300013],[33.30782143400012,41.91097454200025],[33.30633446000019,41.90936287100021],[33.30768251500007,41.90511489500045],[33.30225155500011,41.90063223700014],[33.30238687900015,41.90053324400003],[33.30445124100004,41.90079149700017],[33.3045975010001,41.90069676800056],[33.304705726000066,41.900823708000075],[33.32548102200002,41.90343587300026],[33.329924009000024,41.90817710699997],[33.33409630300008,41.90591148100009],[33.34258495600017,41.90872331200018],[33.34584763400011,41.9082453000002],[33.345806057000175,41.90811584900024],[33.33380314100003,41.902351243000226],[33.329278563000116,41.90230341800009],[33.328275598000175,41.90095085299998],[33.329420570000025,41.89469787600052],[33.31703386400011,41.88719693100046],[33.3136440880001,41.88573632600031],[33.31279664599998,41.88531588500007],[33.30812104500012,41.88508354000015],[33.303625319000105,41.877304871000035],[33.31024783300006,41.87375876300007],[33.31280765300011,41.87410842000014],[33.31338545700015,41.87202620600067],[33.31603723700016,41.870810397000525],[33.31617851200002,41.87086331200055],[33.31785173600008,41.87346014200011],[33.320542003000014,41.873495371000104],[33.32088057700014,41.87544191800049],[33.32458872500018,41.87387379300014],[33.32700254600019,41.87539425700004],[33.33017297500004,41.87405259000013],[33.33028683000015,41.874113704000195],[33.33129837700005,41.87605488700012],[33.33400673200009,41.876084556000194],[33.33652643974756,41.87428776187551],[33.33992000000012,41.87589000000008],[33.34429000000023,41.878510000000176],[33.3490300000002,41.8815800000005],[33.35218000000003,41.8826700000003],[33.35910000000007,41.88420000000042],[33.3623800000002,41.88574000000011],[33.36365485678448,41.886514382503094],[33.35786529200004,41.88790878600014],[33.35791861200005,41.888006484000016],[33.36854837200008,41.893697535000115],[33.368686455000045,41.89370583300024],[33.36860099800015,41.89378431600011],[33.368534916000044,41.894549982],[33.36873233500012,41.89472073300004],[33.36851726700007,41.894772342000465],[33.368370829000014,41.89584107200011],[33.35463597100011,41.9015599570003],[33.35295842700003,41.9046419430004],[33.347677811000096,41.9076628790001],[33.345236313999976,41.91288492200022],[33.34064186100005,41.91513751300016]]],"type":"Polygon"}}]}