{"type":"FeatureCollection","source_id":"endeksa","retrieved_at":"2026-08-23","features":[{"type":"Feature","properties":{"area_id":"TR-34-035-40711","name_tr":"İnönü","area_level":"neighbourhood","parent_id":"TR-34-035","endeksa_id":40711},"geometry":{"coordinates":[[[28.986531032000016,41.04560096200066],[28.983761558000026,41.04579302800039],[28.982834615000172,41.04481848800003],[28.98191812800013,41.04344492600012],[28.980793113000175,41.042137986000114],[28.98204406000002,41.04092106100006],[28.98293166700006,41.04178043800039],[28.983187630000145,41.04185057700005],[28.98411582900013,41.04138090300046],[28.986428874000126,41.04072807000017],[28.986648166000123,41.04136725300003],[28.986427659000128,41.04356742800013],[28.986531032000016,41.04560096200066]]],"type":"Polygon"}},{"type":"Feature","properties":{"area_id":"TR-34-035-40692","name_tr":"Eskişehir","area_level":"neighbourhood","parent_id":"TR-34-035","endeksa_id":40692},"geometry":{"coordinates":[[[28.984220859000118,41.04629693900006],[28.98229691800003,41.04734425500004],[28.98063360200007,41.04810022000015],[28.978166866000038,41.04508784400031],[28.977831133000052,41.04431240200063],[28.978332475000173,41.04388132800017],[28.979097726000134,41.04341761100022],[28.979276747000142,41.04315144600014],[28.980793113000175,41.042137986000114],[28.98191812800013,41.04344492600012],[28.982834615000172,41.04481848800003],[28.983761558000026,41.04579302800039],[28.984220859000118,41.04629693900006]]],"type":"Polygon"}},{"type":"Feature","properties":{"area_id":"TR-34-035-40690","name_tr":"Ergenekon","area_level":"neighbourhood","parent_id":"TR-34-035","endeksa_id":40690},"geometry":{"coordinates":[[[28.98757516300003,41.05121457900003],[28.987273701000106,41.05132107200001],[28.98624664200014,41.05018887400013],[28.98581144200017,41.049878727000134],[28.985500868000088,41.04886546400007],[28.98459664400002,41.046710026000085],[28.983761558000026,41.04579302800039],[28.986531032000016,41.04560096200066],[28.986830064000117,41.04656286600016],[28.987427853999975,41.04792106000025],[28.98758582800008,41.04867375900062],[28.98757516300003,41.05121457900003]]],"type":"Polygon"}},{"type":"Feature","properties":{"area_id":"TR-34-035-40699","name_tr":"Harbiye","area_level":"neighbourhood","parent_id":"TR-34-035","endeksa_id":40699},"geometry":{"coordinates":[[[28.996921625000084,41.04739436600005],[28.994320211000172,41.04872663900005],[28.992815826000083,41.050556285000084],[28.991445094000028,41.05168962200031],[28.990730165000116,41.05109544300012],[28.988405815000192,41.049556561000145],[28.987427853999975,41.04792106000025],[28.986830064000117,41.04656286600016],[28.986531032000016,41.04560096200066],[28.986427659000128,41.04356742800013],[28.986648166000123,41.04136725300003],[28.986428874000126,41.04072807000017],[28.988768398000047,41.040250231000186],[28.989304101000073,41.04024088900013],[28.989747115000114,41.03954325500047],[28.990073923000182,41.03926221800003],[28.990337886000077,41.039194838000185],[28.992843966000123,41.03915120100004],[28.993093828000042,41.039172099000666],[28.99290178900003,41.039814389000185],[28.99317544100012,41.04059414000011],[28.993083507000165,41.04188239400014],[28.99333736200009,41.04197318400003],[28.993614264000087,41.04194741900011],[28.993994684000143,41.04163306500004],[28.994752593000044,41.04150025100006],[28.994921908000094,41.04133821200003],[28.995047731000113,41.040935532000105],[28.996295788999987,41.041956902000095],[28.995612420000043,41.04283035800006],[28.99546441300015,41.043222153000215],[28.995456848000117,41.043527629000266],[28.995253685000137,41.043913080000095],[28.99598010000011,41.044314100000236],[28.995131947000175,41.04545457600045],[28.99597548400004,41.0455625730001],[28.99620030300008,41.04595620900011],[28.99639034000012,41.046682695000186],[28.996921625000084,41.04739436600005]]],"type":"Polygon"}},{"type":"Feature","properties":{"area_id":"TR-34-035-40687","name_tr":"Bozkurt","area_level":"neighbourhood","parent_id":"TR-34-035","endeksa_id":40687},"geometry":{"coordinates":[[[28.987273701000106,41.05132107200001],[28.984447119000038,41.05256132600016],[28.983229222000034,41.05112542300026],[28.98063360200007,41.04810022000015],[28.98229691800003,41.04734425500004],[28.984220859000118,41.04629693900006],[28.98459664400002,41.046710026000085],[28.985500868000088,41.04886546400007],[28.98581144200017,41.049878727000134],[28.98624664200014,41.05018887400013],[28.987273701000106,41.05132107200001]]],"type":"Polygon"}},{"type":"Feature","properties":{"area_id":"TR-34-035-40710","name_tr":"Yayla","area_level":"neighbourhood","parent_id":"TR-34-035","endeksa_id":40710},"geometry":{"coordinates":[[[28.97589452300008,41.04566784000019],[28.975535556000125,41.04595684899999],[28.97616419600007,41.04639679200011],[28.976513530000034,41.04621080700008],[28.978665776000128,41.048147768000035],[28.9769167230001,41.04936712500012],[28.97753183300017,41.050176738000005],[28.97807662700012,41.05068886000009],[28.978924855000173,41.05170096200004],[28.97843800300018,41.05196366500019],[28.978903918000128,41.05257070700014],[28.97793606000016,41.05220975500009],[28.97545122700018,41.05125712500018],[28.972427181000057,41.047399058000224],[28.97177840100005,41.04632831400045],[28.97104985800007,41.044790487000114],[28.971439145000033,41.04477063300044],[28.97205924000008,41.04517915000008],[28.97352108000007,41.04593352700056],[28.973997644000065,41.045987067],[28.974417446000132,41.045800706000136],[28.974958434000143,41.04576141800044],[28.97570553800017,41.04555614600014],[28.97589452300008,41.04566784000019]]],"type":"Polygon"}},{"type":"Feature","properties":{"area_id":"TR-34-035-40693","name_tr":"Feriköy","area_level":"neighbourhood","parent_id":"TR-34-035","endeksa_id":40693},"geometry":{"coordinates":[[[28.983229222000034,41.05112542300026],[28.979294357000185,41.053051606000054],[28.978903918000128,41.05257070700014],[28.97843800300018,41.05196366500019],[28.978924855000173,41.05170096200004],[28.97807662700012,41.05068886000009],[28.97753183300017,41.050176738000005],[28.9769167230001,41.04936712500012],[28.978665776000128,41.048147768000035],[28.976513530000034,41.04621080700008],[28.97616419600007,41.04639679200011],[28.975535556000125,41.04595684899999],[28.97589452300008,41.04566784000019],[28.97679918600005,41.044975640000075],[28.97692847400009,41.04471382200012],[28.976867127000048,41.04459681000003],[28.97714718600008,41.04418257900028],[28.977831133000052,41.04431240200063],[28.978166866000038,41.04508784400031],[28.98063360200007,41.04810022000015],[28.983229222000034,41.05112542300026]]],"type":"Polygon"}},{"type":"Feature","properties":{"area_id":"TR-34-035-40698","name_tr":"Halaskargazi","area_level":"neighbourhood","parent_id":"TR-34-035","endeksa_id":40698},"geometry":{"coordinates":[[[28.991445094000028,41.05168962200031],[28.99023365700009,41.052670233000356],[28.988934309,41.05319058100042],[28.98724861000011,41.05370141700041],[28.98757516300003,41.05121457900003],[28.98758582800008,41.04867375900062],[28.987427853999975,41.04792106000025],[28.988405815000192,41.049556561000145],[28.990730165000116,41.05109544300012],[28.991445094000028,41.05168962200031]]],"type":"Polygon"}},{"type":"Feature","properties":{"area_id":"TR-34-035-40689","name_tr":"Duatepe","area_level":"neighbourhood","parent_id":"TR-34-035","endeksa_id":40689},"geometry":{"coordinates":[[[28.984447119000038,41.05256132600016],[28.983764783000026,41.05286744000006],[28.981813328000158,41.054436651000174],[28.981139529000075,41.05458048100013],[28.981250979000038,41.05494329500016],[28.980052702000137,41.055265896000094],[28.980109511000137,41.05542724900039],[28.97981497300009,41.055559738000056],[28.978763915000172,41.05574656699997],[28.97868950100002,41.05524545200018],[28.97838917100006,41.054405952000025],[28.97776967200008,41.053784580000126],[28.97793606000016,41.05220975500009],[28.978903918000128,41.05257070700014],[28.979294357000185,41.053051606000054],[28.983229222000034,41.05112542300026],[28.984447119000038,41.05256132600016]]],"type":"Polygon"}},{"type":"Feature","properties":{"area_id":"TR-34-035-40703","name_tr":"Mahmut Şevket Paşa","area_level":"neighbourhood","parent_id":"TR-34-035","endeksa_id":40703},"geometry":{"coordinates":[[[28.9687166760001,41.05414393000052],[28.9664391660001,41.05608809099999],[28.966004375000125,41.05628687400019],[28.965571813000054,41.056343321000156],[28.96471863200003,41.05613569900021],[28.96411190600014,41.055563378000045],[28.963649458000077,41.05533407500013],[28.962687884000047,41.055257490000145],[28.962695959000143,41.05531594400014],[28.962097079000102,41.053842492000626],[28.96193240000008,41.053555400000164],[28.96170940000013,41.05337440000062],[28.962304856000173,41.05296462700005],[28.96279389200015,41.051603809000085],[28.962795234000055,41.0512444040001],[28.962688372000116,41.050931483000056],[28.962781335000102,41.050851283000156],[28.962969321000173,41.05087245000004],[28.96356247500006,41.05052956900016],[28.964101700000185,41.05050210000013],[28.96493188000011,41.04957461500055],[28.96485840200006,41.04945791600022],[28.965019275000145,41.04930868900004],[28.965462842000193,41.04898452000049],[28.96563650000013,41.04899620000003],[28.966234922000126,41.048532642000225],[28.966508425000086,41.04820149300008],[28.967027011000027,41.04787294500011],[28.96720076700018,41.048023050000154],[28.968009199999983,41.04769900000019],[28.968062785000086,41.04748759900053],[28.96777835000006,41.05242288400041],[28.967860607000034,41.05284155300018],[28.968137137000042,41.053428551000025],[28.9687166760001,41.05414393000052]]],"type":"Polygon"}},{"type":"Feature","properties":{"area_id":"TR-34-035-40709","name_tr":"Teşvikiye","area_level":"neighbourhood","parent_id":"TR-34-035","endeksa_id":40709},"geometry":{"coordinates":[[[28.99716705300017,41.05637236000018],[28.996441866999987,41.05652366500016],[28.996018927000023,41.05593968000005],[28.99609881500004,41.05573143600009],[28.99585615700005,41.055496612000354],[28.991445094000028,41.05168962200031],[28.992815826000083,41.050556285000084],[28.994320211000172,41.04872663900005],[28.996921625000084,41.04739436600005],[28.998181178000152,41.04965166200009],[28.998187510000093,41.04981599100063],[28.998621302000117,41.04987604100012],[28.999978004000127,41.049541115000125],[29.00078698500016,41.04911147600069],[29.000973021000107,41.04952732200013],[29.001076723000153,41.05024404699998],[29.000883589000182,41.05032097900016],[29.000894136000056,41.050466838000034],[29.000396235000153,41.051590228000066],[29.00028594600019,41.05204010800003],[29.00154337200013,41.05215225400008],[28.999695806000034,41.053666406000445],[28.99935210800004,41.054266438000354],[28.99902559200018,41.05517396200048],[28.998714013000097,41.055520429000126],[28.998315952999974,41.0558943620004],[28.99716705300017,41.05637236000018]]],"type":"Polygon"}},{"type":"Feature","properties":{"area_id":"TR-34-035-40707","name_tr":"Meşrutiyet","area_level":"neighbourhood","parent_id":"TR-34-035","endeksa_id":40707},"geometry":{"coordinates":[[[28.996441866999987,41.05652366500016],[28.99487206200007,41.056803534000665],[28.99429110800014,41.05670919100004],[28.993177623999998,41.05676200500034],[28.991403581000043,41.05714303700006],[28.990760478000027,41.05709918600007],[28.990221422000047,41.0568364830001],[28.986970852000184,41.0570341910003],[28.987029247000123,41.05533787400054],[28.98724861000011,41.05370141700041],[28.988934309,41.05319058100042],[28.99023365700009,41.052670233000356],[28.991445094000028,41.05168962200031],[28.99585615700005,41.055496612000354],[28.99609881500004,41.05573143600009],[28.996018927000023,41.05593968000005],[28.996441866999987,41.05652366500016]]],"type":"Polygon"}},{"type":"Feature","properties":{"area_id":"TR-34-035-40688","name_tr":"Cumhuriyet","area_level":"neighbourhood","parent_id":"TR-34-035","endeksa_id":40688},"geometry":{"coordinates":[[[28.987029247000123,41.05533787400054],[28.985567702000083,41.05557401100009],[28.985423663000176,41.055733950000274],[28.985498984000117,41.056472165000514],[28.98524212300009,41.056813710000085],[28.980174378000072,41.05790134200004],[28.976673465000033,41.05879789800048],[28.975631975,41.0589700590001],[28.974604637000084,41.05790396800023],[28.974703234000174,41.05783937000007],[28.974724000000094,41.05761488200011],[28.97488470899998,41.057376247000036],[28.976652499000068,41.05623051300006],[28.978763915000172,41.05574656699997],[28.97981497300009,41.055559738000056],[28.980109511000137,41.05542724900039],[28.980052702000137,41.055265896000094],[28.981250979000038,41.05494329500016],[28.981139529000075,41.05458048100013],[28.981813328000158,41.054436651000174],[28.983764783000026,41.05286744000006],[28.984447119000038,41.05256132600016],[28.987273701000106,41.05132107200001],[28.98757516300003,41.05121457900003],[28.987029247000123,41.05533787400054]]],"type":"Polygon"}},{"type":"Feature","properties":{"area_id":"TR-34-035-40708","name_tr":"Paşa","area_level":"neighbourhood","parent_id":"TR-34-035","endeksa_id":40708},"geometry":{"coordinates":[[[28.974604637000084,41.05790396800023],[28.97404791100007,41.05743697300005],[28.973830740000096,41.0575140120003],[28.97334106300019,41.05731151700019],[28.97288626000011,41.057390933000136],[28.97262625200011,41.05772586400042],[28.972329108000054,41.05909321100012],[28.972089392999976,41.05847028700009],[28.972003805000043,41.057271255000046],[28.97145182500003,41.056269722000195],[28.970595562000142,41.055470052000146],[28.9687166760001,41.05414393000052],[28.968137137000042,41.053428551000025],[28.967860607000034,41.05284155300018],[28.96777835000006,41.05242288400041],[28.968062785000086,41.04748759900053],[28.968103064000104,41.04555574000011],[28.968221290000145,41.04552395999997],[28.968211989000167,41.04542692400014],[28.970190183000057,41.0449909850002],[28.970931278000023,41.04469445699999],[28.97104985800007,41.044790487000114],[28.97177840100005,41.04632831400045],[28.972427181000057,41.047399058000224],[28.97545122700018,41.05125712500018],[28.97793606000016,41.05220975500009],[28.97776967200008,41.053784580000126],[28.97838917100006,41.054405952000025],[28.97868950100002,41.05524545200018],[28.978763915000172,41.05574656699997],[28.976652499000068,41.05623051300006],[28.97488470899998,41.057376247000036],[28.974724000000094,41.05761488200011],[28.974703234000174,41.05783937000007],[28.974604637000084,41.05790396800023]]],"type":"Polygon"}},{"type":"Feature","properties":{"area_id":"TR-34-035-40697","name_tr":"Halil Rıfat Paşa","area_level":"neighbourhood","parent_id":"TR-34-035","endeksa_id":40697},"geometry":{"coordinates":[[[28.972803221999982,41.06055588100003],[28.97221748200019,41.060921277000034],[28.972135189000085,41.0614878020001],[28.970464242000105,41.06238225700031],[28.970262208000065,41.06240746399999],[28.969423366000115,41.06287497800031],[28.96861614300002,41.062787798000045],[28.96508660000012,41.05840750000033],[28.96386723000012,41.05715220500065],[28.96313557500008,41.05615250500017],[28.962711384000045,41.05534678600003],[28.962695959000143,41.05531594400014],[28.962687884000047,41.055257490000145],[28.963649458000077,41.05533407500013],[28.96411190600014,41.055563378000045],[28.96471863200003,41.05613569900021],[28.965571813000054,41.056343321000156],[28.966004375000125,41.05628687400019],[28.9664391660001,41.05608809099999],[28.9687166760001,41.05414393000052],[28.970595562000142,41.055470052000146],[28.97145182500003,41.056269722000195],[28.972003805000043,41.057271255000046],[28.972089392999976,41.05847028700009],[28.972329108000054,41.05909321100012],[28.972443355000166,41.05978427700029],[28.972910180000156,41.060507648],[28.972803221999982,41.06055588100003]]],"type":"Polygon"}},{"type":"Feature","properties":{"area_id":"TR-34-035-40685","name_tr":"19 Mayıs","area_level":"neighbourhood","parent_id":"TR-34-035","endeksa_id":40685},"geometry":{"coordinates":[[[28.99716705300017,41.05637236000018],[28.99677758900009,41.057067835000055],[28.99639290000016,41.05716146000026],[28.99517767800012,41.05789641300004],[28.995054236000044,41.0581053570001],[28.99492516600003,41.0587779180006],[28.994280271000036,41.05941984300051],[28.994111026000155,41.059887368000204],[28.994729983000127,41.06110630799998],[28.994732537000175,41.06163305400008],[28.994389190000106,41.06253673000003],[28.994462506000104,41.062948070000175],[28.992825535999998,41.06438345200024],[28.992744355000127,41.06455083000009],[28.990624510000146,41.06308244200005],[28.988856159000136,41.06209032600003],[28.98826951000018,41.061523340000065],[28.987620769000046,41.06062021000008],[28.98733378300011,41.059842804000425],[28.987005490000058,41.058348595000155],[28.986970852000184,41.0570341910003],[28.990221422000047,41.0568364830001],[28.990760478000027,41.05709918600007],[28.991403581000043,41.05714303700006],[28.993177623999998,41.05676200500034],[28.99429110800014,41.05670919100004],[28.99487206200007,41.056803534000665],[28.996441866999987,41.05652366500016],[28.99716705300017,41.05637236000018]]],"type":"Polygon"}},{"type":"Feature","properties":{"area_id":"TR-34-035-40696","name_tr":"Halide Edip Adıvar","area_level":"neighbourhood","parent_id":"TR-34-035","endeksa_id":40696},"geometry":{"coordinates":[[[28.975631975,41.0589700590001],[28.97667203700007,41.059434460000034],[28.97855550900016,41.06081019700008],[28.97980123900004,41.06138086300041],[28.98127890600017,41.06192458600003],[28.982448168000076,41.06251972800004],[28.982959169000026,41.06287069900003],[28.98312267700004,41.06315369400028],[28.9831385010001,41.06338741400043],[28.982984141000088,41.06363540100011],[28.97984173500015,41.06461923900048],[28.977739162000034,41.065394495000135],[28.972803221999982,41.06055588100003],[28.972910180000156,41.060507648],[28.972443355000166,41.05978427700029],[28.972329108000054,41.05909321100012],[28.97262625200011,41.05772586400042],[28.97288626000011,41.057390933000136],[28.97334106300019,41.05731151700019],[28.973830740000096,41.0575140120003],[28.97404791100007,41.05743697300005],[28.974604637000084,41.05790396800023],[28.975631975,41.0589700590001]]],"type":"Polygon"}},{"type":"Feature","properties":{"area_id":"TR-34-035-40694","name_tr":"Fulya","area_level":"neighbourhood","parent_id":"TR-34-035","endeksa_id":40694},"geometry":{"coordinates":[[[29.00107370900008,41.05782172500062],[29.00125938100018,41.05900260700008],[29.00128437900014,41.06024373500014],[29.001580558,41.06268241900045],[29.001704463000067,41.06319128000018],[29.001960836000023,41.063401150000175],[29.002309584000102,41.0634951950002],[29.00249833700019,41.06394698700012],[29.002452027000118,41.064437398999985],[29.00315826999997,41.06576521700026],[29.00319431500003,41.06669456500009],[29.00079748400009,41.06652268000016],[28.995879365000178,41.06659254900018],[28.992744355000127,41.06455083000009],[28.992825535999998,41.06438345200024],[28.994462506000104,41.062948070000175],[28.994389190000106,41.06253673000003],[28.994732537000175,41.06163305400008],[28.994729983000127,41.06110630799998],[28.994111026000155,41.059887368000204],[28.994280271000036,41.05941984300051],[28.99492516600003,41.0587779180006],[28.995054236000044,41.0581053570001],[28.99517767800012,41.05789641300004],[28.99639290000016,41.05716146000026],[28.99677758900009,41.057067835000055],[28.99716705300017,41.05637236000018],[28.998315952999974,41.0558943620004],[28.998714013000097,41.055520429000126],[29.00107370900008,41.05782172500062]]],"type":"Polygon"}},{"type":"Feature","properties":{"area_id":"TR-34-035-40701","name_tr":"Kaptanpaşa","area_level":"neighbourhood","parent_id":"TR-34-035","endeksa_id":40701},"geometry":{"coordinates":[[[28.977739162000034,41.065394495000135],[28.97827894500017,41.066175391000115],[28.978436367000086,41.0667828170001],[28.978449045000048,41.06750794600066],[28.978441300000043,41.067429300000185],[28.976000500000055,41.067409100000475],[28.97463220200018,41.06723098500004],[28.974875920000102,41.06633346900003],[28.970344905000104,41.064334805000215],[28.969493633000184,41.06390145400019],[28.96861614300002,41.062787798000045],[28.969423366000115,41.06287497800031],[28.970262208000065,41.06240746399999],[28.970464242000105,41.06238225700031],[28.972135189000085,41.0614878020001],[28.97221748200019,41.060921277000034],[28.972803221999982,41.06055588100003],[28.977739162000034,41.065394495000135]]],"type":"Polygon"}},{"type":"Feature","properties":{"area_id":"TR-34-035-40706","name_tr":"Merkez","area_level":"neighbourhood","parent_id":"TR-34-035","endeksa_id":40706},"geometry":{"coordinates":[[[28.98269433100012,41.06911777900018],[28.981608022000046,41.069949679000274],[28.979967552000176,41.070737338000185],[28.979790958000137,41.07074221000039],[28.97938160000018,41.07031310000059],[28.978845300000046,41.06982260000018],[28.978639900000132,41.06944610000062],[28.978449045000048,41.06750794600066],[28.978436367000086,41.0667828170001],[28.97827894500017,41.066175391000115],[28.977739162000034,41.065394495000135],[28.97984173500015,41.06461923900048],[28.982984141000088,41.06363540100011],[28.9831385010001,41.06338741400043],[28.98312267700004,41.06315369400028],[28.982959169000026,41.06287069900003],[28.982448168000076,41.06251972800004],[28.98127890600017,41.06192458600003],[28.97980123900004,41.06138086300041],[28.97855550900016,41.06081019700008],[28.97667203700007,41.059434460000034],[28.975631975,41.0589700590001],[28.976673465000033,41.05879789800048],[28.980174378000072,41.05790134200004],[28.98524212300009,41.056813710000085],[28.985498984000117,41.056472165000514],[28.985423663000176,41.055733950000274],[28.985567702000083,41.05557401100009],[28.987029247000123,41.05533787400054],[28.986970852000184,41.0570341910003],[28.987005490000058,41.058348595000155],[28.98733378300011,41.059842804000425],[28.987620769000046,41.06062021000008],[28.98826951000018,41.061523340000065],[28.988856159000136,41.06209032600003],[28.990624510000146,41.06308244200005],[28.992744355000127,41.06455083000009],[28.995879365000178,41.06659254900018],[28.99593282700016,41.066636275000064],[28.992744247000132,41.06679501800011],[28.98816238100011,41.06710904300007],[28.985369755000136,41.067213161000154],[28.98269433100012,41.06911777900018]]],"type":"Polygon"}},{"type":"Feature","properties":{"area_id":"TR-34-035-40712","name_tr":"İzzet Paşa","area_level":"neighbourhood","parent_id":"TR-34-035","endeksa_id":40712},"geometry":{"coordinates":[[[28.98816238100011,41.06710904300007],[28.988339509000184,41.06753782300001],[28.98869648300007,41.06963206100011],[28.98872775100017,41.07010734500017],[28.98850837900011,41.0713795850001],[28.988593863999995,41.071997024000154],[28.988808192000135,41.07249683800012],[28.98808805699997,41.071952066000165],[28.9874421400001,41.07177986400012],[28.986332458000106,41.07099641800011],[28.985311568000043,41.07060210400016],[28.98471743400006,41.07086449500014],[28.98269433100012,41.06911777900018],[28.985369755000136,41.067213161000154],[28.98816238100011,41.06710904300007]]],"type":"Polygon"}},{"type":"Feature","properties":{"area_id":"TR-34-035-40695","name_tr":"Gülbahar","area_level":"neighbourhood","parent_id":"TR-34-035","endeksa_id":40695},"geometry":{"coordinates":[[[28.995297400000084,41.07660420000013],[28.994186908000017,41.0766070380007],[28.993931770000074,41.076173629000095],[28.993807134000065,41.07615390300009],[28.99385478400012,41.075627311000005],[28.994953653000152,41.0742811560001],[28.995609362000152,41.07377368600004],[28.99745498200008,41.07272910200015],[28.998686343000088,41.07230123300019],[28.998593153,41.07166779800059],[28.99889246800018,41.0710424990001],[29.000241436000067,41.06936148600005],[29.000340789000006,41.06925875600007],[29.000615813000024,41.06924601400004],[29.00117011599997,41.06820801100008],[29.001265177000107,41.06770451700049],[29.0008647840001,41.0669217440003],[29.00079748400009,41.06652268000016],[29.00319431500003,41.06669456500009],[29.003458245000047,41.066728346000104],[29.003392299000097,41.0669306580005],[29.003488335000043,41.0670954740001],[29.00332236900016,41.06763831400008],[29.003614872000128,41.06774402900021],[29.00390754199998,41.06812270400019],[29.004473594000103,41.06952061400057],[29.00448214100004,41.06985334400002],[29.004978236000113,41.07061342900016],[29.004917832000103,41.07102146700049],[29.004595664000078,41.07122505900014],[29.00489845600009,41.071572889000095],[29.00304924400001,41.07239496400018],[29.002457978000166,41.07278422700017],[29.001535332000174,41.07313469100001],[29.001088149000054,41.07367268100012],[29.001222786000085,41.07404567100025],[29.001125583000146,41.07435979100012],[29.000908873000128,41.07466469100012],[28.999198987000057,41.075212951000196],[28.99821730000008,41.07604740000005],[28.996926497000118,41.07610777499997],[28.995865416000186,41.07652665699999],[28.995297400000084,41.07660420000013]]],"type":"Polygon"}},{"type":"Feature","properties":{"area_id":"TR-34-035-40705","name_tr":"Mecidiyeköy","area_level":"neighbourhood","parent_id":"TR-34-035","endeksa_id":40705},"geometry":{"coordinates":[[[28.994186908000017,41.0766070380007],[28.992637052000077,41.07664259800009],[28.992641220000053,41.07573799700015],[28.992799391000062,41.07524424600007],[28.994333445000166,41.07293418700016],[28.993177521999996,41.07172624000009],[28.99297948700007,41.07132419000004],[28.99304156300002,41.07062417000003],[28.992783284000097,41.0705447940004],[28.99259238100018,41.070213712],[28.992766893000066,41.07014527500047],[28.992872694000027,41.069901469],[28.992744247000132,41.06679501800011],[28.99593282700016,41.066636275000064],[28.995879365000178,41.06659254900018],[29.00079748400009,41.06652268000016],[29.0008647840001,41.0669217440003],[29.001265177000107,41.06770451700049],[29.00117011599997,41.06820801100008],[29.000615813000024,41.06924601400004],[29.000340789000006,41.06925875600007],[29.000241436000067,41.06936148600005],[28.99889246800018,41.0710424990001],[28.998593153,41.07166779800059],[28.998686343000088,41.07230123300019],[28.99745498200008,41.07272910200015],[28.995609362000152,41.07377368600004],[28.994953653000152,41.0742811560001],[28.99385478400012,41.075627311000005],[28.993807134000065,41.07615390300009],[28.993931770000074,41.076173629000095],[28.994186908000017,41.0766070380007]]],"type":"Polygon"}},{"type":"Feature","properties":{"area_id":"TR-34-035-40702","name_tr":"Kuştepe","area_level":"neighbourhood","parent_id":"TR-34-035","endeksa_id":40702},"geometry":{"coordinates":[[[28.98968889600019,41.07805123600065],[28.98926011000009,41.07813648600006],[28.989069099000176,41.07779084800006],[28.989212279000128,41.077438918999974],[28.989384458000075,41.07619543800007],[28.989586157000133,41.075558033000505],[28.989309918000117,41.07375305100004],[28.988984871000127,41.072779079999975],[28.988808192000135,41.07249683800012],[28.988593863999995,41.071997024000154],[28.98850837900011,41.0713795850001],[28.98872775100017,41.07010734500017],[28.98869648300007,41.06963206100011],[28.988339509000184,41.06753782300001],[28.98816238100011,41.06710904300007],[28.992744247000132,41.06679501800011],[28.992872694000027,41.069901469],[28.992766893000066,41.07014527500047],[28.99259238100018,41.070213712],[28.992783284000097,41.0705447940004],[28.99304156300002,41.07062417000003],[28.99297948700007,41.07132419000004],[28.993177521999996,41.07172624000009],[28.994333445000166,41.07293418700016],[28.992799391000062,41.07524424600007],[28.992641220000053,41.07573799700015],[28.992637052000077,41.07664259800009],[28.991642668000054,41.07691523500017],[28.98968889600019,41.07805123600065]]],"type":"Polygon"}},{"type":"Feature","properties":{"area_id":"TR-34-035-40691","name_tr":"Esentepe","area_level":"neighbourhood","parent_id":"TR-34-035","endeksa_id":40691},"geometry":{"coordinates":[[[29.00922350000019,41.08323980000006],[29.008082215000172,41.08472304800023],[29.005229705000033,41.084414362000075],[29.005172596000023,41.08317712400003],[29.00574010500003,41.08290082400009],[29.006074694000063,41.08211464700014],[29.006268009000166,41.08172183900018],[29.006985024000073,41.08085606500009],[29.007402835999983,41.07985008400027],[29.00752705400015,41.079881687000125],[29.00763626000014,41.079539888],[29.00767850700015,41.078633497000055],[29.007168744000182,41.07728068700004],[29.007198452000125,41.0761260780007],[29.0071343030001,41.07585282700006],[29.00605003900006,41.07543596600044],[29.004972236000185,41.07519436900026],[29.003856139999982,41.075006727000186],[29.003035770000167,41.074964746000035],[29.00215480899999,41.07510319700003],[29.000908873000128,41.07466469100012],[29.001125583000146,41.07435979100012],[29.001222786000085,41.07404567100025],[29.001088149000054,41.07367268100012],[29.001535332000174,41.07313469100001],[29.002457978000166,41.07278422700017],[29.00304924400001,41.07239496400018],[29.00489845600009,41.071572889000095],[29.004595664000078,41.07122505900014],[29.004917832000103,41.07102146700049],[29.004978236000113,41.07061342900016],[29.00448214100004,41.06985334400002],[29.004473594000103,41.06952061400057],[29.00390754199998,41.06812270400019],[29.003614872000128,41.06774402900021],[29.00332236900016,41.06763831400008],[29.003488335000043,41.0670954740001],[29.003392299000097,41.0669306580005],[29.003458245000047,41.066728346000104],[29.005428704999986,41.06639449500028],[29.00739389100005,41.06636062100017],[29.009027837000076,41.06532293500044],[29.011063403000094,41.06334651000009],[29.01171573800019,41.06281581600007],[29.011943978000033,41.06303806600016],[29.01190888400015,41.06335307600011],[29.012735100000157,41.065651300000695],[29.013748238845665,41.06761684829513],[29.013922306403515,41.06768471204498],[29.014060406532735,41.06758449185725],[29.014031900000134,41.06769410000061],[29.014475000000004,41.06902960000008],[29.015892842000085,41.072008058000165],[29.01603560000018,41.072689000000025],[29.01566500000007,41.073701900000174],[29.01435395600015,41.07637288800015],[29.013095978000138,41.078263897000056],[29.00922350000019,41.08323980000006]]],"type":"Polygon"}}]}