{"type":"FeatureCollection","source_id":"endeksa","retrieved_at":null,"features":[{"type":"Feature","properties":{"area_id":"TR-34-003-40534","name_tr":"İnönü","area_level":"neighbourhood","parent_id":"TR-34-003","endeksa_id":40534},"geometry":{"coordinates":[[[29.154641580000145,40.97418899500008],[29.154077389000122,40.97461995800012],[29.154141358000174,40.97466258500003],[29.154026856000087,40.974795576000076],[29.153651575000026,40.97491988500019],[29.151196271000117,40.976408733000426],[29.150598584000136,40.97668546000017],[29.148789992000047,40.97713193400017],[29.145909215000188,40.97762538500001],[29.14316261800019,40.97824811900006],[29.13844044900003,40.97863938600034],[29.135011283000154,40.97871377300004],[29.131301072000042,40.97912305600039],[29.12831545800009,40.97917318600008],[29.12633642700007,40.97889089800003],[29.126104622000128,40.97872805000003],[29.125993960000017,40.97839967600004],[29.126847904000158,40.97720765000054],[29.127031136000085,40.97685639700052],[29.127097114000037,40.97642996200017],[29.126759139,40.97615456900036],[29.1263260450001,40.975971409000124],[29.125176661000182,40.97487411500009],[29.125174703000027,40.97442739100012],[29.125406903000055,40.97303065699998],[29.12537343200006,40.972708773000534],[29.125537937000047,40.97253709600045],[29.12577058400001,40.972483195000166],[29.126230700000065,40.97279920000011],[29.1271220000001,40.9730272000005],[29.127814254000043,40.973102203000224],[29.129570706000038,40.973114200000055],[29.131507900000088,40.973274300000185],[29.132153500000072,40.973101700000086],[29.134378100000106,40.97311769999999],[29.134686900000077,40.973173599999996],[29.13504852500006,40.97338473499997],[29.136002908000023,40.97371947800008],[29.136415803000034,40.97399655300018],[29.137201236000067,40.974106530000086],[29.13838370000002,40.97386800000044],[29.14044850000016,40.97389820000012],[29.14075722400014,40.97379441500016],[29.141523000000063,40.97327510000008],[29.142646300000138,40.97295130000026],[29.143587800000034,40.97295820000011],[29.144477186000074,40.973388218000025],[29.144796916000075,40.973333457000194],[29.14780547000015,40.97302410600042],[29.149047803000144,40.97270076700005],[29.14948298400003,40.97248398500005],[29.15115526900007,40.973703874000535],[29.152545907000047,40.97421153600044],[29.15345082600004,40.974213140000074],[29.154480280000143,40.97387969700043],[29.154740767000135,40.973897099000624],[29.154641580000145,40.97418899500008]]],"type":"Polygon"}},{"type":"Feature","properties":{"area_id":"TR-34-003-40530","name_tr":"İçerenköy","area_level":"neighbourhood","parent_id":"TR-34-003","endeksa_id":40530},"geometry":{"coordinates":[[[29.126024952000137,40.9792226620001],[29.124156552000045,40.97823133900005],[29.123257799000044,40.97797595200018],[29.119254692000027,40.978423121000105],[29.11547883100019,40.978681299000186],[29.113887023000075,40.97888111300017],[29.10958158500017,40.979125497000325],[29.10763161400007,40.979073492000055],[29.104207400000064,40.97959132600005],[29.103804497000056,40.97986098399997],[29.098575029000074,40.98132950800016],[29.097466402000066,40.981971585999986],[29.094825277000155,40.981513661000065],[29.096494347000032,40.97951154500015],[29.09785403300009,40.97743472100041],[29.103026870000065,40.96815281100015],[29.103927581999983,40.966689566000184],[29.104663286000118,40.965672976000235],[29.105303388000152,40.96481312100059],[29.106978677000143,40.96301900800006],[29.11123494600014,40.959064655000134],[29.111325524000165,40.95899443200045],[29.11180129200011,40.95946672600013],[29.112086272000056,40.959590324000374],[29.11286070799997,40.959632123000006],[29.113581980000163,40.95984084500009],[29.114178900000184,40.95981500000016],[29.11448480000007,40.9599070000001],[29.11510086300018,40.96038870199999],[29.115821786000026,40.96064944500034],[29.116546201000176,40.961331927000174],[29.11694507500016,40.96197985400005],[29.117312003000166,40.962390448000065],[29.117509961000167,40.96309138200019],[29.117775449000135,40.96350763700008],[29.11879533700011,40.96437439400012],[29.119204614000125,40.96492384500016],[29.119600247000108,40.96557085100022],[29.120224494000183,40.96627358900014],[29.120731602000035,40.9664457060004],[29.121449743000028,40.967229162000024],[29.122586549999994,40.967672874000186],[29.122795796000105,40.96809390200019],[29.122779841000124,40.96864011800005],[29.122543709000126,40.969119515000386],[29.122722479000174,40.96974269400016],[29.123553167000125,40.970865188000175],[29.124899057000107,40.97167459500008],[29.125527964000014,40.97218423500016],[29.12577058400001,40.972483195000166],[29.125537937000047,40.97253709600045],[29.12537343200006,40.972708773000534],[29.125406903000055,40.97303065699998],[29.125174703000027,40.97442739100012],[29.125176661000182,40.97487411500009],[29.1263260450001,40.975971409000124],[29.126759139,40.97615456900036],[29.127097114000037,40.97642996200017],[29.127031136000085,40.97685639700052],[29.126847904000158,40.97720765000054],[29.125993960000017,40.97839967600004],[29.126104622000128,40.97872805000003],[29.12633642700007,40.97889089800003],[29.126024952000137,40.9792226620001]]],"type":"Polygon"}},{"type":"Feature","properties":{"area_id":"TR-34-003-40531","name_tr":"Küçükbakkalköy","area_level":"neighbourhood","parent_id":"TR-34-003","endeksa_id":40531},"geometry":{"coordinates":[[[29.13455245700004,40.9825174220004],[29.133631945000047,40.98327514900012],[29.132600183000136,40.984397861000105],[29.131057118000115,40.98542855900013],[29.12623469900018,40.9880116060001],[29.12430890700017,40.9884877770001],[29.123511912000026,40.9884841030007],[29.122708526000167,40.988369591000094],[29.12065244700011,40.98776308200013],[29.114352688000167,40.98768388700057],[29.10986562100004,40.98712995800048],[29.109185547000095,40.98715391200051],[29.108723527000052,40.98657136200012],[29.108072964000144,40.985418615000185],[29.107777155999997,40.98520548000005],[29.106581205999987,40.98468286500042],[29.106097580000153,40.98537234400004],[29.105649011000082,40.985749035000026],[29.10231375400008,40.983591221000154],[29.10112443900016,40.98296371100014],[29.099552285000073,40.98240109900013],[29.097466402000066,40.981971585999986],[29.098575029000074,40.98132950800016],[29.103804497000056,40.97986098399997],[29.104207400000064,40.97959132600005],[29.10763161400007,40.979073492000055],[29.10958158500017,40.979125497000325],[29.113887023000075,40.97888111300017],[29.11547883100019,40.978681299000186],[29.119254692000027,40.978423121000105],[29.123257799000044,40.97797595200018],[29.124156552000045,40.97823133900005],[29.126024952000137,40.9792226620001],[29.12689009400009,40.979623350000395],[29.128005836000057,40.97997915399998],[29.13117013700014,40.98071452800008],[29.13455245700004,40.9825174220004]]],"type":"Polygon"}},{"type":"Feature","properties":{"area_id":"TR-34-003-40533","name_tr":"Kayışdağı","area_level":"neighbourhood","parent_id":"TR-34-003","endeksa_id":40533},"geometry":{"coordinates":[[[29.15656210100019,40.9819561700005],[29.153577903000155,40.98196223400015],[29.152980063000086,40.982092113000135],[29.15089124200017,40.9837318110001],[29.150245332000054,40.98445743000019],[29.15018171200012,40.98471109000036],[29.149803242000075,40.98509188900016],[29.149336552000136,40.98525822000033],[29.149132431000055,40.98542054300003],[29.148333582000134,40.986504326000045],[29.147845573000154,40.986916754000106],[29.147401742000113,40.987628159000224],[29.14703447300019,40.98804269900006],[29.146660420000046,40.98920552200008],[29.14206984900011,40.98712515400007],[29.139698375000023,40.987005978000525],[29.139146488000108,40.98679601500015],[29.138512922000075,40.986339572000134],[29.1365864550001,40.984491156000104],[29.135709368999983,40.9833288610003],[29.13455245700004,40.9825174220004],[29.13117013700014,40.98071452800008],[29.128005836000057,40.97997915399998],[29.12689009400009,40.979623350000395],[29.126024952000137,40.9792226620001],[29.12633642700007,40.97889089800003],[29.12831545800009,40.97917318600008],[29.131301072000042,40.97912305600039],[29.135011283000154,40.97871377300004],[29.13844044900003,40.97863938600034],[29.14316261800019,40.97824811900006],[29.145909215000188,40.97762538500001],[29.148789992000047,40.97713193400017],[29.150598584000136,40.97668546000017],[29.151196271000117,40.976408733000426],[29.153651575000026,40.97491988500019],[29.154026856000087,40.974795576000076],[29.154141358000174,40.97466258500003],[29.154077389000122,40.97461995800012],[29.154641580000145,40.97418899500008],[29.154737460000092,40.97393044600045],[29.154814229000124,40.973916365000264],[29.154794792000075,40.973800231999974],[29.15609142700015,40.96999578200018],[29.16370845800003,40.97019481400008],[29.16230881500013,40.97118334700008],[29.159819357000003,40.97497930100013],[29.159639538000135,40.97565674600014],[29.159819292999998,40.97946288200012],[29.16088426700003,40.979532075000066],[29.160319828000127,40.981027212000015],[29.158020134000083,40.981468481000206],[29.156951977999995,40.98192750400011],[29.15656210100019,40.9819561700005]]],"type":"Polygon"}},{"type":"Feature","properties":{"area_id":"TR-34-003-99519","name_tr":"Mimar Sinan","area_level":"neighbourhood","parent_id":"TR-34-003","endeksa_id":99519},"geometry":{"coordinates":[[[29.16653413300014,40.98499532800025],[29.16205007900004,40.98556123500009],[29.161942522999993,40.987382023000464],[29.161994282000137,40.98915492800052],[29.1601581380001,40.98987929400005],[29.159705118999966,40.99020418300006],[29.159076491000008,40.98929517000022],[29.158734179000135,40.988552874000106],[29.15848484000003,40.98636579500004],[29.15794291100019,40.98636751200013],[29.15703229899998,40.98375598700011],[29.15656210100019,40.9819561700005],[29.156951977999995,40.98192750400011],[29.158020134000083,40.981468481000206],[29.160319828000127,40.981027212000015],[29.16088426700003,40.979532075000066],[29.16121780000003,40.9796936000007],[29.161730100000113,40.98028890000057],[29.162381812000035,40.98077257700004],[29.162309824000147,40.98080100600049],[29.162843998000085,40.98094193100019],[29.16365502800005,40.98073039800033],[29.164023137000015,40.980761541000334],[29.164416535999976,40.98096756900014],[29.1648260500001,40.9813555930001],[29.16509116800006,40.981676892000166],[29.1657357040001,40.9830250840003],[29.16653413300014,40.98499532800025]]],"type":"Polygon"}},{"type":"Feature","properties":{"area_id":"TR-34-003-99516","name_tr":"Mevlana","area_level":"neighbourhood","parent_id":"TR-34-003","endeksa_id":99516},"geometry":{"coordinates":[[[29.159705118999966,40.99020418300006],[29.158712811000157,40.99110505600004],[29.15486359300013,40.99115314100038],[29.15363926100008,40.992681898000114],[29.146660420000046,40.98920552200008],[29.14703447300019,40.98804269900006],[29.147401742000113,40.987628159000224],[29.147845573000154,40.986916754000106],[29.148333582000134,40.986504326000045],[29.149132431000055,40.98542054300003],[29.149336552000136,40.98525822000033],[29.149803242000075,40.98509188900016],[29.15018171200012,40.98471109000036],[29.150245332000054,40.98445743000019],[29.15089124200017,40.9837318110001],[29.152980063000086,40.982092113000135],[29.153577903000155,40.98196223400015],[29.15656210100019,40.9819561700005],[29.15703229899998,40.98375598700011],[29.15794291100019,40.98636751200013],[29.15848484000003,40.98636579500004],[29.158734179000135,40.988552874000106],[29.159076491000008,40.98929517000022],[29.159705118999966,40.99020418300006]]],"type":"Polygon"}},{"type":"Feature","properties":{"area_id":"TR-34-003-40577","name_tr":"Ferhatpaşa","area_level":"neighbourhood","parent_id":"TR-34-003","endeksa_id":40577},"geometry":{"coordinates":[[[29.192724282000256,40.988942520000705],[29.190737098000284,40.98967705700028],[29.188408298000354,40.99016922200042],[29.186764586000265,40.99034703700033],[29.18081572700015,40.990442261],[29.17758254600028,40.990802880000444],[29.174895300000344,40.99137589600025],[29.16861366100028,40.99330202400046],[29.16844082299997,40.99235905700033],[29.168161904999977,40.99170994799999],[29.167358809000177,40.99033350700006],[29.167340883000122,40.989826581000045],[29.167507868000143,40.98876167800012],[29.167403917000172,40.98745539600009],[29.166930929000102,40.98660996699999],[29.16653413300014,40.98499532800025],[29.1657357040001,40.9830250840003],[29.16509116800006,40.981676892000166],[29.1648260500001,40.9813555930001],[29.164416535999976,40.98096756900014],[29.164023137000015,40.980761541000334],[29.16365502800005,40.98073039800033],[29.162843998000085,40.98094193100019],[29.162309824000147,40.98080100600049],[29.162995451000086,40.98057517400014],[29.164922305000175,40.97957563599999],[29.1653798640001,40.979427369000064],[29.167495935000147,40.979307571000106],[29.168723095000075,40.978740363999975],[29.170339071,40.978251317000115],[29.171106562000034,40.97839861400013],[29.171461361000127,40.978353520000155],[29.17238725300018,40.97776393400005],[29.17250643900013,40.976697507000154],[29.173004330000026,40.97630704100004],[29.173367181000117,40.976173464000055],[29.174047345000076,40.97608359000026],[29.174363992000053,40.976186979000374],[29.174753588000158,40.976450330000034],[29.176098514000046,40.97646340600005],[29.176463160000026,40.97692723900019],[29.17652330100009,40.97721348800013],[29.176632767000115,40.97733267300049],[29.177308817000096,40.97732541500005],[29.177952099000038,40.97717518000019],[29.17892124700012,40.97670347500048],[29.179371962000175,40.97631124600008],[29.179515211000023,40.97608253900012],[29.179809392000152,40.97538412400047],[29.179815762000146,40.975107535000234],[29.179525977000026,40.97455454700031],[29.18045978000015,40.97504173400006],[29.180916049000132,40.97516025100015],[29.18243898200012,40.97405299400015],[29.18254633200013,40.97455813300007],[29.18314184700006,40.97519975300008],[29.183536539000045,40.97545790600003],[29.18410544900007,40.97564410600012],[29.18458938500015,40.97597583600003],[29.18532194300019,40.97701562100019],[29.18607310400006,40.977850829000374],[29.186415908000185,40.978061468000305],[29.187587486000098,40.97854268500009],[29.188544657000193,40.978585120000105],[29.18942988600014,40.97841287400007],[29.190599318000125,40.97869331600003],[29.190750520000165,40.9789040310003],[29.19200917400002,40.97891848300043],[29.19302340000013,40.9790962000003],[29.19459703600012,40.97964320699998],[29.194976473000168,40.97960898000008],[29.195416836999982,40.97974021200014],[29.195823306000136,40.97974176700018],[29.19615689900013,40.979880131000414],[29.196118053000134,40.980149176000054],[29.19809669900002,40.98130741200015],[29.198770377000187,40.98151828100009],[29.19959574300009,40.98195050600003],[29.201046856000175,40.98193543500065],[29.201573847000134,40.982028019000495],[29.203668169000082,40.98311878200042],[29.201828038000144,40.9836771140001],[29.199533791000135,40.98468555400001],[29.198402320000184,40.985320976000196],[29.194897436000076,40.98773041600009],[29.192724282000256,40.988942520000705]]],"type":"Polygon"}},{"type":"Feature","properties":{"area_id":"TR-34-003-40746","name_tr":"Yeni Çamlıca","area_level":"neighbourhood","parent_id":"TR-34-003","endeksa_id":40746},"geometry":{"coordinates":[[[29.16861366100028,40.99330202400046],[29.166312151000227,40.993924860000334],[29.163453924000294,40.99441167000043],[29.16083894400026,40.994604560000255],[29.15791581500025,40.99464377600009],[29.155296052000153,40.99462418600007],[29.155373573000077,40.993676660000006],[29.155316617000153,40.99340893200042],[29.155113128000096,40.99324019400012],[29.15363926100008,40.992681898000114],[29.15486359300013,40.99115314100038],[29.158712811000157,40.99110505600004],[29.159705118999966,40.99020418300006],[29.1601581380001,40.98987929400005],[29.161994282000137,40.98915492800052],[29.161942522999993,40.987382023000464],[29.16205007900004,40.98556123500009],[29.16653413300014,40.98499532800025],[29.166930929000102,40.98660996699999],[29.167403917000172,40.98745539600009],[29.167507868000143,40.98876167800012],[29.167340883000122,40.989826581000045],[29.167358809000177,40.99033350700006],[29.168161904999977,40.99170994799999],[29.16844082299997,40.99235905700033],[29.16861366100028,40.99330202400046]]],"type":"Polygon"}},{"type":"Feature","properties":{"area_id":"TR-34-003-40526","name_tr":"Yenisahra","area_level":"neighbourhood","parent_id":"TR-34-003","endeksa_id":40526},"geometry":{"coordinates":[[[29.08965349400006,40.98569573100002],[29.089805628000192,40.9858919510001],[29.090037138000184,40.98599413400029],[29.093640701000027,40.98640743700014],[29.095377851000023,40.98703548400016],[29.09384501100004,40.98843986900005],[29.093048270999986,40.98953320100014],[29.09253886300013,40.989952588999984],[29.091992679000043,40.99079840200011],[29.091634867000153,40.99111980700013],[29.092047110000067,40.9916470200003],[29.09249811400008,40.9918536130001],[29.09287227200008,40.99231507999997],[29.092711804000146,40.99308865800003],[29.092729534,40.99353055700027],[29.092915808000157,40.99389553600054],[29.093245876000083,40.99418679300021],[29.093099798000083,40.994504128000074],[29.093012878000025,40.99514711300009],[29.092818054000077,40.99571299400009],[29.092542779000098,40.99586122800014],[29.092037596000125,40.99541554700045],[29.091723594000086,40.99533731200046],[29.090984972000115,40.994927394000115],[29.090406030000167,40.99493036800004],[29.089401615999975,40.99438329900016],[29.088803017000146,40.993646125000055],[29.087300469000127,40.992155528000126],[29.086886588000084,40.991971693000096],[29.084321366000097,40.991915095000365],[29.0830469550001,40.99213162700016],[29.082575802999997,40.99197709900017],[29.08206445600007,40.99161849100034],[29.081710940000164,40.99151379700038],[29.081170156000155,40.991562438000074],[29.080449649000116,40.991841285000476],[29.079750329000035,40.99191443400008],[29.078551618000063,40.991627901000584],[29.076264847999994,40.99141303200048],[29.079619388000083,40.99014886200018],[29.085799575000124,40.98777184300002],[29.087252427000067,40.98707410400016],[29.08965349400006,40.98569573100002]]],"type":"Polygon"}},{"type":"Feature","properties":{"area_id":"TR-34-003-99749","name_tr":"Atatürk","area_level":"neighbourhood","parent_id":"TR-34-003","endeksa_id":99749},"geometry":{"coordinates":[[[29.146660420000046,40.98920552200008],[29.146526751000124,40.98940158400018],[29.14623403800016,40.99044001300035],[29.145246134000104,40.991570524],[29.144706118000045,40.9919145930005],[29.14404939800005,40.992003785000065],[29.143419017000042,40.992257370000175],[29.142553657000178,40.992318270000055],[29.14027656500008,40.99308989900004],[29.139450828000065,40.99305657500031],[29.138531097000055,40.992874362000066],[29.137374325999986,40.9928535760003],[29.136919021999972,40.99352224000006],[29.136663015000067,40.993622768000705],[29.133500063000156,40.993358412000134],[29.131939589000183,40.99369108200017],[29.130876566999973,40.994627106000166],[29.130754723000052,40.99683495300047],[29.129763917000105,40.996734716000105],[29.123816790000035,40.99596695100024],[29.12127426600017,40.995758482000156],[29.118240991000107,40.9957367400001],[29.116099936000126,40.99595399500009],[29.110649328000136,40.989809903000264],[29.10810934300008,40.98753982900001],[29.105649011000082,40.985749035000026],[29.106097580000153,40.98537234400004],[29.106581205999987,40.98468286500042],[29.107777155999997,40.98520548000005],[29.108072964000144,40.985418615000185],[29.108723527000052,40.98657136200012],[29.109185547000095,40.98715391200051],[29.10986562100004,40.98712995800048],[29.114352688000167,40.98768388700057],[29.12065244700011,40.98776308200013],[29.122708526000167,40.988369591000094],[29.123511912000026,40.9884841030007],[29.12430890700017,40.9884877770001],[29.12623469900018,40.9880116060001],[29.131057118000115,40.98542855900013],[29.132600183000136,40.984397861000105],[29.133631945000047,40.98327514900012],[29.13455245700004,40.9825174220004],[29.135709368999983,40.9833288610003],[29.1365864550001,40.984491156000104],[29.138512922000075,40.986339572000134],[29.139146488000108,40.98679601500015],[29.139698375000023,40.987005978000525],[29.14206984900011,40.98712515400007],[29.146660420000046,40.98920552200008]]],"type":"Polygon"}},{"type":"Feature","properties":{"area_id":"TR-34-003-99517","name_tr":"Yenişehir","area_level":"neighbourhood","parent_id":"TR-34-003","endeksa_id":99517},"geometry":{"coordinates":[[[29.139103508000062,40.996703745000275],[29.136676500000192,40.996970186000055],[29.135155139000176,40.997043588000054],[29.13273107200007,40.99699670400008],[29.130754723000052,40.99683495300047],[29.130876566999973,40.994627106000166],[29.131939589000183,40.99369108200017],[29.133500063000156,40.993358412000134],[29.136663015000067,40.993622768000705],[29.136919021999972,40.99352224000006],[29.137374325999986,40.9928535760003],[29.138531097000055,40.992874362000066],[29.139450828000065,40.99305657500031],[29.14027656500008,40.99308989900004],[29.142553657000178,40.992318270000055],[29.143419017000042,40.992257370000175],[29.14404939800005,40.992003785000065],[29.144706118000045,40.9919145930005],[29.145246134000104,40.991570524],[29.14623403800016,40.99044001300035],[29.146526751000124,40.98940158400018],[29.146660420000046,40.98920552200008],[29.15363926100008,40.992681898000114],[29.155113128000096,40.99324019400012],[29.155316617000153,40.99340893200042],[29.155373573000077,40.993676660000006],[29.155295238000065,40.994634938000104],[29.151549773000056,40.9947170260001],[29.14822015600015,40.99505346400042],[29.139103508000062,40.996703745000275]]],"type":"Polygon"}},{"type":"Feature","properties":{"area_id":"TR-34-003-40816","name_tr":"Örnek","area_level":"neighbourhood","parent_id":"TR-34-003","endeksa_id":40816},"geometry":{"coordinates":[[[29.08851323400006,40.997077821000175],[29.08775670200015,40.99627324800008],[29.087431438000067,40.99608565900047],[29.08614024700006,40.9960179900001],[29.085497445000158,40.99573491200067],[29.08491323600009,40.99668516200006],[29.08446294200013,40.997160530000144],[29.082785469000157,40.998487932000046],[29.08250628600007,40.998336880000124],[29.082397197000148,40.998439560000634],[29.082220581000115,40.99877670800009],[29.082093994000047,40.999577006000095],[29.082162176000168,41.000815229000466],[29.08102484700015,41.00149578600019],[29.080521038000086,41.00204752100046],[29.08053869000014,41.00233517100014],[29.080173338999998,41.001922479000086],[29.07983672100005,41.00170537300022],[29.078153074000113,41.001339322000035],[29.077512919000185,41.00103927000026],[29.07754709700015,41.000932938000346],[29.0773562600001,41.00070432600012],[29.077339466000126,41.000371526000436],[29.075552328000015,40.998868253000126],[29.074778748000142,40.99766487100004],[29.074252950000187,40.99701428200012],[29.074005300419344,40.9970433823832],[29.07402936800014,40.99626738000018],[29.073847382000167,40.99457629600005],[29.07336279500015,40.99251313800005],[29.076264847999994,40.99141303200048],[29.078551618000063,40.991627901000584],[29.079750329000035,40.99191443400008],[29.080449649000116,40.991841285000476],[29.081170156000155,40.991562438000074],[29.081710940000164,40.99151379700038],[29.08206445600007,40.99161849100034],[29.082575802999997,40.99197709900017],[29.0830469550001,40.99213162700016],[29.084321366000097,40.991915095000365],[29.086886588000084,40.991971693000096],[29.087300469000127,40.992155528000126],[29.088803017000146,40.993646125000055],[29.089401615999975,40.99438329900016],[29.088863323000112,40.994885345000455],[29.08886125600003,40.9960941880002],[29.08858468699998,40.99655790100064],[29.088663187000122,40.996880522000424],[29.08851323400006,40.997077821000175]]],"type":"Polygon"}},{"type":"Feature","properties":{"area_id":"TR-34-003-40527","name_tr":"Barbaros","area_level":"neighbourhood","parent_id":"TR-34-003","endeksa_id":40527},"geometry":{"coordinates":[[[29.116099936000126,40.99595399500009],[29.114125293000086,40.99638769000018],[29.112691658000017,40.996836475000066],[29.111498142000073,40.997316873000045],[29.109691976000192,40.998206263999975],[29.107731679000096,40.99941224800011],[29.106740996999974,41.00011930599999],[29.102489277000075,41.00355161200048],[29.10237799400005,41.00350689900006],[29.10133126300019,41.00241775000063],[29.100342879000152,41.0019525190001],[29.09965380900013,41.001474071000075],[29.098400376000086,41.0009611050001],[29.096713142000112,40.99974572100007],[29.095351074000007,40.99931620800015],[29.094561702000078,40.99882234200015],[29.093980303000023,40.99828337900004],[29.092531701000098,40.99748700100042],[29.090879490000077,40.99614765500013],[29.090661063000027,40.99576959000052],[29.090406030000167,40.99493036800004],[29.090984972000115,40.994927394000115],[29.091723594000086,40.99533731200046],[29.092037596000125,40.99541554700045],[29.092542779000098,40.99586122800014],[29.092818054000077,40.99571299400009],[29.093012878000025,40.99514711300009],[29.093099798000083,40.994504128000074],[29.093245876000083,40.99418679300021],[29.092915808000157,40.99389553600054],[29.092729534,40.99353055700027],[29.092711804000146,40.99308865800003],[29.09287227200008,40.99231507999997],[29.09249811400008,40.9918536130001],[29.092047110000067,40.9916470200003],[29.091634867000153,40.99111980700013],[29.091992679000043,40.99079840200011],[29.09253886300013,40.989952588999984],[29.093048270999986,40.98953320100014],[29.09384501100004,40.98843986900005],[29.095377851000023,40.98703548400016],[29.093640701000027,40.98640743700014],[29.090037138000184,40.98599413400029],[29.089805628000192,40.9858919510001],[29.08965349400006,40.98569573100002],[29.09235090900006,40.98377960000005],[29.094825277000155,40.981513661000065],[29.097466402000066,40.981971585999986],[29.099552285000073,40.98240109900013],[29.10112443900016,40.98296371100014],[29.10231375400008,40.983591221000154],[29.105649011000082,40.985749035000026],[29.10810934300008,40.98753982900001],[29.110649328000136,40.989809903000264],[29.116099936000126,40.99595399500009]]],"type":"Polygon"}},{"type":"Feature","properties":{"area_id":"TR-34-003-40795","name_tr":"Fetih","area_level":"neighbourhood","parent_id":"TR-34-003","endeksa_id":40795},"geometry":{"coordinates":[[[29.08053869000014,41.00233517100014],[29.079806117000032,41.002803364000385],[29.07997979099997,41.00300108300013],[29.07928700100007,41.00430910200009],[29.079295318000106,41.004849743000136],[29.078922938000005,41.006374883000035],[29.078469970000015,41.00703353700004],[29.075568625000074,41.00609814800015],[29.073913166000125,41.005797347000396],[29.07266213600019,41.005668635000404],[29.072407355000166,41.004565881000644],[29.0722769300001,41.002628974000345],[29.07240862100008,41.002232301000106],[29.07313404300004,41.001054563000196],[29.07358505700006,40.99970305800019],[29.074005300419344,40.9970433823832],[29.074252950000187,40.99701428200012],[29.074778748000142,40.99766487100004],[29.075552328000015,40.998868253000126],[29.077339466000126,41.000371526000436],[29.0773562600001,41.00070432600012],[29.07754709700015,41.000932938000346],[29.077512919000185,41.00103927000026],[29.078153074000113,41.001339322000035],[29.07983672100005,41.00170537300022],[29.080173338999998,41.001922479000086],[29.08053869000014,41.00233517100014]]],"type":"Polygon"}},{"type":"Feature","properties":{"area_id":"TR-34-003-40740","name_tr":"Mustafa Kemal","area_level":"neighbourhood","parent_id":"TR-34-003","endeksa_id":40740},"geometry":{"coordinates":[[[29.10218759700018,41.00367016700011],[29.09991964200003,41.005536717000325],[29.097206876000087,41.00722500300003],[29.09643771300017,41.00616178200062],[29.09568721900007,41.00566197300003],[29.09484152000016,41.00487708400004],[29.093478660000187,41.004080834000035],[29.09298407900019,41.0033680330003],[29.09256197000019,41.00256259300045],[29.091694129000075,41.001420709000115],[29.09117675000016,41.00055986100011],[29.090396880000128,40.99974342500025],[29.089933795000093,40.99908742800005],[29.089780416000053,40.998205831000064],[29.08940284700003,40.99751394100019],[29.08851323400006,40.997077821000175],[29.088663187000122,40.996880522000424],[29.08858468699998,40.99655790100064],[29.08886125600003,40.9960941880002],[29.088863323000112,40.994885345000455],[29.089401615999975,40.99438329900016],[29.090406030000167,40.99493036800004],[29.090661063000027,40.99576959000052],[29.090879490000077,40.99614765500013],[29.092531701000098,40.99748700100042],[29.093980303000023,40.99828337900004],[29.094561702000078,40.99882234200015],[29.095351074000007,40.99931620800015],[29.096713142000112,40.99974572100007],[29.098400376000086,41.0009611050001],[29.09965380900013,41.001474071000075],[29.100342879000152,41.0019525190001],[29.10133126300019,41.00241775000063],[29.10237799400005,41.00350689900006],[29.10218759700018,41.00367016700011]]],"type":"Polygon"}},{"type":"Feature","properties":{"area_id":"TR-34-003-98687","name_tr":"Aşıkveysel","area_level":"neighbourhood","parent_id":"TR-34-003","endeksa_id":98687},"geometry":{"coordinates":[[[29.095335961000103,41.008155712000075],[29.092857264000088,41.008968600000685],[29.09158391200009,41.00924541600017],[29.090208729000096,41.00944849100051],[29.08892735200004,41.00952855900039],[29.089516512000102,41.00852703400005],[29.09009073400017,41.00806433600047],[29.09051106100003,41.00740017300018],[29.09096991000007,41.006946661000086],[29.091007465000075,41.00568220500014],[29.089391508000062,41.00417534900066],[29.08913701400013,41.00378370300041],[29.088651788000107,41.00262568900018],[29.088604860000146,41.000909304000345],[29.0883087790001,40.99968288800011],[29.088402523000184,40.99727645900009],[29.08851323400006,40.997077821000175],[29.08940284700003,40.99751394100019],[29.089780416000053,40.998205831000064],[29.089933795000093,40.99908742800005],[29.090396880000128,40.99974342500025],[29.09117675000016,41.00055986100011],[29.091694129000075,41.001420709000115],[29.09256197000019,41.00256259300045],[29.09298407900019,41.0033680330003],[29.093478660000187,41.004080834000035],[29.09484152000016,41.00487708400004],[29.09568721900007,41.00566197300003],[29.09643771300017,41.00616178200062],[29.097206876000087,41.00722500300003],[29.095335961000103,41.008155712000075]]],"type":"Polygon"}},{"type":"Feature","properties":{"area_id":"TR-34-003-40793","name_tr":"Esatpaşa","area_level":"neighbourhood","parent_id":"TR-34-003","endeksa_id":40793},"geometry":{"coordinates":[[[29.08892735200004,41.00952855900039],[29.088916880000056,41.00954283000004],[29.08632495600017,41.009450856000115],[29.08413345400004,41.00908467700043],[29.081865227000037,41.008401936000155],[29.078469970000015,41.00703353700004],[29.078922938000005,41.006374883000035],[29.079295318000106,41.004849743000136],[29.07928700100007,41.00430910200009],[29.07997979099997,41.00300108300013],[29.079806117000032,41.002803364000385],[29.08053869000014,41.00233517100014],[29.080521038000086,41.00204752100046],[29.08102484700015,41.00149578600019],[29.082162176000168,41.000815229000466],[29.082093994000047,40.999577006000095],[29.082220581000115,40.99877670800009],[29.082397197000148,40.998439560000634],[29.08250628600007,40.998336880000124],[29.082785469000157,40.998487932000046],[29.08446294200013,40.997160530000144],[29.08491323600009,40.99668516200006],[29.085497445000158,40.99573491200067],[29.08614024700006,40.9960179900001],[29.087431438000067,40.99608565900047],[29.08775670200015,40.99627324800008],[29.08851323400006,40.997077821000175],[29.088402523000184,40.99727645900009],[29.0883087790001,40.99968288800011],[29.088604860000146,41.000909304000345],[29.088651788000107,41.00262568900018],[29.08913701400013,41.00378370300041],[29.089391508000062,41.00417534900066],[29.091007465000075,41.00568220500014],[29.09096991000007,41.006946661000086],[29.09051106100003,41.00740017300018],[29.09009073400017,41.00806433600047],[29.089516512000102,41.00852703400005],[29.08892735200004,41.00952855900039]]],"type":"Polygon"}}]}