{"type":"FeatureCollection","source_id":"endeksa","retrieved_at":"2026-08-23","features":[{"type":"Feature","properties":{"area_id":"TR-30-005-2015298","name_tr":"Anadağ Köyü","area_level":"neighbourhood","parent_id":"TR-30-005","endeksa_id":2015298},"geometry":{"coordinates":[[[44.3398702517963,37.035607092790144],[44.34003000000013,37.03484000000037],[44.338270000000136,37.03492000000006],[44.334090000000174,37.03544000000005],[44.3300900000001,37.035670000000266],[44.32494000000014,37.03760000000011],[44.317210000000046,37.03868000000011],[44.31567000000018,37.03881000000018],[44.310730000000206,37.03881000000018],[44.3056600000001,37.0375700000003],[44.303480000000036,37.0375700000003],[44.30167000000017,37.03777000000014],[44.292650000000094,37.035400000000664],[44.282950000000085,37.030620000000226],[44.2739000000002,37.031800000000146],[44.26539000000025,37.03312000000034],[44.244910000000175,37.02965000000029],[44.23896000000008,37.03140000000013],[44.23106000000013,37.03182000000004],[44.22347000000008,37.034780000000524],[44.22433968346826,37.034741427744734],[44.22445264198848,37.03487075857345],[44.22431870413766,37.034987306255346],[44.22197430000017,37.03523710000019],[44.21885150000003,37.03608750000035],[44.21838480100007,37.03604410000031],[44.218294200000116,37.035439900000085],[44.21890520000005,37.034640900000056],[44.21973270000012,37.03419630000019],[44.22141210000018,37.03348870000008],[44.22179610000012,37.033118400000035],[44.222130500000105,37.03253460000019],[44.2225686000001,37.032168500000125],[44.22601937999997,37.03027586500008],[44.22758932000005,37.028773992000254],[44.22792416400006,37.02812175000014],[44.22811867100006,37.027269150999985],[44.22873663600012,37.02590172800012],[44.23033081900013,37.02368468599997],[44.23046538700004,37.02324276000019],[44.23030910000017,37.02271740000009],[44.22910110000009,37.02119640000069],[44.22869910000003,37.02038540000001],[44.22883310000009,37.0196754000001],[44.2293701000001,37.01916840000058],[44.23151610000002,37.01825640000044],[44.23339410000017,37.01714040000047],[44.23393110000001,37.01582230000048],[44.23393110000001,37.01359130000009],[44.23473610000019,37.01217230000009],[44.23607810000004,37.01034730000009],[44.237151100000176,37.01014429999998],[44.23835810000003,37.01014429999998],[44.241980100000035,37.01085430000012],[44.24278510000005,37.010550300000546],[44.24332572999998,37.01014180600032],[44.24376799800018,37.007863679000025],[44.24412710000007,37.00669620000019],[44.24412710000007,37.005277200000194],[44.24533410000009,37.003148200000226],[44.246810100000175,37.001120200000116],[44.24828610000009,36.99939620000015],[44.25034310000012,36.999110200000075],[44.251508100000024,36.99831720000054],[44.25207810000012,36.997728200000154],[44.25269163500019,36.9968552790001],[44.25288454900016,36.99600886900009],[44.252800779000154,36.994467678000035],[44.25295396700005,36.99332512700005],[44.25437870600007,36.9897854890001],[44.25433439100004,36.98904023800003],[44.25402999400018,36.988131503000034],[44.252895100000046,36.98725700000006],[44.252226100000144,36.98655700000023],[44.251155100000176,36.98532000000006],[44.251007093000055,36.98481334000002],[44.250620137000055,36.98423653200007],[44.250724265000144,36.98326899800014],[44.25102300400005,36.98305908200018],[44.25109110000017,36.982849000000385],[44.251594100000034,36.982367000000295],[44.252466100000106,36.98223500000006],[44.25333710000001,36.981968000000165],[44.25464510000006,36.98111200000005],[44.25612010000009,36.980605000000025],[44.256858100000045,36.98058000000009],[44.25766210000012,36.98071600000014],[44.25913510000015,36.9812290000001],[44.259839100000136,36.98128400000007],[44.25996921700016,36.98122890100018],[44.26107905600003,36.9798690140002],[44.262532056,36.979296095000166],[44.263595271000156,36.97953772800014],[44.2640641000001,36.97944100000012],[44.265699766000125,36.98042443200018],[44.26569832900009,36.98010744000021],[44.265210499000034,36.978833087000055],[44.26597901000014,36.97717023100046],[44.26705689700003,36.9766974850001],[44.26745210000013,36.976118900000245],[44.268056100000194,36.97585190000018],[44.2688601000001,36.97577290000004],[44.27073610000008,36.975857900000165],[44.27214410000005,36.97564590000019],[44.27328310000013,36.97559490000009],[44.27452310000007,36.97565090000006],[44.27667833100014,36.975963471000114],[44.281677845000104,36.97567880700069],[44.285674146000076,36.97567869800059],[44.28671075800003,36.97614303900019],[44.288530100000116,36.97595090000004],[44.289636100000166,36.9756309],[44.290274099999976,36.97512190000003],[44.290274099999976,36.97445090000008],[44.291209600000116,36.973818300000175],[44.292400540000074,36.97371907000013],[44.29400558000003,36.972652057000005],[44.29432587800005,36.971735998000156],[44.295376677000036,36.9704843290001],[44.2959967000001,36.970236900000145],[44.29679233400003,36.970210122000026],[44.29824236400009,36.969928880000055],[44.300301994000165,36.96816860800004],[44.30084640000007,36.967611100000454],[44.3014100530001,36.967221297000265],[44.302625972000044,36.966503256000124],[44.30537640400007,36.9655486370001],[44.30627248700006,36.96451582100008],[44.307813338000074,36.963869695000085],[44.30857988700018,36.963199281000186],[44.309531000000106,36.96289630000007],[44.30978660000011,36.96292140000003],[44.30997280000008,36.96304430000009],[44.31031780000018,36.96414580000044],[44.31022608900014,36.96442059600008],[44.31037572399998,36.96493751400004],[44.31122350000015,36.965442100000075],[44.31183520000013,36.965367400000105],[44.31207870000003,36.965469000000496],[44.31221800000003,36.96584580000041],[44.31207110000014,36.96632700000043],[44.310801803000174,36.96820574899999],[44.30831726700012,36.969757141000116],[44.306120960000044,36.970505148000086],[44.30552946200015,36.971491894000565],[44.30585840000015,36.97252950000012],[44.30661380000015,36.973638000000165],[44.30730760000017,36.974206600000116],[44.308743200000094,36.97494790000019],[44.309961199999975,36.97525460000014],[44.31022860000007,36.975598700000546],[44.31085950000005,36.977710000000116],[44.3112347,36.978473099999974],[44.31164760000007,36.97998300000006],[44.312329900000066,36.98043120000017],[44.31305690000016,36.98054289999999],[44.31373950000017,36.980841199999986],[44.3147158000001,36.981759300000135],[44.314202337000154,36.98215201900018],[44.314322376000064,36.982780367000146],[44.31466060000014,36.98327569999998],[44.31466060000014,36.983837400000084],[44.31480740000006,36.98444700000044],[44.3152310000001,36.98485810000017],[44.31607330000014,36.98525940000019],[44.31838094100004,36.985112825000556],[44.3198067890001,36.98470994799999],[44.32046840000004,36.98443930000019],[44.3209571000001,36.98448460000003],[44.32232170000003,36.985604400000284],[44.322919200000115,36.986474799999996],[44.32350240000005,36.986940600000025],[44.324086100000045,36.98723340000009],[44.324532900000065,36.98766160000014],[44.324830600000155,36.9883976000001],[44.32557991000016,36.988737004000484],[44.326930571000105,36.98877314500004],[44.32881130000004,36.98816050000039],[44.32924000000014,36.98817680000013],[44.32956000000013,36.98907120000007],[44.32942630000008,36.99016000000063],[44.32923210000018,36.99092420000011],[44.32925870000008,36.99132670000017],[44.32891208100011,36.99193805600066],[44.32851007600016,36.993469065000056],[44.328707700000166,36.99385900000044],[44.329830100000095,36.99467980000014],[44.32989880000014,36.995128200000295],[44.32934348400016,36.99574625000008],[44.32910585900015,36.99633167900015],[44.32915550000007,36.99664220000051],[44.32990400000017,36.99769900000001],[44.329801755000176,36.997921433000215],[44.330305399999986,36.99838910000045],[44.33042660000007,36.99875980000007],[44.33081990400012,36.99935170400016],[44.33134860000018,36.9997879],[44.33208774700012,37.00072642500015],[44.33416370200001,37.00244780000003],[44.33666068200006,37.00587099500018],[44.33772880000015,37.00702740000003],[44.338017714000046,37.00842264800036],[44.33826352300008,37.008548300000086],[44.33964261300014,37.00858139200017],[44.340357100000176,37.00849200000005],[44.34252500000014,37.00991230000034],[44.34256146700005,37.010389895000685],[44.34283724200003,37.01123007600012],[44.34326650400004,37.01189631500063],[44.344117599000185,37.01268765800029],[44.34456963400004,37.01288308000011],[44.34567420000013,37.0131166000001],[44.34576503400018,37.01339987000006],[44.347413397000025,37.016128490000085],[44.34848599800006,37.016511590000164],[44.34949410000013,37.01673110000036],[44.349962500000174,37.01729950000049],[44.34990991500018,37.01744835500028],[44.349979071000064,37.01848983800039],[44.3512515000001,37.018977300000074],[44.35122104300012,37.01919110200015],[44.35148664800016,37.02002084800006],[44.353587658000095,37.02030780000035],[44.355809139000144,37.02090571299999],[44.35802433700013,37.02194733400012],[44.35956660000011,37.0222488],[44.3608933000001,37.02267910000012],[44.36134610000005,37.02310090000003],[44.361317822000046,37.02351883400047],[44.36165343200008,37.02442290100004],[44.36357026900015,37.02473040500007],[44.36602397950179,37.02450455829626],[44.36588459371711,37.024629885768036],[44.366022000000044,37.024755000000255],[44.3398702517963,37.035607092790144]]],"type":"Polygon"}},{"type":"Feature","properties":{"area_id":"TR-30-005-677799","name_tr":"Rize","area_level":"neighbourhood","parent_id":"TR-30-005","endeksa_id":677799},"geometry":{"coordinates":[[[44.274770000000046,37.06929000000025],[44.27236000000016,37.07005000000004],[44.26874000000009,37.07098000000008],[44.266280000000165,37.073150000000055],[44.26459000000011,37.07253000000043],[44.26602000000014,37.07046000000042],[44.26524000000006,37.06953000000021],[44.2618700000001,37.07057000000026],[44.261230000000126,37.07015000000035],[44.2596700000002,37.070770000000095],[44.25954000000007,37.06953000000021],[44.25825000000009,37.068810000000326],[44.25657000000018,37.068500000000256],[44.255140000000154,37.067880000000116],[44.255530000000135,37.06664000000052],[44.25152000000014,37.06602000000038],[44.24957000000012,37.06592000000012],[44.24854000000016,37.066430000000196],[44.24802000000011,37.06519000000009],[44.2464700000001,37.064570000000344],[44.24375000000009,37.06499000000042],[44.24194000000011,37.06540000000024],[44.24181000000016,37.06375000000014],[44.23961000000003,37.06199000000021],[44.23818000000006,37.0598200000004],[44.23132000000015,37.05734000000041],[44.22938000000005,37.0581700000003],[44.225740000000144,37.0566300000001],[44.22641000000016,37.05591000000021],[44.22711220100024,37.05487620408343],[44.22711220100007,37.05426240000014],[44.229182241042565,37.053132759422965],[44.22928000000013,37.052900000000534],[44.22925000000015,37.051780000000235],[44.22939765847792,37.05163454538035],[44.22948641600033,37.05163700400033],[44.23181185599998,37.047694057000115],[44.232567631999984,37.04559227200002],[44.2327553560001,37.04548606300057],[44.23293598400011,37.04499878900003],[44.23324260600026,37.04031512300082],[44.23313956000027,37.038725339000734],[44.23240727400025,37.03807563600071],[44.23100099800024,37.03711464100036],[44.23011750000012,37.036689900000454],[44.228846330000124,37.035922726000024],[44.22704809300029,37.03505759000058],[44.225924600000155,37.034808800000064],[44.22431870413766,37.034987306255346],[44.22445264198848,37.03487075857345],[44.22433968346826,37.034741427744734],[44.22347000000008,37.034780000000524],[44.23106000000013,37.03182000000004],[44.23896000000008,37.03140000000013],[44.24207000000018,37.035950000000184],[44.26701000000014,37.06370000000027],[44.273560000000145,37.0669400000001],[44.274770000000046,37.06929000000025]]],"type":"Polygon"}},{"type":"Feature","properties":{"area_id":"TR-30-005-31024","name_tr":"Güney","area_level":"neighbourhood","parent_id":"TR-30-005","endeksa_id":31024},"geometry":{"coordinates":[[[44.30609824738531,37.06660569555788],[44.30588527843173,37.066527090044985],[44.3032300000001,37.06771000000026],[44.29352000000017,37.07120000000015],[44.28619000000009,37.07289000000037],[44.284440000000075,37.073860000000366],[44.28305000000017,37.07429000000042],[44.27992000000023,37.07596000000018],[44.27890900765311,37.07703362019208],[44.27871515884431,37.077013482613154],[44.274770000000046,37.06929000000025],[44.273560000000145,37.0669400000001],[44.26701000000014,37.06370000000027],[44.24207000000018,37.035950000000184],[44.23896000000008,37.03140000000013],[44.244910000000175,37.02965000000029],[44.26539000000025,37.03312000000034],[44.2739000000002,37.031800000000146],[44.282950000000085,37.030620000000226],[44.292650000000094,37.035400000000664],[44.30167000000017,37.03777000000014],[44.303480000000036,37.0375700000003],[44.3056600000001,37.0375700000003],[44.310730000000206,37.03881000000018],[44.31567000000018,37.03881000000018],[44.317210000000046,37.03868000000011],[44.32494000000014,37.03760000000011],[44.3300900000001,37.035670000000266],[44.334090000000174,37.03544000000005],[44.338270000000136,37.03492000000006],[44.34003000000013,37.03484000000037],[44.3398702517963,37.035607092790144],[44.3380709423505,37.04504860059723],[44.322692700000005,37.05381830000016],[44.31331067563815,37.06328007673255],[44.30605050000008,37.06648150000001],[44.30609824738531,37.06660569555788]]],"type":"Polygon"}},{"type":"Feature","properties":{"area_id":"TR-30-005-31020","name_tr":"Orta","area_level":"neighbourhood","parent_id":"TR-30-005","endeksa_id":31020},"geometry":{"coordinates":[[[44.34884130000012,37.07870650000024],[44.337469400000145,37.08711720000019],[44.33248190000012,37.08983040000015],[44.32378380000006,37.0939300000004],[44.31942210000011,37.09178910000003],[44.319797700000095,37.091415600000005],[44.32155360000007,37.09015650000009],[44.321940900000186,37.08947460000053],[44.32210110000011,37.08901250000031],[44.32291450000008,37.08884539999997],[44.322569400000134,37.088122800000235],[44.32353690000008,37.08769520000038],[44.32408530000015,37.08756740000047],[44.32427630000012,37.08825550000006],[44.324559800000145,37.08823100000012],[44.324738500000194,37.087886900000115],[44.32574290000014,37.08762630000018],[44.32572440000007,37.08719870000016],[44.32545330000016,37.086648100000104],[44.325163200000134,37.086430200000166],[44.32445610000008,37.08650260000047],[44.3237704,37.086399900000174],[44.323207100000104,37.08625870000003],[44.32263850000015,37.08589920000014],[44.32220930000017,37.085342900000114],[44.321941100000174,37.08517600000016],[44.32172120000013,37.08477380000011],[44.32100420000012,37.08416490000013],[44.32075670000006,37.08359870000004],[44.31987880000008,37.0831330000002],[44.31849180000006,37.082052500000145],[44.3184404000001,37.08190730000007],[44.31826760000018,37.08183650000058],[44.3180948000001,37.08137820000013],[44.3179080000001,37.08127760000019],[44.31740370000011,37.081367000000455],[44.317277600000125,37.0811025000001],[44.31764650000014,37.07976130000014],[44.318504800000085,37.0795047000002],[44.318380900000136,37.07866610000008],[44.31849600000004,37.07850380000019],[44.31780930000008,37.07758919999998],[44.31777680000005,37.07727780000033],[44.318077600000095,37.07679130000008],[44.31850040000006,37.07657720000009],[44.318606100000125,37.076343600000484],[44.318663000000186,37.075065700000266],[44.31816780000008,37.07473260000006],[44.317969000000176,37.07502270000026],[44.31729910000013,37.07524790000042],[44.31666400000017,37.0753299000001],[44.315683300000046,37.07527770000007],[44.31474000000014,37.07564290000005],[44.31382310000015,37.0755233000001],[44.313462100000095,37.07564760000008],[44.313320500000145,37.075879100000066],[44.31340970000002,37.07680060000064],[44.31319229999997,37.077512300000194],[44.312709300000165,37.07834890000049],[44.311524000000134,37.078931400000045],[44.31070140000014,37.078721700000074],[44.30982399999999,37.07837690000014],[44.30956380000015,37.07847420000002],[44.30924456602435,37.07889457872477],[44.309229568168234,37.078747725729045],[44.3091128635715,37.07864334270005],[44.30877929814858,37.07867461361212],[44.309138900000164,37.07840100000004],[44.31022640000009,37.078018500000155],[44.31106380000011,37.07733680000024],[44.31079710000006,37.076851300000214],[44.31088879999999,37.076498800000536],[44.31050970000007,37.076029900000094],[44.31050970000007,37.07560750000033],[44.310243000000014,37.075398000000405],[44.30977220000017,37.075225100000125],[44.30945560000009,37.074869200000194],[44.30731000000003,37.07469500000013],[44.307532000000094,37.07349250000016],[44.30797620000004,37.0725917000002],[44.30785620000006,37.0711783000005],[44.30605050000008,37.06648150000001],[44.31331067563815,37.06328007673255],[44.322692700000005,37.05381830000016],[44.323215758953665,37.05352001799872],[44.323155922079536,37.053658105824695],[44.323296700057654,37.05374866411768],[44.32472400000006,37.05359300000032],[44.325378400000034,37.05405540000021],[44.328307400000085,37.05322480000041],[44.329745100000025,37.053353300000026],[44.331225600000096,37.05292510000015],[44.33188010000009,37.05297650000011],[44.332459500000084,37.05374710000012],[44.333221200000025,37.054166699999996],[44.333940000000155,37.05425229999997],[44.335045100000116,37.05504000000013],[44.33488420000015,37.05531400000007],[44.33520600000014,37.0561874000004],[44.335603000000106,37.05631579999999],[44.335774700000115,37.056495600000176],[44.33621460000006,37.05612740000004],[44.336622300000045,37.0555966],[44.33690120000006,37.05564800000053],[44.33746980000018,37.056915100000026],[44.337952600000165,37.05710349999998],[44.33816720000016,37.05753160000006],[44.33857490000014,37.05772000000019],[44.33872510000015,37.05791690000018],[44.33874660000015,37.05818230000011],[44.34019500000011,37.059355300000675],[44.340366600000095,37.060057300000494],[44.341021100000034,37.060416900000405],[44.34211540000018,37.06081930000016],[44.34254460000017,37.06136730000003],[44.342705500000136,37.06182100000041],[44.342845000000125,37.062925400000154],[44.34316680000012,37.063362100000006],[44.34334920000009,37.06392710000023],[44.343452200000115,37.064678900000104],[44.34884130000012,37.07870650000024]]],"type":"Polygon"}},{"type":"Feature","properties":{"area_id":"TR-30-005-752501","name_tr":"Gürmeşe","area_level":"neighbourhood","parent_id":"TR-30-005","endeksa_id":752501},"geometry":{"coordinates":[[[44.30877929814858,37.07867461361212],[44.30834320000025,37.07929890000025],[44.308417899999995,37.0805749000001],[44.30705500000005,37.08136900000011],[44.30667080000006,37.08149600000047],[44.30526570000018,37.08133420000058],[44.30487460000012,37.081434600000364],[44.30486880000018,37.081610000000126],[44.30450990000014,37.08167450000013],[44.304004700000064,37.0816612000001],[44.30351930000006,37.081508700000086],[44.301667899999984,37.08153440000012],[44.29579770000015,37.08245480000022],[44.29068710000007,37.08368580000047],[44.28888920000014,37.08447639999997],[44.28578880000015,37.086159100000145],[44.283920100000046,37.08880170000009],[44.28055670000015,37.09329270000006],[44.27864590000013,37.09838160000015],[44.278650344636446,37.0982242724495],[44.27853786867047,37.098312874360374],[44.278425405825544,37.098220728292745],[44.27868000000012,37.086010000000215],[44.27878961994236,37.07719057737211],[44.27871515884431,37.077013482613154],[44.27890900765311,37.07703362019208],[44.27992000000023,37.07596000000018],[44.28305000000017,37.07429000000042],[44.284440000000075,37.073860000000366],[44.28619000000009,37.07289000000037],[44.29352000000017,37.07120000000015],[44.3032300000001,37.06771000000026],[44.30588527843173,37.066527090044985],[44.30609824738531,37.06660569555788],[44.30785620000006,37.0711783000005],[44.30797620000004,37.0725917000002],[44.307532000000094,37.07349250000016],[44.30731000000003,37.07469500000013],[44.30945560000009,37.074869200000194],[44.30977220000017,37.075225100000125],[44.310243000000014,37.075398000000405],[44.31050970000007,37.07560750000033],[44.31050970000007,37.076029900000094],[44.31088879999999,37.076498800000536],[44.31079710000006,37.076851300000214],[44.31106380000011,37.07733680000024],[44.31022640000009,37.078018500000155],[44.309138900000164,37.07840100000004],[44.30877929814858,37.07867461361212]]],"type":"Polygon"}},{"type":"Feature","properties":{"area_id":"TR-30-005-31021","name_tr":"Merkez","area_level":"neighbourhood","parent_id":"TR-30-005","endeksa_id":31021},"geometry":{"coordinates":[[[44.31210390000018,37.09368640000014],[44.31193400000018,37.09309930000023],[44.31177830000007,37.09290730000015],[44.311523500000135,37.09282820000004],[44.31116950000012,37.09291290000044],[44.31049710000008,37.0933533000001],[44.31007950000003,37.093342000000064],[44.309782200000086,37.093178300000375],[44.30942120000009,37.092715300000066],[44.30893280000015,37.09244990000013],[44.308430200000146,37.09249510000018],[44.30758259999999,37.09299150000004],[44.307325100000185,37.0930343],[44.30634880000008,37.092692000000284],[44.30564070000008,37.09254650000014],[44.305104300000096,37.09230680000002],[44.30431030000017,37.0908649000001],[44.30310870000005,37.09103610000005],[44.30229330000009,37.09194329999997],[44.30158520000009,37.092200000000105],[44.30124190000009,37.09213150000045],[44.30085560000015,37.09235400000006],[44.30029770000016,37.09353500000003],[44.29868840000006,37.09498989999997],[44.29662850000011,37.095879900000114],[44.29564140000019,37.09524660000011],[44.293860400000085,37.095058300000176],[44.29263740000016,37.09522950000013],[44.2909851,37.09569160000012],[44.28974060000007,37.09615370000017],[44.28750900000017,37.097232000000076],[44.28461220000014,37.09777960000008],[44.27864590000013,37.09838160000015],[44.28055670000015,37.09329270000006],[44.283920100000046,37.08880170000009],[44.28578880000015,37.086159100000145],[44.28888920000014,37.08447639999997],[44.29068710000007,37.08368580000047],[44.29579770000015,37.08245480000022],[44.301667899999984,37.08153440000012],[44.30351930000006,37.081508700000086],[44.304004700000064,37.0816612000001],[44.30450990000014,37.08167450000013],[44.30486880000018,37.081610000000126],[44.30487460000012,37.081434600000364],[44.30526570000018,37.08133420000058],[44.30667080000006,37.08149600000047],[44.30705500000005,37.08136900000011],[44.308417899999995,37.0805749000001],[44.30834320000025,37.07929890000025],[44.30877929814858,37.07867461361212],[44.3091128635715,37.07864334270005],[44.309229568168234,37.078747725729045],[44.30924456602435,37.07889457872477],[44.30956380000015,37.07847420000002],[44.30982399999999,37.07837690000014],[44.31070140000014,37.078721700000074],[44.311524000000134,37.078931400000045],[44.312709300000165,37.07834890000049],[44.31319229999997,37.077512300000194],[44.31340970000002,37.07680060000064],[44.313320500000145,37.075879100000066],[44.313462100000095,37.07564760000008],[44.31382310000015,37.0755233000001],[44.31474000000014,37.07564290000005],[44.315683300000046,37.07527770000007],[44.31666400000017,37.0753299000001],[44.31729910000013,37.07524790000042],[44.317969000000176,37.07502270000026],[44.31816780000008,37.07473260000006],[44.318663000000186,37.075065700000266],[44.318606100000125,37.076343600000484],[44.31850040000006,37.07657720000009],[44.318077600000095,37.07679130000008],[44.31777680000005,37.07727780000033],[44.31780930000008,37.07758919999998],[44.31849600000004,37.07850380000019],[44.318380900000136,37.07866610000008],[44.318504800000085,37.0795047000002],[44.31764650000014,37.07976130000014],[44.317277600000125,37.0811025000001],[44.31740370000011,37.081367000000455],[44.3179080000001,37.08127760000019],[44.3180948000001,37.08137820000013],[44.31826760000018,37.08183650000058],[44.3184404000001,37.08190730000007],[44.31849180000006,37.082052500000145],[44.31987880000008,37.0831330000002],[44.32075670000006,37.08359870000004],[44.32100420000012,37.08416490000013],[44.32172120000013,37.08477380000011],[44.321941100000174,37.08517600000016],[44.32220930000017,37.085342900000114],[44.32263850000015,37.08589920000014],[44.323207100000104,37.08625870000003],[44.3237704,37.086399900000174],[44.32445610000008,37.08650260000047],[44.325163200000134,37.086430200000166],[44.32545330000016,37.086648100000104],[44.32572440000007,37.08719870000016],[44.32574290000014,37.08762630000018],[44.324738500000194,37.087886900000115],[44.324559800000145,37.08823100000012],[44.32427630000012,37.08825550000006],[44.32408530000015,37.08756740000047],[44.32353690000008,37.08769520000038],[44.322569400000134,37.088122800000235],[44.32291450000008,37.08884539999997],[44.32210110000011,37.08901250000031],[44.321940900000186,37.08947460000053],[44.32155360000007,37.09015650000009],[44.319797700000095,37.091415600000005],[44.31942210000011,37.09178910000003],[44.31870320000013,37.092336800000055],[44.31834920000017,37.09248229999997],[44.3179093,37.09250790000033],[44.317394300000046,37.092833100000234],[44.31728700000002,37.093064200000526],[44.31813460000018,37.094099700000584],[44.31776980000018,37.09469020000006],[44.31685790000006,37.09564010000014],[44.31638580000009,37.09587120000043],[44.31597810000011,37.09633330000065],[44.315709900000115,37.096418800000265],[44.315334400000154,37.09575990000013],[44.31467990000016,37.09514380000064],[44.31389720000004,37.09486890000028],[44.31347000000005,37.09438660000052],[44.31311610000006,37.094155100000194],[44.31259230000006,37.09400260000018],[44.31210390000018,37.09368640000014]]],"type":"Polygon"}},{"type":"Feature","properties":{"area_id":"TR-30-005-31022","name_tr":"Hacıbey","area_level":"neighbourhood","parent_id":"TR-30-005","endeksa_id":31022},"geometry":{"coordinates":[[[44.39803000000006,37.05858000000012],[44.38457000000011,37.063860000000034],[44.383520000000146,37.065250000000106],[44.38431000000014,37.07382000000007],[44.38166000000007,37.07863000000066],[44.37689000000012,37.08433000000048],[44.371720000000096,37.09243000000009],[44.36933000000005,37.09424000000047],[44.36916000000019,37.094220000000234],[44.3667200000001,37.10130000000004],[44.36542000000014,37.101650000000404],[44.36059000000023,37.10201000000035],[44.3555773354405,37.10348488014938],[44.35553240000007,37.102741900000126],[44.35008290000019,37.09461190000019],[44.345687100000134,37.08729979999998],[44.34884130000012,37.07870650000024],[44.343452200000115,37.064678900000104],[44.34334920000009,37.06392710000023],[44.34316680000012,37.063362100000006],[44.342845000000125,37.062925400000154],[44.342705500000136,37.06182100000041],[44.34254460000017,37.06136730000003],[44.34211540000018,37.06081930000016],[44.341021100000034,37.060416900000405],[44.340366600000095,37.060057300000494],[44.34019500000011,37.059355300000675],[44.33874660000015,37.05818230000011],[44.33872510000015,37.05791690000018],[44.33857490000014,37.05772000000019],[44.33816720000016,37.05753160000006],[44.337952600000165,37.05710349999998],[44.33746980000018,37.056915100000026],[44.33690120000006,37.05564800000053],[44.336622300000045,37.0555966],[44.33621460000006,37.05612740000004],[44.335774700000115,37.056495600000176],[44.335603000000106,37.05631579999999],[44.33520600000014,37.0561874000004],[44.33488420000015,37.05531400000007],[44.335045100000116,37.05504000000013],[44.333940000000155,37.05425229999997],[44.333221200000025,37.054166699999996],[44.332459500000084,37.05374710000012],[44.33188010000009,37.05297650000011],[44.331225600000096,37.05292510000015],[44.329745100000025,37.053353300000026],[44.328307400000085,37.05322480000041],[44.325378400000034,37.05405540000021],[44.32472400000006,37.05359300000032],[44.323296700057654,37.05374866411768],[44.323155922079536,37.053658105824695],[44.323215758953665,37.05352001799872],[44.3380709423505,37.04504860059723],[44.3398702517963,37.035607092790144],[44.366022000000044,37.024755000000255],[44.36588459371711,37.024629885768036],[44.36602397950179,37.02450455829626],[44.36675538200018,37.02460517100002],[44.36696500000011,37.02444820000045],[44.36719300000016,37.02446970000045],[44.36733310000017,37.024643600000275],[44.367406500000016,37.024951200000146],[44.36727335100011,37.025383913000155],[44.366910221000126,37.025840842000036],[44.36389113300004,37.028175348000104],[44.36305661500012,37.02903279800017],[44.362177917000054,37.03159725699999],[44.36122545900014,37.03169812800007],[44.359147104000044,37.031287158],[44.357235204999995,37.031822740999985],[44.35665327700019,37.03276546800009],[44.355316460000154,37.03420034100026],[44.35490050000004,37.03550520000016],[44.351600981000104,37.03791164600011],[44.350667300000055,37.039061517000164],[44.34955383700003,37.040079549000154],[44.34948490000011,37.04022800000013],[44.34974850000009,37.04098400000015],[44.349618900000166,37.04208770000014],[44.349678200000085,37.04284430000007],[44.34928263300014,37.04377261600064],[44.34930522000013,37.04435364900013],[44.350864528000045,37.045133647],[44.35154347700018,37.045222975000115],[44.3520752,37.04512380000017],[44.35382840000011,37.04560730000003],[44.35403691800013,37.04575651400012],[44.35521380000017,37.04611040000009],[44.35565010000005,37.0463812000001],[44.35534839700006,37.04706931100014],[44.35531689300012,37.047761235000166],[44.355858798999975,37.04889935700004],[44.35679252700015,37.050461107000444],[44.35868399800006,37.05223028100028],[44.359303932000046,37.05238858100023],[44.36044312900003,37.05194200500023],[44.363235100000054,37.05190870000058],[44.36437006000017,37.05200991400011],[44.364926844000024,37.05222876500051],[44.365720100000146,37.05287270000008],[44.368245535000085,37.05522274100025],[44.369145100000026,37.055562800000075],[44.37196610000018,37.05535980000013],[44.373309100000085,37.05515680000002],[44.37398010000004,37.05515680000002],[44.37505510000017,37.0556138],[44.37579410000018,37.05617180000053],[44.37659910000019,37.05723780000062],[44.37767410000015,37.05810080000026],[44.378681100000165,37.0586588000001],[44.37961488000013,37.05886045700032],[44.381017947000146,37.059011295000005],[44.382039100000156,37.05896380000007],[44.38318110000017,37.05911580000003],[44.38425510000019,37.05911580000003],[44.384725100000026,37.05881080000006],[44.3860681000001,37.05733880000008],[44.387881100000186,37.0558678000001],[44.38848610000014,37.05525880000016],[44.38909010000003,37.05515680000002],[44.39076910000006,37.05454780000008],[44.39110510000012,37.05424280000011],[44.391441100000065,37.05353270000012],[44.39196727700016,37.05295345200034],[44.39171016600011,37.05221519600036],[44.392195629000014,37.051622400000156],[44.392045100000075,37.05145170000043],[44.391911100000186,37.05084270000049],[44.391978100000074,37.05048670000019],[44.392717100000084,37.05003070000009],[44.39338810000004,37.04987770000008],[44.394866100000115,37.04977670000039],[44.395336100000065,37.04982769999998],[44.39594010000013,37.05008070000014],[44.39605439900009,37.0503182220001],[44.396706816000176,37.05049307100006],[44.398156100000165,37.05454780000008],[44.398425100000054,37.0556648000005],[44.39876030000005,37.0562249000003],[44.3995046,37.05649500000027],[44.40023810000014,37.05617180000053],[44.400775100000146,37.054953800000135],[44.40064117575389,37.05437879191771],[44.40073798652611,37.05451079886052],[44.400923595070424,37.054562615134444],[44.40110273864934,37.05450677920817],[44.40119657227291,37.05436396521253],[44.40097000000014,37.05595000000011],[44.400660000000244,37.05657000000008],[44.40011000000021,37.057230000000686],[44.399240000000134,37.05740000000054],[44.399080000000254,37.0581700000003],[44.39803000000006,37.05858000000012]]],"type":"Polygon"}},{"type":"Feature","properties":{"area_id":"TR-30-005-602169","name_tr":"Vapurtepe","area_level":"neighbourhood","parent_id":"TR-30-005","endeksa_id":602169},"geometry":{"coordinates":[[[44.35759635234882,37.13118484701448],[44.346960700000125,37.1345391000001],[44.33423630000016,37.13571940000003],[44.3273913000001,37.13751560000014],[44.3200528000001,37.14068010000017],[44.312542600000086,37.141535300000385],[44.30619120000017,37.14577720000017],[44.303814699999975,37.147916500000065],[44.30255580000011,37.147380100000134],[44.30098929999997,37.14650780000005],[44.30028120000003,37.14392510000005],[44.3024056000001,37.1374593000001],[44.30225540000015,37.13410649999997],[44.30315660000008,37.12818740000051],[44.304250900000056,37.125980400000515],[44.30669710000012,37.12346550000012],[44.307265500000085,37.12051750000006],[44.307788500000186,37.11881950000026],[44.30945100000008,37.11718100000007],[44.31279480000012,37.11411250000003],[44.31303760000014,37.11359110000001],[44.312813400000095,37.112920800000154],[44.31053450000019,37.111237500000186],[44.314214400000026,37.109211500000015],[44.31507370000003,37.10784100000018],[44.31533519999999,37.10626180000003],[44.31563410000007,37.102656500000194],[44.31344860000007,37.09981090000008],[44.31158060000007,37.098216700000194],[44.311913300000015,37.09766530000019],[44.31204890000009,37.09767510000012],[44.31209820000004,37.097517800000105],[44.31199960000009,37.09746870000009],[44.31217090000001,37.09730830000018],[44.31237340000007,37.09655880000048],[44.31149570000014,37.094706900000006],[44.31142970000019,37.094119700000135],[44.31193030000003,37.09351440000012],[44.31210390000018,37.09368640000014],[44.31259230000006,37.09400260000018],[44.31311610000006,37.094155100000194],[44.31347000000005,37.09438660000052],[44.31389720000004,37.09486890000028],[44.31467990000016,37.09514380000064],[44.315334400000154,37.09575990000013],[44.315709900000115,37.096418800000265],[44.31597810000011,37.09633330000065],[44.31638580000009,37.09587120000043],[44.31685790000006,37.09564010000014],[44.31776980000018,37.09469020000006],[44.31813460000018,37.094099700000584],[44.31728700000002,37.093064200000526],[44.317394300000046,37.092833100000234],[44.3179093,37.09250790000033],[44.31834920000017,37.09248229999997],[44.31870320000013,37.092336800000055],[44.31942210000011,37.09178910000003],[44.32378380000006,37.0939300000004],[44.33248190000012,37.08983040000015],[44.337469400000145,37.08711720000019],[44.34884130000012,37.07870650000024],[44.345687100000134,37.08729979999998],[44.35008290000019,37.09461190000019],[44.35553240000007,37.102741900000126],[44.3555773354405,37.10348488014938],[44.35539000000017,37.103540000000294],[44.35759635234882,37.13118484701448]]],"type":"Polygon"}},{"type":"Feature","properties":{"area_id":"TR-30-005-31025","name_tr":"Balkaya","area_level":"neighbourhood","parent_id":"TR-30-005","endeksa_id":31025},"geometry":{"coordinates":[[[44.278425405825544,37.098220728292745],[44.2784200000001,37.09848000000028],[44.27204000000012,37.095610000000136],[44.26531000000017,37.09417000000036],[44.25469000000004,37.09272000000033],[44.24563000000006,37.09376000000054],[44.23967000000005,37.0960300000001],[44.2329400000001,37.097060000000056],[44.22879000000006,37.0960300000001],[44.221030000000155,37.09458000000018],[44.21274000000011,37.09541000000013],[44.209630000000175,37.094990000000166],[44.19500000000011,37.092420000000516],[44.19464023954953,37.09204555900408],[44.19441210901903,37.09209373813695],[44.19343795700007,37.09050169400007],[44.19264624800002,37.08790362800022],[44.19244137900023,37.085921065000036],[44.192724319000206,37.084654099000204],[44.19323126800032,37.08356889100065],[44.19311011800005,37.082756924000705],[44.19244452600003,37.0817163910005],[44.19260473200035,37.08081831999999],[44.1939768540002,37.079505748000315],[44.19424320000036,37.07890150000003],[44.194914200000255,37.07839450000017],[44.195536499000355,37.07778287400038],[44.19621956600031,37.076778732000605],[44.19655160700029,37.07669989300024],[44.1967667720001,37.07612986600003],[44.196962359,37.07113097200016],[44.210342544000184,37.05710238500052],[44.2154576480001,37.050271501000566],[44.22939765847792,37.05163454538035],[44.22925000000015,37.051780000000235],[44.22928000000013,37.052900000000534],[44.229182241042565,37.053132759422965],[44.22711220100007,37.05426240000014],[44.22711220100024,37.05487620408343],[44.22641000000016,37.05591000000021],[44.225740000000144,37.0566300000001],[44.22938000000005,37.0581700000003],[44.23132000000015,37.05734000000041],[44.23818000000006,37.0598200000004],[44.23961000000003,37.06199000000021],[44.24181000000016,37.06375000000014],[44.24194000000011,37.06540000000024],[44.24375000000009,37.06499000000042],[44.2464700000001,37.064570000000344],[44.24802000000011,37.06519000000009],[44.24854000000016,37.066430000000196],[44.24957000000012,37.06592000000012],[44.25152000000014,37.06602000000038],[44.255530000000135,37.06664000000052],[44.255140000000154,37.067880000000116],[44.25657000000018,37.068500000000256],[44.25825000000009,37.068810000000326],[44.25954000000007,37.06953000000021],[44.2596700000002,37.070770000000095],[44.261230000000126,37.07015000000035],[44.2618700000001,37.07057000000026],[44.26524000000006,37.06953000000021],[44.26602000000014,37.07046000000042],[44.26459000000011,37.07253000000043],[44.266280000000165,37.073150000000055],[44.26874000000009,37.07098000000008],[44.27236000000016,37.07005000000004],[44.274770000000046,37.06929000000025],[44.27871515884431,37.077013482613154],[44.27878961994236,37.07719057737211],[44.27868000000012,37.086010000000215],[44.278425405825544,37.098220728292745]]],"type":"Polygon"}},{"type":"Feature","properties":{"area_id":"TR-30-005-31023","name_tr":"Üçyan","area_level":"neighbourhood","parent_id":"TR-30-005","endeksa_id":31023},"geometry":{"coordinates":[[[44.303814699999975,37.147916500000065],[44.30254330000014,37.1490611000001],[44.29694290000003,37.15046360000014],[44.27670830000005,37.158758000000034],[44.275232700000174,37.162068300000385],[44.272642800000085,37.164811799999995],[44.27209017800004,37.16422307200014],[44.26585676200011,37.162073985000234],[44.25298141100018,37.15877620000049],[44.23924487700015,37.159875003000366],[44.236314079000124,37.160602818000086],[44.23498570000004,37.16135000000014],[44.23366249999998,37.16138110000037],[44.233612041000185,37.1612738940002],[44.23152530200008,37.161792154000125],[44.22442760000007,37.159831600000416],[44.221437865999974,37.15891988400011],[44.21831616000014,37.14737793800009],[44.21369786400015,37.13743293400006],[44.212681700000076,37.13647990000061],[44.20979916600015,37.13500790500041],[44.20478753500015,37.13316432700009],[44.20448311400014,37.13283359700063],[44.20430326200017,37.12914716400019],[44.202928204000045,37.12594769300006],[44.20276449800019,37.12388907800016],[44.202614591000156,37.12319517800046],[44.20049068700007,37.11963902400021],[44.200053324000066,37.119185549000065],[44.19514880100007,37.116499586000145],[44.19064129900016,37.11200201800017],[44.1887741540001,37.111185838000495],[44.18783435100005,37.11022553200007],[44.1847628590001,37.10925936000007],[44.183827710000116,37.10627923600009],[44.183500753000146,37.10579548500027],[44.1832842120001,37.10436187900012],[44.1842496110001,37.09674839400003],[44.19441210901903,37.09209373813695],[44.19464023954953,37.09204555900408],[44.19500000000011,37.092420000000516],[44.209630000000175,37.094990000000166],[44.21274000000011,37.09541000000013],[44.221030000000155,37.09458000000018],[44.22879000000006,37.0960300000001],[44.2329400000001,37.097060000000056],[44.23967000000005,37.0960300000001],[44.24563000000006,37.09376000000054],[44.25469000000004,37.09272000000033],[44.26531000000017,37.09417000000036],[44.27204000000012,37.095610000000136],[44.2784200000001,37.09848000000028],[44.278425405825544,37.098220728292745],[44.27853786867047,37.098312874360374],[44.278650344636446,37.0982242724495],[44.27864590000013,37.09838160000015],[44.28461220000014,37.09777960000008],[44.28750900000017,37.097232000000076],[44.28974060000007,37.09615370000017],[44.2909851,37.09569160000012],[44.29263740000016,37.09522950000013],[44.293860400000085,37.095058300000176],[44.29564140000019,37.09524660000011],[44.29662850000011,37.095879900000114],[44.29868840000006,37.09498989999997],[44.30029770000016,37.09353500000003],[44.30085560000015,37.09235400000006],[44.30124190000009,37.09213150000045],[44.30158520000009,37.092200000000105],[44.30229330000009,37.09194329999997],[44.30310870000005,37.09103610000005],[44.30431030000017,37.0908649000001],[44.305104300000096,37.09230680000002],[44.30564070000008,37.09254650000014],[44.30634880000008,37.092692000000284],[44.307325100000185,37.0930343],[44.30758259999999,37.09299150000004],[44.308430200000146,37.09249510000018],[44.30893280000015,37.09244990000013],[44.30942120000009,37.092715300000066],[44.309782200000086,37.093178300000375],[44.31007950000003,37.093342000000064],[44.31049710000008,37.0933533000001],[44.31116950000012,37.09291290000044],[44.311523500000135,37.09282820000004],[44.31177830000007,37.09290730000015],[44.31193400000018,37.09309930000023],[44.31210390000018,37.09368640000014],[44.31193030000003,37.09351440000012],[44.31142970000019,37.094119700000135],[44.31149570000014,37.094706900000006],[44.31237340000007,37.09655880000048],[44.31217090000001,37.09730830000018],[44.31199960000009,37.09746870000009],[44.31209820000004,37.097517800000105],[44.31204890000009,37.09767510000012],[44.311913300000015,37.09766530000019],[44.31158060000007,37.098216700000194],[44.31344860000007,37.09981090000008],[44.31563410000007,37.102656500000194],[44.31533519999999,37.10626180000003],[44.31507370000003,37.10784100000018],[44.314214400000026,37.109211500000015],[44.31053450000019,37.111237500000186],[44.312813400000095,37.112920800000154],[44.31303760000014,37.11359110000001],[44.31279480000012,37.11411250000003],[44.30945100000008,37.11718100000007],[44.307788500000186,37.11881950000026],[44.307265500000085,37.12051750000006],[44.30669710000012,37.12346550000012],[44.304250900000056,37.125980400000515],[44.30315660000008,37.12818740000051],[44.30225540000015,37.13410649999997],[44.3024056000001,37.1374593000001],[44.30028120000003,37.14392510000005],[44.30098929999997,37.14650780000005],[44.30255580000011,37.147380100000134],[44.303814699999975,37.147916500000065]]],"type":"Polygon"}},{"type":"Feature","properties":{"area_id":"TR-30-005-2049462","name_tr":"Uslu Köyü","area_level":"neighbourhood","parent_id":"TR-30-005","endeksa_id":2049462},"geometry":{"coordinates":[[[44.393540000000144,37.117110000000196],[44.39258016700006,37.11841964700011],[44.389965147000055,37.12198771900012],[44.38954514900013,37.12756545000002],[44.389267742000186,37.13124952600003],[44.38909810900009,37.133502312000076],[44.385997195000186,37.137254094000184],[44.38220295900015,37.14184472300013],[44.37780960900005,37.14435000200007],[44.370536182000194,37.14849762600005],[44.37072315349502,37.15095842519753],[44.36548000000016,37.14060000000012],[44.35775000000007,37.13311000000067],[44.35759635234882,37.13118484701448],[44.35539000000017,37.103540000000294],[44.3555773354405,37.10348488014938],[44.36059000000023,37.10201000000035],[44.36542000000014,37.101650000000404],[44.3667200000001,37.10130000000004],[44.36916000000019,37.094220000000234],[44.36933000000005,37.09424000000047],[44.371720000000096,37.09243000000009],[44.37689000000012,37.08433000000048],[44.38166000000007,37.07863000000066],[44.38431000000014,37.07382000000007],[44.383520000000146,37.065250000000106],[44.38457000000011,37.063860000000034],[44.39803000000006,37.05858000000012],[44.39814000000007,37.06103000000036],[44.400040000000104,37.065260000000194],[44.402270000000044,37.06870000000043],[44.405060000000105,37.07023000000004],[44.40878000000009,37.07246000000032],[44.40934000000004,37.074180000000524],[44.40920000000017,37.07655000000051],[44.40845000000013,37.077520000000106],[44.40971000000013,37.083380000000034],[44.408220000000085,37.087650000000224],[44.40724000000023,37.089700000000164],[44.40618000000006,37.0914200000002],[44.406080000000145,37.092670000000055],[44.406730000000096,37.09379000000018],[44.40699000000012,37.09562000000028],[44.40601000000021,37.09813000000031],[44.404940000000124,37.10120000000012],[44.404250000000104,37.10245000000049],[44.40202000000011,37.104130000000225],[44.40062000000012,37.10557000000017],[44.398670000000266,37.10654000000068],[44.39630000000005,37.10724000000033],[44.39482000000021,37.107470000000205],[44.39193000000017,37.10719000000046],[44.392170000000135,37.11091000000005],[44.39272000000017,37.11430000000041],[44.39321000000018,37.115720000000124],[44.393540000000144,37.117110000000196]]],"type":"Polygon"}},{"type":"Feature","properties":{"area_id":"TR-30-005-2015308","name_tr":"Gelişen Köyü","area_level":"neighbourhood","parent_id":"TR-30-005","endeksa_id":2015308},"geometry":{"coordinates":[[[44.52474725050689,37.12010295861893],[44.474840000000086,37.1585800000006],[44.470850000000155,37.14262000000025],[44.466670000000136,37.13323000000014],[44.46342000000021,37.12831000000017],[44.450220000000115,37.12766000000022],[44.43456000000009,37.12357000000003],[44.43048000000016,37.12455000000011],[44.425130000000195,37.12315000000012],[44.421970000000044,37.12334000000021],[44.41895000000011,37.12403000000029],[44.41719000000012,37.125940000000185],[44.4132800000001,37.12506000000042],[44.41115000000008,37.12134000000026],[44.40748000000019,37.12022000000013],[44.4059000000002,37.118690000000186],[44.40557000000007,37.115620000000206],[44.40302000000008,37.114970000000426],[44.4006500000001,37.11493000000013],[44.397440000000074,37.11604000000017],[44.39609000000013,37.11665000000016],[44.393540000000144,37.117110000000196],[44.39321000000018,37.115720000000124],[44.39272000000017,37.11430000000041],[44.392170000000135,37.11091000000005],[44.39193000000017,37.10719000000046],[44.39482000000021,37.107470000000205],[44.39630000000005,37.10724000000033],[44.398670000000266,37.10654000000068],[44.40062000000012,37.10557000000017],[44.40202000000011,37.104130000000225],[44.404250000000104,37.10245000000049],[44.404940000000124,37.10120000000012],[44.40601000000021,37.09813000000031],[44.40699000000012,37.09562000000028],[44.406730000000096,37.09379000000018],[44.406080000000145,37.092670000000055],[44.40618000000006,37.0914200000002],[44.40724000000023,37.089700000000164],[44.408220000000085,37.087650000000224],[44.40971000000013,37.083380000000034],[44.40845000000013,37.077520000000106],[44.40920000000017,37.07655000000051],[44.40934000000004,37.074180000000524],[44.40878000000009,37.07246000000032],[44.405060000000105,37.07023000000004],[44.402270000000044,37.06870000000043],[44.400040000000104,37.065260000000194],[44.39814000000007,37.06103000000036],[44.39803000000006,37.05858000000012],[44.399080000000254,37.0581700000003],[44.399240000000134,37.05740000000054],[44.40011000000021,37.057230000000686],[44.400660000000244,37.05657000000008],[44.40097000000014,37.05595000000011],[44.40119657227291,37.05436396521253],[44.40110273864934,37.05450677920817],[44.400923595070424,37.054562615134444],[44.40073798652611,37.05451079886052],[44.40064117575389,37.05437879191771],[44.40030509999997,37.052821700000095],[44.40017110000008,37.0516547000002],[44.40097709999998,37.051502700000015],[44.402054921000115,37.05178760399997],[44.40333291400003,37.05184441600005],[44.40339967700032,37.051907430000654],[44.40453610000014,37.051552700000116],[44.40574510000016,37.051552700000116],[44.410983100000124,37.05261869999998],[44.41158710000019,37.05261869999998],[44.41299810000004,37.05231470000007],[44.41440810000017,37.0524157000001],[44.41514610000013,37.05277070000017],[44.41548210000002,37.05317770000005],[44.41568410000008,37.053684700000076],[44.41581810000014,37.05449680000049],[44.416422100000034,37.05490280000015],[44.4172281000001,37.05510580000043],[44.41803410000017,37.05551180000009],[44.41857110000018,37.05612080000003],[44.41890710000007,37.05688280000038],[44.41928452700017,37.058971550000365],[44.41974853100015,37.05932753800033],[44.420552296000324,37.06106622000084],[44.42355380000015,37.06134110000016],[44.42463680000009,37.06178910000011],[44.42519810000016,37.062359200000174],[44.427302100000134,37.063328800000136],[44.42971910000011,37.06383590000013],[44.43133110000008,37.06454689999998],[44.4328751000001,37.06556190000049],[44.43448710000007,37.06606990000006],[44.435226100000136,37.06617090000043],[44.435763100000145,37.0661199000001],[44.43979210000009,37.06520690000025],[44.44153910000006,37.06515590000015],[44.442076100000065,37.06540990000019],[44.44294910000019,37.066475900000114],[44.44395609999998,37.06723690000052],[44.44603810000012,37.06830290000062],[44.44677710000019,37.06921590000013],[44.44731410000003,37.0697239000001],[44.447515100000146,37.07038390000014],[44.447985100000096,37.07104390000006],[44.44845609999999,37.07129689999999],[44.448926100000165,37.07129689999999],[44.45040310000019,37.07058690000008],[44.45114210000003,37.07058690000008],[44.45261910000005,37.07084090000029],[44.45362610000001,37.070890900000165],[44.454701100000136,37.07129689999999],[44.4560441000001,37.071652900000686],[44.45651410000005,37.07195690000026],[44.45718610000006,37.072108900000046],[44.457924100000184,37.072515900000326],[44.45873010000008,37.07322600000009],[44.45913310000003,37.07327700000042],[44.45973810000004,37.07358100000016],[44.46061110000011,37.07383500000003],[44.46202110000007,37.07383500000003],[44.463565100000096,37.073328000000004],[44.46504310000017,37.073378000000105],[44.46584910000007,37.073784000000444],[44.466789100000085,37.07408900000013],[44.467662100000155,37.074800000000664],[44.46880410000017,37.07617000000033],[44.46893810000006,37.07657599999999],[44.46927410000012,37.07703300000014],[44.47009834600033,37.07769987800026],[44.47074171900033,37.077796587000535],[44.470976877000055,37.07861022899999],[44.47122110000015,37.07875800000005],[44.47243010000017,37.07906300000025],[44.47444510000008,37.07921500000003],[44.47565309999999,37.07906300000025],[44.476728100000116,37.07921500000003],[44.47817020000008,37.08001790000003],[44.47961610000016,37.08337710000018],[44.481276200000025,37.084841000000154],[44.4819897000001,37.08620610000008],[44.48226860000011,37.08709620000002],[44.48313770000004,37.08819170000061],[44.483636600000125,37.088414200000045],[44.48488110000005,37.08873950000009],[44.485995100000025,37.08855410000007],[44.486533100000145,37.088250100000096],[44.488883100000066,37.087336100000186],[44.48975610000019,37.08723510000033],[44.49143510000005,37.087742100000355],[44.493467994000184,37.088959993000174],[44.49451758100025,37.089789254000095],[44.49600745300023,37.09063801300027],[44.49674010000018,37.090940100000125],[44.498150100000146,37.09185420000006],[44.50042999400034,37.092742868000585],[44.503175845000214,37.09503309100063],[44.50477751800031,37.09529322200024],[44.505259300000034,37.0952850000001],[44.50602400000025,37.09554579999997],[44.506872564000275,37.09602326800058],[44.5077075340003,37.09682859800006],[44.50982144700032,37.097983905000206],[44.510337800000116,37.09912510000004],[44.510485741000025,37.099652456000115],[44.51189743000003,37.10141131900008],[44.51364964500033,37.10222273600016],[44.51628405900033,37.1021210160003],[44.51697720000021,37.10229330000067],[44.51731030000008,37.10268450000035],[44.517353656000296,37.10297480600025],[44.517214356000295,37.103644697000334],[44.51604686500025,37.104439804000094],[44.51580902700027,37.10520863800048],[44.516839767000306,37.10682739800012],[44.51704037500019,37.107760462000044],[44.51659315800009,37.10852713700069],[44.51521491100016,37.10919909700016],[44.51491566000021,37.109747402000494],[44.514656098000216,37.11065897200007],[44.514082355000085,37.11147200200037],[44.514284764000365,37.11295704000014],[44.51482012900021,37.1132723190002],[44.51803110000003,37.11367140000027],[44.51866815500006,37.113985795000076],[44.51999022600029,37.114371207000204],[44.520480027000076,37.114860870000086],[44.52099037000028,37.115061474000356],[44.521812100000034,37.115252399999974],[44.522690100000034,37.11520140000039],[44.52336510000015,37.115406400000154],[44.52374474500016,37.11563856200013],[44.52422899300029,37.11570714100026],[44.52467299200032,37.1161699750005],[44.52479200000022,37.11657030000032],[44.52474725050689,37.12010295861893]]],"type":"Polygon"}},{"type":"Feature","properties":{"area_id":"TR-30-005-2015314","name_tr":"Ortaklar Köyü","area_level":"neighbourhood","parent_id":"TR-30-005","endeksa_id":2015314},"geometry":{"coordinates":[[[44.43604000000016,37.21192000000008],[44.436000000000206,37.21223000000015],[44.43525000000017,37.21265000000011],[44.43536153967966,37.21267041249098],[44.43524480000008,37.21275610000015],[44.43444800000003,37.21280790000003],[44.43313080000013,37.213066900000115],[44.432610400000044,37.2133778000001],[44.43013860000019,37.21532030000003],[44.42960199999999,37.215527600000144],[44.42858060000003,37.21560520000003],[44.42804400000006,37.21548860000047],[44.427604900000176,37.21511310000017],[44.42716580000007,37.214569200000426],[44.426499100000115,37.214206500000614],[44.42558409600008,37.213314012000126],[44.424433800000145,37.212782000000345],[44.42353940000004,37.212626500000624],[44.42311660000007,37.21234160000017],[44.42259510000008,37.21170886100009],[44.42198498000005,37.211904115000095],[44.418291318000115,37.20991689400006],[44.417278599999975,37.20962190000017],[44.416969600000186,37.20938870000009],[44.41685060000009,37.20845010000039],[44.41760160000007,37.206997500000284],[44.417687500000056,37.206638600000076],[44.417472900000064,37.206211300000064],[44.41734636600012,37.20612883900009],[44.41635710000014,37.20593790000004],[44.410928300000194,37.204177500000185],[44.410005600000034,37.2041092000004],[44.40766670000016,37.20469029999998],[44.40627200000006,37.204878300000075],[44.404426600000136,37.204878300000075],[44.402795800000035,37.2046048000002],[44.40200190000007,37.20426299999997],[44.39977030000017,37.20286150000004],[44.39796790000008,37.20275900000024],[44.397259800000086,37.20298120000018],[44.3964658000001,37.20337430000035],[44.39479210000019,37.20356230000027],[44.39406260000004,37.20344260000013],[44.393440300000066,37.20320340000006],[44.391444700000136,37.20171640000012],[44.39069370000004,37.20151130000039],[44.38981400000006,37.20142590000006],[44.38886980000012,37.20152840000003],[44.38637380000017,37.20232340000007],[44.38540240000009,37.202487100000155],[44.384356300000036,37.20251690000009],[44.38301140000016,37.20242760000053],[44.38220810000013,37.2021598000004],[44.38121810000007,37.20141580000012],[44.38082580000014,37.200493300000176],[44.38060170000006,37.19964520000053],[44.38024669999999,37.199228600000026],[44.37929410000004,37.19863340000012],[44.37750080000018,37.1978448000001],[44.37667890000006,37.19765140000004],[44.374736100000064,37.197517500000345],[44.374157100000104,37.197190100000114],[44.37355930000018,37.196327100000076],[44.37318570000019,37.19595510000039],[44.37274425705522,37.19583421724627],[44.37279067434213,37.19565328739969],[44.37267345657756,37.19550628409115],[44.37211522048949,37.19550970816124],[44.37144772554484,37.19571088946094],[44.370488258479554,37.19606997678068],[44.36973993891894,37.19605994798883],[44.36841736540265,37.195729541012724],[44.36703049634002,37.19546927171291],[44.364386936832545,37.19541020469251],[44.362230179573544,37.19560994414661],[44.36155010996026,37.195559945636944],[44.36121904148132,37.1954290398192],[44.361029999916866,37.19523992203091],[44.36060439328537,37.19445776549833],[44.3596585498704,37.19370472515499],[44.35805403600017,37.19312370200009],[44.35631720100008,37.19335295000002],[44.35520710000014,37.194517200000064],[44.35460540000014,37.19489290000007],[44.35371100000003,37.19508720000016],[44.35120670000009,37.19453020000009],[44.35005210000014,37.194763300000545],[44.34850720000003,37.19546279999997],[44.34735260000008,37.196175300000164],[44.34653950000012,37.197004300000515],[44.3456614000001,37.19739290000018],[44.343466000000035,37.19747070000005],[44.341709700000195,37.19714680000004],[44.34026240000014,37.197159800000236],[44.3389777000001,37.19693960000012],[44.33819719999997,37.19693960000012],[44.33699380000007,37.19710800000007],[44.336213200000145,37.19701730000003],[44.33535130000007,37.197237500000085],[44.33393650000005,37.19796290000011],[44.332798200000184,37.19820900000036],[44.33151350000014,37.19819610000036],[44.330716700000096,37.197975900000074],[44.33032640000016,37.197548400000414],[44.33006620000009,37.19669350000038],[44.32915560000009,37.195268500000054],[44.32928560000016,37.19366220000006],[44.329204300000185,37.19287200000019],[44.32892790000005,37.19258700000006],[44.328472600000055,37.192600000000255],[44.327561900000035,37.19289790000039],[44.32657780000011,37.19298050000015],[44.32604790000016,37.19288230000052],[44.32426090000013,37.1917926000001],[44.3238295000001,37.191341000000534],[44.32366930000018,37.19086970000012],[44.32360770000008,37.19031990000025],[44.32368160000016,37.18996650000014],[44.32413760000003,37.189210500000115],[44.32385420000003,37.188415200000065],[44.32223970000018,37.18678540000019],[44.321845300000064,37.186608700000136],[44.321130500000095,37.18650070000007],[44.32074850000009,37.18634360000004],[44.320366400000125,37.18597050000062],[44.319479100000024,37.184605700000134],[44.3193189000001,37.184065700000076],[44.31915870000017,37.182789200000116],[44.31897380000015,37.18261250000006],[44.31873790000003,37.182614400000034],[44.31747330000019,37.1831299000001],[44.31705970000007,37.1830204000006],[44.31649310000006,37.18258060000045],[44.31550600000014,37.182101900000134],[44.31445460000015,37.181725800000095],[44.31361780000003,37.18105910000014],[44.312995500000056,37.17984530000007],[44.3123303000001,37.17948620000021],[44.311472000000094,37.179469100000574],[44.308088000000055,37.18036370000016],[44.30677080000015,37.1804932000004],[44.30594150000013,37.18083010000021],[44.30490070000013,37.1815297],[44.30369730000007,37.182618100000354],[44.302851700000076,37.18318810000062],[44.30158330000012,37.1837582],[44.300249800000074,37.18403030000013],[44.29576149999997,37.184639200000106],[44.29509480000007,37.184859400000164],[44.294216600000084,37.18558490000015],[44.29320840000014,37.18678980000004],[44.29221640000014,37.18774850000011],[44.290574000000106,37.18886260000011],[44.289289300000064,37.18961400000046],[44.288216000000034,37.190067400000316],[44.28619950000018,37.1904042000001],[44.28561410000009,37.190650400000095],[44.28517500000015,37.19101310000008],[44.28363020000006,37.1934356000001],[44.282914600000026,37.19432940000053],[44.281922700000166,37.19504190000015],[44.279360100000076,37.19647720000006],[44.27818330000002,37.197042600000486],[44.27762290000004,37.197161600000015],[44.27702510000012,37.197131900000045],[44.27560290000008,37.19665459999999],[44.27606070000007,37.19421610000006],[44.27663230000013,37.193908900000054],[44.27750108900017,37.193714840000155],[44.28065073800008,37.190767294000125],[44.280911884000034,37.19027465800059],[44.28103790000017,37.1884933890002],[44.28152398000003,37.187085385000046],[44.28140280000014,37.18600190000001],[44.28099270000013,37.18518410000007],[44.28051679100014,37.18473184600009],[44.27965300000017,37.184141800000305],[44.27899720000005,37.18329680000005],[44.27849500000008,37.18189950000004],[44.27837780000016,37.180928000000165],[44.27853750000003,37.180513700000176],[44.28057151600012,37.17841058000039],[44.28072702500009,37.17770216500048],[44.28062675500013,37.1764593800001],[44.279901825000195,37.17518350100028],[44.279204955000125,37.17460803500012],[44.278854799999976,37.17358130000014],[44.2788656350001,37.173095975000024],[44.27685167700008,37.16977397900018],[44.275647765000144,37.165512879000005],[44.27356829500019,37.16478099600016],[44.272642800000085,37.164811799999995],[44.275232700000174,37.162068300000385],[44.27670830000005,37.158758000000034],[44.29694290000003,37.15046360000014],[44.30254330000014,37.1490611000001],[44.30619120000017,37.14577720000017],[44.312542600000086,37.141535300000385],[44.3200528000001,37.14068010000017],[44.3273913000001,37.13751560000014],[44.33423630000016,37.13571940000003],[44.346960700000125,37.1345391000001],[44.35759635234882,37.13118484701448],[44.35775000000007,37.13311000000067],[44.36548000000016,37.14060000000012],[44.37081000000012,37.15113000000025],[44.38412000000022,37.14821000000023],[44.395420000000115,37.1479200000004],[44.39983000000012,37.15207000000055],[44.41245000000015,37.1572000000001],[44.42669000000012,37.15758000000028],[44.43838000000011,37.157530000000406],[44.44791000000015,37.15557000000024],[44.445270000000164,37.165560000000085],[44.44784000000021,37.1704400000001],[44.45006000000018,37.171350000000075],[44.447370000000035,37.18217000000004],[44.4473900000001,37.18251000000032],[44.446970000000135,37.18306000000035],[44.44676000000021,37.18353000000013],[44.44615000000016,37.18388000000016],[44.445790000000045,37.184730000000116],[44.444770000000176,37.18639000000019],[44.443990000000156,37.18683000000033],[44.444240000000036,37.187580000000196],[44.44405000000012,37.188380000000166],[44.44269000000003,37.18959000000007],[44.442100000000096,37.18969000000038],[44.44190000000003,37.19032000000061],[44.4408200000002,37.19069000000013],[44.440620000000195,37.19191000000018],[44.440750000000094,37.19404000000003],[44.44030000000021,37.19463000000053],[44.440370000000144,37.19528000000031],[44.43999000000014,37.19676000000004],[44.44015000000019,37.197770000000276],[44.439810000000136,37.19835000000012],[44.43962000000005,37.19906000000043],[44.438760000000116,37.19951000000003],[44.43847000000011,37.1998600000004],[44.43850000000009,37.20041000000003],[44.438020000000165,37.201580000000035],[44.438020000000165,37.20200000000068],[44.43841000000015,37.2028600000001],[44.43841000000015,37.20317000000017],[44.43699000000004,37.20442000000054],[44.436500000000194,37.20499000000012],[44.43647000000021,37.20544000000041],[44.436710000000176,37.20642000000032],[44.43651000000011,37.20701000000025],[44.4358400000001,37.20779000000016],[44.435880000000054,37.20897000000042],[44.43615000000017,37.20983000000052],[44.43577000000016,37.211430000000064],[44.43604000000016,37.21192000000008]]],"type":"Polygon"}},{"type":"Feature","properties":{"area_id":"TR-30-005-2754069","name_tr":"Ulaşan Köyü","area_level":"neighbourhood","parent_id":"TR-30-005","endeksa_id":2754069},"geometry":{"coordinates":[[[44.393540000000144,37.117110000000196],[44.39609000000013,37.11665000000016],[44.397440000000074,37.11604000000017],[44.4006500000001,37.11493000000013],[44.40302000000008,37.114970000000426],[44.40557000000007,37.115620000000206],[44.4059000000002,37.118690000000186],[44.40748000000019,37.12022000000013],[44.41115000000008,37.12134000000026],[44.4132800000001,37.12506000000042],[44.41719000000012,37.125940000000185],[44.41895000000011,37.12403000000029],[44.421970000000044,37.12334000000021],[44.425130000000195,37.12315000000012],[44.43048000000016,37.12455000000011],[44.43456000000009,37.12357000000003],[44.450220000000115,37.12766000000022],[44.46342000000021,37.12831000000017],[44.466670000000136,37.13323000000014],[44.470850000000155,37.14262000000025],[44.474840000000086,37.1585800000006],[44.4691200000002,37.17012000000045],[44.45006000000018,37.171350000000075],[44.44784000000021,37.1704400000001],[44.445270000000164,37.165560000000085],[44.44791000000015,37.15557000000024],[44.43838000000011,37.157530000000406],[44.42669000000012,37.15758000000028],[44.41245000000015,37.1572000000001],[44.39983000000012,37.15207000000055],[44.395420000000115,37.1479200000004],[44.38412000000022,37.14821000000023],[44.37081000000012,37.15113000000025],[44.37072315349502,37.15095842519753],[44.370536182000194,37.14849762600005],[44.37780960900005,37.14435000200007],[44.38220295900015,37.14184472300013],[44.385997195000186,37.137254094000184],[44.38909810900009,37.133502312000076],[44.389267742000186,37.13124952600003],[44.38954514900013,37.12756545000002],[44.389965147000055,37.12198771900012],[44.39258016700006,37.11841964700011],[44.393540000000144,37.117110000000196]]],"type":"Polygon"}}]}