{"type":"FeatureCollection","source_id":"endeksa","retrieved_at":"2026-08-23","features":[{"type":"Feature","properties":{"area_id":"TR-32-001-2015851","name_tr":"Yukarıyaylabel Köyü","area_level":"neighbourhood","parent_id":"TR-32-001","endeksa_id":2015851},"geometry":{"coordinates":[[[31.226780000000076,37.599109999999904],[31.22667,37.59879],[31.22668,37.59844],[31.227049999999878,37.59707000000023],[31.22695,37.59679],[31.226744954309172,37.5965718673419],[31.22648000000021,37.59629000000052],[31.22648,37.59629],[31.22656,37.5959],[31.227490000000003,37.59525999999991],[31.22738,37.59474],[31.2275,37.59409],[31.22817,37.59401],[31.228828,37.594033],[31.22902,37.59404],[31.229770000000023,37.59362000000015],[31.230422,37.593424],[31.23057,37.59338],[31.230997,37.593063],[31.23281,37.59172],[31.232949,37.591494],[31.233130000000077,37.59120000000002],[31.23365,37.5911],[31.234040000000018,37.59060000000016],[31.235440000000146,37.58964000000006],[31.235566,37.58942],[31.235669999999995,37.58924000000004],[31.2354,37.58866],[31.235112,37.588278],[31.234850000000023,37.58793000000014],[31.23493,37.58764],[31.236320000000056,37.58700999999991],[31.23701,37.58644],[31.237228,37.586334],[31.23736000000009,37.58627000000006],[31.237612,37.586247],[31.23803000001696,37.58620999999313],[31.238630000000146,37.585960000000114],[31.238778,37.585984],[31.23906,37.58603],[31.23906000000011,37.586030000000164],[31.239380000000104,37.586340000000035],[31.2397,37.58605],[31.239768,37.585881],[31.239890000000045,37.58558000000013],[31.240228,37.585213],[31.24024,37.5852],[31.241540000000057,37.584639999999986],[31.24317,37.58285],[31.243612,37.582571],[31.243630000000106,37.582560000000086],[31.245310000000014,37.58225000000013],[31.24548,37.582142],[31.24561000000009,37.58205999999995],[31.245908,37.581637],[31.246039997449234,37.58144999706698],[31.245813,37.581189],[31.245640000000094,37.5809900000001],[31.24564,37.58099],[31.24555,37.5805],[31.245709996774483,37.579810013911796],[31.24571,37.57981],[31.245937,37.579343],[31.24607,37.57907],[31.246469999999857,37.57853999999988],[31.247220000000173,37.57794000000012],[31.2473,37.57751],[31.247048,37.577404],[31.246070000000145,37.57699000000025],[31.245718,37.576768],[31.245500000000085,37.57663000000007],[31.245120000000146,37.57625000000011],[31.245020000000125,37.57592000000051],[31.24502,37.57592],[31.245128,37.575768],[31.24534,37.57547],[31.24534,37.5741],[31.244915,37.573459],[31.24487,37.57339],[31.24481,37.57292000000014],[31.24495,37.57236],[31.244779998822988,37.57173999894323],[31.244379,37.57138],[31.24429000000015,37.57130000000052],[31.244160000000097,37.57103000000007],[31.24449,37.57031],[31.245180000000026,37.56938000000016],[31.244180000000085,37.56886000000043],[31.243976,37.568704],[31.24337,37.56824],[31.24212,37.56706],[31.241610000000122,37.566020000000115],[31.241602,37.566011],[31.241577630023226,37.56598300586131],[31.24140651883073,37.565787450092444],[31.241409190697016,37.56578951650216],[31.241407,37.565787],[31.242626465509492,37.56673093330437],[31.247368381,37.57039789300006],[31.248964277000084,37.573261547000186],[31.25553516299999,37.57225258100004],[31.259540513000104,37.563170778000256],[31.259565913000074,37.55743625000042],[31.258726691000106,37.55527742900006],[31.25873888449645,37.555248355343025],[31.258766,37.555183],[31.258766318811862,37.555182942034406],[31.25876643500004,37.55518266500002],[31.25877921078223,37.555180598040906],[31.258799,37.555177],[31.258887391183727,37.555163095769124],[31.25888756900008,37.555163067000365],[31.258888,37.555163],[31.260355646813203,37.555562794556586],[31.262695319000045,37.5561997930007],[31.26441835314856,37.561946288001984],[31.266245,37.568036],[31.266353,37.568082],[31.266401403125315,37.568103121366015],[31.266408069042207,37.568105977191635],[31.266632,37.568032],[31.268466,37.567428],[31.270684184403024,37.56698139726847],[31.275040334000153,37.56610386200015],[31.279459378000013,37.56569186800016],[31.286621574000037,37.56600184000001],[31.298223863000146,37.56749068900001],[31.300059650000094,37.56917859500004],[31.30047818244588,37.56918008259843],[31.300833,37.569181],[31.30206578043815,37.569185711997754],[31.302927604000047,37.56918875900004],[31.30509172400025,37.569922814999984],[31.3050916581968,37.569922884069086],[31.305092,37.569923],[31.305689,37.569295],[31.30579,37.569188],[31.305812,37.569189],[31.306213,37.569189],[31.306216,37.569195],[31.306341,37.569401],[31.306361,37.569539],[31.306484,37.570395],[31.308354,37.571029],[31.31013,37.571632],[31.310692,37.571687],[31.311355,37.57148],[31.313295,37.574843],[31.313397,37.57502],[31.317735,37.576441],[31.321694,37.580335],[31.321942,37.5844],[31.321977,37.584964],[31.327391,37.590274],[31.327429,37.590311],[31.327551,37.59043],[31.327615,37.590235],[31.327914,37.589824],[31.328375,37.589191],[31.328621,37.588851],[31.328119,37.589982],[31.327445,37.59064],[31.327011,37.591064],[31.324185,37.594936],[31.323074,37.595703],[31.322001,37.596444],[31.321463,37.596816],[31.321148,37.597034],[31.320618,37.597482],[31.320166,37.597864],[31.32004,37.597914],[31.319643,37.598072],[31.31963,37.598081],[31.319576,37.598117],[31.319755,37.598451],[31.320081,37.599062],[31.31987,37.599188],[31.319827,37.599214],[31.319606,37.599346],[31.319378,37.599617],[31.319118,37.599925],[31.319068,37.599991],[31.319035,37.600034],[31.318791,37.600534],[31.31858,37.600965],[31.318484,37.601572],[31.317815,37.602836],[31.317589,37.6031],[31.31755,37.603145],[31.317549,37.603145],[31.317542,37.603146],[31.317474,37.603224],[31.31715,37.60327],[31.31591,37.60392],[31.315185,37.604208],[31.31513,37.60423],[31.315128,37.604233],[31.315093,37.604271],[31.314992,37.604386],[31.314937,37.604447],[31.314934,37.604448],[31.31486,37.60453],[31.314579,37.604609],[31.314144,37.60473],[31.31391,37.605107],[31.313894,37.605361],[31.313934,37.606004],[31.313939,37.606094],[31.314087,37.606868],[31.314038,37.606965],[31.313914,37.607212],[31.313872,37.607328],[31.313843,37.607477],[31.313823,37.60758],[31.313597,37.607996],[31.313498,37.608117],[31.313459,37.608166],[31.313312,37.608394],[31.313009,37.608867],[31.312958,37.608906],[31.312956,37.60891],[31.312933,37.608946],[31.312504,37.609279],[31.311973,37.609896],[31.31197,37.609898],[31.3119,37.60998],[31.309751,37.611202],[31.308381,37.612195],[31.30818,37.61234],[31.307747,37.612476],[31.30707,37.61223],[31.306127,37.612102],[31.30494,37.61121],[31.30451,37.6111],[31.30301,37.61136],[31.302672,37.611504],[31.302214,37.611863],[31.300871,37.61137],[31.299961,37.611223],[31.29982,37.6112],[31.299812,37.611196],[31.29849,37.6105],[31.297832,37.610523],[31.29674,37.61056],[31.294394,37.611133],[31.294126,37.611245],[31.293928,37.611482],[31.293909,37.611647],[31.293886,37.611845],[31.293904,37.612031],[31.293828,37.612055],[31.293825,37.612108],[31.293698,37.612147],[31.29314,37.61232],[31.29213,37.6122],[31.29134,37.61267],[31.29058,37.61345],[31.28997,37.61339],[31.28896,37.61282],[31.28847,37.612675],[31.280789,37.621387],[31.280316,37.622689],[31.280198,37.622837],[31.280037,37.623039],[31.279686,37.62325],[31.278749,37.623701],[31.277677,37.627882],[31.277677,37.627915],[31.277542,37.627899],[31.277533,37.6279],[31.276916,37.627828],[31.276175,37.627817],[31.274116,37.628238],[31.272743,37.629908],[31.261015,37.627779],[31.245017,37.625375],[31.24531,37.62512],[31.24696,37.62467],[31.247432,37.624676],[31.247518,37.624526],[31.247417,37.624268],[31.24723,37.62411],[31.24736,37.62358],[31.247795,37.623351],[31.247848,37.62316],[31.247249,37.622773],[31.24598,37.6225],[31.246033,37.622409],[31.24668,37.62241],[31.247675,37.621861],[31.24773,37.6216],[31.24752,37.62093],[31.248198,37.620639],[31.24903,37.62004],[31.249008,37.619562],[31.249586937505068,37.61930002827926],[31.246458143033323,37.61658116976605],[31.242831,37.613429],[31.24277487055119,37.613295317987],[31.24268000000012,37.613070000000505],[31.241460000000128,37.61206000000008],[31.240340000000174,37.60989000000029],[31.24034,37.60989],[31.24045,37.60949],[31.24055,37.609396],[31.240779999999926,37.60917999999998],[31.24063000000014,37.60884000000005],[31.239906,37.608744],[31.239650000000076,37.608709999999846],[31.239100000000168,37.6082800000001],[31.23850000000011,37.608190000000135],[31.237730000000226,37.608240000000194],[31.237270000000137,37.60795000000036],[31.23727,37.60795],[31.237444,37.607234],[31.23754,37.60684],[31.237605,37.605835],[31.23763000000008,37.6054500000003],[31.237475,37.605042],[31.23741000000003,37.60486999999989],[31.236800000000187,37.60452000000009],[31.235955,37.604262],[31.23595,37.60426],[31.23518000000007,37.603500000000224],[31.234570000000247,37.603280000000495],[31.23457,37.60328],[31.234110000000058,37.602579999999975],[31.233993,37.60253],[31.23376000000019,37.60243000000037],[31.232900000000086,37.60250000000008],[31.23258000000004,37.602320000000645],[31.232473,37.602152],[31.23239000000018,37.60202000000015],[31.23109000000005,37.60168000000027],[31.23095690819302,37.60160477430588],[31.23086,37.60155],[31.230710000000045,37.601260000000366],[31.23071,37.60126],[31.23069000000015,37.60094000000016],[31.23054,37.600706],[31.230530000000147,37.60069000000009],[31.230120000000113,37.600610000000415],[31.229320000000143,37.600650000000314],[31.22906,37.60051],[31.228792,37.599997],[31.228570000000104,37.59957000000048],[31.22825000000008,37.59928000000006],[31.22790000000009,37.59927000000039],[31.22749009632387,37.59938997180783],[31.22749,37.59939],[31.227248,37.599333],[31.227110000000096,37.5993000000002],[31.226833,37.599141],[31.226780000000076,37.599109999999904]]],"type":"Polygon"}},{"type":"Feature","properties":{"area_id":"TR-32-001-2015839","name_tr":"Eldere Köyü","area_level":"neighbourhood","parent_id":"TR-32-001","endeksa_id":2015839},"geometry":{"coordinates":[[[31.19419,37.66794],[31.19695,37.66241],[31.20015,37.65689],[31.19963,37.65114],[31.197420000000147,37.643280000000125],[31.196602977841497,37.64168248911254],[31.19428,37.63714],[31.19161,37.63014],[31.19167,37.6277],[31.1918,37.62629],[31.19431,37.62668],[31.197006,37.627317],[31.19816,37.62759],[31.19963,37.62756],[31.2005,37.627328],[31.20237,37.62683],[31.202758,37.626751],[31.20494,37.62631],[31.20659,37.62579],[31.20789,37.62584],[31.21112,37.62564],[31.211321,37.625642],[31.21283,37.62566],[31.2135,37.625854],[31.21428,37.62608],[31.214280000000258,37.62608000000051],[31.214810000000227,37.626580000000104],[31.21480000000034,37.62725999999997],[31.21743,37.62662],[31.217834,37.626569],[31.21839,37.6265],[31.21935,37.62663],[31.219491,37.6267],[31.22067,37.62729],[31.22267,37.62846],[31.22447,37.62913],[31.22565,37.62935],[31.22643,37.6297],[31.227634,37.630615],[31.2281,37.63097],[31.22885,37.6313],[31.2312,37.63206],[31.23303,37.63296],[31.233908,37.633044],[31.23397,37.63305],[31.23463,37.63224],[31.23525,37.6317],[31.23658,37.63088],[31.23742,37.62935],[31.237939994359053,37.62759001909532],[31.23794,37.62759],[31.23872,37.6264],[31.238879,37.625816],[31.23893,37.62563],[31.239331,37.625133],[31.23977,37.62459],[31.23955,37.62333],[31.24046,37.62248],[31.24154,37.62183],[31.241814,37.621373],[31.24325,37.61898],[31.243028,37.618412],[31.24293000000023,37.61816000000101],[31.242913,37.618022],[31.24285,37.61751],[31.242901,37.617375],[31.24301,37.61709],[31.243409,37.616894],[31.24354,37.61683],[31.24372999993527,37.616539999865296],[31.243482,37.616024],[31.24324,37.61552],[31.24323000000008,37.61486000000034],[31.24287000000021,37.61439000000047],[31.24287,37.61439],[31.242906,37.61385],[31.24292,37.61364],[31.242831,37.613429],[31.242831249020632,37.61342921642446],[31.24283118544082,37.613429065421656],[31.246458143033323,37.61658116976605],[31.249587,37.6193],[31.249586937505068,37.61930002827926],[31.249587271962696,37.61930031890097],[31.249008012942408,37.6195622812041],[31.249029862516455,37.620037012877305],[31.249029981000376,37.620039541001006],[31.24903,37.62004],[31.248543906281277,37.6203899659893],[31.248198400000376,37.62063904800095],[31.247520000000407,37.620930000000556],[31.247730000000388,37.62160000000057],[31.247675,37.621861],[31.24668,37.62241],[31.246679632000507,37.62241000000057],[31.246032812000294,37.62240935000034],[31.245980005347782,37.622500001150634],[31.247248828000522,37.622772912000585],[31.247248946375667,37.62277298846426],[31.247249,37.622773],[31.247416844821775,37.62288144135623],[31.247848112000383,37.623160013000415],[31.247831317007904,37.62322012183436],[31.247795,37.623351],[31.24736002488449,37.62357998689978],[31.24736000000047,37.62358000000057],[31.24723000075835,37.624110000640826],[31.247417265000536,37.62426817100044],[31.247517987000492,37.62452595300044],[31.247518,37.624526],[31.247432,37.624676],[31.246961707406335,37.624670021707765],[31.2469600000004,37.624670001000425],[31.24531000000053,37.62512000000049],[31.245017287974544,37.625375043294284],[31.261015,37.627779],[31.272743,37.629908],[31.274116,37.628238],[31.276175,37.627817],[31.276916,37.627828],[31.277533,37.6279],[31.274238,37.628232],[31.274133,37.628243],[31.272749,37.629905],[31.272441,37.633012],[31.272333,37.634107],[31.272336,37.63411],[31.272948,37.634444],[31.273469,37.634728],[31.27451,37.635628],[31.274683,37.635887],[31.274868,37.636163],[31.275117,37.637129],[31.275449,37.637681],[31.275802,37.638269],[31.278052,37.639319],[31.278496,37.639388],[31.278991,37.639465],[31.279422,37.639462],[31.279979,37.639459],[31.280414,37.639753],[31.280514,37.639821],[31.280515,37.639821],[31.28148,37.640797],[31.281482,37.640799],[31.281763,37.641049],[31.284249,37.642208],[31.28428,37.64222],[31.284312,37.642233],[31.284406,37.642322],[31.284965,37.642852],[31.284981,37.642895],[31.284983,37.6429],[31.284985,37.642901],[31.28678,37.644682],[31.293281,37.651129],[31.293221,37.652916],[31.293222,37.652934],[31.293223,37.652946],[31.29359,37.654586],[31.293114,37.656098],[31.293135,37.656133],[31.29314,37.656141],[31.293199,37.6562],[31.294173,37.657167],[31.294315,37.658524],[31.293308,37.657344],[31.292266,37.656122],[31.27991,37.65389],[31.27592,37.65493],[31.272907,37.654487],[31.272734,37.654462],[31.272728,37.654465],[31.261187,37.65938],[31.261178,37.659384],[31.261102,37.659394],[31.248201,37.661055],[31.246022,37.662648],[31.24545,37.66332],[31.244948,37.663434],[31.242626,37.665132],[31.24202,37.666147],[31.24182,37.66724],[31.241534,37.667648],[31.24149,37.66771],[31.240944,37.668051],[31.240844,37.668113],[31.239853,37.669771],[31.239852,37.669772],[31.24005,37.6711],[31.23838,37.672235],[31.238376,37.672242],[31.236308,37.675706],[31.23627,37.67577],[31.234508,37.676357],[31.231456,37.677373],[31.230847,37.680288],[31.23102,37.68178],[31.23082,37.68225],[31.230434,37.682685],[31.23034,37.68279],[31.228552,37.683759],[31.22855,37.68376],[31.224602,37.685157],[31.214558,37.692978],[31.214129,37.696218],[31.214045,37.69638],[31.214042,37.696387],[31.21404,37.69639],[31.21044,37.69324],[31.209383,37.692864],[31.20328,37.69069],[31.203291,37.690632],[31.204297,37.685208],[31.204617,37.685424],[31.20645,37.67821],[31.20608999999995,37.67540000000021],[31.194190000000333,37.66794000000027],[31.19419,37.66794]]],"type":"Polygon"}},{"type":"Feature","properties":{"area_id":"TR-32-001-2015841","name_tr":"Karacahisar Köyü","area_level":"neighbourhood","parent_id":"TR-32-001","endeksa_id":2015841},"geometry":{"coordinates":[[[31.129480000000115,37.655970000000195],[31.12948,37.65597],[31.133116,37.65221],[31.133300000000087,37.65202000000004],[31.13384,37.651645],[31.1382,37.64862],[31.13869,37.64654],[31.14615,37.64579],[31.146343,37.645682],[31.147370000000095,37.6451099999999],[31.147100000000005,37.64448000000013],[31.14674000000007,37.643180000000015],[31.146704,37.642806],[31.1467,37.64276],[31.14612204956625,37.64144303235176],[31.146090000000072,37.64137000000011],[31.14609,37.64137],[31.14576,37.64006],[31.145698,37.639491],[31.14565,37.63905],[31.14582,37.63838],[31.14651,37.63702],[31.14653,37.63677],[31.14634,37.63604],[31.146337,37.635869],[31.146330000000034,37.63536000000022],[31.14731000000013,37.63378],[31.14762,37.63365],[31.148,37.63312],[31.148048,37.631262],[31.14805000000005,37.63120000000002],[31.150744,37.630109],[31.1513600000001,37.62986000000015],[31.165569956972003,37.63042999827691],[31.16557,37.63043],[31.16932,37.62893],[31.170683,37.628448],[31.17594,37.62659],[31.175940000000196,37.62659000000008],[31.17782880729299,37.626618846100456],[31.1871,37.62676],[31.19167,37.6277],[31.191670000000386,37.6277000000004],[31.191610000000367,37.630140000000495],[31.194280000000333,37.63714000000044],[31.196602977841497,37.64168248911254],[31.19742,37.64328],[31.19742000000042,37.64328000000057],[31.199630000000298,37.651140000000055],[31.20015000000035,37.656890000001],[31.196950000000243,37.66241000000031],[31.194190000000358,37.66794000000026],[31.20609,37.6754],[31.2060900000003,37.67540000000059],[31.206450000000245,37.678210000000206],[31.204617483309676,37.685424450568746],[31.204467999982903,37.68532342525255],[31.20429725658442,37.685208173195356],[31.203743679237867,37.68819141117802],[31.203291,37.690632],[31.203280000000557,37.69069000000005],[31.2032800142992,37.690690005094005],[31.21044,37.69324],[31.210440000000347,37.693240000000344],[31.21064501513567,37.69341939836963],[31.21404,37.69639],[31.214040000000296,37.69639000000075],[31.214540000000113,37.70163000000019],[31.206160000000068,37.700080000000526],[31.204400000000078,37.7000500000002],[31.20293000000015,37.69982000000033],[31.201210000000117,37.70077000000009],[31.200810000000047,37.70116000000036],[31.200440000000185,37.701380000000086],[31.20044,37.70138],[31.20023449875403,37.701341944795836],[31.199630000000127,37.701230000000464],[31.197930000000156,37.70137000000068],[31.193926309967466,37.701315534899834],[31.19352,37.70131],[31.193075737883486,37.701240504566435],[31.19026000000025,37.70080000000041],[31.189370000000093,37.700569999999914],[31.18843000000011,37.700450000000075],[31.188060000000153,37.70029000000016],[31.185810000000117,37.70040000000017],[31.184250000000134,37.70032000000049],[31.182950000000062,37.700140000000374],[31.18069000000014,37.7000500000002],[31.180140000000108,37.69991000000016],[31.17905000000013,37.69898000000046],[31.17778000000004,37.698400000000106],[31.175340000000148,37.697470000000095],[31.174660000000188,37.69752000000045],[31.173810000000174,37.6979500000005],[31.172890000000056,37.69803000000011],[31.17183000000017,37.69765000000041],[31.16936000000004,37.6973500000006],[31.164380000000108,37.697200000000294],[31.157680000000035,37.696690000000025],[31.156800000000203,37.6966700000001],[31.155419999999964,37.696880000000135],[31.154690000000244,37.697230000000104],[31.15309000000014,37.69404000000013],[31.14900000000005,37.688000000000045],[31.1484,37.686873],[31.147670000000062,37.68550000000016],[31.147353,37.685277],[31.14669000000015,37.684810000000425],[31.145150000000115,37.68212000000028],[31.143730000000232,37.68086000000045],[31.143420000000162,37.680380000000525],[31.139660000000106,37.67732000000029],[31.139135,37.676399],[31.139090000000127,37.676320000000004],[31.13898,37.676155],[31.137380000000064,37.673750000000496],[31.13738,37.67375],[31.137379503180515,37.673748744885636],[31.137190000000146,37.67327000000057],[31.136600000000044,37.67253000000045],[31.13612000000012,37.67169000000058],[31.13612,37.67169],[31.136077,37.670572],[31.136030000000048,37.66934000000016],[31.13591,37.66894],[31.135740000000112,37.666470000000686],[31.13574,37.66647],[31.135799999999968,37.66609],[31.13578319592636,37.665919862087975],[31.13564,37.66447],[31.13521,37.66402],[31.132551,37.660285],[31.129480000000115,37.655970000000195]]],"type":"Polygon"}},{"type":"Feature","properties":{"area_id":"TR-32-001-2015843","name_tr":"Katip Köyü","area_level":"neighbourhood","parent_id":"TR-32-001","endeksa_id":2015843},"geometry":{"coordinates":[[[31.217304650455674,37.70614449240691],[31.217279182000425,37.70600485400047],[31.216995988000463,37.70600729200049],[31.203839840000455,37.708441690000654],[31.19820575300048,37.712851592000845],[31.18080282400041,37.718522526000754],[31.175570673000493,37.722900302000596],[31.164572851000514,37.728935801000546],[31.15486372300046,37.73065765300055],[31.15104000315074,37.72853999431214],[31.149700000000166,37.72773000000035],[31.148210000000176,37.72646000000043],[31.147470000000055,37.7251200000004],[31.146700000000124,37.723340000000235],[31.146400000000142,37.722910000000184],[31.14637000000016,37.722570000000076],[31.14647000000008,37.72211000000004],[31.146730000000105,37.72172000000046],[31.146760000000086,37.721450000000175],[31.14668000000006,37.72103000000021],[31.14607000000018,37.72051000000016],[31.14740000000012,37.720180000000255],[31.14742000000018,37.719680000000096],[31.147690000000125,37.71902000000017],[31.147480000000144,37.71874000000008],[31.147140000000093,37.718510000000606],[31.145950000000028,37.71703000000036],[31.146240000000034,37.71677000000017],[31.146860000000174,37.717140000000256],[31.14764000000008,37.717330000000345],[31.14773000000008,37.716840000000275],[31.14659000000006,37.7152500000002],[31.146640000000104,37.71490000000034],[31.146540000000186,37.713990000000365],[31.146200000000135,37.713340000000585],[31.146440000000098,37.71298000000013],[31.14619000000016,37.710390000000245],[31.146530000000098,37.70902000000018],[31.14646000000016,37.708470000000375],[31.146730000000105,37.707890000000134],[31.148010000000113,37.70700000000039],[31.148740000000146,37.706180000000074],[31.14923000000016,37.705440000000635],[31.15009000000009,37.7050900000001],[31.153200000000027,37.70298000000031],[31.15387000000004,37.70182000000028],[31.15449000000018,37.70000000000033],[31.154690000000244,37.697230000000104],[31.15542000000005,37.69688000000008],[31.156800000000203,37.6966700000001],[31.15768000000014,37.69669000000016],[31.164380000000108,37.697200000000294],[31.16936000000004,37.6973500000006],[31.17183000000017,37.69765000000041],[31.17289000000011,37.69803000000019],[31.173810000000174,37.6979500000005],[31.174660000000188,37.69752000000045],[31.17534000000012,37.69747000000007],[31.17778000000004,37.698400000000106],[31.17905000000013,37.69898000000046],[31.180140000000108,37.69991000000016],[31.18069000000014,37.7000500000002],[31.182950000000062,37.700140000000374],[31.184250000000134,37.70032000000049],[31.185810000000117,37.70040000000017],[31.18806000000012,37.700290000000166],[31.188430000000153,37.700450000000046],[31.18937000000011,37.70057000000003],[31.19026000000025,37.70080000000041],[31.19352000000015,37.70131000000015],[31.197930000000156,37.70137000000068],[31.199630000000127,37.701230000000464],[31.200440000000185,37.701380000000086],[31.200810000000047,37.70116000000036],[31.201210000000117,37.70077000000009],[31.20293000000015,37.69982000000033],[31.204400000000078,37.7000500000002],[31.206160000000068,37.700080000000526],[31.214540000000113,37.70163000000019],[31.215310000000045,37.70344000000017],[31.21724000000023,37.705530000000294],[31.217304650455674,37.70614449240691]]],"type":"Polygon"}},{"type":"Feature","properties":{"area_id":"TR-32-001-2015840","name_tr":"Elecik Köyü","area_level":"neighbourhood","parent_id":"TR-32-001","endeksa_id":2015840},"geometry":{"coordinates":[[[31.221066254862308,37.75133259811986],[31.220052008133052,37.747298559820365],[31.22018301800051,37.74721968800071],[31.221769464000374,37.74773861800065],[31.21795435900043,37.74648913600066],[31.206801752000388,37.75257045100085],[31.194398997000462,37.755099481000855],[31.19056915600038,37.75290103500049],[31.18764615500038,37.74143084600064],[31.1911559710004,37.73949606500037],[31.1908469910004,37.73586710400019],[31.193459767000377,37.73407284300015],[31.192331702000388,37.73306663300042],[31.19466284800052,37.73227002300041],[31.195763213000532,37.73352853600068],[31.19721161500047,37.731724468000266],[31.19810943744443,37.73213129759108],[31.198258579459093,37.73210471865434],[31.198258579329774,37.73200136355263],[31.198095163000403,37.731898539000724],[31.199548678000497,37.72924574400071],[31.210411671681243,37.72563043084625],[31.211710000000096,37.72594000000004],[31.211820000000102,37.72668000000016],[31.212330000000236,37.72840000000036],[31.21263000000016,37.729760000000624],[31.214500000000157,37.73319000000021],[31.21610000000004,37.73538000000025],[31.216680000000053,37.73591000000005],[31.217190000000187,37.7360700000001],[31.217480000000194,37.73628000000008],[31.217720000000156,37.73625000000044],[31.21820000000008,37.736660000000256],[31.218130000000144,37.73692000000045],[31.218190000000106,37.73758000000038],[31.21843000000007,37.73776000000032],[31.21855000000005,37.73805000000016],[31.21936000000011,37.73845000000006],[31.21905000000004,37.73918000000003],[31.218450000000132,37.739450000000204],[31.21787000000012,37.73993000000013],[31.218910000000164,37.7404600000001],[31.2190700000001,37.74090000000007],[31.21932000000021,37.740940000000535],[31.220070000000078,37.74175000000008],[31.220270000000085,37.74167000000017],[31.220830000000092,37.740930000000276],[31.221480000000042,37.741800000000126],[31.222266807867925,37.743074827938074],[31.22295286494966,37.74449692362816],[31.223089911013574,37.74506347047725],[31.22293433395265,37.7463359261875],[31.222308390145827,37.74792551741041],[31.221358172257112,37.75117960161674],[31.221066254862308,37.75133259811986]]],"type":"Polygon"}},{"type":"Feature","properties":{"area_id":"TR-32-001-2015844","name_tr":"Koçular Köyü","area_level":"neighbourhood","parent_id":"TR-32-001","endeksa_id":2015844},"geometry":{"coordinates":[[[31.12797000000006,37.75930000000051],[31.12676000000016,37.758440000000405],[31.12701000000004,37.75818000000021],[31.126900000000205,37.75815000000057],[31.124960000000044,37.75922000000031],[31.12298000000004,37.75902000000008],[31.12289000000004,37.75907000000012],[31.12193000000019,37.75845000000038],[31.120330000000138,37.757820000000265],[31.119980000000112,37.757820000000265],[31.11855000000014,37.75718000000006],[31.118270000000052,37.75731000000019],[31.115360000000123,37.75552000000039],[31.11426000000006,37.75514000000021],[31.113680000000045,37.75511000000006],[31.11311000000012,37.75493000000006],[31.111010000000135,37.7539000000001],[31.107890000000054,37.756020000000035],[31.10571000000016,37.7569800000004],[31.104600000000175,37.757730000000095],[31.103520000000174,37.75823000000008],[31.102910000000122,37.75873000000024],[31.102270000000146,37.7590800000001],[31.100890000000163,37.75972000000007],[31.099580000000117,37.76017000000019],[31.098690000000033,37.760850000000175],[31.09805000000017,37.76165000000026],[31.097910000000127,37.761970000000076],[31.09746000000024,37.7622700000004],[31.09696000000008,37.76283000000018],[31.09569000000016,37.76348000000036],[31.094470000000115,37.762750000000324],[31.092930000000194,37.76205000000016],[31.091250000000116,37.7619200000002],[31.089570000000037,37.76152000000019],[31.083390000000122,37.75861000000026],[31.08328000000006,37.75841000000008],[31.083940000000155,37.75745000000023],[31.08423000000016,37.75734000000034],[31.084490000000187,37.756890000000055],[31.084720000000175,37.756150000000105],[31.085870000000114,37.75387000000029],[31.08591000000007,37.75349000000011],[31.085440000000062,37.75298000000055],[31.085220000000163,37.75216000000023],[31.085330000000056,37.75192000000027],[31.086010000000158,37.751100000000065],[31.086860000000172,37.750260000000196],[31.08696000000009,37.74985000000021],[31.087410000000034,37.74903000000006],[31.074610000000177,37.73208000000005],[31.075830000000053,37.729880000000094],[31.081900000000132,37.722840000000076],[31.069600000000094,37.71583000000055],[31.07000023800049,37.71580001100028],[31.070272726992926,37.71562516969192],[31.070310281000502,37.715689426000495],[31.072358250000377,37.71495896400046],[31.079622029000518,37.71287249700072],[31.079594653895526,37.712778044216805],[31.074936126000523,37.70918709300042],[31.07493505800045,37.70904920500038],[31.083983584070893,37.70375493602751],[31.08677620197085,37.701826680420595],[31.08674837586767,37.70199194486645],[31.086950542136776,37.70203498538939],[31.088440088630932,37.70116961158584],[31.095978410680573,37.69535469866878],[31.09598150569491,37.6951760716488],[31.096060000000534,37.69524000000081],[31.096200000000408,37.69512000000083],[31.09613209899385,37.69507016938314],[31.09634823037561,37.695069599338865],[31.099760000000117,37.69244000000009],[31.102250000000083,37.69114000000036],[31.105770000000177,37.69202000000013],[31.107980000000055,37.69244000000009],[31.112090000000137,37.69201000000004],[31.1165400000001,37.69109000000009],[31.118630000000167,37.68960000000027],[31.11971000000017,37.68820000000028],[31.12565000000012,37.68675000000036],[31.14900000000017,37.688000000000045],[31.15309000000019,37.694040000000314],[31.154690000000244,37.697230000000104],[31.15449000000018,37.70000000000033],[31.15387000000004,37.70182000000028],[31.153200000000027,37.70298000000031],[31.15009000000009,37.7050900000001],[31.14923000000016,37.705440000000635],[31.148740000000146,37.706180000000074],[31.148010000000113,37.70700000000039],[31.146730000000105,37.707890000000134],[31.14646000000016,37.708470000000375],[31.146530000000098,37.70902000000018],[31.14619000000016,37.710390000000245],[31.146440000000098,37.71298000000013],[31.146200000000135,37.713340000000585],[31.146540000000186,37.713990000000365],[31.146640000000104,37.71490000000034],[31.14659000000006,37.7152500000002],[31.14773000000008,37.716840000000275],[31.14764000000008,37.717330000000345],[31.146860000000174,37.717140000000256],[31.146240000000034,37.71677000000017],[31.145950000000028,37.71703000000036],[31.147140000000093,37.718510000000606],[31.147480000000144,37.71874000000008],[31.147690000000125,37.71902000000017],[31.14742000000018,37.719680000000096],[31.14740000000012,37.720180000000255],[31.14607000000018,37.72051000000016],[31.14668000000006,37.72103000000021],[31.146760000000086,37.721450000000175],[31.146730000000105,37.72172000000046],[31.14647000000008,37.72211000000004],[31.14637000000016,37.722570000000076],[31.146400000000142,37.722910000000184],[31.146700000000124,37.723340000000235],[31.147470000000055,37.7251200000004],[31.148210000000176,37.72646000000043],[31.149700000000166,37.72773000000035],[31.15104000315074,37.72853999431214],[31.15078000000051,37.73284000000109],[31.150940000000446,37.73370000000068],[31.150850000000446,37.73441000000042],[31.151650000000586,37.73469000000068],[31.151870000000486,37.73541000000057],[31.151570000000504,37.7359600000006],[31.151990000000467,37.736170000000925],[31.151860000000568,37.73646000000076],[31.15217000000041,37.73656000000068],[31.15229000000039,37.73669000000007],[31.15204000000051,37.7376100000007],[31.151880000000403,37.737690000000384],[31.152000000000385,37.738710000000765],[31.151930000000448,37.73875000000055],[31.15195000000051,37.73892000000109],[31.150490000000502,37.73988000000094],[31.149640000000545,37.74027000000069],[31.14879000000053,37.74050000000108],[31.148190000000454,37.740320000000565],[31.147630000000504,37.739950000001045],[31.145870000000514,37.73968000000019],[31.145230000000538,37.73881000000068],[31.144220000000416,37.73969000000085],[31.143850000000555,37.740410000000736],[31.143760000000384,37.74075000000062],[31.144190000000435,37.741120000000706],[31.143910000000517,37.74201000000096],[31.14319000000046,37.741930000000195],[31.142590000000382,37.74135000000052],[31.141340000000525,37.74115000000086],[31.14160000000055,37.7425300000001],[31.141100000000392,37.74420000000043],[31.141330000000437,37.744380000000945],[31.139750000000447,37.74545000000012],[31.13789000000054,37.74496000000062],[31.13764000000043,37.745990000000575],[31.136220000000378,37.746790000000146],[31.135570000000428,37.748130000000174],[31.135770000000434,37.74839000000037],[31.135097649035345,37.749462651854856],[31.13506865907857,37.749321703902524],[31.134889972007215,37.74929348172856],[31.134490000000255,37.749670000000265],[31.13444000000021,37.75055000000003],[31.13382000000024,37.75012000000038],[31.132010000000037,37.75012000000038],[31.131580000000156,37.75290000000035],[31.130550000000028,37.75344000000024],[31.128770000000202,37.75647000000015],[31.12797000000006,37.75930000000051]]],"type":"Polygon"}},{"type":"Feature","properties":{"area_id":"TR-32-001-2015842","name_tr":"Karağı Köyü","area_level":"neighbourhood","parent_id":"TR-32-001","endeksa_id":2015842},"geometry":{"coordinates":[[[31.123350000000073,37.87430000000006],[31.12335,37.8743],[31.12396,37.86352],[31.12377980938666,37.8630331983513],[31.119530000000225,37.85155000000066],[31.11953,37.85155],[31.12014,37.84071],[31.1179300000001,37.826490000000064],[31.11918,37.82414],[31.1196,37.822],[31.11923,37.81903],[31.118799999999986,37.81553000000015],[31.113090000000113,37.80703000000051],[31.10880000000005,37.80344999999982],[31.10802000000018,37.80300000000034],[31.107240000000104,37.80235000000039],[31.10724,37.80235],[31.106960000000104,37.800820000000144],[31.10465369792713,37.79789918709785],[31.09987,37.79184],[31.095334504220997,37.78740310788232],[31.092030000000193,37.78417000000053],[31.089990436121937,37.782066058712886],[31.08697,37.77895],[31.0873,37.7779],[31.087965,37.777042],[31.0893,37.77532],[31.091400000000142,37.77197000000005],[31.092173,37.771007],[31.093559999999947,37.76927999999994],[31.09521,37.76633],[31.09569,37.76348],[31.09696,37.76283],[31.09746,37.76227],[31.097910000000176,37.761970000000105],[31.09805,37.76165],[31.098690000000072,37.76085000000002],[31.09958,37.76017],[31.10089,37.75972],[31.102270000000065,37.759080000000026],[31.10291,37.75873],[31.10352,37.75823],[31.1046,37.75773],[31.10571,37.75698],[31.107889999999937,37.756019999999936],[31.11101,37.7539],[31.11311000000003,37.75492999999995],[31.1136799999999,37.755109999999945],[31.11426,37.75514],[31.11536,37.75552],[31.118269999999907,37.75731000000007],[31.11855,37.75718],[31.11855000000014,37.75718000000006],[31.119082611812733,37.75741837503367],[31.11998,37.75782],[31.12033,37.75782],[31.12193,37.75845],[31.12289,37.75907],[31.122979999999995,37.75902000000002],[31.12496,37.75922],[31.1269,37.75815],[31.127010000000123,37.7581800000001],[31.1267600000004,37.75844000000023],[31.12797,37.7593],[31.1286,37.75966],[31.12928079845349,37.759523840371685],[31.12930000000017,37.75952000000024],[31.129888839400014,37.75971097913394],[31.13115,37.76012],[31.131150000000105,37.76012000000014],[31.130940000000102,37.760419999999975],[31.131490000000042,37.76110000000007],[31.131780000000063,37.761750000000156],[31.131870000000102,37.76231000000016],[31.132330000000014,37.763290000000126],[31.1324,37.76386],[31.13267,37.76447],[31.13312,37.76483],[31.134178219898143,37.76545333879944],[31.1345800000002,37.76569000000006],[31.135679999999933,37.76606999999998],[31.13821,37.76719],[31.13971999999998,37.76748000000014],[31.141740000000254,37.76805000000007],[31.142618463359057,37.76819358257883],[31.14535,37.76864],[31.145530000000107,37.76887000000004],[31.145580000000166,37.77005000000037],[31.145920000000007,37.771709999999956],[31.145900000000108,37.77222000000005],[31.145990000000154,37.7725200000001],[31.14672089497675,37.77274299143813],[31.14835,37.77324],[31.148820000000065,37.77365000000003],[31.14904,37.77406],[31.14972,37.78165],[31.15094,37.7836],[31.150940000000105,37.78360000000026],[31.150970000000086,37.78575000000052],[31.15056000000006,37.78695999999987],[31.151285450053024,37.79237669372583],[31.151285084524673,37.79237720285943],[31.15129,37.792389],[31.151347,37.792563],[31.161134,37.792129],[31.16503,37.79384],[31.165031,37.79384],[31.171296,37.797217],[31.171357,37.797249],[31.171394,37.797302],[31.175472,37.803104],[31.175474,37.803107],[31.184326,37.806082],[31.220631,37.801728],[31.22063,37.801724],[31.219782,37.798116],[31.219782,37.798115],[31.22226,37.791507],[31.223412,37.790527],[31.223398,37.790512],[31.223209,37.790318],[31.222868,37.789316],[31.222909,37.789037],[31.222378,37.788668],[31.222923,37.787523],[31.222689,37.786949],[31.223219,37.786555],[31.223504,37.785987],[31.22436,37.785208],[31.224791,37.78452],[31.22566,37.783859],[31.225519,37.783576],[31.225755,37.783229],[31.226246,37.782934],[31.227126,37.782895],[31.227771,37.782489],[31.22802,37.782603],[31.228687,37.782909],[31.22895,37.78303],[31.229096,37.783067],[31.23221,37.78385],[31.234351,37.784388],[31.2344,37.7844],[31.2344,37.784388],[31.2344,37.78364],[31.234493,37.783198],[31.23456,37.78288],[31.23458,37.782858],[31.235383,37.781983],[31.235628,37.781715],[31.235821,37.781753],[31.235923,37.781563],[31.236116,37.781529],[31.242061,37.794517],[31.264834,37.8183],[31.266256,37.819523],[31.266371,37.819717],[31.263009,37.824728],[31.261172,37.826666],[31.257243,37.833647],[31.255215,37.83575],[31.249716,37.843286],[31.247116,37.846008],[31.24623,37.847364],[31.245856,37.847452],[31.245793,37.847553],[31.245832,37.847919],[31.242165,37.851885],[31.241029,37.853599],[31.241068,37.85372],[31.240846,37.853772],[31.240835,37.853774],[31.23977,37.854541],[31.23912,37.85501],[31.239125,37.855178],[31.238932,37.855145],[31.23307,37.859151],[31.228994,37.865387],[31.228254,37.866135],[31.217538,37.875547],[31.214984,37.878291],[31.214852,37.878279],[31.21476,37.87827],[31.214772913403824,37.87836107353261],[31.214779191000275,37.87840354900021],[31.214778970370393,37.878403791032966],[31.214779,37.878404],[31.212818962608768,37.880553854241256],[31.21031085823154,37.883304930698806],[31.209948,37.883703],[31.205835,37.886588],[31.205726792238977,37.88666386904922],[31.205041793000362,37.88714431800037],[31.201098194592134,37.893036709569515],[31.201098,37.893037],[31.198052,37.895663],[31.195758491713143,37.899209158969505],[31.19346725400021,37.90275219300008],[31.19026968032601,37.90446891883471],[31.189113,37.90509],[31.183470000000113,37.901950000000056],[31.1784600000002,37.8993100000003],[31.169110000000106,37.89405000000002],[31.1621,37.89036],[31.162099939899257,37.89035998003177],[31.155750000000182,37.88825000000037],[31.147070000000088,37.886410000000005],[31.139050000000058,37.8814100000001],[31.129370000000108,37.876400000000444],[31.129369978798657,37.876399992605485],[31.125147,37.874927],[31.123350000000073,37.87430000000006]]],"type":"Polygon"}},{"type":"Feature","properties":{"area_id":"TR-32-001-2015847","name_tr":"Terziler Köyü","area_level":"neighbourhood","parent_id":"TR-32-001","endeksa_id":2015847},"geometry":{"coordinates":[[[31.12797000000006,37.75930000000051],[31.12797,37.7593],[31.12877,37.75647],[31.13055000000006,37.75344000000013],[31.13158,37.7529],[31.13201,37.75012],[31.13382,37.75012],[31.13444000000004,37.75054999999992],[31.13449,37.74967],[31.13489,37.749293],[31.135009468101668,37.749312355199905],[31.13506865907857,37.749321703902524],[31.135068710326788,37.74932195306998],[31.135069,37.749322],[31.135098,37.749463],[31.13478807262206,37.749984877715065],[31.135768475000418,37.751422114000604],[31.136428793993826,37.75165164760634],[31.141673,37.753474],[31.147311,37.750896],[31.147311014923282,37.75089613563994],[31.147311036000417,37.75089612600078],[31.147321363646334,37.750990196001],[31.147490978163788,37.752531801538126],[31.14859518987187,37.751767197319914],[31.150159,37.750684],[31.153221,37.752481],[31.156272,37.750274],[31.156804862086954,37.750426960411914],[31.15682895787731,37.75041314683151],[31.156952,37.750342],[31.163967,37.752481],[31.164921927296604,37.755107800016305],[31.168681758000446,37.754843908000396],[31.16868164660373,37.75484402481859],[31.168682,37.754844],[31.167592201201447,37.75598678901966],[31.170350254000482,37.76297450500033],[31.168129251000437,37.77579435300021],[31.168516910327654,37.78329374708817],[31.168791,37.788592],[31.168790846610218,37.788592214110245],[31.168790848000413,37.7885922410004],[31.165031421000492,37.79384044700032],[31.165030403241147,37.79383999999996],[31.16503,37.79384],[31.161134,37.792129],[31.151347,37.792563],[31.151315088417764,37.792465585800564],[31.15128776370473,37.792383632891834],[31.151285,37.792377],[31.15056000000006,37.78695999999987],[31.15097,37.78575],[31.150940000000023,37.78360000000012],[31.14972000000006,37.78165000000024],[31.14904000000007,37.77406000000036],[31.148820000000065,37.77365000000003],[31.14835000000022,37.77324000000016],[31.14672089497675,37.77274299143813],[31.14599,37.77252],[31.145900000000108,37.77222000000005],[31.145920000000007,37.771709999999956],[31.14558,37.77005],[31.145530000000107,37.76887000000004],[31.14535000000012,37.76864000000023],[31.142618463359057,37.76819358257883],[31.14174,37.76805],[31.13971999999998,37.76748000000014],[31.138210000000186,37.76719000000037],[31.135679999999933,37.76606999999998],[31.13458,37.76569],[31.134178219898143,37.76545333879944],[31.13312000000019,37.76483000000047],[31.132670000000132,37.76447000000053],[31.132400000000132,37.76386000000036],[31.132330000000014,37.763290000000126],[31.131870000000163,37.762310000000184],[31.13187,37.76231],[31.131780000000063,37.761750000000156],[31.131490000000042,37.76110000000007],[31.130940000000102,37.760419999999975],[31.131149999999735,37.76012000000011],[31.129888839400014,37.75971097913394],[31.1293,37.75952],[31.12928079845349,37.759523840371685],[31.128600000000176,37.75966000000045],[31.12797000000006,37.75930000000051]]],"type":"Polygon"}},{"type":"Feature","properties":{"area_id":"TR-32-001-2015845","name_tr":"Kösre Köyü","area_level":"neighbourhood","parent_id":"TR-32-001","endeksa_id":2015845},"geometry":{"coordinates":[[[31.049893358000077,37.791523371000096],[31.04979244300017,37.79138706600014],[31.04923814800003,37.79126275200048],[31.034735563000083,37.79432554100032],[31.03464944200016,37.794389461000094],[31.034618649000038,37.79460588100005],[31.034508242600452,37.79460348974487],[31.034380000000056,37.79433000000006],[31.033950000000175,37.790560000000596],[31.033100000000047,37.78947000000011],[31.031500000000165,37.78955000000019],[31.030320000000074,37.78981000000039],[31.027080000000183,37.789640000000134],[31.026870000000088,37.789450000000045],[31.02575000000013,37.78934000000004],[31.025170000000116,37.78935000000013],[31.02470000000011,37.789510000000405],[31.02405000000016,37.789320000000316],[31.023040000000094,37.78869000000009],[31.022550000000194,37.78790000000009],[31.022480000000087,37.78758000000005],[31.022140000000036,37.78694000000024],[31.0220700000001,37.78643000000011],[31.021800000000155,37.78567000000032],[31.02157055330332,37.785410625473276],[31.022695504000183,37.78236179500004],[31.026462278000054,37.781708842000285],[31.027357951,37.78137981300017],[31.02745823400005,37.78124808000035],[31.027537276000032,37.78138371500012],[31.028397059000042,37.781480112],[31.032014881000066,37.78110931200024],[31.03954887400016,37.781287414000076],[31.04568531800004,37.781118667000214],[31.04828239799997,37.778414325000085],[31.05176149900018,37.77975627800038],[31.05715273100003,37.77800347900006],[31.06148425900011,37.78025842300008],[31.061788828000033,37.78087967400006],[31.066383350000024,37.780919642000356],[31.066503329000113,37.781042718000094],[31.064968462000024,37.785475901000154],[31.05953960000005,37.79114295400018],[31.059514116999992,37.79131089200001],[31.05938790000016,37.79140998700012],[31.05421172100006,37.791234935000034],[31.049998547000143,37.79138998399998],[31.049893358000077,37.791523371000096]]],"type":"Polygon"}},{"type":"Feature","properties":{"area_id":"TR-32-001-31428","name_tr":"İstiklal","area_level":"neighbourhood","parent_id":"TR-32-001","endeksa_id":31428},"geometry":{"coordinates":[[[31.074000000000183,37.800750000000335],[31.073010000000124,37.80101000000036],[31.0725300000002,37.801000000000386],[31.071760000000097,37.79953000000029],[31.07126000000011,37.79967000000033],[31.07107000000019,37.799080000000686],[31.069510000000093,37.79922000000022],[31.067531819862893,37.799531313318425],[31.06779750900006,37.79756509100031],[31.065462775000128,37.794676418000165],[31.06464725500018,37.79423105100017],[31.06220793900013,37.794097392000026],[31.060613833000048,37.7928732970006],[31.06017581600014,37.79272362100011],[31.059514116999992,37.79131089200001],[31.05953960000005,37.79114295400018],[31.064968462000024,37.785475901000154],[31.066503329000113,37.781042718000094],[31.066383350000024,37.780919642000356],[31.066531652000037,37.78081084900015],[31.066658092000182,37.78091749600003],[31.071112716000187,37.7807884190006],[31.071678634000136,37.78060864400038],[31.072543013000143,37.780977030000486],[31.074826953000127,37.780990846000066],[31.075282197686306,37.781059833841425],[31.076190000000167,37.789880000000096],[31.077000000000055,37.793380000000184],[31.076820000000055,37.79454000000021],[31.076070000000186,37.79548000000017],[31.075420000000065,37.79606000000024],[31.074830000000077,37.79637000000031],[31.074460000000045,37.79671000000019],[31.074220000000082,37.796750000000316],[31.074380000000133,37.797070000000645],[31.073940000000164,37.79746000000023],[31.07377000000014,37.79807000000028],[31.073520000000258,37.798400000000186],[31.074000000000183,37.800750000000335]]],"type":"Polygon"}},{"type":"Feature","properties":{"area_id":"TR-32-001-2015848","name_tr":"Yakaafşar Köyü","area_level":"neighbourhood","parent_id":"TR-32-001","endeksa_id":2015848},"geometry":{"coordinates":[[[31.134788,37.749985],[31.13478807262206,37.749984877715065],[31.13478797800053,37.74998473900007],[31.135097649035345,37.749462651854856],[31.13577,37.74839],[31.13557,37.74813],[31.13622,37.74679],[31.13764,37.74599],[31.13789,37.74496],[31.13975,37.74545],[31.141329999999787,37.744380000000305],[31.141100000000392,37.74420000000043],[31.1411,37.7442],[31.1416,37.74253],[31.14134,37.74115],[31.14259,37.74135],[31.14298041686172,37.74172740434484],[31.14319000000006,37.74192999999989],[31.14391,37.74201],[31.144190000000005,37.741120000000535],[31.143760000000384,37.74075000000062],[31.14376,37.74075],[31.14385,37.74041],[31.14422,37.73969],[31.14523,37.73881],[31.145230000000538,37.73881000000068],[31.145870000000237,37.73967999999997],[31.14763,37.73995],[31.14819,37.74032],[31.14879,37.7405],[31.14964,37.74027],[31.15049,37.73988],[31.15195,37.73892],[31.15193,37.73875],[31.152,37.73871],[31.15188,37.73769],[31.15204,37.73761],[31.15229,37.73669],[31.15223676025763,37.736632323683764],[31.15217000000041,37.73656000000068],[31.151860000000568,37.73646000000076],[31.15186,37.73646],[31.15198999999976,37.73617000000064],[31.151570000000504,37.7359600000006],[31.15157,37.73596],[31.15187,37.73541],[31.151650000000153,37.73469000000051],[31.150850000000446,37.73441000000042],[31.15085,37.73441],[31.15094,37.7337],[31.15078,37.73284],[31.15104,37.72854],[31.15104000315074,37.72853999431214],[31.15486372300046,37.73065765300055],[31.164572851000514,37.728935801000546],[31.172230119063162,37.72473377794414],[31.175571,37.7229],[31.1757999024307,37.72270851987288],[31.18080282400041,37.718522526000754],[31.19820575300048,37.712851592000845],[31.203839840000455,37.708441690000654],[31.21093887787115,37.70712829390515],[31.216996,37.706007],[31.217185322276638,37.70600566210819],[31.217279182000425,37.70600485400047],[31.21728737113635,37.70604975344006],[31.217305,37.706144],[31.21700000000044,37.70743000000061],[31.216800000000376,37.70907000000045],[31.21691000000044,37.70989000000077],[31.21799000000044,37.713400000000036],[31.217880000000434,37.71410000000094],[31.21756000000039,37.71437000000071],[31.21595000000042,37.7150900000006],[31.212720000000502,37.716780000000995],[31.210550000000524,37.717520000000604],[31.209920000000466,37.71782000000053],[31.20962000000054,37.71846000000073],[31.20969000000042,37.72004000000072],[31.210750000000587,37.72175000000027],[31.210830000000442,37.72277000000065],[31.21133000000043,37.724620000000414],[31.210411671681243,37.72563043084625],[31.20531064960064,37.72732827020701],[31.199549,37.729246],[31.198095229672095,37.7318985809519],[31.198172549488675,37.73194723206234],[31.198259,37.732001],[31.198259,37.732105],[31.198185973522286,37.73211765794877],[31.19810943744443,37.73213129759108],[31.197211621829993,37.731724471095035],[31.195763,37.733529],[31.194902401697448,37.73254401063987],[31.1946628675015,37.732270045304645],[31.19233208200453,37.733066971962565],[31.193082834233234,37.733736631222875],[31.19346,37.734073],[31.191463182840987,37.73544396212465],[31.190847007868758,37.73586709241659],[31.191156,37.739496],[31.191155967014325,37.73949601818543],[31.1911559710004,37.73949606500037],[31.189692811143274,37.74030265470035],[31.187646170316455,37.741430906112484],[31.19056915600038,37.75290103500049],[31.190957869122723,37.7531241798427],[31.194399,37.755099],[31.206802,37.75257],[31.217954,37.746489],[31.2180811935597,37.74653067814029],[31.221769464000374,37.74773861800065],[31.220778936636822,37.74741461765319],[31.221769,37.747739],[31.220183,37.74722],[31.220052103157798,37.74729893779047],[31.221066254862308,37.75133259811986],[31.220889276938692,37.751895028655],[31.220661,37.752621],[31.220660786016293,37.75262115291913],[31.22066077833921,37.752621177315916],[31.216870000000483,37.755330000000264],[31.21936,37.75697],[31.220113712411347,37.75775776243411],[31.22091000000046,37.7585900000002],[31.223120000000563,37.76385000000056],[31.22369000000043,37.76568000000066],[31.223810000000412,37.76648000000057],[31.223800000000494,37.76874000000015],[31.22338000000053,37.77006000000051],[31.222530000000575,37.77191000000069],[31.22664,37.77615],[31.22906,37.77819],[31.229060000000516,37.77819000000045],[31.22958000000051,37.77884000000023],[31.229830000000447,37.77934000000039],[31.22967000000051,37.779750000000206],[31.22762000000057,37.780990000000486],[31.2272600000004,37.78153000000094],[31.22699000121939,37.78202000073215],[31.227771288204565,37.78248895196322],[31.227126400000373,37.78289520000038],[31.226749787580697,37.782911673856226],[31.226246,37.782934],[31.225755216420705,37.7832288699721],[31.22551910000044,37.78357610000023],[31.22566020000039,37.78385890000072],[31.224791200000425,37.784520300000736],[31.224360400000478,37.78520840000033],[31.22357842634848,37.785919269442815],[31.223504,37.785987],[31.223428037892635,37.7861383920681],[31.223219400000403,37.786555300000714],[31.222691734489796,37.78694696720729],[31.22268940082523,37.78694870203033],[31.22284105427889,37.78732198891381],[31.222923,37.787523],[31.2227384823129,37.78791066067912],[31.222378300000457,37.78866780000038],[31.222909400000333,37.789036600000486],[31.22286828153773,37.78931595054195],[31.223124671746312,37.79007021109503],[31.223208950682817,37.79031785508754],[31.223242979984988,37.79035287902375],[31.223398,37.790512],[31.223408177026602,37.79052290395789],[31.223411855031884,37.79052668944166],[31.223411774287648,37.790526758165484],[31.223412,37.790527],[31.22238137909209,37.79140374523471],[31.222259971855415,37.791507075059634],[31.219782,37.798115],[31.219782,37.798116],[31.22063,37.801724],[31.220631,37.801728],[31.220630736341324,37.801728031662286],[31.220630794000613,37.80172827700068],[31.192381567200805,37.80511691491751],[31.184326,37.806082],[31.184325842193175,37.80608194697197],[31.184325533000617,37.80608198400057],[31.180308300387257,37.804731834302984],[31.175474,37.803107],[31.1754738542712,37.803106781406626],[31.175473743000452,37.80310674400096],[31.174049440222884,37.801080163667166],[31.171394,37.797302],[31.171357213928477,37.797249306438495],[31.1713435765464,37.79724195819338],[31.171296,37.797217],[31.166567089122637,37.7946680517602],[31.165031421000492,37.79384044700032],[31.165031534722026,37.79384028825671],[31.165031,37.79384],[31.168790846610218,37.788592214110245],[31.168516910327654,37.78329374708817],[31.168129,37.775794],[31.17035,37.762975],[31.167592,37.755987],[31.167592201201447,37.75598678901966],[31.167592112000534,37.755986563000704],[31.16868164660373,37.75484402481859],[31.164922,37.755108],[31.164921927296604,37.755107800016305],[31.164921614000377,37.75510782200075],[31.16396686400043,37.75248133300005],[31.156952196000532,37.75034249700036],[31.15682895787731,37.75041314683151],[31.156805,37.750427],[31.156804862086954,37.750426960411914],[31.156804725000484,37.75042703900061],[31.156272200000387,37.75027406600083],[31.153221188000373,37.75248139100023],[31.150158787000407,37.750684450000676],[31.14859518987187,37.751767197319914],[31.147491,37.752532],[31.147490978163788,37.752531801538126],[31.147490641000445,37.75253203500051],[31.147321363646334,37.750990196001],[31.147311014923282,37.75089613563994],[31.141672978000372,37.753474398000776],[31.136428793993826,37.75165164760634],[31.135768,37.751422],[31.134788,37.749985]]],"type":"Polygon"}},{"type":"Feature","properties":{"area_id":"TR-32-001-31427","name_tr":"Hürriyet","area_level":"neighbourhood","parent_id":"TR-32-001","endeksa_id":31427},"geometry":{"coordinates":[[[31.078290000000038,37.80690000000027],[31.077120000000036,37.807720000000074],[31.076760000000093,37.80777000000012],[31.076360000000193,37.807660000000055],[31.07603000000006,37.807450000000074],[31.075800000000072,37.8071400000004],[31.07568000000009,37.8066300000001],[31.073680000000138,37.805180000000234],[31.07355000000007,37.804680000000076],[31.072940000000187,37.804220000000385],[31.071680000000242,37.80370000000016],[31.07147000000009,37.80336000000028],[31.0698900000001,37.80269000000027],[31.068790000000035,37.8009900000003],[31.06757000000016,37.79988000000009],[31.067430000000115,37.79952000000014],[31.067531819862893,37.799531313318425],[31.069510000000093,37.79922000000022],[31.07107000000019,37.799080000000686],[31.07126000000011,37.79967000000033],[31.071760000000097,37.79953000000029],[31.0725300000002,37.801000000000386],[31.073010000000124,37.80101000000036],[31.074000000000183,37.800750000000335],[31.075820000000135,37.80290000000019],[31.07782000000003,37.806270000000154],[31.078290000000038,37.80690000000027]]],"type":"Polygon"}},{"type":"Feature","properties":{"area_id":"TR-32-001-31432","name_tr":"Tepe","area_level":"neighbourhood","parent_id":"TR-32-001","endeksa_id":31432},"geometry":{"coordinates":[[[31.060125293000112,37.792613499000595],[31.059212281999976,37.79602831300019],[31.059241706000137,37.79662802400031],[31.060079697000106,37.79849174599997],[31.06298528600007,37.79976831099998],[31.06364495000014,37.80043810200061],[31.063745048000044,37.80106770600048],[31.062711551000064,37.80353001600014],[31.06270604500014,37.80597593300007],[31.061489368000082,37.80800883800032],[31.061436427000103,37.808928709000156],[31.061608995000142,37.80928650200019],[31.061508209110116,37.809337835864255],[31.057390000000225,37.80809000000011],[31.05502000000024,37.806920000000105],[31.055073796812394,37.80720773891227],[31.053698796000162,37.80429358400005],[31.053319784000053,37.80385285300008],[31.05304387200016,37.802154765000125],[31.05330489800008,37.800619838000046],[31.05197976700009,37.80011023600031],[31.051719050000145,37.798952890000294],[31.052009731000112,37.797257588000036],[31.05182084400019,37.79557202200016],[31.049893358000077,37.791523371000096],[31.049998547000143,37.79138998399998],[31.05421172100006,37.791234935000034],[31.05938790000016,37.79140998700012],[31.059514116999992,37.79131089200001],[31.060125293000112,37.792613499000595]]],"type":"Polygon"}},{"type":"Feature","properties":{"area_id":"TR-32-001-31431","name_tr":"Pazarcık","area_level":"neighbourhood","parent_id":"TR-32-001","endeksa_id":31431},"geometry":{"coordinates":[[[31.071871025786322,37.803778836038816],[31.071742421000124,37.80380130000003],[31.07152744000001,37.80449481500011],[31.07105218000015,37.80502563300013],[31.066599376000113,37.80825578400032],[31.063303184000063,37.80942489299997],[31.062954382000157,37.80976731400051],[31.062784338358938,37.809803994711956],[31.062560000000246,37.80963000000037],[31.061508209110116,37.809337835864255],[31.061608995000142,37.80928650200019],[31.061436427000103,37.808928709000156],[31.061489368000082,37.80800883800032],[31.06270604500014,37.80597593300007],[31.062711551000064,37.80353001600014],[31.063745048000044,37.80106770600048],[31.06364495000014,37.80043810200061],[31.06298528600007,37.79976831099998],[31.060079697000106,37.79849174599997],[31.059241706000137,37.79662802400031],[31.059212281999976,37.79602831300019],[31.060125293000112,37.792613499000595],[31.06017581600014,37.79272362100011],[31.060613833000048,37.7928732970006],[31.06220793900013,37.794097392000026],[31.06464725500018,37.79423105100017],[31.065462775000128,37.794676418000165],[31.06779750900006,37.79756509100031],[31.067531819862893,37.799531313318425],[31.067430000000115,37.79952000000014],[31.06757000000016,37.79988000000009],[31.068790000000035,37.8009900000003],[31.0698900000001,37.80269000000027],[31.07147000000009,37.80336000000028],[31.071680000000242,37.80370000000016],[31.071871025786322,37.803778836038816]]],"type":"Polygon"}},{"type":"Feature","properties":{"area_id":"TR-32-001-31424","name_tr":"Akçaşar","area_level":"neighbourhood","parent_id":"TR-32-001","endeksa_id":31424},"geometry":{"coordinates":[[[31.034508242600452,37.79460348974487],[31.03619000000009,37.79819000000026],[31.036370000000034,37.80090000000064],[31.03597000000019,37.804990000000146],[31.03440000000012,37.80963000000037],[31.0345200000001,37.81301000000008],[31.03400000000005,37.81253000000015],[31.034150000000068,37.81241000000017],[31.03400000000005,37.81213000000042],[31.03328000000016,37.8116500000005],[31.0332200000002,37.81145000000032],[31.03282000000013,37.81155000000007],[31.031610000000228,37.81037000000009],[31.03037000000012,37.809520000000475],[31.02891000000011,37.80960000000016],[31.027960000000178,37.80935000000011],[31.02795000000009,37.80901000000023],[31.02650000000017,37.80980000000022],[31.0261900000001,37.809890000000166],[31.023600000000044,37.809820000000286],[31.02167000000003,37.80991000000006],[31.020840000000135,37.80980000000022],[31.020040000000165,37.80941000000007],[31.018340000000194,37.80770000000052],[31.018790000000138,37.80742000000009],[31.018580000000156,37.80677000000031],[31.018710000000112,37.80637000000007],[31.01869000000005,37.80573000000027],[31.018920000000037,37.80528000000015],[31.019300000000044,37.80470000000031],[31.020040000000165,37.803880000000106],[31.020130000000165,37.803330000000074],[31.01999000000012,37.80305000000021],[31.020690000000116,37.80125000000032],[31.021000000000186,37.80102000000011],[31.022140000000036,37.80133000000069],[31.022140000000036,37.80015000000043],[31.021950000000118,37.799910000000295],[31.022000000000162,37.799600000000396],[31.022660000000087,37.799360000000036],[31.022910000000138,37.798990000000344],[31.024280000000147,37.79834000000005],[31.024720000000173,37.797400000000266],[31.024630000000172,37.79702000000009],[31.024800000000198,37.79661000000027],[31.025120000000243,37.79649000000029],[31.025190000000123,37.796350000000075],[31.025430000000085,37.795240000000035],[31.025590000000193,37.7950600000006],[31.025650000000212,37.794650000000104],[31.025810000000092,37.794460000000186],[31.025820000000067,37.79402000000039],[31.02566000000013,37.79361000000017],[31.025980000000118,37.79320000000018],[31.025810000000092,37.793070000000114],[31.02578000000011,37.79274000000049],[31.026130000000137,37.79209000000071],[31.02609000000018,37.7919500000005],[31.026330000000144,37.791580000000295],[31.02684000000005,37.78989000000058],[31.027070000000094,37.78974000000028],[31.027080000000183,37.789640000000134],[31.030320000000074,37.78981000000039],[31.031500000000165,37.78955000000019],[31.033100000000047,37.78947000000011],[31.033950000000175,37.790560000000596],[31.034380000000056,37.79433000000006],[31.034508242600452,37.79460348974487]]],"type":"Polygon"}},{"type":"Feature","properties":{"area_id":"TR-32-001-31426","name_tr":"Çay","area_level":"neighbourhood","parent_id":"TR-32-001","endeksa_id":31426},"geometry":{"coordinates":[[[31.076760000000093,37.80777000000012],[31.077310000000125,37.80839000000009],[31.076820000000055,37.8088800000001],[31.076670000000092,37.80889000000025],[31.076500000000067,37.80907000000019],[31.076290000000085,37.809080000000336],[31.07587000000018,37.808900000000335],[31.074240000000145,37.80897000000044],[31.073520000000258,37.80960000000016],[31.073370000000068,37.80951000000039],[31.073430000000087,37.80944000000028],[31.073190000000125,37.809210000000405],[31.0727500000001,37.80948000000018],[31.071530000000052,37.810600000000306],[31.071090000000083,37.811630000000264],[31.069520000000182,37.8127800000002],[31.06866000000008,37.812980000000266],[31.06766000000016,37.8130000000001],[31.065100000000086,37.81160000000011],[31.062784338358938,37.809803994711956],[31.062954382000157,37.80976731400051],[31.063303184000063,37.80942489299997],[31.066599376000113,37.80825578400032],[31.07105218000015,37.80502563300013],[31.07152744000001,37.80449481500011],[31.071742421000124,37.80380130000003],[31.071871025786322,37.803778836038816],[31.072940000000187,37.804220000000385],[31.07355000000007,37.804680000000076],[31.073680000000138,37.805180000000234],[31.07568000000009,37.8066300000001],[31.075800000000072,37.8071400000004],[31.07603000000006,37.807450000000074],[31.076360000000193,37.807660000000055],[31.076760000000093,37.80777000000012]]],"type":"Polygon"}},{"type":"Feature","properties":{"area_id":"TR-32-001-2015849","name_tr":"Yaka Köyü","area_level":"neighbourhood","parent_id":"TR-32-001","endeksa_id":2015849},"geometry":{"coordinates":[[[31.22253,37.77191],[31.22338,37.77006],[31.2238,37.76874],[31.22381,37.76648],[31.22369,37.76568],[31.22312,37.76385],[31.22091,37.75859],[31.220113712411347,37.75775776243411],[31.21936000000045,37.75697000000099],[31.216870000000483,37.75533000000047],[31.21687,37.75533],[31.220660786016293,37.75262115291913],[31.220889276938692,37.751895028655],[31.221066,37.751333],[31.221066153755558,37.751332919436656],[31.221066254862308,37.75133259811986],[31.22135810620528,37.751179636235214],[31.222308,37.747926],[31.222934,37.746336],[31.22307622736819,37.74517538997733],[31.223089911013574,37.74506347047725],[31.22295286494966,37.74449692362816],[31.222266807867925,37.743074827938074],[31.221480000000025,37.74180000000005],[31.220830000000092,37.740930000000276],[31.220270000000085,37.74167000000017],[31.22007,37.741749999999925],[31.21932000000021,37.740940000000535],[31.219070000000073,37.74089999999989],[31.218910000000122,37.740460000000134],[31.21787000000012,37.73993000000013],[31.21787,37.73993],[31.21845000000008,37.73945000000011],[31.219050000000063,37.73918000000009],[31.21936000000005,37.73845000000007],[31.21855000000005,37.73805000000016],[31.21843000000002,37.737760000000165],[31.218190000000106,37.73758000000038],[31.21819,37.73758],[31.21813,37.73692],[31.218199999999857,37.73666000000001],[31.217720000000156,37.73625000000044],[31.21748000000008,37.736279999999944],[31.217190000000187,37.7360700000001],[31.216680000000032,37.73590999999989],[31.21610000000004,37.73538000000025],[31.21450000000007,37.733190000000015],[31.21263000000016,37.729760000000624],[31.21263,37.72976],[31.21233,37.7284],[31.21182,37.72668],[31.211710000000004,37.72594000000015],[31.210411671681243,37.72563043084625],[31.210412051978818,37.72563001241446],[31.210412,37.72563],[31.21133,37.72462],[31.21083,37.72277],[31.21075,37.72175],[31.20969,37.72004],[31.20962,37.71846],[31.20992,37.71782],[31.21055,37.71752],[31.21272,37.71678],[31.21595,37.71509],[31.21756,37.71437],[31.21788,37.7141],[31.21799,37.7134],[31.21691,37.70989],[31.2168,37.70907],[31.217,37.70743],[31.217304650455674,37.70614449240691],[31.21724,37.70553],[31.21531000000006,37.70344],[31.21454,37.70163],[31.21404,37.69639],[31.214044079668803,37.69638214743981],[31.214045,37.69638],[31.214129,37.696218],[31.214558,37.692978],[31.224225647039734,37.68545010131348],[31.22460241400063,37.68515667000054],[31.22855,37.68376],[31.230339980757186,37.682790010429],[31.23034,37.68279],[31.23082,37.68225],[31.23102,37.68178],[31.230847,37.680288],[31.231320069446088,37.678023656525276],[31.23145591300056,37.67737315500051],[31.23145597170227,37.67737313545373],[31.231456,37.677373],[31.23263644356242,37.676980047141534],[31.23627,37.67577],[31.236308,37.675706],[31.236846824983438,37.67480347673183],[31.238379537016044,37.67223514087027],[31.24005,37.6711],[31.240049998041144,37.67109998686223],[31.239852011847006,37.66977231473737],[31.23985203992392,37.66977226777788],[31.239852,37.669772],[31.239852497449697,37.66977150255027],[31.240555032468354,37.66859646780904],[31.240844,37.668113],[31.240844132170558,37.66811291805456],[31.240844282575154,37.668112666484944],[31.24149,37.66771],[31.24182,37.66724],[31.24201962462689,37.66614681752151],[31.24236607788829,37.665567351870756],[31.242626,37.665132],[31.24461078717337,37.663680599972146],[31.24494813082339,37.66343382599922],[31.24545,37.66332],[31.246022,37.662648],[31.246703715247744,37.662149630569935],[31.24820075200057,37.66105453900104],[31.261178279045364,37.65938387597963],[31.261187,37.65938],[31.2657670071811,37.6574297111592],[31.27273171111872,37.654463144440626],[31.272734,37.654462],[31.272907,37.654487],[31.27592,37.65493],[31.27991000000009,37.65389000000008],[31.292266,37.656122],[31.293004231808453,37.656987762557215],[31.293872789389532,37.658005824421664],[31.294315,37.658524],[31.29431500000009,37.65852433746873],[31.294925791027914,37.65954221430487],[31.295005,37.659674],[31.295405155111478,37.66021283161659],[31.29711446096377,37.662513558554394],[31.29712378536074,37.66252207111337],[31.297136,37.662533],[31.297792,37.663132],[31.299825,37.664752],[31.299923,37.66483],[31.299936004226442,37.66484055060559],[31.299976358222693,37.66487270511146],[31.30221166090796,37.66652942989766],[31.302647,37.666852],[31.30282670483867,37.667008222040735],[31.30335136996996,37.667464077305624],[31.303406543171064,37.66748511573266],[31.303835,37.667648],[31.304487,37.667897],[31.307827,37.668732],[31.308885971074176,37.66907869242758],[31.310897139818167,37.669736627410316],[31.310896980264463,37.66973699354053],[31.310897,37.669737],[31.310301,37.671105],[31.307980005077056,37.67642998835268],[31.3079800000001,37.67643000000055],[31.30289000000016,37.68629000000067],[31.29760000000016,37.69120000000049],[31.29642000000024,37.69331000000028],[31.29695000000021,37.69796000000008],[31.29642000000024,37.69893000000059],[31.296328,37.69968],[31.296220001783695,37.70055998546562],[31.296220000000176,37.70056000000045],[31.29531000000011,37.701680000000145],[31.294884,37.702748],[31.29452000000004,37.70366],[31.29628,37.70702],[31.296280000000195,37.707020000000625],[31.295890000000096,37.710020000000036],[31.295534,37.710275],[31.294730000000186,37.71085000000062],[31.294120000000134,37.71242000000012],[31.292740000000038,37.714820000000145],[31.295450000000073,37.723770000000286],[31.29535,37.723949],[31.29531000000003,37.72402000000034],[31.292430000000138,37.72813000000008],[31.276720000000136,37.74066000000013],[31.274250000000148,37.74119000000005],[31.271850000000143,37.74307000000056],[31.27184999246744,37.74307001030191],[31.268811,37.747226],[31.267550000000142,37.74895000000038],[31.267549694183163,37.748950264581794],[31.266801,37.749598],[31.260880000000004,37.754720000000155],[31.25182000000018,37.75947000000036],[31.249660000000176,37.77158000000048],[31.249614,37.771678],[31.24928000000051,37.772380000000226],[31.249279988478275,37.772380009508275],[31.248044,37.7734],[31.24785000000054,37.773560000000884],[31.247784,37.773573],[31.246720000000437,37.77378000000061],[31.246633,37.773844],[31.24587000000048,37.77440000000075],[31.243520000000558,37.77549000000056],[31.24178000000046,37.777030000000934],[31.241149,37.777252],[31.240870000000484,37.77735000000058],[31.240016,37.777552],[31.23977000000042,37.77761000000061],[31.23819000000043,37.77860000000027],[31.237090000000535,37.779440000000534],[31.236370000000477,37.78044000000045],[31.236227,37.780734],[31.23599000000047,37.78122000000087],[31.235628332346096,37.781715327440736],[31.23544070257089,37.7819198806738],[31.235383,37.781983],[31.234966168397072,37.78243720955833],[31.234560000000442,37.782880000000716],[31.234400000000562,37.78364000000073],[31.234400000000562,37.784400000001085],[31.234351,37.784388],[31.23221,37.78385],[31.229096,37.783067],[31.228950000000452,37.78303000000034],[31.22895,37.78303],[31.227922327327718,37.78255828249522],[31.227771,37.782489],[31.226990000000455,37.78202000000044],[31.22699,37.78202],[31.22726,37.78153],[31.22762,37.78099],[31.22967,37.77975],[31.22983,37.77934],[31.22958,37.77884],[31.229060000000487,37.77819000000053],[31.226640000000486,37.7761500000006],[31.222530000000575,37.77191000000079],[31.22253,37.77191]]],"type":"Polygon"}},{"type":"Feature","properties":{"area_id":"TR-32-001-31430","name_tr":"Orta","area_level":"neighbourhood","parent_id":"TR-32-001","endeksa_id":31430},"geometry":{"coordinates":[[[31.119230000000073,37.819030000000055],[31.116160000000093,37.81997000000041],[31.11258000000015,37.82046000000042],[31.112470000000144,37.81836000000004],[31.109470000000044,37.814690000000496],[31.104010000000187,37.81329000000011],[31.097600000000057,37.81200000000035],[31.09514000000013,37.80984000000012],[31.090230000000133,37.805310000000304],[31.08907000000005,37.80568000000039],[31.0852500000002,37.80631000000062],[31.082230000000038,37.806420000000344],[31.078290000000038,37.80690000000027],[31.07782000000003,37.806270000000154],[31.075820000000135,37.80290000000019],[31.074000000000183,37.800750000000335],[31.073520000000258,37.798400000000186],[31.07377000000014,37.79807000000028],[31.073940000000164,37.79746000000023],[31.074380000000133,37.797070000000645],[31.074220000000082,37.796750000000316],[31.074460000000045,37.79671000000019],[31.074830000000077,37.79637000000031],[31.075420000000065,37.79606000000024],[31.076070000000186,37.79548000000017],[31.076820000000055,37.79454000000021],[31.077000000000055,37.793380000000184],[31.076190000000167,37.789880000000096],[31.075282197686306,37.781059833841425],[31.082290000000057,37.78053000000011],[31.08697000000018,37.77895000000012],[31.092030000000193,37.78417000000053],[31.099870000000124,37.79184000000009],[31.106960000000242,37.80082000000027],[31.107240000000104,37.80235000000039],[31.10802000000018,37.80300000000034],[31.10880000000003,37.803450000000055],[31.113090000000113,37.80703000000051],[31.118800000000192,37.815530000000365],[31.119230000000073,37.819030000000055]]],"type":"Polygon"}},{"type":"Feature","properties":{"area_id":"TR-32-001-31425","name_tr":"Bahçeli","area_level":"neighbourhood","parent_id":"TR-32-001","endeksa_id":31425},"geometry":{"coordinates":[[[31.056800000000067,37.81985000000003],[31.055660000000046,37.81970000000007],[31.055470000000128,37.819430000000466],[31.054030000000182,37.819640000000106],[31.051660000000027,37.82040000000029],[31.05186000000026,37.82063000000028],[31.051520000000153,37.82094000000035],[31.052040000000204,37.82177000000013],[31.05208000000016,37.822030000000325],[31.051880000000097,37.822310000000186],[31.050650000000132,37.82271000000043],[31.04998000000012,37.82328000000018],[31.04932000000025,37.82360000000017],[31.048870000000136,37.824140000000114],[31.048130000000185,37.82354000000021],[31.047670000000153,37.8227600000003],[31.046330000000125,37.82148000000029],[31.045620000000156,37.82049000000006],[31.045180000000187,37.82012000000003],[31.04480000000018,37.82015000000035],[31.043720000000178,37.81978000000032],[31.043050000000164,37.81922000000014],[31.041970000000106,37.81770000000017],[31.04105000000004,37.8172100000001],[31.040560000000198,37.81684000000007],[31.039950000000147,37.81611000000004],[31.039950000000147,37.81574000000069],[31.03938000000005,37.815710000000365],[31.03892000000019,37.8151400000001],[31.038970000000063,37.814720000000136],[31.038870000000145,37.81424000000021],[31.038630000000182,37.81428000000017],[31.038540000000182,37.814170000000104],[31.039020000000107,37.81412000000023],[31.039000000000044,37.81335000000047],[31.03922000000017,37.81338000000011],[31.039310000000114,37.81368000000009],[31.03956000000005,37.81365000000028],[31.039670000000058,37.81338000000011],[31.03956000000005,37.81229000000019],[31.039370000000133,37.81196000000057],[31.03947000000005,37.81198000000012],[31.039670000000058,37.812250000000404],[31.03988000000004,37.81216000000006],[31.039800000000184,37.81176000000039],[31.03870000000012,37.81176000000039],[31.03870000000012,37.81190000000004],[31.03768000000008,37.81253000000015],[31.036600000000078,37.81291000000033],[31.03526000000005,37.81291000000033],[31.034910000000252,37.813330000000235],[31.0345200000001,37.81301000000008],[31.03440000000012,37.80963000000037],[31.03597000000019,37.804990000000146],[31.036370000000034,37.80090000000064],[31.03619000000009,37.79819000000026],[31.034508242600452,37.79460348974487],[31.034618649000038,37.79460588100005],[31.03464944200016,37.794389461000094],[31.034735563000083,37.79432554100032],[31.04923814800003,37.79126275200048],[31.04979244300017,37.79138706600014],[31.049893358000077,37.791523371000096],[31.05182084400019,37.79557202200016],[31.052009731000112,37.797257588000036],[31.051719050000145,37.798952890000294],[31.05197976700009,37.80011023600031],[31.05330489800008,37.800619838000046],[31.05304387200016,37.802154765000125],[31.053319784000053,37.80385285300008],[31.053698796000162,37.80429358400005],[31.055073796812394,37.80720773891227],[31.056800000000067,37.81609000000037],[31.056800000000067,37.81985000000003]]],"type":"Polygon"}},{"type":"Feature","properties":{"area_id":"TR-32-001-2015850","name_tr":"Yılanlı Köyü","area_level":"neighbourhood","parent_id":"TR-32-001","endeksa_id":2015850},"geometry":{"coordinates":[[[31.018710000000112,37.80637000000007],[31.017680000000155,37.80680000000012],[31.01659000000018,37.807810000000416],[31.01652000000007,37.8077500000004],[31.016420000000153,37.80867000000035],[31.015510000000177,37.810350000000255],[31.014810000000182,37.81090000000029],[31.014590000000112,37.81145000000032],[31.01426000000015,37.8135700000002],[31.014120000000105,37.8139000000005],[31.014770000000055,37.814720000000136],[31.015300000000195,37.81616000000008],[31.01494000000008,37.81761000000051],[31.014840000000163,37.81846000000013],[31.015260000000126,37.81951000000015],[31.015060000000062,37.81955000000045],[31.01430000000005,37.820360000000164],[31.012760000000185,37.81986000000052],[31.01231000000007,37.81957000000068],[31.012290000000235,37.81923000000029],[31.011520000000075,37.81907000000052],[31.01113000000015,37.8188200000003],[31.00956000000008,37.81880000000024],[31.00794000000019,37.820180000000164],[31.00713000000013,37.81945000000019],[31.006630000000143,37.819120000000396],[31.00552000000016,37.81939000000017],[31.000810000000172,37.8185100000004],[31.000730000000146,37.81857000000036],[31.000430000000165,37.818290000000104],[30.999960000000158,37.81724000000031],[30.999570000000062,37.81684000000007],[30.99952000000019,37.81660000000011],[30.99868000000015,37.816060000000164],[30.997770000000173,37.8160000000002],[30.997140000000115,37.81550000000004],[30.995700000000113,37.81574000000069],[30.994440000000168,37.81563000000011],[30.993710000000135,37.81486000000035],[30.992780000000096,37.81446000000011],[30.99245000000019,37.81412000000023],[30.991900000000157,37.81331000000017],[30.990010000000098,37.81291000000033],[30.98898000000014,37.813360000000046],[30.987040000000206,37.81338000000011],[30.98617000000013,37.81303000000031],[30.985870000000034,37.8130000000001],[30.984570000000076,37.813170000000355],[30.983990000000063,37.813390000000254],[30.98340000000013,37.81329000000011],[30.983150000000194,37.81309000000027],[30.983030000000042,37.812870000000544],[30.983020000000124,37.81233000000009],[30.98288000000008,37.81222000000008],[30.982340000000136,37.81203000000016],[30.98182000000014,37.81152000000003],[30.981560000000115,37.811440000000175],[30.981050000000153,37.81152000000003],[30.980660000000057,37.8113500000004],[30.980530000000158,37.81126000000023],[30.980400000000202,37.81076000000007],[30.97969000000012,37.81056000000018],[30.979330000000175,37.81027000000017],[30.979000000000042,37.81021000000004],[30.978160000000173,37.809460000000115],[30.97817000000009,37.80922000000015],[30.978030000000047,37.80904000000055],[30.97739000000024,37.80866000000037],[30.977260000000115,37.808340000000214],[30.977270000000033,37.80795000000006],[30.97616000000005,37.806920000000105],[30.975690000000043,37.80611000000005],[30.975060000000155,37.80556000000041],[30.974970000000155,37.8052400000002],[30.974830000000168,37.80507000000034],[30.974310000000116,37.80477000000042],[30.973580000000084,37.80461000000014],[30.973160000000178,37.804220000000385],[30.972450000000038,37.80431000000016],[30.972240000000056,37.80421000000024],[30.971970000000113,37.803200000000516],[30.972310000000164,37.80228000000005],[30.97260000000017,37.80180000000013],[30.972540000000038,37.80161000000004],[30.9722500000002,37.801130000000114],[30.972090000000094,37.80107000000049],[30.971560000000125,37.80112000000037],[30.971440000000143,37.80104000000017],[30.971440000000143,37.80061000000012],[30.970910000000174,37.80027000000041],[30.97067000000004,37.79988000000009],[30.970820000000174,37.79935000000029],[30.97076000000021,37.799080000000686],[30.97003000000018,37.79870000000051],[30.969730000000254,37.798370000000205],[30.969740000000172,37.797840000000406],[30.969570000000147,37.79760000000044],[30.96959000000021,37.79734000000025],[30.969880000000046,37.796910000000196],[30.970010000000116,37.79650000000038],[30.969950000000154,37.79616000000067],[30.971030000000155,37.793290000000525],[30.966490000000192,37.79265000000015],[30.96585000000016,37.792660000000296],[30.96489000000014,37.79283000000015],[30.96278000000018,37.79290000000026],[30.962550000000192,37.79275000000007],[30.962230000000147,37.79231000000044],[30.962110000000166,37.7919100000002],[30.962100000000078,37.79095000000018],[30.96250940146956,37.79035746470788],[30.963098742000113,37.788096093000036],[30.962991586109354,37.78809175172461],[30.963155424233776,37.78799096374149],[30.96485000000024,37.781390000000044],[30.964630000000113,37.780900000000145],[30.9640500000001,37.780560000000264],[30.96243000000021,37.78029000000015],[30.961620000000153,37.77987000000019],[30.96107000000012,37.77869000000044],[30.96148000000011,37.77583000000027],[30.96194000000014,37.77484000000021],[30.961980000000096,37.77459000000016],[30.96195000000006,37.77441000000016],[30.96169000000009,37.77413000000007],[30.96120000000019,37.77394000000038],[30.961030000000164,37.77280000000053],[30.961460000000045,37.7709300000007],[30.962170000000185,37.7694800000001],[30.963110000000142,37.76818000000054],[30.964031711410257,37.767470996194106],[30.96671000000009,37.769030000000384],[30.968020000000138,37.770240000000456],[30.969290000000058,37.769220000000075],[30.970470000000148,37.76881000000009],[30.97052000000025,37.769310000000246],[30.971490000000188,37.77003000000013],[30.971800000000087,37.76817000000028],[30.97334000000012,37.76754000000017],[30.976480000000038,37.76985000000019],[30.975800000000106,37.77044000000012],[30.975350000000162,37.77136000000007],[30.976670000000126,37.77149000000014],[30.980230000000176,37.77051000000006],[30.980980000000045,37.769620000000316],[30.9808000000001,37.76878000000045],[30.982300000000237,37.76796000000013],[30.98301000000015,37.767520000000104],[30.98335000000003,37.767210000000034],[30.983520000000112,37.766980000000046],[30.983520000000112,37.76611000000037],[30.984410000000196,37.766120000000114],[30.98465000000016,37.76577000000009],[30.985350000000153,37.765470000000164],[30.985060000000146,37.765840000000196],[30.987320000000068,37.7654900000004],[30.992500000000064,37.76500000000033],[30.99376000000018,37.76576000000068],[30.996430000000146,37.765500000000486],[30.99744000000004,37.765720000000215],[30.998040000000117,37.76597000000032],[30.99859000000015,37.76636000000008],[30.999960000000158,37.76691000000062],[31.002020000000073,37.76840000000027],[31.004000000000133,37.7707800000004],[30.998980000000074,37.77431000000041],[30.998530000000187,37.7747700000001],[30.998520000000042,37.77510000000041],[30.999170000000163,37.77672000000018],[30.999440000000163,37.77779000000004],[31.000730000000146,37.780950000000416],[31.001170000000116,37.78088000000008],[31.001290000000097,37.78126000000009],[31.001890000000174,37.78110000000021],[31.00240000000008,37.78135000000026],[31.002740000000188,37.78127000000006],[31.0025500000001,37.78062000000028],[31.004180000000133,37.78018000000009],[31.00500000000011,37.78002000000038],[31.005420000000242,37.780030000000465],[31.005420000000242,37.78038000000032],[31.00599000000011,37.78046000000052],[31.006100000000174,37.78091000000012],[31.006740000000207,37.78070000000048],[31.007730000000038,37.7808500000001],[31.00930000000011,37.781490000000474],[31.009540000000243,37.7817100000002],[31.00999000000013,37.78173000000044],[31.010150000000067,37.78190000000029],[31.01101000000017,37.78200000000004],[31.01197000000019,37.78154000000035],[31.012610000000052,37.78143000000034],[31.013040000000103,37.781490000000474],[31.013690000000054,37.781640000000095],[31.01423000000017,37.78194000000008],[31.01457000000005,37.78231000000011],[31.015820000000076,37.78249000000011],[31.01674000000014,37.78247000000056],[31.018140000000187,37.783250000000294],[31.018710000000112,37.783280000000104],[31.019110000000126,37.78343000000041],[31.020740000000217,37.78456000000011],[31.02157055330332,37.785410625473276],[31.021800000000155,37.78567000000032],[31.0220700000001,37.78643000000011],[31.022140000000036,37.78694000000024],[31.022480000000087,37.78758000000005],[31.022550000000194,37.78790000000009],[31.023040000000094,37.78869000000009],[31.02405000000016,37.789320000000316],[31.02470000000011,37.789510000000405],[31.025170000000116,37.78935000000013],[31.02575000000013,37.78934000000004],[31.026870000000088,37.789450000000045],[31.027080000000183,37.789640000000134],[31.027070000000094,37.78974000000028],[31.02684000000005,37.78989000000058],[31.026330000000144,37.791580000000295],[31.02609000000018,37.7919500000005],[31.026130000000137,37.79209000000071],[31.02578000000011,37.79274000000049],[31.025810000000092,37.793070000000114],[31.025980000000118,37.79320000000018],[31.02566000000013,37.79361000000017],[31.025820000000067,37.79402000000039],[31.025810000000092,37.794460000000186],[31.025650000000212,37.794650000000104],[31.025590000000193,37.7950600000006],[31.025430000000085,37.795240000000035],[31.025190000000123,37.796350000000075],[31.025120000000243,37.79649000000029],[31.024800000000198,37.79661000000027],[31.024630000000172,37.79702000000009],[31.024720000000173,37.797400000000266],[31.024280000000147,37.79834000000005],[31.022910000000138,37.798990000000344],[31.022660000000087,37.799360000000036],[31.022000000000162,37.799600000000396],[31.021950000000118,37.799910000000295],[31.022140000000036,37.80015000000043],[31.022140000000036,37.80133000000069],[31.021000000000186,37.80102000000011],[31.020690000000116,37.80125000000032],[31.01999000000012,37.80305000000021],[31.020130000000165,37.803330000000074],[31.020040000000165,37.803880000000106],[31.019300000000044,37.80470000000031],[31.018920000000037,37.80528000000015],[31.01869000000005,37.80573000000027],[31.018710000000112,37.80637000000007]]],"type":"Polygon"}},{"type":"Feature","properties":{"area_id":"TR-32-001-2015846","name_tr":"Sofular Köyü","area_level":"neighbourhood","parent_id":"TR-32-001","endeksa_id":2015846},"geometry":{"coordinates":[[[31.069640000000163,37.84465000000034],[31.067640000000097,37.85096000000016],[31.058350000000075,37.86492000000004],[31.05069000000009,37.8712000000001],[31.05032000000034,37.870140000000504],[31.048820000000262,37.86550000000045],[31.039550000000247,37.8654200000002],[31.031830000000298,37.86551000000054],[31.025820000000238,37.86546000000067],[31.024950000000388,37.865030000000615],[31.024660000000324,37.86497000000048],[31.01609000000036,37.860630000000356],[31.008430000000203,37.85375000000079],[30.996940000000222,37.84924000000012],[31.000140000000158,37.83645000000041],[31.000500000000102,37.83624000000009],[31.00101000000018,37.8354800000003],[31.000900000000172,37.83364000000029],[31.000550000000146,37.83326000000011],[31.001800000000173,37.83295000000004],[31.002110000000073,37.832720000000165],[31.002750000000106,37.832590000000096],[31.00317000000024,37.832380000000455],[31.003180000000157,37.83209000000011],[31.003650000000164,37.8318000000001],[31.00395000000009,37.83144000000016],[31.004640000000165,37.8312700000003],[31.00500000000011,37.83100000000013],[31.00537000000014,37.83093000000042],[31.006940000000043,37.83016000000009],[31.00729000000024,37.8298800000004],[31.007690000000082,37.829740000000186],[31.00689000000017,37.82792000000023],[31.00544000000008,37.825880000000154],[31.004880000000128,37.82435000000004],[31.00499000000019,37.82368000000042],[31.005180000000053,37.82326000000046],[31.005080000000135,37.82263000000023],[31.004980000000046,37.822530000000086],[31.005050000000153,37.822280000000376],[31.004650000000083,37.82174000000032],[31.004840000000172,37.82149000000038],[31.00494000000009,37.82106000000033],[31.005270000000053,37.82048000000066],[31.005780000000186,37.820170000000076],[31.005800000000193,37.81985000000003],[31.00633000000022,37.8191900000005],[31.006630000000143,37.819120000000396],[31.00713000000013,37.81945000000019],[31.00794000000019,37.820180000000164],[31.00956000000008,37.81880000000024],[31.01113000000015,37.8188200000003],[31.011520000000075,37.81907000000052],[31.012290000000235,37.81923000000029],[31.01231000000007,37.81957000000068],[31.012760000000185,37.81986000000052],[31.01430000000005,37.820360000000164],[31.015060000000062,37.81955000000045],[31.015260000000126,37.81951000000015],[31.014840000000163,37.81846000000013],[31.01494000000008,37.81761000000051],[31.015300000000195,37.81616000000008],[31.014770000000055,37.814720000000136],[31.014120000000105,37.8139000000005],[31.01426000000015,37.8135700000002],[31.014590000000112,37.81145000000032],[31.014810000000182,37.81090000000029],[31.015510000000177,37.810350000000255],[31.016420000000153,37.80867000000035],[31.01652000000007,37.8077500000004],[31.01659000000018,37.807810000000416],[31.017680000000155,37.80680000000012],[31.018710000000112,37.80637000000007],[31.018580000000156,37.80677000000031],[31.018790000000138,37.80742000000009],[31.018340000000194,37.80770000000052],[31.020040000000165,37.80941000000007],[31.020840000000135,37.80980000000022],[31.02167000000003,37.80991000000006],[31.023600000000044,37.809820000000286],[31.0261900000001,37.809890000000166],[31.02650000000017,37.80980000000022],[31.02795000000009,37.80901000000023],[31.027960000000178,37.80935000000011],[31.02891000000011,37.80960000000016],[31.03037000000012,37.809520000000475],[31.031610000000228,37.81037000000009],[31.03282000000013,37.81155000000007],[31.0332200000002,37.81145000000032],[31.03328000000016,37.8116500000005],[31.03400000000005,37.81213000000042],[31.034150000000068,37.81241000000017],[31.03400000000005,37.81253000000015],[31.0345200000001,37.81301000000008],[31.034910000000252,37.813330000000235],[31.03526000000005,37.81291000000033],[31.036600000000078,37.81291000000033],[31.03768000000008,37.81253000000015],[31.03870000000012,37.81190000000004],[31.03870000000012,37.81176000000039],[31.039800000000184,37.81176000000039],[31.03988000000004,37.81216000000006],[31.039670000000058,37.812250000000404],[31.03947000000005,37.81198000000012],[31.039370000000133,37.81196000000057],[31.03956000000005,37.81229000000019],[31.039670000000058,37.81338000000011],[31.03956000000005,37.81365000000028],[31.039310000000114,37.81368000000009],[31.03922000000017,37.81338000000011],[31.039000000000044,37.81335000000047],[31.039020000000107,37.81412000000023],[31.038540000000182,37.814170000000104],[31.038630000000182,37.81428000000017],[31.038870000000145,37.81424000000021],[31.038970000000063,37.814720000000136],[31.03892000000019,37.8151400000001],[31.03938000000005,37.815710000000365],[31.039950000000147,37.81574000000069],[31.039950000000147,37.81611000000004],[31.040560000000198,37.81684000000007],[31.04105000000004,37.8172100000001],[31.041970000000106,37.81770000000017],[31.043050000000164,37.81922000000014],[31.043720000000178,37.81978000000032],[31.04480000000018,37.82015000000035],[31.045180000000187,37.82012000000003],[31.045620000000156,37.82049000000006],[31.046330000000125,37.82148000000029],[31.047670000000153,37.8227600000003],[31.048130000000185,37.82354000000021],[31.048870000000136,37.824140000000114],[31.04932000000025,37.82360000000017],[31.04998000000012,37.82328000000018],[31.050650000000132,37.82271000000043],[31.051880000000097,37.822310000000186],[31.05208000000016,37.822030000000325],[31.052040000000204,37.82177000000013],[31.051520000000153,37.82094000000035],[31.05186000000026,37.82063000000028],[31.051660000000027,37.82040000000029],[31.054030000000182,37.819640000000106],[31.055470000000128,37.819430000000466],[31.055660000000046,37.81970000000007],[31.056800000000067,37.81985000000003],[31.057190000000162,37.82021000000037],[31.057150000000092,37.82050000000021],[31.056800000000067,37.82047000000017],[31.056800000000067,37.821720000000255],[31.057640000000106,37.82161000000036],[31.058200000000056,37.82164000000017],[31.058760000000063,37.82171000000011],[31.05957000000012,37.82198000000028],[31.059870000000046,37.82244000000014],[31.061670000000106,37.82363000000015],[31.062020000000132,37.82398000000035],[31.062570000000164,37.82480000000015],[31.062320000000113,37.82648000000029],[31.061740000000043,37.82797000000011],[31.063330000000178,37.82723000000067],[31.06435000000016,37.82697000000047],[31.064820000000168,37.827080000000365],[31.064570000000117,37.82756000000029],[31.074380000000133,37.8297000000004],[31.069640000000163,37.84465000000034]]],"type":"Polygon"}},{"type":"Feature","properties":{"area_id":"TR-32-001-31429","name_tr":"Kurtuluş","area_level":"neighbourhood","parent_id":"TR-32-001","endeksa_id":31429},"geometry":{"coordinates":[[[31.119230000000073,37.819030000000055],[31.119600000000162,37.822000000000116],[31.1191800000002,37.824140000000114],[31.11793000000017,37.826490000000035],[31.12014000000005,37.840710000000456],[31.119530000000225,37.85155000000066],[31.123960000000125,37.86352000000056],[31.123350000000073,37.87430000000006],[31.116680000000144,37.87298000000027],[31.111330000000123,37.87087000000048],[31.103650000000073,37.86666000000031],[31.09697000000017,37.86403000000013],[31.091960000000086,37.85981000000004],[31.075260000000128,37.84981000000022],[31.069640000000163,37.84465000000034],[31.074380000000133,37.8297000000004],[31.064570000000117,37.82756000000029],[31.064820000000168,37.827080000000365],[31.06435000000016,37.82697000000047],[31.063330000000178,37.82723000000067],[31.061740000000043,37.82797000000011],[31.062320000000113,37.82648000000029],[31.062570000000164,37.82480000000015],[31.062020000000132,37.82398000000035],[31.061670000000106,37.82363000000015],[31.059870000000046,37.82244000000014],[31.05957000000012,37.82198000000028],[31.058760000000063,37.82171000000011],[31.058200000000056,37.82164000000017],[31.057640000000106,37.82161000000036],[31.056800000000067,37.821720000000255],[31.056800000000067,37.82047000000017],[31.057150000000092,37.82050000000021],[31.057190000000162,37.82021000000037],[31.056800000000067,37.81985000000003],[31.056800000000067,37.81609000000037],[31.05502000000024,37.806920000000105],[31.057390000000225,37.80809000000011],[31.061508209110116,37.809337835864255],[31.062560000000246,37.80963000000037],[31.065100000000086,37.81160000000011],[31.06766000000016,37.8130000000001],[31.06866000000008,37.812980000000266],[31.069520000000182,37.8127800000002],[31.071090000000083,37.811630000000264],[31.071530000000052,37.810600000000306],[31.0727500000001,37.80948000000018],[31.073190000000125,37.809210000000405],[31.073430000000087,37.80944000000028],[31.073370000000068,37.80951000000039],[31.073520000000258,37.80960000000016],[31.074240000000145,37.80897000000044],[31.07587000000018,37.808900000000335],[31.076290000000085,37.809080000000336],[31.076500000000067,37.80907000000019],[31.076670000000092,37.80889000000025],[31.076820000000055,37.8088800000001],[31.077310000000125,37.80839000000009],[31.076760000000093,37.80777000000012],[31.077120000000036,37.807720000000074],[31.078290000000038,37.80690000000027],[31.082230000000038,37.806420000000344],[31.0852500000002,37.80631000000062],[31.08907000000005,37.80568000000039],[31.090230000000133,37.805310000000304],[31.09514000000013,37.80984000000012],[31.097600000000057,37.81200000000035],[31.104010000000187,37.81329000000011],[31.109470000000044,37.814690000000496],[31.112470000000144,37.81836000000004],[31.11258000000015,37.82046000000042],[31.116160000000093,37.81997000000041],[31.119230000000073,37.819030000000055]]],"type":"Polygon"}}]}