{"type":"FeatureCollection","source_id":"endeksa","retrieved_at":"2026-08-23","features":[{"type":"Feature","properties":{"area_id":"TR-34-027-40614","name_tr":"Cevizli","area_level":"neighbourhood","parent_id":"TR-34-027","endeksa_id":40614},"geometry":{"coordinates":[[[29.151214500000094,40.925901100000374],[29.15096100000011,40.9260946000004],[29.150521200000128,40.92582510000011],[29.1495824000001,40.925612300000125],[29.148517500000082,40.925504900000135],[29.14799720000019,40.9249233000001],[29.146978000000047,40.924635500000136],[29.146682900000144,40.92425860000003],[29.146355700000072,40.92422820000019],[29.14622160000016,40.92409240000029],[29.145821900000158,40.92407410000055],[29.14506820000014,40.9238735000003],[29.14454250000017,40.923628300000075],[29.14422330000002,40.92329790000014],[29.143869300000063,40.92306689999998],[29.143614500000126,40.92303449999997],[29.143365000000074,40.92268990000042],[29.14282320000018,40.922410300000195],[29.142319000000043,40.92196030000008],[29.141900500000077,40.92141520000047],[29.140921500000047,40.920884200000046],[29.138751400000103,40.91828920000046],[29.153706600000078,40.91202759999999],[29.154890675000104,40.91126608400009],[29.157720848000054,40.91227980100035],[29.158604575000084,40.912523858000384],[29.15892767200006,40.91253562700001],[29.159385326000063,40.913177673000064],[29.15857449500004,40.91344402800013],[29.157544235000103,40.91347748300018],[29.156925594000143,40.913725705000616],[29.158071997000036,40.914037941000515],[29.160330690000137,40.91516601000018],[29.16333849700004,40.91590570000005],[29.1637444750001,40.916132461000075],[29.164816051999992,40.917066054000145],[29.166697395000142,40.917755397000064],[29.167514333000042,40.917900844000656],[29.168858360000172,40.91793581600035],[29.170229300000074,40.91822790000003],[29.170315937000055,40.91825559799997],[29.170291925000186,40.91835216100043],[29.170222600000045,40.918335900000045],[29.170219600000166,40.918471800000134],[29.16964750000011,40.918758200000184],[29.16965600000009,40.91946540000043],[29.157350100000087,40.923247300000355],[29.154402300000072,40.92417140000043],[29.15350380000018,40.92454030000005],[29.15235309999997,40.92511580000041],[29.151214500000094,40.925901100000374]]],"type":"Polygon"}},{"type":"Feature","properties":{"area_id":"TR-34-027-40616","name_tr":"Yalı","area_level":"neighbourhood","parent_id":"TR-34-027","endeksa_id":40616},"geometry":{"coordinates":[[[29.12931620000012,40.92234880000012],[29.127973800000063,40.92306689999998],[29.127100100000064,40.92374680000012],[29.11884840000016,40.93206410000016],[29.117374600000062,40.9337599000001],[29.116591200000073,40.93310010000005],[29.116447280999978,40.933334719000186],[29.11562402200019,40.932924231000186],[29.114470000000097,40.93226510000005],[29.11439570000016,40.931932000000074],[29.113343200000145,40.930264700000464],[29.113230600000065,40.92982620000009],[29.113249399999972,40.929505200000506],[29.113683500000036,40.928802200000064],[29.119228100000157,40.922538300000156],[29.122685800000056,40.924277100000154],[29.122782400000062,40.92417250000017],[29.119287100000065,40.92244740000007],[29.121708000000183,40.91956640000012],[29.122609200000113,40.918931999999984],[29.123156500000107,40.91875220000003],[29.123639300000093,40.91871160000005],[29.127207300000066,40.91944630000012],[29.127651200000003,40.919235900000274],[29.12786290000014,40.91896839999998],[29.12793719600006,40.919014035000146],[29.127821800000106,40.918638900000076],[29.128016700000046,40.918376100000046],[29.128171600000087,40.91830950000036],[29.128099900000052,40.918282100000226],[29.12821830000007,40.91812679999998],[29.127707000000044,40.91789810000006],[29.127752000000044,40.91783450000014],[29.128264127000193,40.918059438000455],[29.128616900000168,40.91759910000002],[29.12894970000019,40.9174744],[29.130417100000102,40.915517500000135],[29.1302328000001,40.915363200000115],[29.130272500000046,40.91528180000017],[29.13047670000003,40.915251800000135],[29.13065540000008,40.915361100000155],[29.130590100000177,40.915316100000155],[29.13081321700008,40.91500177500018],[29.130629800000122,40.9149625],[29.130602000000124,40.914828900000145],[29.130748900000185,40.9147332000004],[29.130960528000116,40.91486785000035],[29.132559379000156,40.91243722100023],[29.13253975600003,40.9122280520001],[29.13196620700012,40.912187952000124],[29.131959265000035,40.91210616500001],[29.132868129000087,40.91198197400013],[29.133990900000185,40.91074860000003],[29.133613200000013,40.9105670000003],[29.133630200000027,40.91044490000013],[29.133971300000155,40.91043140000045],[29.134285900000066,40.91067450000031],[29.134424353999975,40.9105394450001],[29.134332200000188,40.91047430000009],[29.13828520500016,40.9066683730004],[29.139689540000063,40.907530412000085],[29.139881723000087,40.90793966900043],[29.139877465999973,40.90861887900013],[29.13972158500013,40.90906453600019],[29.138843378000047,40.91031493600008],[29.13888819100015,40.91053153100012],[29.139478858000075,40.91160836300003],[29.140648400000032,40.91253000200004],[29.14228868800018,40.91332985000014],[29.142992775000096,40.9135846620004],[29.145068820000176,40.91385319800008],[29.146756721000145,40.91417978100003],[29.14747665499999,40.91409706500008],[29.14935982700007,40.91291698700013],[29.150409126000113,40.91117545100013],[29.150758232000044,40.91024050300001],[29.151065099000107,40.909681383000475],[29.15299481600016,40.91070313400019],[29.154755881000142,40.910823979000156],[29.154960402000086,40.910970933000044],[29.154743262000068,40.91119829000013],[29.154890675000104,40.91126608400009],[29.153706600000078,40.91202759999999],[29.138751400000103,40.91828920000046],[29.12931620000012,40.92234880000012]]],"type":"Polygon"}},{"type":"Feature","properties":{"area_id":"TR-34-027-40621","name_tr":"Gülsuyu","area_level":"neighbourhood","parent_id":"TR-34-027","endeksa_id":40621},"geometry":{"coordinates":[[[29.1668504000001,40.934257100000025],[29.16644270000012,40.93426930000015],[29.166163800000163,40.93378300000006],[29.165115100000037,40.93268470000032],[29.164911200000063,40.93252050000024],[29.16435869999998,40.93236050000013],[29.163870500000087,40.93257320000015],[29.163720300000136,40.93272320000017],[29.163532600000053,40.933213600000386],[29.16340920000016,40.93329870000014],[29.16271450000005,40.9335195000001],[29.161912500000085,40.93390449999998],[29.161856200000045,40.934064600000454],[29.161982200000182,40.93502910000018],[29.161861500000157,40.93510000000015],[29.16162010000005,40.935118300000056],[29.16082350000005,40.93481430000031],[29.159163200000023,40.93399370000009],[29.158591900000147,40.93382750000001],[29.15766659999997,40.933801200000175],[29.156749200000093,40.93398760000048],[29.155923100000166,40.9339106000005],[29.155715199999975,40.933815500000094],[29.15549010000001,40.93294820000045],[29.15446400000002,40.933008900000175],[29.15435670000005,40.932437500000106],[29.15413140000004,40.93213760000003],[29.151158200000054,40.93160260000013],[29.152465800000073,40.930964300000085],[29.153222100000107,40.93040300000018],[29.153806900000006,40.93030160000018],[29.154908800000044,40.930301800000336],[29.15492800000004,40.92966330000007],[29.155080900000087,40.92942010000007],[29.154869000000133,40.9285751000001],[29.154431800000054,40.92796110000029],[29.15252480000015,40.92721730000005],[29.15235309999997,40.92694780000011],[29.152371900000105,40.92674310000041],[29.15220560000006,40.92654250000015],[29.15183010000004,40.926204100000064],[29.151214500000094,40.925901100000374],[29.15235309999997,40.92511580000041],[29.15350380000018,40.92454030000005],[29.154402300000072,40.92417140000043],[29.157350100000087,40.923247300000355],[29.158026000000064,40.92462740000013],[29.158208400000035,40.924538200000086],[29.15836930000006,40.92498410000053],[29.158524900000145,40.924931400000105],[29.159608500000104,40.926171700000054],[29.159608500000104,40.926354],[29.159764000000166,40.92656890000006],[29.16011270000007,40.92683640000013],[29.160547300000133,40.92714440000003],[29.1609603,40.92722950000018],[29.161207100000183,40.927501100000086],[29.161679100000185,40.927537500000085],[29.162821800000188,40.92784150000034],[29.164838800000098,40.92873320000058],[29.165401999999972,40.92905740000003],[29.166340800000057,40.929876100000286],[29.16646420000012,40.93008280000015],[29.16641060000012,40.93036240000038],[29.16616920000007,40.93122970000019],[29.165879500000074,40.93176070000061],[29.166641200000015,40.93200790000009],[29.1667968000001,40.93224700000019],[29.166764600000135,40.93279410000014],[29.166614400000128,40.93302920000008],[29.16654470000003,40.93340200000034],[29.166834300000005,40.93396530000041],[29.1668504000001,40.934257100000025]]],"type":"Polygon"}},{"type":"Feature","properties":{"area_id":"TR-34-027-40615","name_tr":"Bağlarbaşı","area_level":"neighbourhood","parent_id":"TR-34-027","endeksa_id":40615},"geometry":{"coordinates":[[[29.15096100000011,40.9260946000004],[29.13868460000009,40.93601390000009],[29.13820710000016,40.93581330000001],[29.137968400000148,40.93557620000047],[29.13790140000009,40.93538369999999],[29.13793090000007,40.93498050000005],[29.13823130000003,40.93444760000017],[29.138158900000064,40.934133500000144],[29.135550400000113,40.93161680000043],[29.13492140000011,40.93083460000037],[29.13469210000011,40.93038369999999],[29.134425200000067,40.928559900000096],[29.134312600000158,40.92824170000006],[29.132663000000093,40.926185800000155],[29.131662500000118,40.9254016000001],[29.131053700000166,40.924790600000506],[29.131102000000112,40.924761200000205],[29.130777400000056,40.92396270000006],[29.12931620000012,40.92234880000012],[29.138751400000103,40.91828920000046],[29.140921500000047,40.920884200000046],[29.141900500000077,40.92141520000047],[29.142319000000043,40.92196030000008],[29.14282320000018,40.922410300000195],[29.143365000000074,40.92268990000042],[29.143614500000126,40.92303449999997],[29.143869300000063,40.92306689999998],[29.14422330000002,40.92329790000014],[29.14454250000017,40.923628300000075],[29.14506820000014,40.9238735000003],[29.145821900000158,40.92407410000055],[29.14622160000016,40.92409240000029],[29.146355700000072,40.92422820000019],[29.146682900000144,40.92425860000003],[29.146978000000047,40.924635500000136],[29.14799720000019,40.9249233000001],[29.148517500000082,40.925504900000135],[29.1495824000001,40.925612300000125],[29.150521200000128,40.92582510000011],[29.15096100000011,40.9260946000004]]],"type":"Polygon"}},{"type":"Feature","properties":{"area_id":"TR-34-027-40610","name_tr":"Feyzullah","area_level":"neighbourhood","parent_id":"TR-34-027","endeksa_id":40610},"geometry":{"coordinates":[[[29.131053700000166,40.924790600000506],[29.13034020000009,40.92529010000027],[29.129787700000065,40.9260541000001],[29.129095700000164,40.92945260000005],[29.128411700000072,40.931414099999984],[29.12572410000007,40.93415580000004],[29.123345000000086,40.9357930000001],[29.12224530000003,40.93672510000067],[29.121399199999985,40.937299900000085],[29.121089300000108,40.9371486],[29.118820100000107,40.93530270000008],[29.117374600000062,40.9337599000001],[29.11884840000016,40.93206410000016],[29.127100100000064,40.92374680000012],[29.127973800000063,40.92306689999998],[29.12931620000012,40.92234880000012],[29.130777400000056,40.92396270000006],[29.131102000000112,40.924761200000205],[29.131053700000166,40.924790600000506]]],"type":"Polygon"}},{"type":"Feature","properties":{"area_id":"TR-34-027-40620","name_tr":"Esenkent","area_level":"neighbourhood","parent_id":"TR-34-027","endeksa_id":40620},"geometry":{"coordinates":[[[29.170107300000097,40.936412800000085],[29.169644500000175,40.93639680000018],[29.169329300000072,40.93661579999997],[29.16848090000019,40.93731020000041],[29.168369700000028,40.93761340000009],[29.167139100000043,40.93914480000018],[29.16664660000015,40.93915250000043],[29.16654530000011,40.938759700000105],[29.166635700000086,40.93865730000016],[29.16667100000018,40.93800550000003],[29.167086500000096,40.93732490000002],[29.16712940000008,40.9369764000005],[29.166957700000125,40.93635230000001],[29.166914800000086,40.93573630000003],[29.166705600000057,40.935476900000424],[29.166652000000056,40.93487720000019],[29.1668504000001,40.934257100000025],[29.166834300000005,40.93396530000041],[29.16654470000003,40.93340200000034],[29.166614400000128,40.93302920000008],[29.166764600000135,40.93279410000014],[29.1667968000001,40.93224700000019],[29.166641200000015,40.93200790000009],[29.165879500000074,40.93176070000061],[29.16616920000007,40.93122970000019],[29.16641060000012,40.93036240000038],[29.16646420000012,40.93008280000015],[29.166340800000057,40.929876100000286],[29.165401999999972,40.92905740000003],[29.164838800000098,40.92873320000058],[29.162821800000188,40.92784150000034],[29.161679100000185,40.927537500000085],[29.161207100000183,40.927501100000086],[29.1609603,40.92722950000018],[29.160547300000133,40.92714440000003],[29.16011270000007,40.92683640000013],[29.159764000000166,40.92656890000006],[29.159608500000104,40.926354],[29.159608500000104,40.926171700000054],[29.158524900000145,40.924931400000105],[29.15836930000006,40.92498410000053],[29.158208400000035,40.924538200000086],[29.158026000000064,40.92462740000013],[29.157350100000087,40.923247300000355],[29.16965600000009,40.91946540000043],[29.169963700000153,40.91937530000007],[29.170079800000167,40.92118210000018],[29.169409300000098,40.92973830000011],[29.16987060000008,40.930046300000186],[29.173126800000034,40.93090150000057],[29.17534230000018,40.93238480000019],[29.173915400000055,40.93460160000012],[29.173378900000102,40.93483260000005],[29.173008800000048,40.9352257000001],[29.172563500000138,40.93547290000009],[29.172139800000082,40.93552150000005],[29.17126540000004,40.935861900000305],[29.1710025000001,40.936044300000106],[29.170530400000132,40.936157800000274],[29.170107300000097,40.936412800000085]]],"type":"Polygon"}},{"type":"Feature","properties":{"area_id":"TR-34-027-40622","name_tr":"Gülensu","area_level":"neighbourhood","parent_id":"TR-34-027","endeksa_id":40622},"geometry":{"coordinates":[[[29.170107300000097,40.936412800000085],[29.17010010000007,40.93646820000038],[29.171324300000094,40.93688120000007],[29.17001130000017,40.93720740000043],[29.169867400000157,40.937386800000354],[29.169556800000066,40.937547800000175],[29.169033800000136,40.93812920000016],[29.168441000000087,40.93932070000017],[29.16870220000004,40.93958270000013],[29.16911950000008,40.93981100000002],[29.16907670000012,40.93985960000032],[29.16979280000004,40.94031960000018],[29.169889300000193,40.940678100000184],[29.169819600000096,40.94141160000015],[29.167934100000082,40.9419364000002],[29.166120900000124,40.942313200000115],[29.165532200000087,40.943660300000374],[29.16354600000011,40.942511800000204],[29.162446300000056,40.94204580000019],[29.158852100000047,40.94128400000022],[29.157800700000053,40.94088690000041],[29.15744660000007,40.94053839999998],[29.157092600000112,40.939946700000064],[29.15693160000012,40.93909580000036],[29.15632010000013,40.938181900000416],[29.155668300000002,40.93748700000015],[29.155550300000016,40.93705130000012],[29.155491300000108,40.9352662000004],[29.155915100000186,40.934437400000036],[29.155715199999975,40.933815500000094],[29.155923100000166,40.9339106000005],[29.156749200000093,40.93398760000048],[29.15766659999997,40.933801200000175],[29.158591900000147,40.93382750000001],[29.159163200000023,40.93399370000009],[29.16082350000005,40.93481430000031],[29.16162010000005,40.935118300000056],[29.161861500000157,40.93510000000015],[29.161982200000182,40.93502910000018],[29.161856200000045,40.934064600000454],[29.161912500000085,40.93390449999998],[29.16271450000005,40.9335195000001],[29.16340920000016,40.93329870000014],[29.163532600000053,40.933213600000386],[29.163720300000136,40.93272320000017],[29.163870500000087,40.93257320000015],[29.16435869999998,40.93236050000013],[29.164911200000063,40.93252050000024],[29.165115100000037,40.93268470000032],[29.166163800000163,40.93378300000006],[29.16644270000012,40.93426930000015],[29.1668504000001,40.934257100000025],[29.166652000000056,40.93487720000019],[29.166705600000057,40.935476900000424],[29.166914800000086,40.93573630000003],[29.166957700000125,40.93635230000001],[29.16712940000008,40.9369764000005],[29.167086500000096,40.93732490000002],[29.16667100000018,40.93800550000003],[29.166635700000086,40.93865730000016],[29.16654530000011,40.938759700000105],[29.16664660000015,40.93915250000043],[29.167139100000043,40.93914480000018],[29.168369700000028,40.93761340000009],[29.16848090000019,40.93731020000041],[29.169329300000072,40.93661579999997],[29.169644500000175,40.93639680000018],[29.170107300000097,40.936412800000085]]],"type":"Polygon"}},{"type":"Feature","properties":{"area_id":"TR-34-027-40612","name_tr":"Altayçeşme","area_level":"neighbourhood","parent_id":"TR-34-027","endeksa_id":40612},"geometry":{"coordinates":[[[29.129870300000164,40.943193700000165],[29.129098800000065,40.94381490000001],[29.128789900000072,40.943342400000176],[29.128387600000053,40.943135800000164],[29.12842510000013,40.9427103000001],[29.127749200000153,40.94182900000055],[29.126823800000125,40.94121510000002],[29.12603530000007,40.94111780000014],[29.125742900000034,40.94098010000016],[29.125536400000044,40.94069640000009],[29.125453200000038,40.93986970000009],[29.125557800000024,40.93958000000009],[29.125356700000054,40.93918490000027],[29.12521180000016,40.938315700000146],[29.12504820000015,40.93812520000034],[29.12454660000003,40.9378051000005],[29.124224800000036,40.93772610000036],[29.122266800000034,40.937523400000146],[29.121399199999985,40.937299900000085],[29.12224530000003,40.93672510000067],[29.123345000000086,40.9357930000001],[29.12572410000007,40.93415580000004],[29.128411700000072,40.931414099999984],[29.129095700000164,40.92945260000005],[29.129787700000065,40.9260541000001],[29.13034020000009,40.92529010000027],[29.131053700000166,40.924790600000506],[29.131662500000118,40.9254016000001],[29.132663000000093,40.926185800000155],[29.134312600000158,40.92824170000006],[29.134425200000067,40.928559900000096],[29.13469210000011,40.93038369999999],[29.13492140000011,40.93083460000037],[29.135550400000113,40.93161680000043],[29.138158900000064,40.934133500000144],[29.13823130000003,40.93444760000017],[29.13793090000007,40.93498050000005],[29.13790140000009,40.93538369999999],[29.137968400000148,40.93557620000047],[29.13820710000016,40.93581330000001],[29.13868460000009,40.93601390000009],[29.129870300000164,40.943193700000165]]],"type":"Polygon"}},{"type":"Feature","properties":{"area_id":"TR-34-027-40618","name_tr":"Girne","area_level":"neighbourhood","parent_id":"TR-34-027","endeksa_id":40618},"geometry":{"coordinates":[[[29.145129900000086,40.94513550000022],[29.144848300000035,40.94495510000007],[29.144239400000117,40.94501590000027],[29.14319869999997,40.94533200000012],[29.142506700000126,40.945429200000035],[29.141836200000057,40.94540090000015],[29.141141500000117,40.94565000000051],[29.140173200000106,40.94568650000019],[29.1396448000001,40.94555690000027],[29.138781100000074,40.945739200000105],[29.138065000000154,40.945627800000125],[29.13748560000016,40.94535220000006],[29.136992099999986,40.945271200000434],[29.136756100000184,40.94506450000006],[29.13636980000001,40.94489440000052],[29.135361300000056,40.94479310000031],[29.13472830000012,40.94454180000048],[29.133744900000067,40.944546900000546],[29.13379490000017,40.94444460000011],[29.132663000000093,40.94384290000005],[29.130919600000084,40.94380640000003],[29.129870300000164,40.943193700000165],[29.13868460000009,40.93601390000009],[29.139583100000152,40.936439400000154],[29.140538000000106,40.937440400000526],[29.145349900000156,40.943893500000115],[29.14553220000016,40.944491200000016],[29.1453767000001,40.9448883],[29.145129900000086,40.94513550000022]]],"type":"Polygon"}},{"type":"Feature","properties":{"area_id":"TR-34-027-40609","name_tr":"İdealtepe","area_level":"neighbourhood","parent_id":"TR-34-027","endeksa_id":40609},"geometry":{"coordinates":[[[29.129098800000065,40.94381490000001],[29.12411630000014,40.947794700000145],[29.123060700000167,40.94689600000004],[29.120839800000113,40.944683700000496],[29.119584600000167,40.94379630000026],[29.119445100000178,40.94385300000033],[29.118104000000017,40.942904800000065],[29.118002100000126,40.94274270000011],[29.1167521000001,40.941875600000174],[29.116827200000102,40.94181070000013],[29.11578120000007,40.94120700000025],[29.115545100000077,40.94121100000007],[29.115368100000126,40.94084230000027],[29.115116000000057,40.94067610000019],[29.114971200000184,40.94026690000027],[29.11318480000017,40.93931860000032],[29.112777100000187,40.939209200000505],[29.108382800000015,40.937064600000156],[29.113240700000176,40.93156430000016],[29.113295800000117,40.93146630000041],[29.112424999999973,40.930108700000346],[29.11253810000011,40.93000850000004],[29.112751623000122,40.930033035000065],[29.11296878400003,40.93054434400051],[29.113891826000042,40.93199612100028],[29.114153471000122,40.93208798900042],[29.11432264200016,40.93244110900014],[29.11534482800016,40.932917564000036],[29.11556240700014,40.93297735900029],[29.11562402200019,40.932924231000186],[29.116447280999978,40.933334719000186],[29.116591200000073,40.93310010000005],[29.117374600000062,40.9337599000001],[29.118820100000107,40.93530270000008],[29.121089300000108,40.9371486],[29.121399199999985,40.937299900000085],[29.122266800000034,40.937523400000146],[29.124224800000036,40.93772610000036],[29.12454660000003,40.9378051000005],[29.12504820000015,40.93812520000034],[29.12521180000016,40.938315700000146],[29.125356700000054,40.93918490000027],[29.125557800000024,40.93958000000009],[29.125453200000038,40.93986970000009],[29.125536400000044,40.94069640000009],[29.125742900000034,40.94098010000016],[29.12603530000007,40.94111780000014],[29.126823800000125,40.94121510000002],[29.127749200000153,40.94182900000055],[29.12842510000013,40.9427103000001],[29.128387600000053,40.943135800000164],[29.128789900000072,40.943342400000176],[29.129098800000065,40.94381490000001]]],"type":"Polygon"}},{"type":"Feature","properties":{"area_id":"TR-34-027-40608","name_tr":"Çınar","area_level":"neighbourhood","parent_id":"TR-34-027","endeksa_id":40608},"geometry":{"coordinates":[[[29.12411630000014,40.947794700000145],[29.120772800000054,40.950544600000114],[29.119697200000076,40.94982140000019],[29.11916880000001,40.9496228000001],[29.116679700000134,40.9494425000006],[29.114424000000042,40.948437700000056],[29.113340400000084,40.9476719000001],[29.11215480000004,40.94656980000059],[29.110840600000188,40.94613220000008],[29.11069040000018,40.94594180000013],[29.1109747000001,40.945771600000626],[29.110685000000103,40.94549000000006],[29.110035900000014,40.94563990000006],[29.109636200000182,40.94513340000003],[29.109384100000113,40.94509090000008],[29.109026100000165,40.9446033000001],[29.106731700000182,40.9429353000001],[29.107056821000185,40.942779118000146],[29.107395900000085,40.942451500000004],[29.10760117000018,40.94210899000012],[29.106545400000073,40.93980120000009],[29.10658870000009,40.9392448000001],[29.10687580000007,40.93876660000012],[29.108382800000015,40.937064600000156],[29.112777100000187,40.939209200000505],[29.11318480000017,40.93931860000032],[29.114971200000184,40.94026690000027],[29.115116000000057,40.94067610000019],[29.115368100000126,40.94084230000027],[29.115545100000077,40.94121100000007],[29.11578120000007,40.94120700000025],[29.116827200000102,40.94181070000013],[29.1167521000001,40.941875600000174],[29.118002100000126,40.94274270000011],[29.118104000000017,40.942904800000065],[29.119445100000178,40.94385300000033],[29.119584600000167,40.94379630000026],[29.120839800000113,40.944683700000496],[29.123060700000167,40.94689600000004],[29.12411630000014,40.947794700000145]]],"type":"Polygon"}},{"type":"Feature","properties":{"area_id":"TR-34-027-40623","name_tr":"Zümrütevler","area_level":"neighbourhood","parent_id":"TR-34-027","endeksa_id":40623},"geometry":{"coordinates":[[[29.1709113,40.95136500000018],[29.170550700000035,40.95152190000016],[29.169430700000078,40.951737800000444],[29.169114200000024,40.95171750000054],[29.167955500000062,40.95100440000016],[29.167472700000076,40.951020600000106],[29.16711330000004,40.95085050000057],[29.166356900000153,40.95070460000022],[29.165316200000177,40.95069650000062],[29.163486999999975,40.95109360000043],[29.161673800000074,40.95068840000016],[29.16123390000007,40.9508019000001],[29.16113200000018,40.95072080000017],[29.16063840000004,40.95069650000062],[29.160499000000016,40.950534500000174],[29.16026290000002,40.950534500000174],[29.159458300000097,40.95013740000019],[29.159195399999987,40.950117100000284],[29.158734100000004,40.949833500000125],[29.15836930000006,40.94976870000005],[29.157929400000057,40.94978490000051],[29.15757000000019,40.949963200000184],[29.156679500000052,40.94993480000011],[29.156116200000156,40.95000770000047],[29.155343800000026,40.9496147000001],[29.154796599999997,40.94944460000005],[29.154539100000193,40.94952150000006],[29.154217200000062,40.94940000000014],[29.15408310000015,40.9492906000001],[29.15421190000012,40.94922170000012],[29.154249400000026,40.94903530000016],[29.15407780000004,40.948767900000064],[29.153723700000057,40.94850050000014],[29.15297810000004,40.94839110000015],[29.152264600000137,40.94849650000049],[29.15167990000009,40.948342500000535],[29.1506445,40.94786030000006],[29.150124200000164,40.94778330000008],[29.14993640000006,40.947669900000164],[29.14984520000013,40.947410600000524],[29.14912640000017,40.947062100000096],[29.148697300000038,40.946693400000186],[29.14809110000016,40.94641380000047],[29.147543900000187,40.94594790000065],[29.147307900000158,40.946081600000184],[29.147023600000125,40.946085600000174],[29.14639240000008,40.945849899999985],[29.145784400000082,40.94534820000041],[29.145129900000086,40.94513550000022],[29.1453767000001,40.9448883],[29.14553220000016,40.944491200000016],[29.145349900000156,40.943893500000115],[29.140538000000106,40.937440400000526],[29.139583100000152,40.936439400000154],[29.13868460000009,40.93601390000009],[29.15096100000011,40.9260946000004],[29.151214500000094,40.925901100000374],[29.15183010000004,40.926204100000064],[29.15220560000006,40.92654250000015],[29.152371900000105,40.92674310000041],[29.15235309999997,40.92694780000011],[29.15252480000015,40.92721730000005],[29.154431800000054,40.92796110000029],[29.154869000000133,40.9285751000001],[29.155080900000087,40.92942010000007],[29.15492800000004,40.92966330000007],[29.154908800000044,40.930301800000336],[29.153806900000006,40.93030160000018],[29.153222100000107,40.93040300000018],[29.152465800000073,40.930964300000085],[29.151158200000054,40.93160260000013],[29.15413140000004,40.93213760000003],[29.15435670000005,40.932437500000106],[29.15446400000002,40.933008900000175],[29.15549010000001,40.93294820000045],[29.155715199999975,40.933815500000094],[29.155915100000186,40.934437400000036],[29.155491300000108,40.9352662000004],[29.155550300000016,40.93705130000012],[29.155668300000002,40.93748700000015],[29.15632010000013,40.938181900000416],[29.15693160000012,40.93909580000036],[29.157092600000112,40.939946700000064],[29.15744660000007,40.94053839999998],[29.157800700000053,40.94088690000041],[29.158852100000047,40.94128400000022],[29.162446300000056,40.94204580000019],[29.16354600000011,40.942511800000204],[29.165532200000087,40.943660300000374],[29.16682900000012,40.944452700000056],[29.167826800000057,40.94654350000019],[29.168642200000022,40.94705810000016],[29.16887820000005,40.947297100000185],[29.168980100000113,40.947564600000476],[29.16899080000013,40.94828980000011],[29.16912500000018,40.9485734000001],[29.169774100000097,40.94936760000007],[29.16973650000017,40.950283300000535],[29.17025150000012,40.95081400000004],[29.17083080000009,40.951166500000056],[29.1709113,40.95136500000018]]],"type":"Polygon"}},{"type":"Feature","properties":{"area_id":"TR-34-027-40611","name_tr":"Küçükyalı Merkez","area_level":"neighbourhood","parent_id":"TR-34-027","endeksa_id":40611},"geometry":{"coordinates":[[[29.120772800000054,40.950544600000114],[29.118538500000113,40.952365799999995],[29.115071700000158,40.95555720000027],[29.11467080000017,40.95513890000012],[29.114373000000057,40.955365800000095],[29.113541500000167,40.95428010000012],[29.112873700000023,40.95363390000011],[29.11235330000011,40.952967400000034],[29.111741800000118,40.95197880000012],[29.110387300000127,40.951405500000305],[29.110208900000146,40.951625300000046],[29.108878500000174,40.95085350000011],[29.107662100000084,40.95048380000043],[29.10684670000012,40.950080700000115],[29.106420300000025,40.950131300000066],[29.106278100000168,40.95002800000037],[29.1058503000001,40.94996010000011],[29.105869100000064,40.95003710000009],[29.105507000000102,40.95011110000013],[29.10509660000008,40.950011800000084],[29.104926300000045,40.949878100000035],[29.10462590000003,40.949967200000174],[29.10443280000004,40.94982950000065],[29.103321000000108,40.94979300000011],[29.10304070000018,40.94982950000065],[29.102874400000076,40.949963200000184],[29.102646400000026,40.949894300000324],[29.101667400000053,40.95009280000005],[29.10147960000012,40.95004020000067],[29.100833200000125,40.94957320000003],[29.100638800000183,40.94956310000009],[29.10028340000008,40.94989630000049],[29.09962760000019,40.9495783000001],[29.099948100000063,40.94914980000004],[29.099886400000116,40.949104200000136],[29.099508200000116,40.94893810000008],[29.098792500000002,40.948918800000115],[29.099967200000037,40.94776680000018],[29.1018732,40.9452512000002],[29.102824900000087,40.944266800000094],[29.101833300000067,40.940934900000116],[29.10192770000009,40.939234000000056],[29.102145500000177,40.93916960000007],[29.10224038500013,40.939248937000684],[29.10213972400004,40.93935983300008],[29.102060885000185,40.94029890400043],[29.102135541000166,40.94129506400043],[29.102393900000095,40.942074600000126],[29.1026053650001,40.94208300000025],[29.103122668000026,40.94397836700017],[29.104139900000177,40.94310619999999],[29.105487400000072,40.94260700000012],[29.105573200000094,40.94270420000049],[29.10553030000011,40.94286630000005],[29.10454506100018,40.943180860000496],[29.10343686200008,40.944032372000606],[29.105118500000117,40.943715400000315],[29.106731700000182,40.9429353000001],[29.109026100000165,40.9446033000001],[29.109384100000113,40.94509090000008],[29.109636200000182,40.94513340000003],[29.110035900000014,40.94563990000006],[29.110685000000103,40.94549000000006],[29.1109747000001,40.945771600000626],[29.11069040000018,40.94594180000013],[29.110840600000188,40.94613220000008],[29.11215480000004,40.94656980000059],[29.113340400000084,40.9476719000001],[29.114424000000042,40.948437700000056],[29.116679700000134,40.9494425000006],[29.11916880000001,40.9496228000001],[29.119697200000076,40.94982140000019],[29.120772800000054,40.950544600000114]]],"type":"Polygon"}},{"type":"Feature","properties":{"area_id":"TR-34-027-40613","name_tr":"Altıntepe","area_level":"neighbourhood","parent_id":"TR-34-027","endeksa_id":40613},"geometry":{"coordinates":[[[29.115071700000158,40.95555720000027],[29.111269735000064,40.95903089500018],[29.109656229000166,40.95807482100048],[29.107734922000077,40.9579850340001],[29.10649913700007,40.95773735700027],[29.105858392000073,40.957307523000054],[29.104275850000022,40.956565257000136],[29.102295224000102,40.956315592000124],[29.101027390000183,40.95628430500011],[29.09947911600017,40.954737839000245],[29.097901291000085,40.954292200000054],[29.097554406000086,40.953610661000084],[29.096536900000103,40.95349400700036],[29.096203866000053,40.95299042700026],[29.094831747000114,40.951967733000004],[29.09516400000018,40.95163040000011],[29.095825800000057,40.95131560000033],[29.09596020000015,40.95098939999997],[29.098792500000002,40.948918800000115],[29.099508200000116,40.94893810000008],[29.099886400000116,40.949104200000136],[29.099948100000063,40.94914980000004],[29.09962760000019,40.9495783000001],[29.10028340000008,40.94989630000049],[29.100638800000183,40.94956310000009],[29.100833200000125,40.94957320000003],[29.10147960000012,40.95004020000067],[29.101667400000053,40.95009280000005],[29.102646400000026,40.949894300000324],[29.102874400000076,40.949963200000184],[29.10304070000018,40.94982950000065],[29.103321000000108,40.94979300000011],[29.10443280000004,40.94982950000065],[29.10462590000003,40.949967200000174],[29.104926300000045,40.949878100000035],[29.10509660000008,40.950011800000084],[29.105507000000102,40.95011110000013],[29.105869100000064,40.95003710000009],[29.1058503000001,40.94996010000011],[29.106278100000168,40.95002800000037],[29.106420300000025,40.950131300000066],[29.10684670000012,40.950080700000115],[29.107662100000084,40.95048380000043],[29.108878500000174,40.95085350000011],[29.110208900000146,40.951625300000046],[29.110387300000127,40.951405500000305],[29.111741800000118,40.95197880000012],[29.11235330000011,40.952967400000034],[29.112873700000023,40.95363390000011],[29.113541500000167,40.95428010000012],[29.114373000000057,40.955365800000095],[29.11467080000017,40.95513890000012],[29.115071700000158,40.95555720000027]]],"type":"Polygon"}},{"type":"Feature","properties":{"area_id":"TR-34-027-40617","name_tr":"Aydınevler","area_level":"neighbourhood","parent_id":"TR-34-027","endeksa_id":40617},"geometry":{"coordinates":[[[29.133744900000067,40.944546900000546],[29.133108300000174,40.945850600000085],[29.136761400000125,40.9504939000002],[29.13635910000005,40.951656700000115],[29.13607750000017,40.95202540000008],[29.13585480000006,40.95217530000008],[29.135511500000064,40.95212670000029],[29.13426160000006,40.951758000000154],[29.133494500000154,40.950708700000064],[29.133108300000174,40.950943700000096],[29.1326684,40.95184720000026],[29.132443100000046,40.95193630000017],[29.132030000000157,40.951826900000356],[29.131713500000046,40.95161220000017],[29.130892700000175,40.95347990000016],[29.129787700000065,40.95306670000008],[29.12804960000011,40.95292080000013],[29.12769920000011,40.952977499999974],[29.12778680000008,40.953253000000075],[29.12827490000012,40.953532600000074],[29.12833390000003,40.95398630000068],[29.12730930000015,40.954468500000075],[29.123908300000153,40.95551780000005],[29.123098200000072,40.9557001],[29.121075900000108,40.955866200000116],[29.116998900000056,40.95683850000006],[29.11716520000016,40.957531200000176],[29.116795100000104,40.95772570000014],[29.1162425,40.95819560000007],[29.11617280000013,40.95850350000069],[29.11621570000011,40.958738500000095],[29.11680040000016,40.95916790000024],[29.118163000000095,40.95943119999998],[29.1171169000001,40.96061409999999],[29.11595280000006,40.96056950000002],[29.115821786000026,40.96064944500034],[29.11510086300018,40.96038870199999],[29.11448480000007,40.9599070000001],[29.114178900000184,40.95981500000016],[29.113581980000163,40.95984084500009],[29.11286070799997,40.959632123000006],[29.112086272000056,40.959590324000374],[29.11180129200011,40.95946672600013],[29.111325524000165,40.95899443200045],[29.11123494600014,40.959064655000134],[29.115071700000158,40.95555720000027],[29.118538500000113,40.952365799999995],[29.120772800000054,40.950544600000114],[29.12411630000014,40.947794700000145],[29.129870300000164,40.943193700000165],[29.130919600000084,40.94380640000003],[29.132663000000093,40.94384290000005],[29.13379490000017,40.94444460000011],[29.133744900000067,40.944546900000546]]],"type":"Polygon"}},{"type":"Feature","properties":{"area_id":"TR-34-027-40619","name_tr":"Fındıklı","area_level":"neighbourhood","parent_id":"TR-34-027","endeksa_id":40619},"geometry":{"coordinates":[[[29.144796916000075,40.973333457000194],[29.144477186000074,40.973388218000025],[29.143587800000034,40.97295820000011],[29.142646300000138,40.97295130000026],[29.141523000000063,40.97327510000008],[29.14075722400014,40.97379441500016],[29.14044850000016,40.97389820000012],[29.13838370000002,40.97386800000044],[29.137201236000067,40.974106530000086],[29.136415803000034,40.97399655300018],[29.136002908000023,40.97371947800008],[29.13504852500006,40.97338473499997],[29.134686900000077,40.973173599999996],[29.134378100000106,40.97311769999999],[29.132153500000072,40.973101700000086],[29.131507900000088,40.973274300000185],[29.129570706000038,40.973114200000055],[29.127814254000043,40.973102203000224],[29.1271220000001,40.9730272000005],[29.126230700000065,40.97279920000011],[29.12577058400001,40.972483195000166],[29.125527964000014,40.97218423500016],[29.124899057000107,40.97167459500008],[29.123553167000125,40.970865188000175],[29.122722479000174,40.96974269400016],[29.122543709000126,40.969119515000386],[29.122779841000124,40.96864011800005],[29.122795796000105,40.96809390200019],[29.122586549999994,40.967672874000186],[29.121449743000028,40.967229162000024],[29.120731602000035,40.9664457060004],[29.120224494000183,40.96627358900014],[29.119600247000108,40.96557085100022],[29.119204614000125,40.96492384500016],[29.11947450000008,40.964789500000165],[29.12000300000011,40.96431260000065],[29.120931000000155,40.963239100000294],[29.121059800000182,40.96319860000017],[29.12329670000014,40.964156600000535],[29.126633400000173,40.965827500000046],[29.123730800000033,40.967494700000145],[29.1240150000001,40.96829050000008],[29.126654900000176,40.96816880000017],[29.12813010000002,40.967897400000254],[29.12939610000018,40.96744570000004],[29.129924500000186,40.96737490000004],[29.130895400000043,40.967429500000264],[29.13304390000019,40.96808570000002],[29.1362357000001,40.968602200000305],[29.138614300000086,40.96868120000045],[29.139468500000078,40.96852380000007],[29.139538399999992,40.968325900000536],[29.140487000000178,40.96832050000012],[29.141677900000104,40.96850500000011],[29.142737400000044,40.969153000000404],[29.143480400000044,40.96932110000046],[29.14415630000019,40.969681600000115],[29.14482150000015,40.96990850000003],[29.146251100000143,40.971044600000596],[29.14628590000018,40.97118430000006],[29.14619740000012,40.97137060000057],[29.145028000000025,40.97223739999998],[29.144832200000167,40.97263640000017],[29.144796916000075,40.973333457000194]]],"type":"Polygon"}},{"type":"Feature","properties":{"area_id":"TR-34-027-40625","name_tr":"Başıbüyük","area_level":"neighbourhood","parent_id":"TR-34-027","endeksa_id":40625},"geometry":{"coordinates":[[[29.154641580000145,40.97418899500008],[29.154740767000135,40.973897099000624],[29.154480280000143,40.97387969700043],[29.15345082600004,40.974213140000074],[29.152545907000047,40.97421153600044],[29.15115526900007,40.973703874000535],[29.14948298400003,40.97248398500005],[29.149047803000144,40.97270076700005],[29.14780547000015,40.97302410600042],[29.144796916000075,40.973333457000194],[29.144832200000167,40.97263640000017],[29.145028000000025,40.97223739999998],[29.14619740000012,40.97137060000057],[29.14628590000018,40.97118430000006],[29.146251100000143,40.971044600000596],[29.14482150000015,40.96990850000003],[29.14415630000019,40.969681600000115],[29.143480400000044,40.96932110000046],[29.142737400000044,40.969153000000404],[29.141677900000104,40.96850500000011],[29.140487000000178,40.96832050000012],[29.139538399999992,40.968325900000536],[29.139468500000078,40.96852380000007],[29.138614300000086,40.96868120000045],[29.1362357000001,40.968602200000305],[29.13304390000019,40.96808570000002],[29.130895400000043,40.967429500000264],[29.129924500000186,40.96737490000004],[29.12939610000018,40.96744570000004],[29.12813010000002,40.967897400000254],[29.126654900000176,40.96816880000017],[29.1240150000001,40.96829050000008],[29.123730800000033,40.967494700000145],[29.126633400000173,40.965827500000046],[29.12329670000014,40.964156600000535],[29.121059800000182,40.96319860000017],[29.120931000000155,40.963239100000294],[29.12000300000011,40.96431260000065],[29.11947450000008,40.964789500000165],[29.119204614000125,40.96492384500016],[29.11879533700011,40.96437439400012],[29.117775449000135,40.96350763700008],[29.117509961000167,40.96309138200019],[29.117312003000166,40.962390448000065],[29.11694507500016,40.96197985400005],[29.116546201000176,40.961331927000174],[29.115821786000026,40.96064944500034],[29.11595280000006,40.96056950000002],[29.1171169000001,40.96061409999999],[29.118163000000095,40.95943119999998],[29.11680040000016,40.95916790000024],[29.11621570000011,40.958738500000095],[29.11617280000013,40.95850350000069],[29.1162425,40.95819560000007],[29.116795100000104,40.95772570000014],[29.11716520000016,40.957531200000176],[29.116998900000056,40.95683850000006],[29.121075900000108,40.955866200000116],[29.123098200000072,40.9557001],[29.123908300000153,40.95551780000005],[29.12730930000015,40.954468500000075],[29.12833390000003,40.95398630000068],[29.12827490000012,40.953532600000074],[29.12778680000008,40.953253000000075],[29.12769920000011,40.952977499999974],[29.12804960000011,40.95292080000013],[29.129787700000065,40.95306670000008],[29.130892700000175,40.95347990000016],[29.131713500000046,40.95161220000017],[29.132030000000157,40.951826900000356],[29.132443100000046,40.95193630000017],[29.1326684,40.95184720000026],[29.133108300000174,40.950943700000096],[29.133494500000154,40.950708700000064],[29.13426160000006,40.951758000000154],[29.135511500000064,40.95212670000029],[29.13585480000006,40.95217530000008],[29.13607750000017,40.95202540000008],[29.13635910000005,40.951656700000115],[29.136761400000125,40.9504939000002],[29.133108300000174,40.945850600000085],[29.133744900000067,40.944546900000546],[29.13472830000012,40.94454180000048],[29.135361300000056,40.94479310000031],[29.13636980000001,40.94489440000052],[29.136756100000184,40.94506450000006],[29.136992099999986,40.945271200000434],[29.13748560000016,40.94535220000006],[29.138065000000154,40.945627800000125],[29.138781100000074,40.945739200000105],[29.1396448000001,40.94555690000027],[29.140173200000106,40.94568650000019],[29.141141500000117,40.94565000000051],[29.141836200000057,40.94540090000015],[29.142506700000126,40.945429200000035],[29.14319869999997,40.94533200000012],[29.144239400000117,40.94501590000027],[29.144848300000035,40.94495510000007],[29.145129900000086,40.94513550000022],[29.145784400000082,40.94534820000041],[29.14639240000008,40.945849899999985],[29.147023600000125,40.946085600000174],[29.147307900000158,40.946081600000184],[29.147543900000187,40.94594790000065],[29.14809110000016,40.94641380000047],[29.148697300000038,40.946693400000186],[29.14912640000017,40.947062100000096],[29.14984520000013,40.947410600000524],[29.14993640000006,40.947669900000164],[29.150124200000164,40.94778330000008],[29.1506445,40.94786030000006],[29.15167990000009,40.948342500000535],[29.152264600000137,40.94849650000049],[29.15297810000004,40.94839110000015],[29.153723700000057,40.94850050000014],[29.15407780000004,40.948767900000064],[29.154249400000026,40.94903530000016],[29.15421190000012,40.94922170000012],[29.15408310000015,40.9492906000001],[29.154217200000062,40.94940000000014],[29.154539100000193,40.94952150000006],[29.154796599999997,40.94944460000005],[29.155343800000026,40.9496147000001],[29.156116200000156,40.95000770000047],[29.156679500000052,40.94993480000011],[29.15757000000019,40.949963200000184],[29.157929400000057,40.94978490000051],[29.15836930000006,40.94976870000005],[29.158734100000004,40.949833500000125],[29.159195399999987,40.950117100000284],[29.159458300000097,40.95013740000019],[29.16026290000002,40.950534500000174],[29.160499000000016,40.950534500000174],[29.16063840000004,40.95069650000062],[29.16113200000018,40.95072080000017],[29.16123390000007,40.9508019000001],[29.161673800000074,40.95068840000016],[29.163486999999975,40.95109360000043],[29.165316200000177,40.95069650000062],[29.166356900000153,40.95070460000022],[29.16711330000004,40.95085050000057],[29.167472700000076,40.951020600000106],[29.167955500000062,40.95100440000016],[29.169114200000024,40.95171750000054],[29.169430700000078,40.951737800000444],[29.170550700000035,40.95152190000016],[29.1709113,40.95136500000018],[29.170860300000072,40.9516588000003],[29.16987600000016,40.95260680000058],[29.16906330000006,40.95401470000019],[29.169892100000084,40.95344750000015],[29.17146920000016,40.952839800000675],[29.172370400000148,40.95273440000011],[29.17402270000008,40.952961300000425],[29.175234999999986,40.95344750000015],[29.175589100000025,40.9552625000004],[29.175825100000168,40.955416500000354],[29.17623280000015,40.955505600000265],[29.1775310000001,40.95527870000018],[29.178689700000064,40.955578500000115],[29.17639370000012,40.95766900000007],[29.17620060000013,40.957701400000076],[29.17492390000001,40.958860000000186],[29.17549250000019,40.959216500000025],[29.177906500000063,40.95975120000003],[29.178142500000035,40.96053710000001],[29.178507300000035,40.96079640000033],[29.178400000000067,40.96297580000004],[29.17875410000005,40.96336470000006],[29.17858240000004,40.96411810000001],[29.17891500000019,40.96432070000026],[29.178657500000043,40.96449890000008],[29.17862530000002,40.965333300000054],[29.17802450000005,40.96551160000001],[29.177659700000106,40.966030100000296],[29.177198400000123,40.96637840000034],[29.17658690000013,40.96637030000005],[29.17600750000014,40.96655660000016],[29.174634200000014,40.9673992000001],[29.17418360000005,40.967455900000175],[29.17384030000005,40.96772320000008],[29.167746300000147,40.9690437000001],[29.16365860000019,40.97058290000041],[29.16320743200015,40.97054867600042],[29.16370845800003,40.97019481400008],[29.15609142700015,40.96999578200018],[29.154794792000075,40.973800231999974],[29.154814229000124,40.973916365000264],[29.154737460000092,40.97393044600045],[29.154641580000145,40.97418899500008]]],"type":"Polygon"}},{"type":"Feature","properties":{"area_id":"TR-34-027-40624","name_tr":"Büyükbakkalköy","area_level":"neighbourhood","parent_id":"TR-34-027","endeksa_id":40624},"geometry":{"coordinates":[[[29.213642524000136,40.973443945999975],[29.21351492300016,40.973927507000155],[29.214008683000145,40.97414934500017],[29.213123766000024,40.975191537000114],[29.21226463199997,40.97593109500019],[29.21166942700006,40.97556856900019],[29.209738251000147,40.97489479500007],[29.2082906010001,40.97415520000004],[29.20665034200016,40.9740316460003],[29.205885547000037,40.97373176799999],[29.205306919000122,40.973665329000085],[29.206140402000074,40.97522421400021],[29.204832246000024,40.97620410100001],[29.20429060300006,40.97577854200006],[29.204138623000063,40.97587755100017],[29.20326632900003,40.97537023200039],[29.20315287800014,40.975426490000245],[29.202616507000073,40.976239055000065],[29.20174600500019,40.97563325100003],[29.201375400000188,40.97527549800054],[29.200222219000068,40.97467803700005],[29.199386885000024,40.97437389400005],[29.19943474100006,40.97511433599999],[29.199302772000067,40.976306895000164],[29.198970022000083,40.977888886000414],[29.199005580000176,40.97840002700019],[29.199308314000177,40.97943123500022],[29.198848664000025,40.98033356600018],[29.198283396000136,40.98116598800016],[29.19809669900002,40.98130741200015],[29.196118053000134,40.980149176000054],[29.19615689900013,40.979880131000414],[29.195823306000136,40.97974176700018],[29.195416836999982,40.97974021200014],[29.194976473000168,40.97960898000008],[29.19459703600012,40.97964320699998],[29.19302340000013,40.9790962000003],[29.19200917400002,40.97891848300043],[29.190750520000165,40.9789040310003],[29.190599318000125,40.97869331600003],[29.18942988600014,40.97841287400007],[29.188544657000193,40.978585120000105],[29.187587486000098,40.97854268500009],[29.186415908000185,40.978061468000305],[29.18607310400006,40.977850829000374],[29.18532194300019,40.97701562100019],[29.18458938500015,40.97597583600003],[29.18410544900007,40.97564410600012],[29.183536539000045,40.97545790600003],[29.18314184700006,40.97519975300008],[29.18254633200013,40.97455813300007],[29.18243898200012,40.97405299400015],[29.180916049000132,40.97516025100015],[29.18045978000015,40.97504173400006],[29.179525977000026,40.97455454700031],[29.179815762000146,40.975107535000234],[29.179809392000152,40.97538412400047],[29.179515211000023,40.97608253900012],[29.179371962000175,40.97631124600008],[29.17892124700012,40.97670347500048],[29.177952099000038,40.97717518000019],[29.177308817000096,40.97732541500005],[29.176632767000115,40.97733267300049],[29.17652330100009,40.97721348800013],[29.176463160000026,40.97692723900019],[29.176098514000046,40.97646340600005],[29.174753588000158,40.976450330000034],[29.174363992000053,40.976186979000374],[29.174047345000076,40.97608359000026],[29.173367181000117,40.976173464000055],[29.173004330000026,40.97630704100004],[29.17250643900013,40.976697507000154],[29.17238725300018,40.97776393400005],[29.171461361000127,40.978353520000155],[29.171106562000034,40.97839861400013],[29.170339071,40.978251317000115],[29.168723095000075,40.978740363999975],[29.167495935000147,40.979307571000106],[29.1653798640001,40.979427369000064],[29.164922305000175,40.97957563599999],[29.162995451000086,40.98057517400014],[29.162381812000035,40.98077257700004],[29.161730100000113,40.98028890000057],[29.16121780000003,40.9796936000007],[29.16088426700003,40.979532075000066],[29.159819292999998,40.97946288200012],[29.159639538000135,40.97565674600014],[29.159819357000003,40.97497930100013],[29.16230881500013,40.97118334700008],[29.16320743200015,40.97054867600042],[29.16365860000019,40.97058290000041],[29.167746300000147,40.9690437000001],[29.17384030000005,40.96772320000008],[29.17418360000005,40.967455900000175],[29.174634200000014,40.9673992000001],[29.17600750000014,40.96655660000016],[29.17658690000013,40.96637030000005],[29.177198400000123,40.96637840000034],[29.177659700000106,40.966030100000296],[29.17802450000005,40.96551160000001],[29.17862530000002,40.965333300000054],[29.178657500000043,40.96449890000008],[29.17891500000019,40.96432070000026],[29.17858240000004,40.96411810000001],[29.17875410000005,40.96336470000006],[29.178400000000067,40.96297580000004],[29.178507300000035,40.96079640000033],[29.178142500000035,40.96053710000001],[29.177906500000063,40.95975120000003],[29.17549250000019,40.959216500000025],[29.17492390000001,40.958860000000186],[29.17620060000013,40.957701400000076],[29.17639370000012,40.95766900000007],[29.178689700000064,40.955578500000115],[29.1775310000001,40.95527870000018],[29.17623280000015,40.955505600000265],[29.175825100000168,40.955416500000354],[29.175589100000025,40.9552625000004],[29.175234999999986,40.95344750000015],[29.17402270000008,40.952961300000425],[29.172370400000148,40.95273440000011],[29.17146920000016,40.952839800000675],[29.169892100000084,40.95344750000015],[29.16906330000006,40.95401470000019],[29.16987600000016,40.95260680000058],[29.170860300000072,40.9516588000003],[29.1709113,40.95136500000018],[29.17083080000009,40.951166500000056],[29.17025150000012,40.95081400000004],[29.16973650000017,40.950283300000535],[29.169774100000097,40.94936760000007],[29.16912500000018,40.9485734000001],[29.16899080000013,40.94828980000011],[29.168980100000113,40.947564600000476],[29.16887820000005,40.947297100000185],[29.168642200000022,40.94705810000016],[29.167826800000057,40.94654350000019],[29.16682900000012,40.944452700000056],[29.165532200000087,40.943660300000374],[29.166120900000124,40.942313200000115],[29.167934100000082,40.9419364000002],[29.169819600000096,40.94141160000015],[29.169889300000193,40.940678100000184],[29.16979280000004,40.94031960000018],[29.16907670000012,40.93985960000032],[29.16911950000008,40.93981100000002],[29.16870220000004,40.93958270000013],[29.168441000000087,40.93932070000017],[29.169033800000136,40.93812920000016],[29.169556800000066,40.937547800000175],[29.169867400000157,40.937386800000354],[29.17001130000017,40.93720740000043],[29.171324300000094,40.93688120000007],[29.17010010000007,40.93646820000038],[29.170107300000097,40.936412800000085],[29.170530400000132,40.936157800000274],[29.1710025000001,40.936044300000106],[29.17126540000004,40.935861900000305],[29.172139800000082,40.93552150000005],[29.172563500000138,40.93547290000009],[29.173008800000048,40.9352257000001],[29.173378900000102,40.93483260000005],[29.173915400000055,40.93460160000012],[29.17534230000018,40.93238480000019],[29.173126800000034,40.93090150000057],[29.16987060000008,40.930046300000186],[29.169409300000098,40.92973830000011],[29.170079800000167,40.92118210000018],[29.169963700000153,40.91937530000007],[29.16965600000009,40.91946540000043],[29.16964750000011,40.918758200000184],[29.170219600000166,40.918471800000134],[29.170222600000045,40.918335900000045],[29.170667200000082,40.91841814300005],[29.171427236000056,40.91900341200022],[29.171915065000007,40.91930403100014],[29.17293876300016,40.919323354000085],[29.173963271000048,40.919232858000555],[29.175044508000042,40.91932295300046],[29.176078110000162,40.91953990000002],[29.177642711000033,40.91972660700014],[29.178624169000045,40.92026766300029],[29.17972138700003,40.920702327000186],[29.18335857400018,40.92166185600013],[29.18621871500011,40.92114152600038],[29.186849117000065,40.921258325],[29.187765420999995,40.92169831900003],[29.189528622000125,40.92177906200004],[29.191556742000103,40.921587215000045],[29.193278708000094,40.92118442200001],[29.19393857000017,40.92116323900012],[29.19442174400018,40.92130823500008],[29.195596746000035,40.92195018500041],[29.197929815000066,40.92223631400037],[29.198392891000026,40.922534282000186],[29.198455025000044,40.92300849200012],[29.198832012000025,40.92360428900014],[29.199068567000154,40.92356329300014],[29.199291523000113,40.92304942900006],[29.199328500000092,40.92211360000016],[29.199913771000126,40.92119133400024],[29.20126902300018,40.92152037500006],[29.202142998000056,40.9219586570004],[29.204145453000137,40.92259878100043],[29.203918185000134,40.92291077600004],[29.20381650800016,40.92324701300009],[29.203863876000185,40.923298679000254],[29.204656940000064,40.923564731000056],[29.20518396500006,40.92413606200017],[29.20583352200009,40.924431801000026],[29.205861871000025,40.92466183500005],[29.20564806900012,40.92500052800011],[29.205525972000032,40.92544808100013],[29.205672289000177,40.92550603100028],[29.205861944000105,40.92634557500014],[29.20603230400019,40.927715198000044],[29.206066498000155,40.92780686000032],[29.206330282000124,40.92781729500001],[29.206443913000044,40.92910411900027],[29.207192377000183,40.93195653600014],[29.207785559000058,40.93361152900036],[29.209184139000115,40.93669590100012],[29.21061141100006,40.93916647400016],[29.21182144300019,40.94092282400004],[29.21411071200015,40.943746598000075],[29.216258812000262,40.9459885200003],[29.216296585000293,40.94605613100026],[29.21593540300006,40.946627154],[29.215683407000142,40.94737238400006],[29.215242899000145,40.95182650900006],[29.214619100000107,40.95292280000007],[29.214534226000183,40.95326463800012],[29.214119681000113,40.95361091199999],[29.21364235800013,40.95421020200001],[29.212695896000128,40.955641654000146],[29.212488774000064,40.95585468700028],[29.21137266300019,40.95651663000007],[29.21090679000008,40.957039340000335],[29.21028951900007,40.95829370200056],[29.209942363000152,40.958818392000126],[29.209579098000177,40.95911591300029],[29.20868475000009,40.959624778000205],[29.207396942000116,40.96023575000015],[29.207344381000098,40.96078508100004],[29.207130698000128,40.961346977000176],[29.207206112000165,40.96197273600018],[29.20793315100019,40.96350300600028],[29.208008112000073,40.963905217000104],[29.208275353000033,40.96407691800016],[29.20856744600013,40.96457185600008],[29.208721077000178,40.965353695000374],[29.209093221000046,40.96594086900046],[29.209601725000027,40.966514487000495],[29.209194448000176,40.966672458000176],[29.209496594000143,40.96693689100027],[29.209752760000185,40.96733486699998],[29.209765789000073,40.96753206200003],[29.21065215100009,40.96905663300015],[29.211488708000104,40.96992749100008],[29.211800075000042,40.96990546900008],[29.212231497000175,40.970238221000045],[29.212471922000077,40.97069021600004],[29.212774882000133,40.971639722000134],[29.21330618000019,40.97166089100034],[29.213500912000143,40.97249515100009],[29.213423945999978,40.97299269200016],[29.213507504000177,40.97335257000009],[29.213642524000136,40.973443945999975]]],"type":"Polygon"}}]}