{"type":"FeatureCollection","source_id":"endeksa","retrieved_at":"2026-08-23","features":[{"type":"Feature","properties":{"area_id":"TR-41-003-50338","name_tr":"Yeni","area_level":"neighbourhood","parent_id":"TR-41-003","endeksa_id":50338},"geometry":{"coordinates":[[[29.38590866000004,40.75727002200017],[29.385490522000055,40.75704845900003],[29.38530025900002,40.757280879999996],[29.38346831300015,40.75715064400009],[29.383180953000192,40.75720039400045],[29.382479779000107,40.75762062000058],[29.382415656000035,40.75722699800019],[29.38208152800007,40.757225209000126],[29.38165997900012,40.75635482100006],[29.381226282,40.75636193600053],[29.381170672000053,40.75575157600048],[29.384530665000113,40.7546183770001],[29.384641650000162,40.75448374200005],[29.38481255400012,40.75459689500042],[29.3865976580002,40.7544608510002],[29.386024413000086,40.75489220800006],[29.38637004200018,40.75519069700016],[29.38617066400019,40.75523167200009],[29.38633314100008,40.75579712100006],[29.38629368300019,40.75616945700017],[29.386948404000066,40.75607019],[29.386019701000066,40.75682089900005],[29.38590866000004,40.75727002200017]]],"type":"Polygon"}},{"type":"Feature","properties":{"area_id":"TR-41-003-50337","name_tr":"Yalı","area_level":"neighbourhood","parent_id":"TR-41-003","endeksa_id":50337},"geometry":{"coordinates":[[[29.39306319299999,40.75544397800007],[29.393638610000096,40.75631606500019],[29.391450311000142,40.75692845200018],[29.391009555000096,40.75691590600036],[29.389389005000112,40.7565669030007],[29.38946821799999,40.756979704000116],[29.38885187900007,40.75728651700001],[29.38864474400009,40.757638416000134],[29.388426575000096,40.75756097499999],[29.38815625300009,40.7581778760005],[29.38773872700017,40.75816497300059],[29.38706550900008,40.75785757200015],[29.387071048999985,40.75744714299998],[29.386986529000126,40.75726955300007],[29.38677493700004,40.75712417900013],[29.38634913700014,40.757219323000186],[29.38610401900013,40.757392898000035],[29.385911804000102,40.75734628200007],[29.38590866000004,40.75727002200017],[29.386019701000066,40.75682089900005],[29.386948404000066,40.75607019],[29.38629368300019,40.75616945700017],[29.38633314100008,40.75579712100006],[29.38617066400019,40.75523167200009],[29.38637004200018,40.75519069700016],[29.386024413000086,40.75489220800006],[29.3865976580002,40.7544608510002],[29.386298648603713,40.75448363871129],[29.38553000000013,40.75364000000019],[29.38553000000013,40.75351000000029],[29.386760000000095,40.752470000000244],[29.38736000000017,40.752100000000326],[29.387530000000424,40.75202000000013],[29.387690000000134,40.75205000000028],[29.388330000000167,40.75225000000029],[29.388450000000148,40.75230000000016],[29.388430000000085,40.752410000000225],[29.388360000000148,40.75249000000025],[29.388180000000204,40.75249000000025],[29.388090000000034,40.752410000000225],[29.387970000000053,40.75237000000027],[29.387630000000172,40.752290000000244],[29.38698000000022,40.75261000000023],[29.385880000000157,40.753580000000056],[29.38655000000017,40.754420000000266],[29.38662000000005,40.75437000000022],[29.38671000000005,40.75426000000033],[29.386822956868627,40.75419565195739],[29.38699594400009,40.75399202900064],[29.387316652000152,40.75386864800015],[29.387703672000043,40.75388350200012],[29.388485773000184,40.75334532900007],[29.38899675900018,40.75316273100009],[29.389154413000085,40.7533877920003],[29.38965118500016,40.75363330700009],[29.39032019399997,40.75347431500012],[29.390696835000142,40.753228955000054],[29.39090331400007,40.75326221000006],[29.391312408000033,40.75364790200018],[29.39161911200017,40.754069184],[29.391533314000185,40.75410294800014],[29.39160663700011,40.75425398700014],[29.392369163000126,40.755107501000566],[29.39306319299999,40.75544397800007]]],"type":"Polygon"}},{"type":"Feature","properties":{"area_id":"TR-41-003-50339","name_tr":"Zincirlikuyu","area_level":"neighbourhood","parent_id":"TR-41-003","endeksa_id":50339},"geometry":{"coordinates":[[[29.385911804000102,40.75734628200007],[29.38668417000008,40.75875965100005],[29.386542330000054,40.75967762100015],[29.386457447000055,40.75974907500006],[29.38523953700019,40.7599201660006],[29.38425421300019,40.758944599000074],[29.383843793000153,40.75882626800018],[29.384053334000157,40.757822947000534],[29.382479779000107,40.75762062000058],[29.383180953000192,40.75720039400045],[29.38346831300015,40.75715064400009],[29.38530025900002,40.757280879999996],[29.385490522000055,40.75704845900003],[29.38590866000004,40.75727002200017],[29.385911804000102,40.75734628200007]]],"type":"Polygon"}},{"type":"Feature","properties":{"area_id":"TR-41-003-50328","name_tr":"Bağlarbaşı","area_level":"neighbourhood","parent_id":"TR-41-003","endeksa_id":50328},"geometry":{"coordinates":[[[29.3978004170001,40.769613518000426],[29.39648442900011,40.770006144000035],[29.394758216000184,40.77079809800006],[29.394121518000077,40.77069676200017],[29.393652583999994,40.771377082000186],[29.39336381600009,40.77147099700005],[29.392950453000083,40.772021892000566],[29.39316347600004,40.77218609700003],[29.390947014000176,40.773995673],[29.39000808300017,40.77420805400044],[29.389550586999974,40.77412644499998],[29.389122029000077,40.7738329270004],[29.388984016999984,40.77363097200015],[29.388876743000026,40.77320900600006],[29.389018729000043,40.77278856000004],[29.388476910000065,40.772548273000154],[29.38848039900006,40.77211625800038],[29.38837171100016,40.77206038800006],[29.388481590000083,40.77168531600006],[29.388418061000095,40.76915902800016],[29.387421596000138,40.769800152000414],[29.38627645200006,40.76897116500015],[29.385955181000043,40.76938912700007],[29.385120726000025,40.77011498700011],[29.384016161000034,40.76976585400024],[29.383847319000097,40.76917928600005],[29.384145885000066,40.768656565000015],[29.384151696000117,40.7684742390004],[29.38375511800018,40.76634499400035],[29.383883739000055,40.76571791900005],[29.384800453000082,40.763984794000464],[29.38475612000002,40.76331703300019],[29.38422070600018,40.76177395500008],[29.384096266000142,40.761747241000194],[29.38400798800012,40.76097033100018],[29.383777939000026,40.760033281999995],[29.383843793000153,40.75882626800018],[29.38425421300019,40.758944599000074],[29.38523953700019,40.7599201660006],[29.386457447000055,40.75974907500006],[29.386542330000054,40.75967762100015],[29.38668417000008,40.75875965100005],[29.385911804000102,40.75734628200007],[29.38610401900013,40.757392898000035],[29.38634913700014,40.757219323000186],[29.38677493700004,40.75712417900013],[29.386986529000126,40.75726955300007],[29.387071048999985,40.75744714299998],[29.38706550900008,40.75785757200015],[29.38773872700017,40.75816497300059],[29.38815625300009,40.7581778760005],[29.388426575000096,40.75756097499999],[29.38864474400009,40.757638416000134],[29.38885187900007,40.75728651700001],[29.38946821799999,40.756979704000116],[29.389389005000112,40.7565669030007],[29.391009555000096,40.75691590600036],[29.391450311000142,40.75692845200018],[29.393638610000096,40.75631606500019],[29.39306319299999,40.75544397800007],[29.394068250000146,40.75580951100005],[29.394697698000186,40.75568680000009],[29.394893250000166,40.75577396300014],[29.395696884000074,40.755636061000246],[29.396038438000062,40.75549259600018],[29.396165856000152,40.755206186000294],[29.39626899500007,40.75525398100007],[29.396278285000108,40.75549367100018],[29.396679150000125,40.75599769500013],[29.39807758900014,40.75670248400013],[29.399914502000172,40.758068653000066],[29.402015700999982,40.7586446880004],[29.40392026000012,40.76016296600011],[29.40434000600004,40.76029733900009],[29.404546391000167,40.7602427380001],[29.404596222000066,40.760298661000206],[29.40449576100002,40.760413607000146],[29.407296818000077,40.761640871000054],[29.40724429400018,40.76171502500051],[29.407506563000084,40.76201088000039],[29.41016460800006,40.76294997300005],[29.410599508000132,40.763033099000324],[29.411016259000064,40.76340065100004],[29.412089048000098,40.764080879000176],[29.413793764000104,40.76455816500021],[29.414277603000073,40.76487141500019],[29.414528656000186,40.765006128000095],[29.414349718000096,40.76531197800017],[29.414665765000052,40.76591574400004],[29.414575164000098,40.76597703200014],[29.41460874400002,40.76619772400005],[29.415030769000055,40.76667241200062],[29.415216722000082,40.76713206300019],[29.41542649100012,40.767099612000436],[29.415624948000072,40.76745066700062],[29.41550618200006,40.76754224400014],[29.414559617000123,40.7674553950003],[29.41444320400018,40.76754508200003],[29.414370987000154,40.767783836000206],[29.41452051900012,40.76793646500016],[29.414648306664446,40.76839767722964],[29.411882239000136,40.76917455900008],[29.40982709200017,40.76912450800029],[29.408854819000112,40.768881977000206],[29.407073851000177,40.76882096300017],[29.405448410000076,40.76836067700009],[29.40463910200009,40.76847499900009],[29.404256099999998,40.768274517000066],[29.402518009000175,40.76810500500022],[29.400021052000056,40.767462530000444],[29.399251626000023,40.76703036100048],[29.396464224000113,40.76512500300004],[29.39606865700017,40.764941113000134],[29.395042282000077,40.76479801100015],[29.394383092000055,40.76444127900015],[29.394034320000173,40.76436385600039],[29.3927778420001,40.7646299980002],[29.394410268000172,40.76595634700061],[29.395601301000056,40.767052097000146],[29.397409061000076,40.768973219000145],[29.3978004170001,40.769613518000426]]],"type":"Polygon"}},{"type":"Feature","properties":{"area_id":"TR-41-003-50330","name_tr":"Cami","area_level":"neighbourhood","parent_id":"TR-41-003","endeksa_id":50330},"geometry":{"coordinates":[[[29.37841857600006,40.77491080400017],[29.37779279000017,40.77495768500006],[29.376590288000102,40.7747252220006],[29.37540046400011,40.77508443500005],[29.374234155000124,40.775180950000106],[29.373627981000084,40.77490695800003],[29.37193594300004,40.774465985000006],[29.36938975700008,40.77398549900005],[29.369320870000138,40.77363495000009],[29.369214641000156,40.77350388899998],[29.3673059730001,40.773133355000425],[29.366320389000123,40.773045216000185],[29.366443368999967,40.772813318000146],[29.366288848000067,40.772765260000256],[29.364671908000048,40.77268393700018],[29.36400093100002,40.77226898400005],[29.36307068499997,40.77200616500005],[29.361770992000174,40.77148553400042],[29.3632359880001,40.768916642000136],[29.363507697000102,40.76820205400003],[29.363634237999975,40.76809460100043],[29.362864323000167,40.767803887000355],[29.361218580000127,40.767499596000164],[29.360890847999997,40.76723772300005],[29.3607769030001,40.76728630000025],[29.36076379200017,40.76716392900016],[29.360160903999997,40.7669394020005],[29.360249072000045,40.76672933200035],[29.359865006000064,40.76669605300003],[29.359611590000043,40.766537002000064],[29.359664060000114,40.76645431200018],[29.359567637000055,40.76651121000009],[29.358850717000053,40.76629632100014],[29.358827061000056,40.766207087000396],[29.35864600000008,40.7661566580004],[29.358542910999972,40.766281961000004],[29.35860722100017,40.76635982400069],[29.35821988600003,40.76641841600002],[29.358185107000054,40.766325359000234],[29.35769612400003,40.766269986],[29.355795503000024,40.76574195900014],[29.356150490000005,40.765372472000195],[29.356067078000024,40.76529167100068],[29.354765159000067,40.76521928800014],[29.352880503000108,40.76527421600002],[29.352712361000044,40.76545689200009],[29.352266469000085,40.76550335500008],[29.351992778000067,40.765501817000484],[29.352002046000166,40.765332560000104],[29.35180510600003,40.765326287000164],[29.35208317300004,40.764165053],[29.352143289000026,40.7607772720001],[29.352502958000002,40.75864022600007],[29.352918743000032,40.75845519000018],[29.353358345000174,40.756514199000094],[29.353024865000123,40.75636643700028],[29.353371216000085,40.75640165200008],[29.353640796000036,40.75584902000037],[29.354309928000134,40.75539844500048],[29.35473269700003,40.7553624170007],[29.35548942600002,40.75553467800012],[29.358045943000093,40.75630835000004],[29.358184776000144,40.75620200100053],[29.358233234000068,40.75623810400009],[29.358091741000123,40.75637153300016],[29.358226049000052,40.75708935000017],[29.35883961200011,40.75737434500019],[29.359630800000048,40.75738032400005],[29.359618179000165,40.7573054500001],[29.359696649000057,40.757371154],[29.359862152000176,40.75731192300003],[29.35989407600016,40.75696656100001],[29.360178858999973,40.757280405000074],[29.36050478800007,40.75738635900029],[29.361140978000094,40.757260322000434],[29.360771706000094,40.757059729000446],[29.360836429000074,40.75697946200029],[29.361742058999994,40.75748870500041],[29.361672484000053,40.75756296600025],[29.362237017000098,40.75802729100002],[29.362805038000147,40.757977161000326],[29.362793766000095,40.75785925200006],[29.362921741000093,40.757852280000066],[29.362936805999993,40.757965532000185],[29.363395163000177,40.75792357299997],[29.363859932000025,40.7576239760005],[29.363481199000034,40.75725003400015],[29.364938359000178,40.75639933400009],[29.365076554000154,40.75655622600044],[29.363822488000096,40.757287750000216],[29.364095488000146,40.75754698399999],[29.366819767000038,40.75672187000015],[29.367104966000113,40.75651233700012],[29.367744346000052,40.75635075100058],[29.371372010000186,40.75710476199998],[29.37139613000005,40.75692917900011],[29.37160137600017,40.756919412000116],[29.371532807999984,40.75710769300014],[29.372383047000085,40.75724636500007],[29.373143198000037,40.75711565],[29.374568992000036,40.756405852000114],[29.375428821000014,40.75615077200047],[29.377675272000033,40.75592180100011],[29.38096205400018,40.755696126000146],[29.381170672000053,40.75575157600048],[29.381226282,40.75636193600053],[29.38165997900012,40.75635482100006],[29.38208152800007,40.757225209000126],[29.382415656000035,40.75722699800019],[29.382479779000107,40.75762062000058],[29.384053334000157,40.757822947000534],[29.383843793000153,40.75882626800018],[29.383777939000026,40.760033281999995],[29.38400798800012,40.76097033100018],[29.384096266000142,40.761747241000194],[29.38422070600018,40.76177395500008],[29.38475612000002,40.76331703300019],[29.384800453000082,40.763984794000464],[29.383883739000055,40.76571791900005],[29.38375511800018,40.76634499400035],[29.384151696000117,40.7684742390004],[29.384145885000066,40.768656565000015],[29.383847319000097,40.76917928600005],[29.382111981000037,40.77020670700006],[29.38069239200007,40.77147860800005],[29.379961836000007,40.773017073000574],[29.379513943000177,40.77375232800057],[29.37841857600006,40.77491080400017]]],"type":"Polygon"}},{"type":"Feature","properties":{"area_id":"TR-41-003-50332","name_tr":"Fevziçakmak","area_level":"neighbourhood","parent_id":"TR-41-003","endeksa_id":50332},"geometry":{"coordinates":[[[29.41581235002127,40.771282258664655],[29.415259857000024,40.77220748300056],[29.414898410000035,40.772149706000164],[29.41484440500011,40.772215365000136],[29.414503558000035,40.773108195000475],[29.41414002500005,40.77312463800018],[29.413950446000115,40.77360580400017],[29.414166705000127,40.77365590200009],[29.414133114000094,40.773993892000306],[29.413681814000086,40.7743908610002],[29.4138292990001,40.774617386000045],[29.413299432000088,40.77483782600018],[29.412937984000166,40.77538280800047],[29.412614286000064,40.77625996900031],[29.41243556900008,40.77650429300013],[29.412705302999996,40.77750677500012],[29.412799183000175,40.77909463900005],[29.41317879600001,40.779655209000566],[29.410784990000025,40.781685884000126],[29.408997817000056,40.78064746600069],[29.407645607000063,40.780171905000145],[29.406380231000185,40.77953207900015],[29.40574339300008,40.778779610000186],[29.404487014000097,40.77681137000019],[29.403752512000096,40.77624464500013],[29.40229043800008,40.774729521000154],[29.399901326000133,40.77312954800004],[29.399456524000072,40.77222071200032],[29.398524534000046,40.7711662330002],[29.3978004170001,40.769613518000426],[29.397409061000076,40.768973219000145],[29.395601301000056,40.767052097000146],[29.394410268000172,40.76595634700061],[29.3927778420001,40.7646299980002],[29.394034320000173,40.76436385600039],[29.394383092000055,40.76444127900015],[29.395042282000077,40.76479801100015],[29.39606865700017,40.764941113000134],[29.396464224000113,40.76512500300004],[29.399251626000023,40.76703036100048],[29.400021052000056,40.767462530000444],[29.402518009000175,40.76810500500022],[29.404256099999998,40.768274517000066],[29.40463910200009,40.76847499900009],[29.405448410000076,40.76836067700009],[29.407073851000177,40.76882096300017],[29.408854819000112,40.768881977000206],[29.40982709200017,40.76912450800029],[29.411882239000136,40.76917455900008],[29.414648306664446,40.76839767722964],[29.415721169000165,40.76841746800005],[29.416109391000134,40.76861976800012],[29.416155408000122,40.76874595800041],[29.415847811000162,40.769315379000034],[29.41570825200023,40.77027865433399],[29.415732059000163,40.770577855],[29.416200489000005,40.77129532100008],[29.41581235002127,40.771282258664655]]],"type":"Polygon"}},{"type":"Feature","properties":{"area_id":"TR-41-003-50333","name_tr":"Kazımkarabekir","area_level":"neighbourhood","parent_id":"TR-41-003","endeksa_id":50333},"geometry":{"coordinates":[[[29.408997817000056,40.78064746600069],[29.405482775000166,40.78203984600043],[29.40395599800007,40.78288758800005],[29.402627950000124,40.78329652200017],[29.401933143999997,40.78342064000009],[29.40155912400013,40.78279291200039],[29.40057451200005,40.782899171000054],[29.40007650800004,40.78279537300068],[29.39969945600012,40.78360895900016],[29.39778962600019,40.782563364000225],[29.39687511900013,40.78228423100012],[29.395346863000157,40.78176478600005],[29.39411532800011,40.78121276400003],[29.392609210000046,40.78042922700013],[29.391467256000055,40.779542423000294],[29.385954093000123,40.77821174800005],[29.385228763000157,40.77796049500017],[29.38380898100013,40.777352395000094],[29.381573101000185,40.77603238900031],[29.380849818000115,40.77570644300016],[29.379263269000035,40.77536543300005],[29.37841857600006,40.77491080400017],[29.379513943000177,40.77375232800057],[29.379961836000007,40.773017073000574],[29.38069239200007,40.77147860800005],[29.382111981000037,40.77020670700006],[29.383847319000097,40.76917928600005],[29.384016161000034,40.76976585400024],[29.385120726000025,40.77011498700011],[29.385955181000043,40.76938912700007],[29.38627645200006,40.76897116500015],[29.387421596000138,40.769800152000414],[29.388418061000095,40.76915902800016],[29.388481590000083,40.77168531600006],[29.38837171100016,40.77206038800006],[29.38848039900006,40.77211625800038],[29.388476910000065,40.772548273000154],[29.389018729000043,40.77278856000004],[29.388876743000026,40.77320900600006],[29.388984016999984,40.77363097200015],[29.389122029000077,40.7738329270004],[29.389550586999974,40.77412644499998],[29.39000808300017,40.77420805400044],[29.390947014000176,40.773995673],[29.39316347600004,40.77218609700003],[29.392950453000083,40.772021892000566],[29.39336381600009,40.77147099700005],[29.393652583999994,40.771377082000186],[29.394121518000077,40.77069676200017],[29.394758216000184,40.77079809800006],[29.39648442900011,40.770006144000035],[29.3978004170001,40.769613518000426],[29.398524534000046,40.7711662330002],[29.399456524000072,40.77222071200032],[29.399901326000133,40.77312954800004],[29.40229043800008,40.774729521000154],[29.403752512000096,40.77624464500013],[29.404487014000097,40.77681137000019],[29.40574339300008,40.778779610000186],[29.406380231000185,40.77953207900015],[29.407645607000063,40.780171905000145],[29.408997817000056,40.78064746600069]]],"type":"Polygon"}},{"type":"Feature","properties":{"area_id":"TR-41-003-50267","name_tr":"Abdi İpekçi","area_level":"neighbourhood","parent_id":"TR-41-003","endeksa_id":50267},"geometry":{"coordinates":[[[29.42149339399998,40.77489298300003],[29.421560743000157,40.77494911000065],[29.421166303000007,40.77522828400015],[29.420664526000166,40.7758476810003],[29.420104022000146,40.776873497999986],[29.41955255500011,40.777555022000115],[29.417136186000107,40.77930680600025],[29.416611262000174,40.77997825900047],[29.416427245000136,40.78037455900022],[29.41633723600006,40.78087321800018],[29.416462076000073,40.78218032200033],[29.415263698000047,40.782471504000114],[29.409857555000144,40.78414673300023],[29.40041374002601,40.78718629897833],[29.39962989900016,40.78637018400008],[29.399522244000025,40.78607034500004],[29.399413320000065,40.78434584800027],[29.399991949000082,40.78393733200022],[29.39969945600012,40.78360895900016],[29.40007650800004,40.78279537300068],[29.40057451200005,40.782899171000054],[29.40155912400013,40.78279291200039],[29.401933143999997,40.78342064000009],[29.402627950000124,40.78329652200017],[29.40395599800007,40.78288758800005],[29.405482775000166,40.78203984600043],[29.408997817000056,40.78064746600069],[29.410784990000025,40.781685884000126],[29.41317879600001,40.779655209000566],[29.412799183000175,40.77909463900005],[29.412705302999996,40.77750677500012],[29.41243556900008,40.77650429300013],[29.412614286000064,40.77625996900031],[29.412937984000166,40.77538280800047],[29.413299432000088,40.77483782600018],[29.4138292990001,40.774617386000045],[29.413681814000086,40.7743908610002],[29.414133114000094,40.773993892000306],[29.414166705000127,40.77365590200009],[29.413950446000115,40.77360580400017],[29.41414002500005,40.77312463800018],[29.414503558000035,40.773108195000475],[29.41484440500011,40.772215365000136],[29.414898410000035,40.772149706000164],[29.415259857000024,40.77220748300056],[29.41581235002127,40.771282258664655],[29.41596983000005,40.77133235600036],[29.41671260300012,40.7720060420005],[29.41722613700017,40.77226686200004],[29.417317387000082,40.772162365000554],[29.418004795000115,40.77256175100001],[29.418533160000038,40.77259572800011],[29.418616500000155,40.77335836800012],[29.419155035000074,40.773334064000096],[29.41974709800013,40.77396963899997],[29.42095114100016,40.77427676600007],[29.421423822999998,40.77456382700012],[29.421356076000166,40.7746431340002],[29.42149339399998,40.77489298300003]]],"type":"Polygon"}},{"type":"Feature","properties":{"area_id":"TR-41-003-50336","name_tr":"Piri Reis","area_level":"neighbourhood","parent_id":"TR-41-003","endeksa_id":50336},"geometry":{"coordinates":[[[29.365447683000184,40.78798418100013],[29.36494006600003,40.788047291000055],[29.361467508000146,40.78777126100027],[29.35850844900017,40.787124119000055],[29.357003640000073,40.78663874200009],[29.35546870400009,40.78638863600054],[29.350126599000134,40.78588574500009],[29.349548139000035,40.78608285400014],[29.34909482000012,40.78577262100009],[29.348501273000124,40.78584610900015],[29.347568325000054,40.78565937800005],[29.34790974800012,40.785302955000134],[29.34782197700008,40.78523197900017],[29.34910946300016,40.78359686500005],[29.35019350400006,40.781676903000175],[29.350389504000134,40.78107305000037],[29.350727060000168,40.78073191400006],[29.35120736500005,40.77988120400016],[29.35155012200005,40.77781498500036],[29.3519553430001,40.77740490900004],[29.352432165000096,40.77623436600004],[29.352387756999974,40.775810617000104],[29.352728482000032,40.7755064680004],[29.352965453000024,40.77385124500017],[29.352829598000028,40.77382960600039],[29.352968021000038,40.77383330599997],[29.35299617700008,40.773636614000054],[29.352905887000077,40.773625499000104],[29.35301313600013,40.77351764600019],[29.352555187000178,40.772534627000084],[29.35258488500017,40.77218626900003],[29.35248993300013,40.77143156700015],[29.352319340999998,40.77096325600019],[29.352391212000043,40.77095002300007],[29.352343318000123,40.77060496700011],[29.352459339000063,40.77079457000008],[29.352926661000026,40.77069200100004],[29.352794226000128,40.77060944400023],[29.352838197000153,40.77056683700016],[29.353067901000145,40.770719998000175],[29.353184521000003,40.77069000100005],[29.353222505000133,40.77002612300055],[29.350503324000158,40.768783607000046],[29.34931138200011,40.76753741900018],[29.349309922000145,40.76742443000012],[29.349568642000065,40.7674297840004],[29.349518068000123,40.76736132100018],[29.349816091000037,40.76727729000004],[29.34990226700006,40.76711025100019],[29.35009183300008,40.76708693800009],[29.35020541500006,40.766942094],[29.351331191000156,40.76651865700006],[29.351569220000044,40.76613455100011],[29.35180510600003,40.765326287000164],[29.352002046000166,40.765332560000104],[29.351992778000067,40.765501817000484],[29.352266469000085,40.76550335500008],[29.352712361000044,40.76545689200009],[29.352880503000108,40.76527421600002],[29.354765159000067,40.76521928800014],[29.356067078000024,40.76529167100068],[29.356150490000005,40.765372472000195],[29.355795503000024,40.76574195900014],[29.35769612400003,40.766269986],[29.358185107000054,40.766325359000234],[29.35821988600003,40.76641841600002],[29.35860722100017,40.76635982400069],[29.358542910999972,40.766281961000004],[29.35864600000008,40.7661566580004],[29.358827061000056,40.766207087000396],[29.358850717000053,40.76629632100014],[29.359567637000055,40.76651121000009],[29.359664060000114,40.76645431200018],[29.359611590000043,40.766537002000064],[29.359865006000064,40.76669605300003],[29.360249072000045,40.76672933200035],[29.360160903999997,40.7669394020005],[29.36076379200017,40.76716392900016],[29.3607769030001,40.76728630000025],[29.360890847999997,40.76723772300005],[29.361218580000127,40.767499596000164],[29.362864323000167,40.767803887000355],[29.363634237999975,40.76809460100043],[29.363507697000102,40.76820205400003],[29.3632359880001,40.768916642000136],[29.361770992000174,40.77148553400042],[29.36307068499997,40.77200616500005],[29.36400093100002,40.77226898400005],[29.364671908000048,40.77268393700018],[29.366288848000067,40.772765260000256],[29.366443368999967,40.772813318000146],[29.366320389000123,40.773045216000185],[29.3673059730001,40.773133355000425],[29.369214641000156,40.77350388899998],[29.369320870000138,40.77363495000009],[29.36938975700008,40.77398549900005],[29.37193594300004,40.774465985000006],[29.373627981000084,40.77490695800003],[29.374234155000124,40.775180950000106],[29.37540046400011,40.77508443500005],[29.376590288000102,40.7747252220006],[29.37779279000017,40.77495768500006],[29.37841857600006,40.77491080400017],[29.37766184900005,40.775728457000014],[29.375955918000045,40.77875648300028],[29.374160458000176,40.78124738200023],[29.370535415000177,40.78553420000003],[29.36973589100012,40.786124154000504],[29.36795887800008,40.78703791300035],[29.365447683000184,40.78798418100013]]],"type":"Polygon"}},{"type":"Feature","properties":{"area_id":"TR-41-003-50334","name_tr":"Nenehatun","area_level":"neighbourhood","parent_id":"TR-41-003","endeksa_id":50334},"geometry":{"coordinates":[[[29.39687511900013,40.78228423100012],[29.39533637500017,40.783280085000285],[29.39470609500006,40.783535384000174],[29.394785273000025,40.78397164900031],[29.394295564999993,40.78411644200014],[29.39409350200009,40.78449529500011],[29.39386404400011,40.784526248000134],[29.392963633000136,40.78421196000056],[29.39271745299999,40.78429797500013],[29.392758244000106,40.78440534300012],[29.392636595000056,40.78447895100004],[29.392363418000116,40.78455231000015],[29.391137241000024,40.78454009300009],[29.389886697000065,40.784708974000296],[29.389128039000184,40.78530622000051],[29.387579910000113,40.78596794300046],[29.38732597400002,40.78617985600067],[29.386444655000048,40.78652902400006],[29.38594035300008,40.78662703100014],[29.38433593600007,40.787626755000076],[29.383894937000093,40.78781518000062],[29.38274882900015,40.78800576200058],[29.382302135000145,40.78871459400011],[29.381609498000103,40.78840693300015],[29.380972629999974,40.78791565200004],[29.381078792000096,40.78787286500051],[29.3811694260001,40.78762443300002],[29.381377780000093,40.78661845700009],[29.38022378200003,40.786282443000005],[29.3790224440001,40.78509313800009],[29.378499357000067,40.78394226000012],[29.37730338500006,40.782270485000595],[29.37663238900012,40.779852142000095],[29.376134459000184,40.778904783000144],[29.375955918000045,40.77875648300028],[29.37766184900005,40.775728457000014],[29.37841857600006,40.77491080400017],[29.379263269000035,40.77536543300005],[29.380849818000115,40.77570644300016],[29.381573101000185,40.77603238900031],[29.38380898100013,40.777352395000094],[29.385228763000157,40.77796049500017],[29.385954093000123,40.77821174800005],[29.391467256000055,40.779542423000294],[29.392609210000046,40.78042922700013],[29.39411532800011,40.78121276400003],[29.395346863000157,40.78176478600005],[29.39687511900013,40.78228423100012]]],"type":"Polygon"}},{"type":"Feature","properties":{"area_id":"TR-41-003-50284","name_tr":"Sırasöğütler","area_level":"neighbourhood","parent_id":"TR-41-003","endeksa_id":50284},"geometry":{"coordinates":[[[29.387914896000098,40.79396240500023],[29.387293296000166,40.79376710800068],[29.386765668000066,40.79401259400021],[29.384879328000125,40.794406083000524],[29.384068704000185,40.79338042800066],[29.383646895000027,40.792098511000006],[29.383335791000036,40.79164860700013],[29.38328265100006,40.791058429000145],[29.383385414000145,40.790269696000166],[29.383016421000093,40.78903237600008],[29.382302135000145,40.78871459400011],[29.38274882900015,40.78800576200058],[29.383894937000093,40.78781518000062],[29.38433593600007,40.787626755000076],[29.38594035300008,40.78662703100014],[29.386444655000048,40.78652902400006],[29.38732597400002,40.78617985600067],[29.387579910000113,40.78596794300046],[29.389128039000184,40.78530622000051],[29.389886697000065,40.784708974000296],[29.391137241000024,40.78454009300009],[29.392363418000116,40.78455231000015],[29.392636595000056,40.78447895100004],[29.392758244000106,40.78440534300012],[29.39271745299999,40.78429797500013],[29.392963633000136,40.78421196000056],[29.39386404400011,40.784526248000134],[29.39409350200009,40.78449529500011],[29.394295564999993,40.78411644200014],[29.394785273000025,40.78397164900031],[29.39470609500006,40.783535384000174],[29.39533637500017,40.783280085000285],[29.39687511900013,40.78228423100012],[29.39778962600019,40.782563364000225],[29.39969945600012,40.78360895900016],[29.399991949000082,40.78393733200022],[29.399413320000065,40.78434584800027],[29.399522244000025,40.78607034500004],[29.39962989900016,40.78637018400008],[29.40041374002601,40.78718629897833],[29.397150606000082,40.788232263000225],[29.395469726999977,40.78898772100001],[29.387914896000098,40.79396240500023]]],"type":"Polygon"}},{"type":"Feature","properties":{"area_id":"TR-41-003-50335","name_tr":"Osmangazi","area_level":"neighbourhood","parent_id":"TR-41-003","endeksa_id":50335},"geometry":{"coordinates":[[[29.376311872224903,40.795337763802706],[29.375790440000003,40.79572823500013],[29.372835172000123,40.79561841500015],[29.369449618000147,40.79617136100006],[29.36847583700012,40.79623098400026],[29.368514419999997,40.79413891700062],[29.367730475000087,40.792295149000154],[29.36691436900003,40.790052120999974],[29.365447683000184,40.78798418100013],[29.36795887800008,40.78703791300035],[29.36973589100012,40.786124154000504],[29.370535415000177,40.78553420000003],[29.374160458000176,40.78124738200023],[29.375955918000045,40.77875648300028],[29.376134459000184,40.778904783000144],[29.37663238900012,40.779852142000095],[29.37730338500006,40.782270485000595],[29.378499357000067,40.78394226000012],[29.3790224440001,40.78509313800009],[29.38022378200003,40.786282443000005],[29.381377780000093,40.78661845700009],[29.3811694260001,40.78762443300002],[29.381078792000096,40.78787286500051],[29.380972629999974,40.78791565200004],[29.381609498000103,40.78840693300015],[29.383016421000093,40.78903237600008],[29.383385414000145,40.790269696000166],[29.38328265100006,40.791058429000145],[29.383335791000036,40.79164860700013],[29.383646895000027,40.792098511000006],[29.384068704000185,40.79338042800066],[29.384879328000125,40.794406083000524],[29.383373341000095,40.79457303400039],[29.38164083100014,40.79505742600014],[29.380950398000095,40.79513568400023],[29.380898795000178,40.79520747200013],[29.37995702600017,40.795025697000085],[29.379392583000083,40.79521065500012],[29.377005623000116,40.794948488000045],[29.376311872224903,40.795337763802706]]],"type":"Polygon"}},{"type":"Feature","properties":{"area_id":"TR-41-003-50329","name_tr":"Bayramoğlu","area_level":"neighbourhood","parent_id":"TR-41-003","endeksa_id":50329},"geometry":{"coordinates":[[[29.35706591400009,40.80021057700014],[29.35634913600012,40.79979254200009],[29.356186933000117,40.80002014200011],[29.355825629000037,40.799964905000024],[29.35573071200008,40.800124034000135],[29.354379391000123,40.79985038300015],[29.353970802000163,40.79985696700015],[29.35206515700014,40.80017446700032],[29.351920105000033,40.800558047000436],[29.350650408000035,40.80054852699999],[29.350482048000174,40.80045228200015],[29.350583820000054,40.80006860999998],[29.35043451100006,40.79981941199998],[29.349771660000158,40.79956732200009],[29.349540829000148,40.799299924000024],[29.349038958000108,40.79929709500004],[29.34794925900013,40.79832446800009],[29.346698982000134,40.798811633000355],[29.346449089000146,40.798690089000104],[29.346208155000113,40.79832026300005],[29.345884273000138,40.79828925200002],[29.345847880000065,40.79823069800034],[29.346027927000137,40.79813987200009],[29.34601085300011,40.79799606600011],[29.34562672000004,40.79733883099999],[29.345043701000066,40.797012700000096],[29.34464902500008,40.79695210900019],[29.344622862000108,40.79686551700013],[29.34550819700013,40.796398756000144],[29.346162151000044,40.796342516000095],[29.347779520000188,40.796656818000145],[29.34813566100007,40.79650080500011],[29.349279896000155,40.79562324300019],[29.34954414599997,40.79511162800037],[29.349698993000118,40.79417915500022],[29.348177833000193,40.791159134],[29.346992375000184,40.79030611400049],[29.34569906100006,40.79000019800003],[29.34469791700019,40.79001405300039],[29.34409495500006,40.79023051300004],[29.34308902100014,40.791002014000185],[29.342622108000114,40.79184959200012],[29.342385332000106,40.791977914000256],[29.339980761000163,40.79279050100007],[29.337211502000116,40.79289477000009],[29.3369910670001,40.79285498400003],[29.336683630000152,40.792584505000264],[29.336666423000054,40.79237347000014],[29.336748379000085,40.79214099400025],[29.337563540000076,40.79108419000056],[29.33723664200005,40.791094625000085],[29.337246934000177,40.79103048500065],[29.337582088000033,40.79105849200039],[29.33779957700017,40.79075617100051],[29.337574078000102,40.79023726000014],[29.33737406500012,40.79003872800007],[29.336915239000177,40.79004543500014],[29.33696738400016,40.790262173000315],[29.336910646000092,40.79026459800025],[29.336874343000034,40.79003236100016],[29.335900250000122,40.78985792999998],[29.334821282000064,40.79030910200038],[29.334759526000084,40.79046774],[29.33400213500005,40.79066880200014],[29.33370667100013,40.79065150600013],[29.333139488000143,40.79041436600005],[29.333753154000135,40.789965435000454],[29.33380547900009,40.78968691600005],[29.333493763000092,40.78961852499998],[29.333523280000122,40.789562752999984],[29.33381245600009,40.78964959300043],[29.333869031000063,40.789432978000036],[29.333691335000083,40.78928858900008],[29.33390246100015,40.789412271000515],[29.33424931800016,40.78919742300013],[29.334108551000156,40.78919653500043],[29.334342513000138,40.78908874900003],[29.334625354000025,40.788677680000035],[29.33477619400003,40.78867671600017],[29.334659841000075,40.788728319000086],[29.334426642000096,40.789087587000154],[29.335542316000044,40.788798817000384],[29.33584149500018,40.78821638000005],[29.33580050000006,40.787272263000375],[29.335338743000136,40.78710235200026],[29.33516209700008,40.78723574500037],[29.335185994000028,40.78755856600003],[29.335048231000087,40.787508020000075],[29.33498032400007,40.78734911400011],[29.33501709700016,40.787145135000515],[29.335223604000134,40.78706042000016],[29.335073750000163,40.78700584400008],[29.335022501000083,40.78706771500015],[29.334415977000162,40.7868107390002],[29.334156838000126,40.78678636200004],[29.33411839600018,40.78692520100026],[29.333887168000047,40.78688866100043],[29.333711181000126,40.78642293400003],[29.33373384000015,40.78614432400008],[29.33379717600002,40.785928797000054],[29.334106332000033,40.785850925000545],[29.33415361400006,40.785717861000194],[29.33542813300005,40.785935542000175],[29.33625433100002,40.7857055770001],[29.33632259400008,40.78558601500015],[29.336426243000062,40.78564294100039],[29.33664258800013,40.7855456100001],[29.336608972000192,40.78543275900023],[29.336904312000115,40.785524660000135],[29.338055463000046,40.78520424699997],[29.338306533000036,40.78496371300014],[29.33913655700013,40.784868134000135],[29.33918607300012,40.78501276000003],[29.339106552000032,40.78509151800017],[29.338346805000185,40.785186515000134],[29.339448967000067,40.78525684000033],[29.34029201600009,40.78488354799998],[29.340583502000015,40.78491513900002],[29.34110029400017,40.785347595000644],[29.341094446000056,40.78547078200012],[29.34084525500009,40.78534962600037],[29.340882666000084,40.785727265000105],[29.341600710000023,40.78579756000016],[29.341887140000097,40.785922563999975],[29.342060162000166,40.78617511700037],[29.3419714260001,40.78644095400006],[29.34207037500005,40.78702983800048],[29.343214068000066,40.78732220600051],[29.34438910200015,40.78727006300005],[29.345768753000186,40.78680498000017],[29.346682285999975,40.786217220000026],[29.346886951000158,40.78621989099997],[29.34710611700018,40.78610515600053],[29.34782197700008,40.78523197900017],[29.34790974800012,40.785302955000134],[29.347568325000054,40.78565937800005],[29.348501273000124,40.78584610900015],[29.34909482000012,40.78577262100009],[29.349548139000035,40.78608285400014],[29.350126599000134,40.78588574500009],[29.35546870400009,40.78638863600054],[29.357003640000073,40.78663874200009],[29.35850844900017,40.787124119000055],[29.361467508000146,40.78777126100027],[29.36494006600003,40.788047291000055],[29.365447683000184,40.78798418100013],[29.36691436900003,40.790052120999974],[29.367730475000087,40.792295149000154],[29.366624166999998,40.79279402000009],[29.36457002900005,40.79269946100004],[29.364133138000057,40.79280093300008],[29.362569643000086,40.79364515000003],[29.361130122000077,40.79418393000003],[29.360848854000096,40.794506102000184],[29.359711335000043,40.79684589000016],[29.359630100000174,40.7970316040001],[29.35966819200013,40.79746694500011],[29.35853256500019,40.79918090400008],[29.35706591400009,40.80021057700014]]],"type":"Polygon"}},{"type":"Feature","properties":{"area_id":"TR-41-003-50331","name_tr":"Emek","area_level":"neighbourhood","parent_id":"TR-41-003","endeksa_id":50331},"geometry":{"coordinates":[[[29.37260838200018,40.8041282530001],[29.370785070000125,40.80532136400029],[29.36974509600003,40.80588391000015],[29.368431596999983,40.806451144000334],[29.367688749000024,40.805465943000115],[29.366751516000193,40.803953431000025],[29.36665257700008,40.80332506900004],[29.366139412000166,40.803350601000034],[29.365405818,40.803041861000054],[29.364004462000082,40.802746454000044],[29.363043108000113,40.80236475300018],[29.361691998000026,40.80151008200011],[29.360922784000024,40.80126547300017],[29.3581048800001,40.80065246800052],[29.35706591400009,40.80021057700014],[29.35853256500019,40.79918090400008],[29.35966819200013,40.79746694500011],[29.359630100000174,40.7970316040001],[29.359711335000043,40.79684589000016],[29.360848854000096,40.794506102000184],[29.361130122000077,40.79418393000003],[29.362569643000086,40.79364515000003],[29.364133138000057,40.79280093300008],[29.36457002900005,40.79269946100004],[29.366624166999998,40.79279402000009],[29.367730475000087,40.792295149000154],[29.368514419999997,40.79413891700062],[29.36847583700012,40.79623098400026],[29.369449618000147,40.79617136100006],[29.372835172000123,40.79561841500015],[29.375790440000003,40.79572823500013],[29.376311872224903,40.795337763802706],[29.377640388000145,40.79681835700012],[29.379100083341655,40.79981467476182],[29.37260838200018,40.8041282530001]]],"type":"Polygon"}}]}