{"type":"FeatureCollection","source_id":"endeksa","retrieved_at":null,"features":[{"type":"Feature","properties":{"area_id":"TR-43-010-2021396","name_tr":"Sarayköy Köyü","area_level":"neighbourhood","parent_id":"TR-43-010","endeksa_id":2021396},"geometry":{"coordinates":[[[29.07532990499999,38.9024972790001],[29.074850372000014,38.90256089000013],[29.06618620600011,38.90630446900053],[29.066017746,38.906258933000174],[29.06598546800018,38.90597188400028],[29.065825605000043,38.90594703700009],[29.065047828000047,38.90676703300011],[29.06447546400011,38.90703295700041],[29.057115096000075,38.90713099600026],[29.05700906700008,38.90706951400068],[29.055399055000123,38.90274617200055],[29.052818335000097,38.90335903400012],[29.052775057000076,38.9032328490004],[29.053433716000086,38.902482504000034],[29.051875292000148,38.90088283800003],[29.050214227000083,38.90264947300045],[29.050061009000046,38.90267462700058],[29.045910904000095,38.897947779000276],[29.038927141000045,38.89609808800009],[29.03735058400008,38.89467726100003],[29.03898681800007,38.89385191300016],[29.038651437000112,38.89115881700042],[29.037136627000052,38.889542281000104],[29.03689937700011,38.88947495600013],[29.036860872000034,38.88936707000005],[29.03858548800008,38.88543971900026],[29.03993583400006,38.88313154200068],[29.04265044100009,38.88059011500013],[29.04851953100001,38.87932444400013],[29.05041233600008,38.87513874200016],[29.061932784000078,38.874103895000246],[29.066866742000116,38.87192532600005],[29.06690690800002,38.87179088600027],[29.067334965000043,38.87176664700013],[29.06776173900016,38.87422632199997],[29.074509242000033,38.87618886900009],[29.07544261300012,38.87792856500033],[29.074011283000175,38.88329133500014],[29.074154660000033,38.88331769300004],[29.078972483000143,38.88174451500004],[29.083964094000066,38.886005631000046],[29.083901047000097,38.88892572400016],[29.075557121000145,38.90199267300011],[29.07544730700016,38.90243110900013],[29.07532990499999,38.9024972790001]]],"type":"Polygon"}},{"type":"Feature","properties":{"area_id":"TR-43-010-2021398","name_tr":"Tepeköy Köyü","area_level":"neighbourhood","parent_id":"TR-43-010","endeksa_id":2021398},"geometry":{"coordinates":[[[29.115300227000148,38.924142633000315],[29.106341280000038,38.92655123800006],[29.105892961000166,38.92572982200028],[29.105595586000163,38.92589447200004],[29.10565564000018,38.925784989000135],[29.102769196000054,38.92436888100002],[29.100158614000065,38.91879755900004],[29.09330256400017,38.921369106999975],[29.089355236000074,38.915660606000074],[29.079791052000076,38.9098821450001],[29.080003548000093,38.90955771100005],[29.078351927000142,38.908479874000136],[29.075405420000152,38.90250634900019],[29.07532990499999,38.9024972790001],[29.07544730700016,38.90243110900013],[29.075557121000145,38.90199267300011],[29.083901047000097,38.88892572400016],[29.083964094000066,38.886005631000046],[29.084174519000157,38.88616658600063],[29.0903514580001,38.887658258000044],[29.09233993200013,38.886605196000176],[29.09423092800006,38.8895793050001],[29.09666005300005,38.88913621100022],[29.098034225000106,38.88976265800045],[29.100121525000134,38.889814936000334],[29.103834466000137,38.89240682600001],[29.107876572000066,38.894249510000066],[29.10935538000001,38.896258962000104],[29.1110810670001,38.89746412400012],[29.11315193300004,38.89765194200004],[29.11311990000013,38.89798398500011],[29.11336107900007,38.89801843600003],[29.11210146800005,38.90854064200005],[29.116967554000155,38.91278283600036],[29.116485098,38.913632502000496],[29.118077773000095,38.91426857300013],[29.123897399000043,38.911825650000026],[29.123877883000034,38.911709549000136],[29.12323178000014,38.91119480200024],[29.12511174200006,38.91205831100018],[29.125647819999983,38.91406492500016],[29.130837222000025,38.91384516300042],[29.125812684000152,38.91700205900014],[29.12543844099997,38.9171090280002],[29.120178286000055,38.91775640700001],[29.117666188000044,38.91702086800018],[29.116360114000145,38.916731864999974],[29.114781974000152,38.91755499600015],[29.11438335400004,38.91803299500003],[29.114177303000133,38.91960875400008],[29.11410930000011,38.91960117999997],[29.115300227000148,38.924142633000315]]],"type":"Polygon"}},{"type":"Feature","properties":{"area_id":"TR-43-010-2021394","name_tr":"Orhanlar Köyü","area_level":"neighbourhood","parent_id":"TR-43-010","endeksa_id":2021394},"geometry":{"coordinates":[[[29.105595586000163,38.92589447200004],[29.101504821000162,38.92784913100007],[29.100842339000053,38.92802610700011],[29.09808503100004,38.92652432000011],[29.09571151800003,38.926783442000044],[29.093071034000047,38.92899753000029],[29.09030471800014,38.92781722000018],[29.08572473900017,38.93271423500005],[29.083331392000105,38.929752886000074],[29.081468002000122,38.93175012100022],[29.083361856000124,38.93559263899999],[29.078068021000092,38.93946359900019],[29.077914379000163,38.939458353000646],[29.075335197000072,38.93700572900008],[29.07364088800017,38.93753197700005],[29.07114295500014,38.935825592000185],[29.069566359000078,38.935967733000666],[29.069045192000033,38.93656837600054],[29.067881513000145,38.936202937000076],[29.06441654400004,38.936621436000166],[29.064129348000108,38.93692668300025],[29.062852508000162,38.93660736300012],[29.062014994000094,38.93635719700006],[29.061787354000103,38.93470098300048],[29.06169756500003,38.93462136000005],[29.044815967000034,38.93345096300044],[29.04156555100019,38.93196932700005],[29.04101122800006,38.92665943500003],[29.043935705000024,38.92494079500045],[29.04187624300016,38.92129001800009],[29.04581142400002,38.918310151000185],[29.049450587000138,38.91924937600004],[29.054170043,38.91565769900046],[29.052577972000165,38.91359094600011],[29.055946552000023,38.908988218000275],[29.05614375500005,38.909068629000444],[29.056118703000152,38.912666932000036],[29.057574842000065,38.912326670000084],[29.057688560000088,38.91238193800041],[29.05774239499999,38.912701393000134],[29.058730971999978,38.912722256000166],[29.05890624200009,38.91253998600018],[29.058026942000026,38.90980995000041],[29.05700906700008,38.90706951400068],[29.057115096000075,38.90713099600026],[29.06447546400011,38.90703295700041],[29.065047828000047,38.90676703300011],[29.065825605000043,38.90594703700009],[29.06598546800018,38.90597188400028],[29.066017746,38.906258933000174],[29.06618620600011,38.90630446900053],[29.074850372000014,38.90256089000013],[29.07532990499999,38.9024972790001],[29.075405420000152,38.90250634900019],[29.078351927000142,38.908479874000136],[29.080003548000093,38.90955771100005],[29.079791052000076,38.9098821450001],[29.089355236000074,38.915660606000074],[29.09330256400017,38.921369106999975],[29.100158614000065,38.91879755900004],[29.102769196000054,38.92436888100002],[29.10565564000018,38.925784989000135],[29.105595586000163,38.92589447200004]]],"type":"Polygon"}},{"type":"Feature","properties":{"area_id":"TR-43-010-51588","name_tr":"Yakuplar Fatih","area_level":"neighbourhood","parent_id":"TR-43-010","endeksa_id":51588},"geometry":{"coordinates":[[[29.13001000000014,38.98737000000034],[29.130590000000154,38.988010000000145],[29.130120000000034,38.98905000000008],[29.129530000000045,38.9897900000002],[29.129340000000127,38.990200000000186],[29.12957000000017,38.99045000000007],[29.131200000000035,38.99099000000069],[29.131270000000143,38.991160000000036],[29.130400000000066,38.991750000000366],[29.129130000000146,38.99339000000032],[29.12892000000022,38.993520000000046],[29.12713000000008,38.993330000000356],[29.1265200000002,38.99342000000013],[29.12599000000006,38.993360000000166],[29.125480000000152,38.99348000000066],[29.124790000000075,38.993370000000084],[29.12502000000012,38.99401000000046],[29.124980000000164,38.99450000000036],[29.124050000000125,38.994610000000364],[29.12323000000015,38.994480000000294],[29.123610000000156,38.99376000000041],[29.124110000000144,38.99312000000003],[29.124520000000132,38.99174000000022],[29.124730000000113,38.99150000000026],[29.128290000000106,38.988000000000056],[29.13001000000014,38.98737000000034]]],"type":"Polygon"}},{"type":"Feature","properties":{"area_id":"TR-43-010-2021397","name_tr":"Sofular Köyü","area_level":"neighbourhood","parent_id":"TR-43-010","endeksa_id":2021397},"geometry":{"coordinates":[[[29.172159916164617,38.96035430499461],[29.1666998340001,38.96354991700002],[29.166252945000167,38.96312518200068],[29.167087144000163,38.96258534500015],[29.16293623000007,38.95992727000004],[29.162905602000023,38.9600942030001],[29.16303199600003,38.960202046000404],[29.162817029000053,38.9602672420001],[29.1622773040001,38.96211796500006],[29.161983347000046,38.96236489000012],[29.161781202999975,38.96242616900031],[29.15681545100017,38.96031871600064],[29.15586357000018,38.959722032000116],[29.155489090000117,38.959296457000164],[29.144008532000043,38.93982999900015],[29.142668305000086,38.93832778500018],[29.141333137000117,38.937509052000564],[29.140352534000044,38.936511006000046],[29.139697514000034,38.934671944000115],[29.139444029999993,38.93369684100003],[29.139294293000148,38.933528556000056],[29.138833813000076,38.932222748000186],[29.138846206000096,38.931035411000096],[29.138416191000147,38.93051149100023],[29.137173412000095,38.922350779000055],[29.13704981300009,38.92227943700016],[29.13488563100009,38.922378430000094],[29.134763473000078,38.922296597000695],[29.13488551900008,38.921040491000326],[29.13579076100018,38.91989917200016],[29.136246118000088,38.91836824000029],[29.13213392300014,38.91317319000018],[29.132079189000024,38.91303556200012],[29.132904135000047,38.911346672000036],[29.133383344000038,38.91130623300012],[29.135518616000127,38.91244856800006],[29.13882949000015,38.913583831000096],[29.14496652200006,38.916381048000176],[29.15396536500009,38.91889346800008],[29.1564356880001,38.91917085099999],[29.1594778380001,38.918981343000155],[29.160854789000098,38.91898139800003],[29.162095127000043,38.919099620000054],[29.16238036499999,38.91841094099999],[29.17870420600019,38.90091521800008],[29.186549273000082,38.90229941900009],[29.19224710399999,38.90654376700007],[29.200442250000037,38.9087453490007],[29.20552566778167,38.91315569672082],[29.20552611008958,38.91332240252234],[29.20530935479229,38.9133409488212],[29.20290000000017,38.91161000000034],[29.199020000000132,38.91541000000012],[29.196030000000178,38.916890000000194],[29.188070000000096,38.92198000000019],[29.18413000000004,38.92309000000017],[29.182820000000163,38.92366000000044],[29.181040000000166,38.92563000000018],[29.17970000000014,38.92681000000033],[29.17843000000005,38.92767000000026],[29.178180000000168,38.92793000000006],[29.17811000000023,38.92806000000019],[29.178160000000105,38.92821000000032],[29.178720000000055,38.92914000000053],[29.17867000000018,38.92932000000013],[29.177520000000072,38.930450000000235],[29.17679000000004,38.93072000000052],[29.176180000000045,38.930790000000115],[29.175990000000127,38.93096000000048],[29.175740000000246,38.93149000000028],[29.1757300000001,38.93196000000012],[29.175850000000082,38.93251000000015],[29.175680000000057,38.93261000000007],[29.174580000000162,38.93282000000022],[29.174310000000048,38.932650000000365],[29.173700000000167,38.931880000000035],[29.173020000000065,38.931850000000225],[29.17180000000019,38.93152000000009],[29.171380000000056,38.931530000000066],[29.171250000000157,38.93165000000005],[29.17117000000013,38.93206000000055],[29.171220000000176,38.93236000000036],[29.171590000000037,38.93310000000008],[29.171570000000145,38.93333000000047],[29.171020000000112,38.93514000000033],[29.170730000000106,38.93559000000005],[29.17066000000017,38.935970000000054],[29.170290000000136,38.93663000000015],[29.176510000000178,38.938820000000135],[29.176900000000103,38.939120000000116],[29.17898000000008,38.93971000000005],[29.179710000000057,38.94044000000042],[29.183240000000126,38.941240000000164],[29.184810000000198,38.94237000000027],[29.186340000000087,38.94280000000032],[29.18834000000004,38.94317000000035],[29.18934973940344,38.94401308338553],[29.184332046000065,38.944195637000064],[29.181639943000164,38.94438898700008],[29.183723991000136,38.94873797200012],[29.18009585900012,38.95357443500012],[29.173496100000193,38.95328381200051],[29.173448139000072,38.95341231100002],[29.174185039000065,38.95432436400063],[29.171825866000006,38.95640895400027],[29.1726048430001,38.9571516040001],[29.17261631000008,38.95725399400055],[29.170595449000075,38.95806147100012],[29.17053964900009,38.95818117100026],[29.171998291000193,38.96009283600006],[29.172202916011884,38.96019034474426],[29.172159916164617,38.96035430499461]]],"type":"Polygon"}},{"type":"Feature","properties":{"area_id":"TR-43-010-2021400","name_tr":"Yenice Köyü","area_level":"neighbourhood","parent_id":"TR-43-010","endeksa_id":2021400},"geometry":{"coordinates":[[[29.112722312000074,38.96551914300011],[29.112715398000034,38.96562015500007],[29.112601580000046,38.96566397600009],[29.110297198000183,38.96528643400012],[29.102395524000087,38.96494618300045],[29.09338423300011,38.96503796300004],[29.08632169400005,38.96432219100018],[29.084899012000108,38.96394923300056],[29.084828760000335,38.9638295430006],[29.085823629000345,38.96128807200023],[29.083215356000267,38.96074063500032],[29.085095717000343,38.95643954700057],[29.084069935000343,38.94926936900043],[29.0845564250003,38.948430163000296],[29.084006959000305,38.947104341],[29.08107891300017,38.943305972000076],[29.081002360000127,38.94334212700011],[29.07965736400007,38.941594560000055],[29.07973734700016,38.941557635000436],[29.078068021000092,38.93946359900019],[29.083361856000124,38.93559263899999],[29.081468002000122,38.93175012100022],[29.083331392000105,38.929752886000074],[29.08572473900017,38.93271423500005],[29.09030471800014,38.92781722000018],[29.093071034000047,38.92899753000029],[29.09571151800003,38.926783442000044],[29.09808503100004,38.92652432000011],[29.100842339000053,38.92802610700011],[29.101504821000162,38.92784913100007],[29.105595586000163,38.92589447200004],[29.105892961000166,38.92572982200028],[29.106341280000038,38.92655123800006],[29.115300227000148,38.924142633000315],[29.115511304999984,38.92425740000016],[29.117718650000143,38.92662106300003],[29.114469673000144,38.93520869500003],[29.098506184000144,38.936276947000124],[29.09839126300011,38.93636062900049],[29.098795175000134,38.938224093000485],[29.098608337000144,38.93917797099999],[29.099117690000128,38.94063206100009],[29.100359674000003,38.94149238200009],[29.101678366000044,38.94173797500008],[29.102052571,38.94237836900015],[29.10184773500015,38.94413822600035],[29.10248330100012,38.945194448000166],[29.10255040600009,38.945661649000044],[29.102231106000147,38.946561333000375],[29.1022174040001,38.94838554200004],[29.103110679000167,38.94873681800016],[29.10336749200019,38.95049765100009],[29.104376650000006,38.951387604000104],[29.105334035000112,38.95326202200016],[29.10543864300007,38.95459344400018],[29.106286386000136,38.955504507000114],[29.107336614000133,38.95611533400012],[29.109266327000057,38.95771920700008],[29.110318049,38.95975688100043],[29.111184395000123,38.960561519000066],[29.111972512000023,38.96210887200061],[29.112338823000073,38.9636459780001],[29.112740136000127,38.964124177000144],[29.11266159600001,38.96540427200006],[29.112722312000074,38.96551914300011]]],"type":"Polygon"}},{"type":"Feature","properties":{"area_id":"TR-43-010-2021395","name_tr":"Örey Köyü","area_level":"neighbourhood","parent_id":"TR-43-010","endeksa_id":2021395},"geometry":{"coordinates":[[[29.156054658081928,38.97151927335318],[29.15595715128387,38.97137549547682],[29.15576658708818,38.971320404150276],[29.15556872054441,38.97138295152041],[29.155480879591437,38.97152507290281],[29.155631954000057,38.97023580200033],[29.153301053000177,38.9694425620001],[29.15535149200008,38.96944026300014],[29.153730822000114,38.96625497100001],[29.155475188000025,38.966325729000005],[29.156357874000037,38.963383992000104],[29.154599220000023,38.960374970000146],[29.153497288000153,38.96013226600013],[29.146421778000047,38.96073363199997],[29.14630572700014,38.96069370400005],[29.14629335700016,38.96059271000007],[29.146489633000044,38.96026094700039],[29.14657474700016,38.959335782000494],[29.146386688000177,38.958275221000406],[29.1443396520001,38.95617832400001],[29.13850935100004,38.951612703000706],[29.13787296100014,38.9470819070001],[29.13759116800003,38.942676712000036],[29.138309691000018,38.941970081000136],[29.139237605000062,38.933874214000014],[29.139428694000173,38.933914202000665],[29.140352534000044,38.936511006000046],[29.141333137000117,38.937509052000564],[29.142668305000086,38.93832778500018],[29.144008532000043,38.93982999900015],[29.155489090000117,38.959296457000164],[29.15586357000018,38.959722032000116],[29.15681545100017,38.96031871600064],[29.161781202999975,38.96242616900031],[29.161983347000046,38.96236489000012],[29.1622773040001,38.96211796500006],[29.162817029000053,38.9602672420001],[29.16303199600003,38.960202046000404],[29.162905602000023,38.9600942030001],[29.16293623000007,38.95992727000004],[29.167087144000163,38.96258534500015],[29.15581566900005,38.969879479999975],[29.156054658081928,38.97151927335318]]],"type":"Polygon"}},{"type":"Feature","properties":{"area_id":"TR-43-010-2021393","name_tr":"Akşinik Köyü","area_level":"neighbourhood","parent_id":"TR-43-010","endeksa_id":2021393},"geometry":{"coordinates":[[[29.155681913000024,38.97722202199998],[29.151884208000126,38.97806568900006],[29.141507129000104,38.97730959100022],[29.14052979860037,38.97717700009201],[29.140690000000063,38.97582000000034],[29.1404100000002,38.97473000000042],[29.140250000000094,38.97360000000015],[29.140190000000075,38.97140000000019],[29.137590000000102,38.97108000000037],[29.13547000000017,38.97061000000042],[29.13453000000004,38.97086000000013],[29.13286000000005,38.97093000000007],[29.132750000000215,38.971000000000174],[29.132170000000144,38.970690000000104],[29.131890000000112,38.97039000000012],[29.132020000000182,38.96993000000043],[29.13200000000012,38.96968000000038],[29.13184000000024,38.969360000000165],[29.131400000000042,38.96898000000016],[29.131350000000168,38.96883000000037],[29.130860000000155,38.96872000000013],[29.13093000000009,38.96845000000019],[29.13029000000006,38.96856000000008],[29.130210000000204,38.96824000000004],[29.13041000000004,38.96805000000012],[29.130196565187646,38.96759969556251],[29.138461744000097,38.963789450000036],[29.146201453000003,38.962289872000156],[29.14626453400018,38.96219684200025],[29.146106171000156,38.9609214580006],[29.14629335700016,38.96059271000007],[29.14630572700014,38.96069370400005],[29.146421778000047,38.96073363199997],[29.153497288000153,38.96013226600013],[29.154599220000023,38.960374970000146],[29.156357874000037,38.963383992000104],[29.155475188000025,38.966325729000005],[29.153730822000114,38.96625497100001],[29.15535149200008,38.96944026300014],[29.153301053000177,38.9694425620001],[29.155631954000057,38.97023580200033],[29.155480879591437,38.97152507290281],[29.15556872054441,38.97138295152041],[29.15576658708818,38.971320404150276],[29.15595715128387,38.97137549547682],[29.156054658081928,38.97151927335318],[29.15658297391849,38.97516209707925],[29.155681913000024,38.97722202199998]]],"type":"Polygon"}},{"type":"Feature","properties":{"area_id":"TR-43-010-51587","name_tr":"Yakuplar Atatürk","area_level":"neighbourhood","parent_id":"TR-43-010","endeksa_id":51587},"geometry":{"coordinates":[[[29.115837486543285,38.976534622837335],[29.11569073555006,38.97663171304595],[29.115528354579,38.9765490357413],[29.11410635700014,38.973001535000094],[29.114525549000177,38.97180902700006],[29.114546685000107,38.970761743000594],[29.114034797000045,38.96812046300005],[29.113265843000192,38.96736652600009],[29.113130889000047,38.96613438400044],[29.112722312000074,38.96551914300011],[29.11266159600001,38.96540427200006],[29.112740136000127,38.964124177000144],[29.112338823000073,38.9636459780001],[29.111972512000023,38.96210887200061],[29.111184395000123,38.960561519000066],[29.110318049,38.95975688100043],[29.109266327000057,38.95771920700008],[29.107336614000133,38.95611533400012],[29.106286386000136,38.955504507000114],[29.10543864300007,38.95459344400018],[29.105334035000112,38.95326202200016],[29.104376650000006,38.951387604000104],[29.10336749200019,38.95049765100009],[29.103110679000167,38.94873681800016],[29.1022174040001,38.94838554200004],[29.102231106000147,38.946561333000375],[29.10255040600009,38.945661649000044],[29.10248330100012,38.945194448000166],[29.10184773500015,38.94413822600035],[29.102052571,38.94237836900015],[29.101678366000044,38.94173797500008],[29.100359674000003,38.94149238200009],[29.099117690000128,38.94063206100009],[29.098608337000144,38.93917797099999],[29.098795175000134,38.938224093000485],[29.09839126300011,38.93636062900049],[29.098506184000144,38.936276947000124],[29.114469673000144,38.93520869500003],[29.117718650000143,38.92662106300003],[29.115511304999984,38.92425740000016],[29.115300227000148,38.924142633000315],[29.11410930000011,38.91960117999997],[29.114177303000133,38.91960875400008],[29.11438335400004,38.91803299500003],[29.114781974000152,38.91755499600015],[29.116360114000145,38.916731864999974],[29.117666188000044,38.91702086800018],[29.120178286000055,38.91775640700001],[29.12543844099997,38.9171090280002],[29.125812684000152,38.91700205900014],[29.131946606000156,38.91314814200007],[29.13213392300014,38.91317319000018],[29.136246118000088,38.91836824000029],[29.13579076100018,38.91989917200016],[29.13488551900008,38.921040491000326],[29.134763473000078,38.922296597000695],[29.13488563100009,38.922378430000094],[29.13704981300009,38.92227943700016],[29.137173412000095,38.922350779000055],[29.138416191000147,38.93051149100023],[29.138846206000096,38.931035411000096],[29.138833813000076,38.932222748000186],[29.139294293000148,38.933528556000056],[29.139444029999993,38.93369684100003],[29.139697514000034,38.934671944000115],[29.139428694000173,38.933914202000665],[29.139237605000062,38.933874214000014],[29.138309691000018,38.941970081000136],[29.13759116800003,38.942676712000036],[29.13787296100014,38.9470819070001],[29.13850935100004,38.951612703000706],[29.1443396520001,38.95617832400001],[29.146386688000177,38.958275221000406],[29.14657474700016,38.959335782000494],[29.146489633000044,38.96026094700039],[29.146106171000156,38.9609214580006],[29.14626453400018,38.96219684200025],[29.146201453000003,38.962289872000156],[29.138461744000097,38.963789450000036],[29.130196565187646,38.96759969556251],[29.129930000000115,38.96680000000009],[29.12948000000017,38.96628000000004],[29.129520000000127,38.96609000000035],[29.130880000000218,38.96553000000017],[29.13124000000016,38.96506000000039],[29.13146000000006,38.96501000000035],[29.13153000000017,38.96475000000032],[29.13190000000003,38.96465000000018],[29.131600000000105,38.9644200000007],[29.13155000000023,38.96429000000006],[29.131270000000143,38.964310000000125],[29.131110000000035,38.96380000000056],[29.130700000000047,38.96364000000011],[29.13041000000004,38.96340000000015],[29.1310000000002,38.962760000000344],[29.12834000000015,38.96393000000012],[29.127540000000067,38.96420000000029],[29.125560000000178,38.965460000000064],[29.123610000000156,38.96741000000014],[29.122940000000142,38.96886000000018],[29.120120000000043,38.97070000000019],[29.11911000000015,38.97119000000026],[29.117100000000107,38.97245000000004],[29.116860000000145,38.972700000000145],[29.11675000000008,38.97297000000043],[29.11651000000012,38.974290000000224],[29.115837486543285,38.976534622837335]]],"type":"Polygon"}},{"type":"Feature","properties":{"area_id":"TR-43-010-51579","name_tr":"Atatürk","area_level":"neighbourhood","parent_id":"TR-43-010","endeksa_id":51579},"geometry":{"coordinates":[[[29.12323000000015,38.994480000000294],[29.12305000000015,38.99456000000049],[29.122260000000153,38.99370000000039],[29.12159000000014,38.99246000000011],[29.121260000000234,38.99203000000006],[29.12047000000024,38.99140000000051],[29.12010000000015,38.99088000000012],[29.120020000000125,38.98952000000003],[29.119720000000143,38.98865000000035],[29.119310000000155,38.98695000000038],[29.118760000000123,38.9857100000001],[29.118670000000122,38.98505000000023],[29.118780000000186,38.98391000000038],[29.11817000000019,38.98254000000003],[29.117300000000114,38.981840000000375],[29.116790000000037,38.98080000000027],[29.115740000000187,38.976860000000045],[29.11651000000012,38.974290000000224],[29.11675000000008,38.97297000000043],[29.116860000000145,38.972700000000145],[29.117100000000107,38.97245000000004],[29.11911000000015,38.97119000000026],[29.120120000000043,38.97070000000019],[29.122940000000142,38.96886000000018],[29.123610000000156,38.96741000000014],[29.125560000000178,38.965460000000064],[29.127540000000067,38.96420000000029],[29.12834000000015,38.96393000000012],[29.1310000000002,38.962760000000344],[29.13041000000004,38.96340000000015],[29.130700000000047,38.96364000000011],[29.131110000000035,38.96380000000056],[29.131270000000143,38.964310000000125],[29.13155000000023,38.96429000000006],[29.131600000000105,38.9644200000007],[29.13190000000003,38.96465000000018],[29.13153000000017,38.96475000000032],[29.13146000000006,38.96501000000035],[29.13124000000016,38.96506000000039],[29.130880000000218,38.96553000000017],[29.129520000000127,38.96609000000035],[29.12948000000017,38.96628000000004],[29.129930000000115,38.96680000000009],[29.130196565187646,38.96759969556251],[29.13041000000004,38.96805000000012],[29.130210000000204,38.96824000000004],[29.13029000000006,38.96856000000008],[29.13093000000009,38.96845000000019],[29.130860000000155,38.96872000000013],[29.131350000000168,38.96883000000037],[29.131400000000042,38.96898000000016],[29.13184000000024,38.969360000000165],[29.13200000000012,38.96968000000038],[29.132020000000182,38.96993000000043],[29.131890000000112,38.97039000000012],[29.132170000000144,38.970690000000104],[29.132750000000215,38.971000000000174],[29.13286000000005,38.97093000000007],[29.13453000000004,38.97086000000013],[29.13547000000017,38.97061000000042],[29.137590000000102,38.97108000000037],[29.140190000000075,38.97140000000019],[29.140250000000094,38.97360000000015],[29.1404100000002,38.97473000000042],[29.140690000000063,38.97582000000034],[29.14052979860037,38.97717700009201],[29.14079000000021,38.97798000000017],[29.141270000000134,38.97855000000027],[29.141230000000178,38.979240000000516],[29.14073000000019,38.97984000000042],[29.14042000000012,38.98037000000022],[29.13958000000008,38.98081000000042],[29.139340000000118,38.98105000000038],[29.139410000000055,38.98142000000041],[29.139880000000232,38.98189000000025],[29.13990000000007,38.98219000000017],[29.13961000000006,38.98252000000048],[29.138820000000067,38.9828500000001],[29.138380000000097,38.982800000000225],[29.13698000000005,38.98362000000054],[29.13630000000012,38.98470000000037],[29.13586000000015,38.985130000000424],[29.135320000000036,38.98541000000017],[29.134920000000136,38.98549000000037],[29.133830000000046,38.9862200000004],[29.132980000000032,38.98617000000036],[29.132780000000196,38.98628000000036],[29.132250000000056,38.986860000000036],[29.131660000000068,38.9871600000007],[29.130590000000154,38.98724000000021],[29.13001000000014,38.98737000000034],[29.128290000000106,38.988000000000056],[29.124730000000113,38.99150000000026],[29.124520000000132,38.99174000000022],[29.124110000000144,38.99312000000003],[29.123610000000156,38.99376000000041],[29.12323000000015,38.994480000000294]]],"type":"Polygon"}},{"type":"Feature","properties":{"area_id":"TR-43-010-51578","name_tr":"Adnanmenderes","area_level":"neighbourhood","parent_id":"TR-43-010","endeksa_id":51578},"geometry":{"coordinates":[[[29.11804862448838,38.99585642366952],[29.117876252410156,38.99576734644518],[29.116843979000123,38.995951479999974],[29.11486354600015,38.99558902700028],[29.11297709200005,38.99565552800004],[29.109235540000043,38.99357356700017],[29.108410022000157,38.99272141299997],[29.1078020060001,38.99237962300015],[29.107651209000153,38.992384292000054],[29.10728123199999,38.99269435500008],[29.107142690000103,38.992688435000446],[29.104936864000024,38.990960971000334],[29.10315380100019,38.99030955799998],[29.10184371100013,38.98892632000047],[29.10014930900013,38.98798739600005],[29.09744320800013,38.98566020200042],[29.09615962200013,38.98391777800049],[29.094155452000052,38.9827232240001],[29.092394360000185,38.98266150000046],[29.091383153000095,38.98230003100031],[29.087167416000057,38.98157751400015],[29.083753356000045,38.98188847700004],[29.081509206000305,38.98269038300009],[29.08138017500022,38.98267969100027],[29.081327621000298,38.98258689900041],[29.082436959000233,38.97636457400063],[29.082603118000236,38.97152707400005],[29.084828760000335,38.9638295430006],[29.084899012000108,38.96394923300056],[29.08632169400005,38.96432219100018],[29.09338423300011,38.96503796300004],[29.102395524000087,38.96494618300045],[29.110297198000183,38.96528643400012],[29.112601580000046,38.96566397600009],[29.112715398000034,38.96562015500007],[29.112722312000074,38.96551914300011],[29.113130889000047,38.96613438400044],[29.113265843000192,38.96736652600009],[29.114034797000045,38.96812046300005],[29.114546685000107,38.970761743000594],[29.114525549000177,38.97180902700006],[29.11410635700014,38.973001535000094],[29.115528354579,38.9765490357413],[29.11569073555006,38.97663171304595],[29.115837486543285,38.976534622837335],[29.115740000000187,38.976860000000045],[29.116790000000037,38.98080000000027],[29.117300000000114,38.981840000000375],[29.11817000000019,38.98254000000003],[29.118780000000186,38.98391000000038],[29.118670000000122,38.98505000000023],[29.118760000000123,38.9857100000001],[29.119310000000155,38.98695000000038],[29.119720000000143,38.98865000000035],[29.120020000000125,38.98952000000003],[29.12010000000015,38.99088000000012],[29.12047000000024,38.99140000000051],[29.121260000000234,38.99203000000006],[29.12159000000014,38.99246000000011],[29.122260000000153,38.99370000000039],[29.12305000000015,38.99456000000049],[29.121760000000222,38.99515000000031],[29.11800000000011,38.99573000000066],[29.11804862448838,38.99585642366952]]],"type":"Polygon"}},{"type":"Feature","properties":{"area_id":"TR-43-010-51582","name_tr":"Hocaahmetyesevi","area_level":"neighbourhood","parent_id":"TR-43-010","endeksa_id":51582},"geometry":{"coordinates":[[[29.145630000000097,39.00573000000031],[29.14507000000009,39.005790000000275],[29.14333000000022,39.00550000000044],[29.142150000000072,39.005700000000104],[29.14141000000012,39.005700000000104],[29.138170000000116,39.004860000000065],[29.131860000000074,39.00289000000049],[29.13103000000018,39.0025500000001],[29.129370000000108,39.00160000000034],[29.12905000000012,39.00128000000018],[29.12719000000004,38.99914000000018],[29.125090000000228,38.99626000000046],[29.12434000000013,38.99555000000015],[29.12332000000015,38.994850000000326],[29.12305000000015,38.99456000000049],[29.12323000000015,38.994480000000294],[29.124050000000125,38.994610000000364],[29.124980000000164,38.99450000000036],[29.12502000000012,38.99401000000046],[29.124790000000075,38.993370000000084],[29.125480000000152,38.99348000000066],[29.12599000000006,38.993360000000166],[29.1265200000002,38.99342000000013],[29.12713000000008,38.993330000000356],[29.12892000000022,38.993520000000046],[29.129130000000146,38.99339000000032],[29.130400000000066,38.991750000000366],[29.131270000000143,38.991160000000036],[29.131200000000035,38.99099000000069],[29.12957000000017,38.99045000000007],[29.129340000000127,38.990200000000186],[29.129530000000045,38.9897900000002],[29.130120000000034,38.98905000000008],[29.130590000000154,38.988010000000145],[29.13001000000014,38.98737000000034],[29.130590000000154,38.98724000000021],[29.131660000000068,38.9871600000007],[29.132250000000056,38.986860000000036],[29.132780000000196,38.98628000000036],[29.132980000000032,38.98617000000036],[29.133830000000046,38.9862200000004],[29.134920000000136,38.98549000000037],[29.135320000000036,38.98541000000017],[29.13586000000015,38.985130000000424],[29.13630000000012,38.98470000000037],[29.13698000000005,38.98362000000054],[29.138380000000097,38.982800000000225],[29.138820000000067,38.9828500000001],[29.13961000000006,38.98252000000048],[29.13990000000007,38.98219000000017],[29.139880000000232,38.98189000000025],[29.139410000000055,38.98142000000041],[29.139340000000118,38.98105000000038],[29.13958000000008,38.98081000000042],[29.14042000000012,38.98037000000022],[29.14073000000019,38.97984000000042],[29.141230000000178,38.979240000000516],[29.141270000000134,38.97855000000027],[29.14079000000021,38.97798000000017],[29.14052979860037,38.97717700009201],[29.141507129000104,38.97730959100022],[29.151884208000126,38.97806568900006],[29.158061824000185,38.97669332100003],[29.158427647000167,38.976769680000075],[29.158551489000104,38.97669235400008],[29.15794884900015,38.979171607000126],[29.1580629500001,38.97928736300008],[29.157904042000098,38.979358187000116],[29.157370651999997,38.981569927000294],[29.156827575000136,38.984746816000154],[29.156827436000185,38.990356021000196],[29.157444186000077,38.99302828900068],[29.15581495700019,38.99879627200016],[29.15585763000007,38.99939677800012],[29.15554952100007,38.999806658000125],[29.154901537000114,39.00226412300049],[29.15543338674405,39.00569211733051],[29.153840000000116,39.00472000000019],[29.152910000000077,39.004390000000285],[29.151090000000124,39.00401000000011],[29.149230000000045,39.003900000000215],[29.148170000000107,39.00403000000034],[29.147030000000086,39.00454000000059],[29.14665000000008,39.0048000000001],[29.145830000000103,39.00564000000065],[29.145630000000097,39.00573000000031]]],"type":"Polygon"}},{"type":"Feature","properties":{"area_id":"TR-43-010-51581","name_tr":"Fatih","area_level":"neighbourhood","parent_id":"TR-43-010","endeksa_id":51581},"geometry":{"coordinates":[[[29.104118777999986,39.02710134300014],[29.102345399000114,39.02779670500007],[29.098270705999994,39.030665213000134],[29.09702523599998,39.030709412000476],[29.094188411000005,39.02872529800027],[29.09354495100007,39.028465274999974],[29.092793593000067,39.028619968999976],[29.09274358700003,39.02871706400015],[29.09292166400013,39.02912890600027],[29.092866578000155,39.03045993300003],[29.092061828,39.03166352700009],[29.091226549999988,39.03356322200017],[29.090265933000182,39.0346487920001],[29.089950692000116,39.03648609099997],[29.089238278000153,39.036759373000564],[29.086923712000157,39.03702802000032],[29.086800417000177,39.03696900200009],[29.086830388000067,39.0368563790006],[29.089432239000132,39.034984812000005],[29.089466573000152,39.034885339000084],[29.085698134000154,39.033888692999994],[29.083329503000016,39.029550726000025],[29.083326437639073,39.02803594772348],[29.083710000000337,39.02770000000038],[29.083790000000363,39.02748000000025],[29.082840000000317,39.026450000000295],[29.082780000000298,39.025490000000445],[29.08259000000021,39.02510000000035],[29.081390000000226,39.0240100000002],[29.08054000000027,39.02353000000028],[29.080870000000345,39.0231500000001],[29.080990000000327,39.022830000000624],[29.08097000000032,39.022510000000466],[29.08216000000033,39.02253000000036],[29.082100000000366,39.021900000000414],[29.083410000000413,39.02152000000024],[29.08392000000032,39.02065000000022],[29.0839500000003,39.02043000000032],[29.082470000000228,39.01543000000032],[29.080210000000307,39.013560000000325],[29.079370000000267,39.01298000000048],[29.079190000000267,39.012730000000545],[29.07911000000024,39.012110000000405],[29.07868000000036,39.011450000000536],[29.078720000000317,39.01116000000053],[29.07893000000024,39.010800000000415],[29.078890000000342,39.01033000000024],[29.078390000000354,39.009570000000565],[29.07825000000031,39.00878000000057],[29.07680000000022,39.005480000000375],[29.076690000000383,39.00534000000016],[29.076290000000313,39.00538000000063],[29.075720000000217,39.00509000000028],[29.07565000000028,39.00496000000038],[29.07552000000021,39.004550000000165],[29.075680000000318,39.00385000000051],[29.075590000000318,39.00372000000044],[29.07488000000035,39.00308000000024],[29.074310000000253,39.00291000000021],[29.073530000000403,39.00240000000048],[29.073250000000314,39.00204000000036],[29.072530000000256,39.0017100000004],[29.072200000000294,39.00141000000042],[29.072250000000338,39.00131000000067],[29.072780000000307,39.00110000000035],[29.073250000000314,39.00104000000039],[29.073800000000347,39.00076000000064],[29.073860000000366,39.00039000000061],[29.073560000000214,39.00005000000016],[29.073650000000384,38.99974000000009],[29.074000000000353,38.99958000000038],[29.074520000000234,38.99914000000018],[29.075420000000292,38.99878000000024],[29.074610000000234,38.99843000000044],[29.0754900000004,38.99730000000039],[29.075330000000292,38.99708000000027],[29.07488000000035,38.996840000000304],[29.074640000000215,38.9964200000004],[29.075190000000248,38.99611000000033],[29.075780000000407,38.99641000000025],[29.07676000000032,38.9965700000007],[29.077270000000226,38.99703000000039],[29.07751000000036,38.997120000000734],[29.07753000000025,38.9969500000002],[29.077340000000333,38.996490000000506],[29.077390000000207,38.99638000000061],[29.077740000000404,38.996370000000525],[29.07813000000033,38.99660000000034],[29.078270000000373,38.99654000000038],[29.07834000000031,38.99613000000056],[29.078300000000354,38.995570000000384],[29.07773000000026,38.993980000000306],[29.077740000000404,38.993770000000666],[29.078100000000347,38.99283000000037],[29.078850000000216,38.992780000000494],[29.080310000000225,38.99292000000054],[29.080590000000313,38.99269000000032],[29.0808200000003,38.99233000000089],[29.081120000000283,38.99223000000046],[29.081730000000277,38.99147000000079],[29.08312000000035,38.990180000000635],[29.08218000000022,38.99004000000042],[29.08132000000029,38.98951000000062],[29.08130000533356,38.98278179464137],[29.081509206000305,38.98269038300009],[29.083753356000045,38.98188847700004],[29.087167416000057,38.98157751400015],[29.091383153000095,38.98230003100031],[29.092394360000185,38.98266150000046],[29.094155452000052,38.9827232240001],[29.09615962200013,38.98391777800049],[29.09744320800013,38.98566020200042],[29.10014930900013,38.98798739600005],[29.10184371100013,38.98892632000047],[29.10315380100019,38.99030955799998],[29.104936864000024,38.990960971000334],[29.107142690000103,38.992688435000446],[29.10728123199999,38.99269435500008],[29.107651209000153,38.992384292000054],[29.1078020060001,38.99237962300015],[29.108410022000157,38.99272141299997],[29.109235540000043,38.99357356700017],[29.11297709200005,38.99565552800004],[29.11486354600015,38.99558902700028],[29.116843979000123,38.995951479999974],[29.117876252410156,38.99576734644518],[29.11804862448838,38.99585642366952],[29.118150000000128,38.99628000000018],[29.118060000000128,38.99685000000028],[29.118190000000197,38.99704000000037],[29.11833000000007,38.99788000000024],[29.118750000000034,38.99911000000037],[29.11831000000018,38.999660000000404],[29.117540000000076,39.00156000000004],[29.11725000000007,39.003190000000075],[29.11691000000019,39.003370000000416],[29.116530000000182,39.00343000000004],[29.115000000000066,39.00347000000016],[29.11369000000019,39.00584000000015],[29.11319000000026,39.007240000000195],[29.113790000000165,39.010210000000086],[29.11369000000019,39.012390000000664],[29.11158000000006,39.01497000000029],[29.109980000000178,39.01723000000038],[29.105160000000183,39.02144000000055],[29.105193414300288,39.02168908841924],[29.104231480000124,39.02467181499998],[29.104118777999986,39.02710134300014]]],"type":"Polygon"}},{"type":"Feature","properties":{"area_id":"TR-43-010-51583","name_tr":"Turgut Özal","area_level":"neighbourhood","parent_id":"TR-43-010","endeksa_id":51583},"geometry":{"coordinates":[[[29.14519000000007,39.00905000000017],[29.145090000000152,39.00877000000031],[29.144870000000083,39.00860000000006],[29.143540000000144,39.00807000000009],[29.14166000000006,39.00867000000039],[29.141980000000046,39.00958000000037],[29.142110000000173,39.0104300000005],[29.14243000000016,39.01097000000027],[29.143190000000175,39.01160000000016],[29.14317000000011,39.01191000000006],[29.142900000000168,39.01228000000009],[29.142100000000198,39.01274000000035],[29.141710000000103,39.01287000000059],[29.140520000000038,39.01296000000025],[29.139640000000043,39.01318000000015],[29.138940000000048,39.01266000000027],[29.13770000000011,39.01302000000021],[29.137400000000184,39.01290000000023],[29.137150000000076,39.01266000000027],[29.137180000000114,39.01256000000052],[29.136560000000145,39.012140000000045],[29.13630000000012,39.01185000000004],[29.136440000000164,39.01163000000031],[29.13559000000015,39.01109000000042],[29.1354300000001,39.0106100000001],[29.13515000000018,39.0103900000002],[29.135080000000073,39.00995000000057],[29.13500000000022,39.00993000000034],[29.135010000000136,39.009720000000186],[29.134900000000073,39.00954000000007],[29.134270000000186,39.00992000000025],[29.133800000000235,39.01050000000009],[29.133090000000095,39.011790000000076],[29.132170000000144,39.011640000000284],[29.13115000000016,39.01230000000032],[29.130330000000185,39.01270000000005],[29.12949000000009,39.01333000000028],[29.1292600000001,39.01333000000028],[29.129010000000164,39.0128600000001],[29.12924000000004,39.012290000000235],[29.129280000000165,39.011890000000506],[29.128640000000132,39.0117800000001],[29.128040000000055,39.012330000000134],[29.128230000000144,39.01302000000021],[29.128170000000125,39.01349000000005],[29.12765000000013,39.01355000000018],[29.126470000000154,39.0139200000001],[29.126030000000185,39.01413000000042],[29.12601000000012,39.01447000000013],[29.12506000000019,39.014950000000056],[29.124070000000188,39.015230000000315],[29.123710000000074,39.015550000000644],[29.123640000000137,39.015760000000284],[29.123300000000086,39.01579000000061],[29.122650000000135,39.0169600000001],[29.12236000000013,39.017250000000104],[29.122040000000084,39.01741000000038],[29.121760000000222,39.01779000000016],[29.121530000000178,39.01753000000036],[29.120760000000075,39.0172900000004],[29.120390000000157,39.0167800000001],[29.11840000000018,39.01683000000014],[29.11769000000004,39.01676000000003],[29.11651000000012,39.017030000000204],[29.116340000000093,39.01714000000004],[29.11669000000012,39.01744000000019],[29.11669000000012,39.018030000000124],[29.116520000000094,39.018730000000176],[29.116270000000156,39.01910000000021],[29.11449000000016,39.01844000000034],[29.113920000000064,39.01838000000032],[29.112530000000163,39.01848000000007],[29.111480000000142,39.01881000000037],[29.1110300000002,39.019140000000675],[29.11090000000013,39.02080000000018],[29.109600000000228,39.02117000000027],[29.10926000000012,39.02165000000019],[29.10869000000025,39.022020000000225],[29.10845000000006,39.021580000000085],[29.106760000000065,39.02170000000007],[29.106920000000173,39.02228000000042],[29.10591000000005,39.02249000000006],[29.105270000000246,39.02226000000019],[29.105160000000183,39.02144000000055],[29.109980000000178,39.01723000000038],[29.11158000000006,39.01497000000029],[29.11369000000019,39.012390000000664],[29.113790000000165,39.010210000000086],[29.11319000000026,39.007240000000195],[29.11369000000019,39.00584000000015],[29.115000000000066,39.00347000000016],[29.116530000000182,39.00343000000004],[29.11691000000019,39.003370000000416],[29.11725000000007,39.003190000000075],[29.117540000000076,39.00156000000004],[29.11831000000018,38.999660000000404],[29.118750000000034,38.99911000000037],[29.11833000000007,38.99788000000024],[29.118190000000197,38.99704000000037],[29.118060000000128,38.99685000000028],[29.118150000000128,38.99628000000018],[29.11804862448838,38.99585642366952],[29.11800000000011,38.99573000000066],[29.121760000000222,38.99515000000031],[29.12305000000015,38.99456000000049],[29.12332000000015,38.994850000000326],[29.12434000000013,38.99555000000015],[29.125090000000228,38.99626000000046],[29.12719000000004,38.99914000000018],[29.12905000000012,39.00128000000018],[29.129370000000108,39.00160000000034],[29.13103000000018,39.0025500000001],[29.131860000000074,39.00289000000049],[29.138170000000116,39.004860000000065],[29.14141000000012,39.005700000000104],[29.142150000000072,39.005700000000104],[29.14333000000022,39.00550000000044],[29.14507000000009,39.005790000000275],[29.145630000000097,39.00573000000031],[29.14630000000011,39.00598000000036],[29.147090000000105,39.00648000000052],[29.147290000000112,39.00702000000007],[29.146870000000206,39.00835000000035],[29.146380000000136,39.00884000000042],[29.14519000000007,39.00905000000017]]],"type":"Polygon"}},{"type":"Feature","properties":{"area_id":"TR-43-010-51580","name_tr":"Ayvalı","area_level":"neighbourhood","parent_id":"TR-43-010","endeksa_id":51580},"geometry":{"coordinates":[[[29.116958498000088,39.046151714000075],[29.1169552450001,39.04630885300003],[29.116912214000024,39.04625631000022],[29.116931945000147,39.046316492000074],[29.111066580000056,39.04823950100007],[29.10765971500018,39.05082816500004],[29.102392586000178,39.05137397700008],[29.10008374400013,39.05187186900042],[29.099528165000038,39.05183598800056],[29.09931119200013,39.05176755500014],[29.09857954900008,39.050106720000144],[29.092438569000024,39.04940116400019],[29.08783002399997,39.04676229300043],[29.0878206860001,39.0466650530002],[29.08946540300002,39.0439115210001],[29.086059923000164,39.040084671000045],[29.085831373000076,39.03760256600043],[29.086830388000067,39.0368563790006],[29.086800417000177,39.03696900200009],[29.086923712000157,39.03702802000032],[29.089238278000153,39.036759373000564],[29.089950692000116,39.03648609099997],[29.090265933000182,39.0346487920001],[29.091226549999988,39.03356322200017],[29.092061828,39.03166352700009],[29.092866578000155,39.03045993300003],[29.09292166400013,39.02912890600027],[29.09274358700003,39.02871706400015],[29.092793593000067,39.028619968999976],[29.09354495100007,39.028465274999974],[29.094188411000005,39.02872529800027],[29.09702523599998,39.030709412000476],[29.098270705999994,39.030665213000134],[29.102345399000114,39.02779670500007],[29.104118777999986,39.02710134300014],[29.105452537000133,39.03109451],[29.108248649000018,39.035701740000036],[29.110891044000084,39.038216340000076],[29.114846538000165,39.042849649000345],[29.116958498000088,39.046151714000075]]],"type":"Polygon"}}]}