{"type":"FeatureCollection","source_id":"endeksa","retrieved_at":null,"features":[{"type":"Feature","properties":{"area_id":"TR-49-002-2024806","name_tr":"Koğuktaş Köyü","area_level":"neighbourhood","parent_id":"TR-49-002","endeksa_id":2024806},"geometry":{"coordinates":[[[41.91664000000043,38.61247000000043],[41.913710000000265,38.61315000000053],[41.90986000000004,38.61389000000065],[41.90943000000016,38.61269000000016],[41.90690000000029,38.61145000000056],[41.90614000000028,38.612330000000384],[41.90313000000009,38.61271000000039],[41.899890000000084,38.61342000000013],[41.89697000000007,38.61526000000049],[41.89705000000009,38.6141700000004],[41.89373000000023,38.611060000000975],[41.89373000000023,38.60949000000039],[41.893480000000295,38.60924000000034],[41.893850000000384,38.60909000000015],[41.89460000000025,38.608490000000074],[41.89356000000015,38.607560000000035],[41.89238000000006,38.60839000000033],[41.89142000000021,38.60798000000051],[41.88978000000026,38.60760000000033],[41.889920000000075,38.60711000000032],[41.889700000000175,38.606380000000456],[41.89003000000031,38.60585000000049],[41.88971000000032,38.60484000000008],[41.889050000000225,38.60489000000064],[41.888870000000054,38.60501000000011],[41.888710000000344,38.605510000000095],[41.88767000000024,38.60544000000016],[41.886630000000196,38.60571000000027],[41.885450000000276,38.605760000000146],[41.88543000000004,38.606380000000286],[41.8850700000001,38.60550000000012],[41.879980807901745,38.606068624815805],[41.87841000000043,38.605980000000045],[41.874920000000316,38.60355000000061],[41.87425000000013,38.60324000000054],[41.87379000000004,38.60321000000022],[41.87382000000025,38.60333000000037],[41.87248000000022,38.60271000000023],[41.87208000000015,38.60271000000006],[41.87204000000003,38.602600000000166],[41.871760000000336,38.60256000000027],[41.87138000000033,38.602320000000304],[41.86999000000026,38.6027600000001],[41.8701300000003,38.60225000000037],[41.8687400000004,38.60242000000022],[41.86867000000029,38.602360000000374],[41.86836000000022,38.602540000000204],[41.86840000000012,38.602660000000185],[41.86508000000043,38.60611000000017],[41.86558000000025,38.60665000000006],[41.8633200000001,38.60639000000043],[41.859430000000316,38.60169000000036],[41.85130000000015,38.59951000000029],[41.87271000000004,38.593340000000126],[41.90402000000017,38.58110000000045],[41.921920000000114,38.57789000000059],[41.922380000000146,38.58338000000009],[41.92276000000015,38.58685000000014],[41.920860000000175,38.594080000000076],[41.92010000000016,38.59874000000053],[41.92010000000016,38.60181000000017],[41.91769000000005,38.6088400000001],[41.91664000000043,38.61247000000043]]],"type":"Polygon"}},{"type":"Feature","properties":{"area_id":"TR-49-002-2024807","name_tr":"Ortanca Köyü","area_level":"neighbourhood","parent_id":"TR-49-002","endeksa_id":2024807},"geometry":{"coordinates":[[[41.91664000000043,38.61247000000043],[41.916780000000074,38.612450000000194],[41.91691000000037,38.61259000000041],[41.91505000000029,38.613660000000095],[41.91489000000041,38.613840000000096],[41.91470000000032,38.614240000000336],[41.9145300000003,38.61590000000069],[41.91471000000007,38.6162400000004],[41.915780000000325,38.61662000000058],[41.91623000000027,38.616940000000056],[41.916310000000294,38.617310000000145],[41.916220000000294,38.61764000000028],[41.91657000000032,38.61978000000056],[41.916930000000264,38.62019000000055],[41.91707000000031,38.6209300000005],[41.91737000000023,38.62106000000006],[41.91791000000035,38.62163000000032],[41.91793000000041,38.621750000000134],[41.9176800000003,38.62189000000035],[41.91731000000027,38.62194000000022],[41.91688000000039,38.62238000000059],[41.91641000000004,38.622670000000255],[41.91570000000007,38.62279000000092],[41.91522000000015,38.623110000000565],[41.91474000000022,38.6237100000003],[41.91474000000022,38.62427000000008],[41.91404000000023,38.62479000000013],[41.91426000000013,38.625400000000184],[41.9142600000003,38.625640000000146],[41.91413000000006,38.625770000000216],[41.91434000000038,38.625870000000134],[41.914420000000234,38.626050000000646],[41.91431000000017,38.62620000000027],[41.913770000000284,38.626260000000286],[41.91363000000024,38.6264800000007],[41.91335000000032,38.62663000000049],[41.91254000000026,38.62666000000013],[41.91195000000016,38.62654000000015],[41.91161000000005,38.62629000000061],[41.911200000000065,38.626330000000394],[41.91106000000042,38.626270000000375],[41.91056000000043,38.62637000000029],[41.910550000000285,38.62656000000021],[41.91032000000013,38.62687000000045],[41.909580000000346,38.626800000000344],[41.90883000000008,38.62694000000056],[41.908540000000244,38.62883000000045],[41.9073200000002,38.628160000000605],[41.90604000000019,38.62765000000036],[41.90585000000027,38.62734000000012],[41.905680000000075,38.62677000000053],[41.90549000000033,38.62662000000091],[41.90434000000022,38.62643000000014],[41.90417000000019,38.62626000000046],[41.90387000000021,38.62564000000032],[41.90347000000014,38.62518000000006],[41.90319000000028,38.62512000000061],[41.90260000000029,38.62517000000031],[41.90122000000014,38.62561000000011],[41.90086000000042,38.625560000000064],[41.90021000000024,38.62480000000096],[41.89872000000008,38.6239700000005],[41.89802000000026,38.6234400000007],[41.897790000000214,38.622670000000255],[41.897570000000144,38.62245000000013],[41.89742000000035,38.62242000000015],[41.8969000000003,38.62263000000047],[41.89663000000019,38.622650000000704],[41.89625000000018,38.62248000000017],[41.89609000000024,38.62191000000058],[41.89625000000035,38.62127000000021],[41.89596000000034,38.62044000000009],[41.89607000000018,38.62015000000008],[41.89636000000041,38.61987000000022],[41.896520000000294,38.61948000000007],[41.896480000000395,38.61931000000004],[41.8959100000003,38.61919000000006],[41.89542000000023,38.61932000000019],[41.89495000000028,38.61965000000032],[41.89421000000016,38.62051000000042],[41.89421000000033,38.62081000000069],[41.89403000000016,38.62108000000012],[41.893780000000106,38.62121000000025],[41.8931300000001,38.62105000000065],[41.892580000000066,38.62068000000005],[41.89186000000018,38.619640000000345],[41.89170000000013,38.619240000000104],[41.8896100000004,38.61992000000009],[41.88929000000019,38.620260000000656],[41.88881000000009,38.62053000000009],[41.88797000000022,38.62062000000043],[41.88733000000019,38.62022000000019],[41.88646000000034,38.61934000000042],[41.88612000000012,38.619210000000294],[41.88583000000028,38.619210000000294],[41.88584000000037,38.61960000000005],[41.88603000000029,38.61994000000033],[41.88606000000027,38.620200000000125],[41.88511000000017,38.62095000000005],[41.88482000000033,38.62102000000016],[41.884310000000085,38.62095000000005],[41.88359000000037,38.62056000000047],[41.883070000000316,38.62053000000009],[41.882850000000076,38.62065000000007],[41.88281000000012,38.6208000000006],[41.882910000000265,38.6214600000003],[41.88277000000039,38.62170000000043],[41.88181000000037,38.62192000000016],[41.88131000000021,38.62192000000016],[41.878950000000145,38.62151000000034],[41.878740000000164,38.621840000000475],[41.87865000000039,38.62261000000041],[41.87914000000006,38.62313000000063],[41.87928000000028,38.62384000000003],[41.87910000000011,38.62402000000037],[41.87854000000033,38.62428000000057],[41.87803000000025,38.624380000000315],[41.877500000000055,38.624380000000485],[41.87673000000012,38.62408000000039],[41.87595000000027,38.6237100000003],[41.875420000000304,38.62327000000016],[41.87491000000017,38.6230700000001],[41.87336000000039,38.62294000000054],[41.87209000000007,38.62235000000021],[41.87144000000012,38.62210000000016],[41.8710300000003,38.62204000000014],[41.87086000000028,38.62209000000041],[41.86964000000006,38.62346000000025],[41.86925000000031,38.62358000000023],[41.86828000000014,38.6237100000003],[41.86762000000027,38.623630000000105],[41.86658000000034,38.62381000000005],[41.86639000000008,38.623730000000535],[41.8661400000002,38.62323000000055],[41.865780000000086,38.62309000000016],[41.86565000000036,38.62313000000063],[41.8651900000001,38.62390000000039],[41.86494000000005,38.623980000000074],[41.86412000000041,38.62396000000058],[41.86321000000004,38.62411000000003],[41.86296000000033,38.624290000000144],[41.86267000000015,38.62436000000025],[41.86231000000021,38.62432000000035],[41.86192000000028,38.62414000000035],[41.861050000000034,38.62415000000033],[41.86025000000012,38.624560000000315],[41.859440000000234,38.624750000000404],[41.85927000000021,38.62491000000011],[41.859250000000316,38.62505000000033],[41.859378039938804,38.62529902739334],[41.85943130980786,38.62605090384017],[41.8593463723588,38.62614291653449],[41.85763619094024,38.62596214521159],[41.85685324566168,38.613137408425985],[41.85714057300032,38.61385695300066],[41.85760798000035,38.61403029300027],[41.86597696700028,38.619316871000194],[41.86602655900032,38.61942182500013],[41.86611465400006,38.619319997000105],[41.875797608000255,38.6169320460001],[41.875954843000045,38.61695176800032],[41.8758711080003,38.6168286300001],[41.879980807901745,38.606068624815805],[41.8850700000001,38.60550000000012],[41.88543000000004,38.606380000000286],[41.885450000000276,38.605760000000146],[41.886630000000196,38.60571000000027],[41.88767000000024,38.60544000000016],[41.888710000000344,38.605510000000095],[41.888870000000054,38.60501000000011],[41.889050000000225,38.60489000000064],[41.88971000000032,38.60484000000008],[41.89003000000031,38.60585000000049],[41.889700000000175,38.606380000000456],[41.889920000000075,38.60711000000032],[41.88978000000026,38.60760000000033],[41.89142000000021,38.60798000000051],[41.89238000000006,38.60839000000033],[41.89356000000015,38.607560000000035],[41.89460000000025,38.608490000000074],[41.893850000000384,38.60909000000015],[41.893480000000295,38.60924000000034],[41.89373000000023,38.60949000000039],[41.89373000000023,38.611060000000975],[41.89705000000009,38.6141700000004],[41.89697000000007,38.61526000000049],[41.899890000000084,38.61342000000013],[41.90313000000009,38.61271000000039],[41.90614000000028,38.612330000000384],[41.90690000000029,38.61145000000056],[41.90943000000016,38.61269000000016],[41.90986000000004,38.61389000000065],[41.913710000000265,38.61315000000053],[41.91664000000043,38.61247000000043]]],"type":"Polygon"}},{"type":"Feature","properties":{"area_id":"TR-49-002-2024798","name_tr":"Büvetli Köyü","area_level":"neighbourhood","parent_id":"TR-49-002","endeksa_id":2024798},"geometry":{"coordinates":[[[41.95600192200027,38.62586268899997],[41.95601964700023,38.62595611900042],[41.95593095600026,38.62601845700061],[41.95459731200026,38.62614033700021],[41.95233104300024,38.62710811800008],[41.94613436400027,38.62913318800048],[41.938917534000325,38.63123741200036],[41.9379263840583,38.63471216073782],[41.93796000000032,38.635140000001],[41.937812870342896,38.63511011428932],[41.93740516600025,38.63653943400061],[41.93724250130646,38.63660461675869],[41.932575575007206,38.6350279392874],[41.93217000000038,38.634970000000465],[41.93197000000032,38.63461000000035],[41.93112000000036,38.63430000000045],[41.93102000000022,38.633730000000355],[41.931210000000306,38.63315000000051],[41.93084000000027,38.6324800000005],[41.93049000000025,38.63239000000033],[41.929600000000335,38.63235000000054],[41.92846000000037,38.6319100000004],[41.92803000000032,38.63189000000068],[41.92759000000029,38.63201000000066],[41.92701000000028,38.63195000000013],[41.925690000000316,38.6325200000004],[41.92419000000035,38.63217000000026],[41.92388000000028,38.632190000000094],[41.92327000000029,38.63280000000066],[41.922930000000406,38.63294000000087],[41.922500000000355,38.632810000000234],[41.922220000000266,38.632620000000145],[41.92107000000033,38.632710000000486],[41.92025000000035,38.6325200000004],[41.920150000000206,38.63236000000035],[41.920240000000376,38.63207000000011],[41.92051000000032,38.6319900000006],[41.92053000000021,38.63142000000033],[41.9197300000003,38.6310500000003],[41.91945000000021,38.63065000000057],[41.91892000000024,38.63032000000027],[41.919290000000274,38.629960000000324],[41.91921000000025,38.62964000000068],[41.918450000000234,38.62933000000061],[41.917980000000284,38.62888000000049],[41.9172600000004,38.62901000000028],[41.9166000000003,38.62932000000052],[41.916310000000294,38.62968000000029],[41.915970000000414,38.6298100000007],[41.91518000000042,38.62951000000004],[41.91415000000029,38.62947000000031],[41.91345000000024,38.629610000000525],[41.91304000000025,38.629400000000714],[41.91177000000033,38.629090000000645],[41.910920000000374,38.62914000000069],[41.91049000000032,38.62932000000052],[41.90948000000043,38.62925000000109],[41.908540000000244,38.62883000000045],[41.90883000000008,38.62694000000056],[41.909580000000346,38.626800000000344],[41.91032000000013,38.62687000000045],[41.910550000000285,38.62656000000021],[41.91056000000043,38.62637000000029],[41.91106000000042,38.626270000000375],[41.911200000000065,38.626330000000394],[41.91161000000005,38.62629000000061],[41.91195000000016,38.62654000000015],[41.91254000000026,38.62666000000013],[41.91335000000032,38.62663000000049],[41.91363000000024,38.6264800000007],[41.913770000000284,38.626260000000286],[41.91431000000017,38.62620000000027],[41.914420000000234,38.626050000000646],[41.91434000000038,38.625870000000134],[41.91413000000006,38.625770000000216],[41.9142600000003,38.625640000000146],[41.91426000000013,38.625400000000184],[41.91404000000023,38.62479000000013],[41.91474000000022,38.62427000000008],[41.91474000000022,38.6237100000003],[41.91522000000015,38.623110000000565],[41.91570000000007,38.62279000000092],[41.91641000000004,38.622670000000255],[41.91688000000039,38.62238000000059],[41.91731000000027,38.62194000000022],[41.9176800000003,38.62189000000035],[41.91793000000041,38.621750000000134],[41.91791000000035,38.62163000000032],[41.91737000000023,38.62106000000006],[41.91707000000031,38.6209300000005],[41.916930000000264,38.62019000000055],[41.91657000000032,38.61978000000056],[41.916220000000294,38.61764000000028],[41.916310000000294,38.617310000000145],[41.91623000000027,38.616940000000056],[41.915780000000325,38.61662000000058],[41.91471000000007,38.6162400000004],[41.9145300000003,38.61590000000069],[41.91470000000032,38.614240000000336],[41.91489000000041,38.613840000000096],[41.91505000000029,38.613660000000095],[41.91691000000037,38.61259000000041],[41.916780000000074,38.612450000000194],[41.91664000000043,38.61247000000043],[41.91769000000005,38.6088400000001],[41.92010000000016,38.60181000000017],[41.92010000000016,38.59874000000053],[41.920860000000175,38.594080000000076],[41.92276000000015,38.58685000000014],[41.922380000000146,38.58338000000009],[41.921920000000114,38.57789000000059],[41.92830000000009,38.57675000000006],[41.94389000000018,38.57895000000019],[41.946200197384144,38.57419085463869],[41.946273520000034,38.57428561000012],[41.953527797000106,38.57676579500003],[41.95360037400019,38.57685330900017],[41.95221359100009,38.58185040300009],[41.95232127400004,38.58196685000007],[41.95216180200015,38.58203693100006],[41.951808904000075,38.58344680100038],[41.9573900000002,38.58663000000041],[41.957324627962976,38.58669537203747],[41.959846732000074,38.59096278400011],[41.96024853800009,38.59165398200025],[41.96163783200012,38.595720310000615],[41.96160484100017,38.595816290000016],[41.94910172200008,38.60556032900041],[41.948588899000015,38.60628028000002],[41.94523801100007,38.61434627800003],[41.9466348680001,38.616084934000185],[41.95600192200027,38.62586268899997]]],"type":"Polygon"}},{"type":"Feature","properties":{"area_id":"TR-49-002-2024797","name_tr":"Böğürdelen Köyü","area_level":"neighbourhood","parent_id":"TR-49-002","endeksa_id":2024797},"geometry":{"coordinates":[[[41.80218282300001,38.64544934300005],[41.80104445000006,38.64546687800049],[41.80092714600016,38.645378805000064],[41.80204020300016,38.64363079400027],[41.80192290800011,38.64349498900032],[41.79835382400006,38.645438844000125],[41.798213617000044,38.64543904700008],[41.795986052000046,38.643991078000056],[41.79575661300015,38.64294357400007],[41.79561222300015,38.64293366600015],[41.79509186200016,38.643306757000005],[41.794943386000114,38.64330728300024],[41.783898309999984,38.63624712900014],[41.78362219700017,38.63616599400012],[41.783649657000126,38.63588926000011],[41.78569540300009,38.63575373800012],[41.790399428,38.62791925800059],[41.789027545000124,38.62348957900008],[41.79117782700001,38.613765756000134],[41.79731355600012,38.61075646400019],[41.79653760000002,38.60851024900006],[41.79664257600018,38.60839241000019],[41.80203633100018,38.60775839000047],[41.80215769300008,38.60780158400013],[41.80216343800009,38.607904290000306],[41.7998835210002,38.611219090000134],[41.80328430600014,38.616361067000014],[41.807023885000035,38.6187651110007],[41.811089492000065,38.63376105500015],[41.8108304240003,38.634531155000445],[41.810716486000274,38.634492146000184],[41.810379406000266,38.6351024010001],[41.81013117599997,38.6350503710006],[41.8020729160001,38.64529884100017],[41.80207149400013,38.64539980900054],[41.80218282300001,38.64544934300005]]],"type":"Polygon"}},{"type":"Feature","properties":{"area_id":"TR-49-002-2024808","name_tr":"Otaç Köyü","area_level":"neighbourhood","parent_id":"TR-49-002","endeksa_id":2024808},"geometry":{"coordinates":[[[41.830803503000084,38.638191242000175],[41.83060926900032,38.63822007200076],[41.82861632900028,38.64088674500016],[41.82520899200034,38.64209894000004],[41.82524453300016,38.64221547900013],[41.827762514000256,38.64373250500006],[41.82724831000013,38.64483924800061],[41.82282955100021,38.64562612700007],[41.818930139000145,38.64367875400069],[41.818080407000025,38.640888250000046],[41.81620467700009,38.639604265000116],[41.8160668160001,38.63959834200023],[41.81423189800017,38.640462508000496],[41.81411412100027,38.640370129000075],[41.81407562800024,38.63878892400004],[41.81393777400018,38.63878300499999],[41.812656185000094,38.63945466000024],[41.81250353600018,38.6394295020001],[41.8100566490001,38.63676644500015],[41.81058646300011,38.63523591100068],[41.810379406000266,38.6351024010001],[41.810716486000274,38.634492146000184],[41.8108304240003,38.634531155000445],[41.811089492000065,38.63376105500015],[41.807023885000035,38.6187651110007],[41.80328430600014,38.616361067000014],[41.7998835210002,38.611219090000134],[41.80216343800009,38.607904290000306],[41.806737286000214,38.60141121300012],[41.82267513700003,38.60149367500037],[41.82509145500012,38.59902542100008],[41.8285638870002,38.600001208000606],[41.84177272200003,38.59713028400057],[41.846816281000144,38.59422953000001],[41.846967165000365,38.59432669600005],[41.84686456000031,38.600313695000125],[41.84731559700026,38.60065410300018],[41.85149661939187,38.59956272205119],[41.859430000000316,38.60169000000036],[41.8633200000001,38.60639000000043],[41.86558000000025,38.60665000000006],[41.86508000000043,38.60611000000017],[41.86840000000012,38.602660000000185],[41.86836000000022,38.602540000000204],[41.86867000000029,38.602360000000374],[41.8687400000004,38.60242000000022],[41.8701300000003,38.60225000000037],[41.86999000000026,38.6027600000001],[41.87138000000033,38.602320000000304],[41.871760000000336,38.60256000000027],[41.87204000000003,38.602600000000166],[41.87208000000015,38.60271000000006],[41.87248000000022,38.60271000000023],[41.87382000000025,38.60333000000037],[41.87379000000004,38.60321000000022],[41.87425000000013,38.60324000000054],[41.874920000000316,38.60355000000061],[41.87841000000043,38.605980000000045],[41.879980807901745,38.606068624815805],[41.8758711080003,38.6168286300001],[41.875954843000045,38.61695176800032],[41.875797608000255,38.6169320460001],[41.86611465400006,38.619319997000105],[41.86602655900032,38.61942182500013],[41.86597696700028,38.619316871000194],[41.85760798000035,38.61403029300027],[41.85714057300032,38.61385695300066],[41.85685324566168,38.613137408425985],[41.85763619094024,38.62596214521159],[41.85707675100019,38.625900647000094],[41.85446620800013,38.62874469900004],[41.8557841130002,38.62458150100019],[41.855509681,38.62428634600002],[41.85563904500009,38.62373362600033],[41.854861863000224,38.62358960900019],[41.85424016100035,38.622920960000386],[41.84993884172019,38.62269612370363],[41.846499555000264,38.629211732000044],[41.84308846800036,38.62947246200031],[41.843396400000074,38.631940613000154],[41.83560753600011,38.634223135000184],[41.83630808100003,38.636100254000155],[41.83623523400013,38.636210822000066],[41.83268521800022,38.63544195900067],[41.83066115200029,38.63815055500061],[41.830803503000084,38.638191242000175]]],"type":"Polygon"}},{"type":"Feature","properties":{"area_id":"TR-49-002-2024812","name_tr":"Yukarıüçdam Köyü","area_level":"neighbourhood","parent_id":"TR-49-002","endeksa_id":2024812},"geometry":{"coordinates":[[[41.83536493200006,38.6478325220001],[41.835213024000154,38.64783047900039],[41.82170070000018,38.65551712400054],[41.81209231200006,38.6562080610006],[41.81194266400013,38.65612972200006],[41.811529247000124,38.6540200810004],[41.80288848000009,38.645475176000105],[41.80218282300001,38.64544934300005],[41.80207149400013,38.64539980900054],[41.8020729160001,38.64529884100017],[41.81013117599997,38.6350503710006],[41.810379406000266,38.6351024010001],[41.81058646300011,38.63523591100068],[41.8100566490001,38.63676644500015],[41.81250353600018,38.6394295020001],[41.812656185000094,38.63945466000024],[41.81393777400018,38.63878300499999],[41.81407562800024,38.63878892400004],[41.81411412100027,38.640370129000075],[41.81423189800017,38.640462508000496],[41.8160668160001,38.63959834200023],[41.81620467700009,38.639604265000116],[41.818080407000025,38.640888250000046],[41.818930139000145,38.64367875400069],[41.82282955100021,38.64562612700007],[41.82724831000013,38.64483924800061],[41.827762514000256,38.64373250500006],[41.82524453300016,38.64221547900013],[41.82520899200034,38.64209894000004],[41.82861632900028,38.64088674500016],[41.83060926900032,38.63822007200076],[41.830803503000084,38.638191242000175],[41.83384181399998,38.639097285000105],[41.83528325600008,38.64774636499999],[41.83536493200006,38.6478325220001]]],"type":"Polygon"}},{"type":"Feature","properties":{"area_id":"TR-49-002-2024811","name_tr":"Yarkaya Köyü","area_level":"neighbourhood","parent_id":"TR-49-002","endeksa_id":2024811},"geometry":{"coordinates":[[[41.68598000000014,38.64182000000022],[41.6850300000001,38.643430000000535],[41.67971000000006,38.64734000000004],[41.67905000000019,38.65003000000024],[41.67941000000013,38.6506100000006],[41.67982000000012,38.651890000000094],[41.679000000000144,38.653060000000096],[41.67834000000005,38.65419000000014],[41.67580000000004,38.65587000000028],[41.6733900000001,38.655360000000144],[41.67274000000015,38.65472000000034],[41.67241000000024,38.65484000000032],[41.672310000000095,38.655050000000074],[41.66972000000004,38.654890000000194],[41.66953000000012,38.65534000000008],[41.67290633283619,38.65962340732955],[41.66130357300011,38.65700831100037],[41.65678008100025,38.65384531400076],[41.65674433900034,38.65374023900051],[41.65228292200004,38.656092431000445],[41.64604807100028,38.65667222100012],[41.6426780930002,38.65419227000069],[41.62553211400018,38.650765781000075],[41.62536299000004,38.65071402500041],[41.62509405500009,38.65038317600016],[41.625078550000126,38.65050468800041],[41.62492410900006,38.6505219980001],[41.612918473000036,38.64489001800018],[41.600500412744566,38.64093865905721],[41.599670000000174,38.64043000000032],[41.59878000000003,38.64047000000005],[41.59780000000018,38.640300000000195],[41.59568000000007,38.63950000000011],[41.5940700000001,38.63933000000026],[41.59328000000011,38.639830000000416],[41.59147000000007,38.642220000000066],[41.58976000000018,38.642380000000344],[41.58809000000019,38.643030000000124],[41.587060000000065,38.64279000000016],[41.58516000000003,38.64270000000016],[41.583780000000104,38.64336000000043],[41.58215000000007,38.644330000000025],[41.57616000000024,38.64180000000067],[41.57208000000014,38.639000000000124],[41.56774000000007,38.6344000000002],[41.559580000000096,38.62680000000017],[41.55499000000009,38.622990000000414],[41.54814000000016,38.61953000000011],[41.548560000000066,38.61832000000004],[41.549050000000136,38.618180000000336],[41.549150000000054,38.613530000000026],[41.54860000000019,38.61262000000005],[41.5477200000002,38.61231000000066],[41.54585000000003,38.61197000000027],[41.543480000000045,38.609720000000266],[41.542300000000125,38.607220000000154],[41.53990000000016,38.605730000000506],[41.537650000000156,38.60366000000033],[41.536810000000116,38.60246000000012],[41.53308000000004,38.6003300000001],[41.53074000000021,38.598550000000444],[41.5284200000001,38.5969800000002],[41.528090000000134,38.59549000000021],[41.52863000000008,38.592690000000175],[41.52920000000017,38.590890000000456],[41.52797000000015,38.589410000000214],[41.527960000000064,38.5884700000006],[41.52693000000011,38.58842000000004],[41.525540000000035,38.58613000000025],[41.52571000000006,38.58546000000024],[41.52922000000024,38.585720000000435],[41.5322300000002,38.58425000000034],[41.53429000000011,38.58409000000006],[41.53676000000024,38.58548000000047],[41.536410000000046,38.586060000000145],[41.53653000000003,38.586550000000216],[41.537040000000104,38.587300000000425],[41.53714000000019,38.58827000000042],[41.53737000000007,38.58889000000016],[41.53820000000019,38.58947000000023],[41.538390000000106,38.590020000000266],[41.53943000000015,38.590640000000406],[41.54021000000023,38.592100000000414],[41.54343000000017,38.593270000000416],[41.54404000000022,38.59369000000049],[41.546080000000075,38.59382000000005],[41.55003000000005,38.59524000000016],[41.55278000000004,38.59772000000015],[41.555560000000185,38.59829000000025],[41.55638000000016,38.599500000000205],[41.5586100000001,38.600250000000415],[41.56289000000021,38.60008000000005],[41.568190000000186,38.601080000000195],[41.571260000000166,38.60070000000019],[41.57448000000011,38.60196000000013],[41.583380000000204,38.604050000000086],[41.58538000000016,38.60402000000005],[41.58729000000005,38.60324000000054],[41.590740000000096,38.60295000000019],[41.59265000000016,38.605110000000366],[41.59531000000021,38.60565000000031],[41.59638000000007,38.6051300000006],[41.596790000000055,38.60416000000009],[41.59767000000005,38.603280000000325],[41.599080000000185,38.60222000000016],[41.59987000000018,38.60210000000018],[41.60174000000018,38.60651000000041],[41.60327000000012,38.608490000000074],[41.60394000000014,38.60899000000023],[41.60499000000016,38.6100900000003],[41.60587000000015,38.61284000000046],[41.6084800000001,38.61451000000011],[41.61291000000017,38.61404000000027],[41.61492000000004,38.61178000000018],[41.61662000000018,38.61033000000026],[41.62097000000023,38.609070000000315],[41.622530000000154,38.60932000000054],[41.62513000000013,38.6086200000002],[41.62619000000012,38.60789000000017],[41.629220000000146,38.6109500000004],[41.63119000000006,38.61518000000012],[41.63232000000016,38.61950000000013],[41.63457000000017,38.6230700000001],[41.63683000000009,38.62476000000049],[41.64011000000005,38.62843000000004],[41.64312000000007,38.631620000000396],[41.646690000000035,38.63312000000013],[41.6530800000001,38.63623000000024],[41.65975000000026,38.63754000000063],[41.6645400000001,38.63792000000012],[41.669150000000116,38.63895000000008],[41.67375000000004,38.64045000000016],[41.67572000000018,38.64186000000012],[41.680610000000115,38.64205000000004],[41.68598000000014,38.64182000000022]]],"type":"Polygon"}},{"type":"Feature","properties":{"area_id":"TR-49-002-2024803","name_tr":"Gökyazı Köyü","area_level":"neighbourhood","parent_id":"TR-49-002","endeksa_id":2024803},"geometry":{"coordinates":[[[41.90948000000043,38.62925000000109],[41.90369000000027,38.63403000000028],[41.9021900000003,38.63594000000057],[41.89929000000035,38.63645000000014],[41.89002000000039,38.63579000000027],[41.88618000000025,38.63630000000052],[41.8790700000003,38.636370000000625],[41.8731700000003,38.635350000000074],[41.868690000000356,38.63536000000022],[41.867060000000095,38.633080000000405],[41.86488000000003,38.632580000000246],[41.86418000000003,38.63264000000021],[41.86190000000005,38.63064000000031],[41.860080000000096,38.62879000000015],[41.857790000000136,38.62666000000013],[41.85747000000015,38.626080000000286],[41.85777046774592,38.62615726313487],[41.85769278434702,38.62606405331826],[41.85782312062139,38.62598269306159],[41.8593463723588,38.62614291653449],[41.85943130980786,38.62605090384017],[41.859378039938804,38.62529902739334],[41.859250000000316,38.62505000000033],[41.85927000000021,38.62491000000011],[41.859440000000234,38.624750000000404],[41.86025000000012,38.624560000000315],[41.861050000000034,38.62415000000033],[41.86192000000028,38.62414000000035],[41.86231000000021,38.62432000000035],[41.86267000000015,38.62436000000025],[41.86296000000033,38.624290000000144],[41.86321000000004,38.62411000000003],[41.86412000000041,38.62396000000058],[41.86494000000005,38.623980000000074],[41.8651900000001,38.62390000000039],[41.86565000000036,38.62313000000063],[41.865780000000086,38.62309000000016],[41.8661400000002,38.62323000000055],[41.86639000000008,38.623730000000535],[41.86658000000034,38.62381000000005],[41.86762000000027,38.623630000000105],[41.86828000000014,38.6237100000003],[41.86925000000031,38.62358000000023],[41.86964000000006,38.62346000000025],[41.87086000000028,38.62209000000041],[41.8710300000003,38.62204000000014],[41.87144000000012,38.62210000000016],[41.87209000000007,38.62235000000021],[41.87336000000039,38.62294000000054],[41.87491000000017,38.6230700000001],[41.875420000000304,38.62327000000016],[41.87595000000027,38.6237100000003],[41.87673000000012,38.62408000000039],[41.877500000000055,38.624380000000485],[41.87803000000025,38.624380000000315],[41.87854000000033,38.62428000000057],[41.87910000000011,38.62402000000037],[41.87928000000028,38.62384000000003],[41.87914000000006,38.62313000000063],[41.87865000000039,38.62261000000041],[41.878740000000164,38.621840000000475],[41.878950000000145,38.62151000000034],[41.88131000000021,38.62192000000016],[41.88181000000037,38.62192000000016],[41.88277000000039,38.62170000000043],[41.882910000000265,38.6214600000003],[41.88281000000012,38.6208000000006],[41.882850000000076,38.62065000000007],[41.883070000000316,38.62053000000009],[41.88359000000037,38.62056000000047],[41.884310000000085,38.62095000000005],[41.88482000000033,38.62102000000016],[41.88511000000017,38.62095000000005],[41.88606000000027,38.620200000000125],[41.88603000000029,38.61994000000033],[41.88584000000037,38.61960000000005],[41.88583000000028,38.619210000000294],[41.88612000000012,38.619210000000294],[41.88646000000034,38.61934000000042],[41.88733000000019,38.62022000000019],[41.88797000000022,38.62062000000043],[41.88881000000009,38.62053000000009],[41.88929000000019,38.620260000000656],[41.8896100000004,38.61992000000009],[41.89170000000013,38.619240000000104],[41.89186000000018,38.619640000000345],[41.892580000000066,38.62068000000005],[41.8931300000001,38.62105000000065],[41.893780000000106,38.62121000000025],[41.89403000000016,38.62108000000012],[41.89421000000033,38.62081000000069],[41.89421000000016,38.62051000000042],[41.89495000000028,38.61965000000032],[41.89542000000023,38.61932000000019],[41.8959100000003,38.61919000000006],[41.896480000000395,38.61931000000004],[41.896520000000294,38.61948000000007],[41.89636000000041,38.61987000000022],[41.89607000000018,38.62015000000008],[41.89596000000034,38.62044000000009],[41.89625000000035,38.62127000000021],[41.89609000000024,38.62191000000058],[41.89625000000018,38.62248000000017],[41.89663000000019,38.622650000000704],[41.8969000000003,38.62263000000047],[41.89742000000035,38.62242000000015],[41.897570000000144,38.62245000000013],[41.897790000000214,38.622670000000255],[41.89802000000026,38.6234400000007],[41.89872000000008,38.6239700000005],[41.90021000000024,38.62480000000096],[41.90086000000042,38.625560000000064],[41.90122000000014,38.62561000000011],[41.90260000000029,38.62517000000031],[41.90319000000028,38.62512000000061],[41.90347000000014,38.62518000000006],[41.90387000000021,38.62564000000032],[41.90417000000019,38.62626000000046],[41.90434000000022,38.62643000000014],[41.90549000000033,38.62662000000091],[41.905680000000075,38.62677000000053],[41.90585000000027,38.62734000000012],[41.90604000000019,38.62765000000036],[41.9073200000002,38.628160000000605],[41.908540000000244,38.62883000000045],[41.90948000000043,38.62925000000109]]],"type":"Polygon"}},{"type":"Feature","properties":{"area_id":"TR-49-002-2024805","name_tr":"Koç Köyü","area_level":"neighbourhood","parent_id":"TR-49-002","endeksa_id":2024805},"geometry":{"coordinates":[[[41.87332000000026,38.64613000000031],[41.8681900000002,38.64530000000036],[41.8694000000001,38.64747000000017],[41.86961000000008,38.649000000000285],[41.87045000000012,38.65144000000038],[41.87098000000009,38.653340000000526],[41.86995000000013,38.6533900000004],[41.86717000000016,38.65407000000039],[41.8673500000001,38.65450000000004],[41.86533000000014,38.6553100000001],[41.86347000000006,38.65581000000026],[41.862930000000176,38.65605000000022],[41.86249000000015,38.65580000000017],[41.86065000000019,38.65550000000019],[41.85958000000011,38.65618000000035],[41.856490000000065,38.65717000000052],[41.85572000000013,38.657650000000444],[41.851958382363705,38.6591035754837],[41.85121681700008,38.6580394290001],[41.85061510200012,38.65739607200004],[41.84917058000019,38.65157289700005],[41.843422540999995,38.649963467000305],[41.84088159600003,38.65119857800045],[41.83536493200006,38.6478325220001],[41.83528325600008,38.64774636499999],[41.83384181399998,38.639097285000105],[41.83066115200029,38.63815055500061],[41.83268521800022,38.63544195900067],[41.83623523400013,38.636210822000066],[41.83630808100003,38.636100254000155],[41.83560753600011,38.634223135000184],[41.843396400000074,38.631940613000154],[41.84308846800036,38.62947246200031],[41.846499555000264,38.629211732000044],[41.84993884172019,38.62269612370363],[41.85424016100035,38.622920960000386],[41.854861863000224,38.62358960900019],[41.85563904500009,38.62373362600033],[41.855509681,38.62428634600002],[41.8557841130002,38.62458150100019],[41.85446620800013,38.62874469900004],[41.85707675100019,38.625900647000094],[41.85782312062139,38.62598269306159],[41.85769278434702,38.62606405331826],[41.85777046774592,38.62615726313487],[41.85747000000015,38.626080000000286],[41.857790000000136,38.62666000000013],[41.860080000000096,38.62879000000015],[41.86190000000005,38.63064000000031],[41.86418000000003,38.63264000000021],[41.86488000000003,38.632580000000246],[41.867060000000095,38.633080000000405],[41.868690000000356,38.63536000000022],[41.8700400000003,38.64041000000077],[41.871360000000266,38.642840000000206],[41.87332000000026,38.64613000000031]]],"type":"Polygon"}},{"type":"Feature","properties":{"area_id":"TR-49-002-2024804","name_tr":"Karakütük Köyü","area_level":"neighbourhood","parent_id":"TR-49-002","endeksa_id":2024804},"geometry":{"coordinates":[[[41.77713558900007,38.65397488300039],[41.77664183100012,38.6538040050001],[41.77472934000002,38.652016053000125],[41.77526813600019,38.65411546500047],[41.773800046000076,38.65475997200042],[41.771505443000194,38.651946029000385],[41.76947971100009,38.652278659000046],[41.769453841000086,38.65241852300022],[41.77271989400003,38.655670089000125],[41.77355380100005,38.660043476000055],[41.77343061900012,38.6600904540004],[41.76838533100016,38.65961207400011],[41.76771317600003,38.65971339800046],[41.76144051100016,38.6628292660007],[41.76127667200018,38.662808251000286],[41.75546342500036,38.65729756400026],[41.756153490000315,38.64788180300019],[41.75231778500029,38.645969661000606],[41.74792833000032,38.63435546200003],[41.74481871500029,38.631207593000795],[41.744672654000226,38.62397820300055],[41.73915797700016,38.6217527910008],[41.73918954500033,38.61657075200026],[41.73544705700027,38.61139593300061],[41.734752500741706,38.60602406111036],[41.73484000000025,38.605860000000064],[41.734849954361096,38.605332340815096],[41.740241396000215,38.60426126300024],[41.74032097300011,38.60412150700006],[41.74048745600015,38.604213890000324],[41.74978659400023,38.60245263900049],[41.76307648699998,38.609076256000264],[41.76956829200003,38.6042179800001],[41.77499714900006,38.59528051600029],[41.77511113500009,38.59522405000041],[41.793765231000066,38.60290502900011],[41.79393986700029,38.60285665400011],[41.79396700400014,38.60298568900055],[41.794597477000025,38.60327739600007],[41.79646946700018,38.608327613000085],[41.79664257600018,38.60839241000019],[41.79653760000002,38.60851024900006],[41.79731355600012,38.61075646400019],[41.79117782700001,38.613765756000134],[41.789027545000124,38.62348957900008],[41.790399428,38.62791925800059],[41.78569540300009,38.63575373800012],[41.783649657000126,38.63588926000011],[41.78362219700017,38.63616599400012],[41.783898309999984,38.63624712900014],[41.78374830800004,38.63624156600031],[41.783236178000095,38.63660000500039],[41.77888092900008,38.64125000500019],[41.779306961000145,38.64541966300004],[41.78344904900007,38.64797665600014],[41.78301839900013,38.65056779300039],[41.77786224699997,38.652234559000135],[41.77781283899998,38.65233304200052],[41.77837376900004,38.65426609000008],[41.778218792000075,38.654329356000176],[41.77713558900007,38.65397488300039]]],"type":"Polygon"}},{"type":"Feature","properties":{"area_id":"TR-49-002-2024809","name_tr":"Sarıbahçe Köyü","area_level":"neighbourhood","parent_id":"TR-49-002","endeksa_id":2024809},"geometry":{"coordinates":[[[41.81361631400006,38.67029307900003],[41.80964078400007,38.67137109800046],[41.80449286400011,38.66980585200008],[41.80179543200006,38.66385081100003],[41.794561643000065,38.66208267400003],[41.79253999200006,38.65918980800012],[41.789723649000166,38.659317563000116],[41.7866366720001,38.65593058200011],[41.786502866000035,38.65593658900019],[41.785097425000174,38.65681236300014],[41.78495355100017,38.65680934500011],[41.78490380500017,38.65671224400012],[41.78550684600003,38.654380907000586],[41.78545710000003,38.65428380800046],[41.778159927000104,38.65517639900014],[41.776981780000085,38.654121331000056],[41.77699003300012,38.65400260900037],[41.77713558900007,38.65397488300039],[41.778218792000075,38.654329356000176],[41.77837376900004,38.65426609000008],[41.77781283899998,38.65233304200052],[41.77786224699997,38.652234559000135],[41.78301839900013,38.65056779300039],[41.78344904900007,38.64797665600014],[41.779306961000145,38.64541966300004],[41.77888092900008,38.64125000500019],[41.783236178000095,38.63660000500039],[41.78374830800004,38.63624156600031],[41.783898309999984,38.63624712900014],[41.794943386000114,38.64330728300024],[41.79509186200016,38.643306757000005],[41.79561222300015,38.64293366600015],[41.79575661300015,38.64294357400007],[41.795986052000046,38.643991078000056],[41.798213617000044,38.64543904700008],[41.79835382400006,38.645438844000125],[41.80192290800011,38.64349498900032],[41.80204020300016,38.64363079400027],[41.80092714600016,38.645378805000064],[41.80104445000006,38.64546687800049],[41.80218282300001,38.64544934300005],[41.80288848000009,38.645475176000105],[41.811529247000124,38.6540200810004],[41.81194266400013,38.65612972200006],[41.81209231200006,38.6562080610006],[41.811978758000066,38.656321297000375],[41.81457473900019,38.670031069000345],[41.81361631400006,38.67029307900003]]],"type":"Polygon"}},{"type":"Feature","properties":{"area_id":"TR-49-002-2024796","name_tr":"Azıklı Köyü","area_level":"neighbourhood","parent_id":"TR-49-002","endeksa_id":2024796},"geometry":{"coordinates":[[[41.756887677000236,38.66716898700014],[41.7535824000002,38.6647686700004],[41.75343698800043,38.66475538800023],[41.752609878000214,38.66879193100084],[41.752465371000255,38.668794630000264],[41.749476134000474,38.66717301100033],[41.749295169000504,38.66722291800079],[41.749549725000236,38.66928193400025],[41.75341090000023,38.6696286210003],[41.7535206510002,38.66971612600048],[41.75346514600028,38.6698093650005],[41.75001332100044,38.67161328800029],[41.749868491000484,38.67161072900029],[41.74275948800039,38.664379836000194],[41.739618398000346,38.66306538800069],[41.73788592400035,38.65925091400038],[41.73777540500038,38.65918588100078],[41.73102610800032,38.66292106100025],[41.72668456800045,38.66848059600039],[41.72045526900047,38.66746465700027],[41.72037092400029,38.66739763500044],[41.72031934600051,38.66707553800035],[41.71966924500043,38.66689730200085],[41.71571228329901,38.66599699842942],[41.71566705123149,38.665318517418314],[41.71081772711949,38.66428870520929],[41.710316451970584,38.66433184725588],[41.70896000000033,38.66216000000003],[41.708890000000395,38.661640000000375],[41.70833000000022,38.66106000000053],[41.707620000000304,38.660490000000436],[41.70752000000033,38.659940000000915],[41.706410000000346,38.6591600000005],[41.70612000000034,38.659110000000624],[41.702700000000334,38.64559000000037],[41.70182000000034,38.64466000000016],[41.70034000000027,38.637050000000045],[41.699720000000355,38.62970000000013],[41.70290000000034,38.61831000000046],[41.704460000000324,38.61833000000013],[41.705140000000256,38.617940000000544],[41.70563000000027,38.61739000000051],[41.706040000000314,38.617380000000935],[41.70681000000042,38.61686000000054],[41.707310000000405,38.61675000000014],[41.70794000000029,38.61692000000056],[41.70864000000029,38.61683000000039],[41.71088000000037,38.6172500000003],[41.71161000000035,38.61756000000037],[41.71241000000032,38.61822000000029],[41.71265000000028,38.617940000000544],[41.71296000000035,38.61720000000042],[41.71324000000021,38.6169900000001],[41.71486000000033,38.616540000000555],[41.71587000000022,38.61656000000005],[41.71636000000029,38.616420000001085],[41.71798000000035,38.615180000000805],[41.7190300000002,38.61404000000044],[41.72040000000021,38.612760000000435],[41.720540000000256,38.61252000000047],[41.72106000000031,38.61212000000057],[41.72213000000039,38.6117000000001],[41.722800000000404,38.611030000000085],[41.72300000000024,38.61093000000034],[41.72352000000029,38.61094000000048],[41.72427000000033,38.61136000000039],[41.72595000000024,38.61124000000041],[41.72707000000037,38.61083000000059],[41.72858000000025,38.61046000000056],[41.729150000000345,38.61021000000045],[41.72982000000036,38.60961000000054],[41.73075000000023,38.609200000000556],[41.73215000000022,38.60798000000068],[41.734600000000285,38.60631000000035],[41.734752500741706,38.60602406111036],[41.73544705700027,38.61139593300061],[41.73918954500033,38.61657075200026],[41.73915797700016,38.6217527910008],[41.744672654000226,38.62397820300055],[41.74481871500029,38.631207593000795],[41.74792833000032,38.63435546200003],[41.75231778500029,38.645969661000606],[41.756153490000315,38.64788180300019],[41.75546342500036,38.65729756400026],[41.76127667200018,38.662808251000286],[41.76134224300023,38.662908953000624],[41.7612197440003,38.66366545300036],[41.757052394000254,38.66723183200031],[41.756887677000236,38.66716898700014]]],"type":"Polygon"}},{"type":"Feature","properties":{"area_id":"TR-49-002-2024801","name_tr":"Elmabulak Köyü","area_level":"neighbourhood","parent_id":"TR-49-002","endeksa_id":2024801},"geometry":{"coordinates":[[[41.710316451970584,38.66433184725588],[41.71074000000016,38.66501000000011],[41.71090000000004,38.66544000000016],[41.7098000000002,38.66596000000021],[41.708860000000186,38.66671000000031],[41.708330000000046,38.667000000000314],[41.70713000000006,38.6671900000004],[41.70639000000011,38.66688000000033],[41.705450000000155,38.66664000000037],[41.70185000000015,38.66473000000008],[41.70060000000012,38.66467000000006],[41.69859000000008,38.664310000000114],[41.69603000000018,38.66405000000009],[41.69380000000007,38.66370000000012],[41.690710000000195,38.66380000000004],[41.68726000000004,38.66351000000003],[41.68679000000003,38.66354000000035],[41.68115000000074,38.66618000000028],[41.67724000000072,38.66318000000058],[41.67528000000016,38.66244000000029],[41.67422000000022,38.66129000000035],[41.66953000000012,38.65534000000008],[41.66972000000004,38.654890000000194],[41.672310000000095,38.655050000000074],[41.67241000000024,38.65484000000032],[41.67274000000015,38.65472000000034],[41.6733900000001,38.655360000000144],[41.67580000000004,38.65587000000028],[41.67834000000005,38.65419000000014],[41.679000000000144,38.653060000000096],[41.67982000000012,38.651890000000094],[41.67941000000013,38.6506100000006],[41.67905000000019,38.65003000000024],[41.67971000000006,38.64734000000004],[41.6850300000001,38.643430000000535],[41.68598000000014,38.64182000000022],[41.70182000000034,38.64466000000016],[41.702700000000334,38.64559000000037],[41.70612000000034,38.659110000000624],[41.706410000000346,38.6591600000005],[41.70752000000033,38.659940000000915],[41.707620000000304,38.660490000000436],[41.70833000000022,38.66106000000053],[41.708890000000395,38.661640000000375],[41.70896000000033,38.66216000000003],[41.710316451970584,38.66433184725588]]],"type":"Polygon"}},{"type":"Feature","properties":{"area_id":"TR-49-002-60372","name_tr":"Kültür Düzkışla","area_level":"neighbourhood","parent_id":"TR-49-002","endeksa_id":60372},"geometry":{"coordinates":[[[41.74584116333216,38.70773981367557],[41.74573000000049,38.70760000000081],[41.74248000000051,38.709220000000755],[41.74237000000045,38.709470000000636],[41.74205000000046,38.70977000000045],[41.73821000000055,38.71270000000072],[41.73772000000048,38.71330000000063],[41.73594000000048,38.71478000000087],[41.734574824354866,38.715736733490985],[41.71762954336566,38.7085378375034],[41.71965591600065,38.70688846400054],[41.72730694500052,38.692831923000426],[41.728148013000464,38.693531509000366],[41.72827280500053,38.6935566180004],[41.73072221200056,38.69206808200039],[41.73318271600061,38.69285271400042],[41.73515829018146,38.691667507051136],[41.73523840051229,38.691441741572646],[41.736237774134736,38.690085448799266],[41.73815884252957,38.68975483955671],[41.73795098605888,38.68858638836565],[41.737616893904544,38.68748897743211],[41.741234642246866,38.68708732793215],[41.74194774883881,38.6863705627909],[41.7427055755042,38.6862881479376],[41.74457000000024,38.68668000000025],[41.744640000000345,38.68636000000021],[41.74511000000035,38.68636000000021],[41.7458500000003,38.686210000000415],[41.746280000000354,38.686460000001034],[41.74666000000036,38.68704000000071],[41.747980000000325,38.68820000000022],[41.7489300000002,38.68845000000033],[41.748910000000365,38.688720000000615],[41.74912000000029,38.68932000000052],[41.749720000000366,38.68941000000069],[41.749990000000366,38.6897000000007],[41.74984000000035,38.68994000000066],[41.749340000000416,38.69015000000081],[41.74922000000021,38.690300000000605],[41.74924000000027,38.69054000000057],[41.74943000000036,38.69077000000095],[41.74942000000027,38.69096000000104],[41.74912000000029,38.69161000000031],[41.74879000000038,38.69164000000063],[41.74884000000026,38.69224000000054],[41.74821000000031,38.69236000000052],[41.748320000000206,38.69316000000032],[41.74848000000031,38.693330000000515],[41.74897000000033,38.69338000000039],[41.74967000000032,38.69386000000031],[41.75038000000029,38.69406000000049],[41.750490000000354,38.694330000000264],[41.75011000000035,38.694850000000486],[41.75025000000039,38.69508000000087],[41.750860000000216,38.69497000000047],[41.751300000000356,38.6940900000003],[41.75178000000028,38.6938700000004],[41.75191000000024,38.69373000000036],[41.75190000000026,38.693550000000755],[41.75150000000042,38.69311000000022],[41.75163000000032,38.692920000000356],[41.75218000000035,38.69279000000057],[41.752350000000206,38.692930000000615],[41.752570000000276,38.69370000000055],[41.75271000000032,38.69386000000031],[41.752540000000295,38.6940900000003],[41.75255000000027,38.69425000000058],[41.75302000000022,38.69492000000059],[41.75299000000024,38.695160000000556],[41.753117294157164,38.69533668238216],[41.75292767860083,38.695368173732845],[41.753990000000556,38.69595000000038],[41.754540370783104,38.696352213567366],[41.75430413490159,38.696889303527996],[41.754599122932404,38.697009363065206],[41.754454725349774,38.69804505447837],[41.75529988063528,38.70227707019899],[41.75702175728435,38.70641965326348],[41.75549754700086,38.70700058634452],[41.74584116333216,38.70773981367557]]],"type":"Polygon"}},{"type":"Feature","properties":{"area_id":"TR-49-002-2024795","name_tr":"Aşağıüçdam Köyü","area_level":"neighbourhood","parent_id":"TR-49-002","endeksa_id":2024795},"geometry":{"coordinates":[[[41.839547216000085,38.678332277000095],[41.83935130800006,38.678280589999986],[41.83836600300015,38.67897559200014],[41.836970252000015,38.679754536000075],[41.82647718900006,38.682191783000576],[41.80979900700015,38.68259788200015],[41.8096827490001,38.682542634000015],[41.8096989120001,38.68243545900049],[41.81718723099999,38.675384212000154],[41.81709463500016,38.67495481900005],[41.816000276000125,38.67352410100017],[41.81348410700019,38.67353759100007],[41.813496488000055,38.670393450000574],[41.81361631400006,38.67029307900003],[41.81457473900019,38.670031069000345],[41.811978758000066,38.656321297000375],[41.81209231200006,38.6562080610006],[41.82170070000018,38.65551712400054],[41.835213024000154,38.64783047900039],[41.83536493200006,38.6478325220001],[41.84088159600003,38.65119857800045],[41.843422540999995,38.649963467000305],[41.84917058000019,38.65157289700005],[41.85061510200012,38.65739607200004],[41.85121681700008,38.6580394290001],[41.851958382363705,38.6591035754837],[41.85189000000014,38.65913000000069],[41.85242000000011,38.66001000000034],[41.85340000000019,38.66057000000046],[41.85359000000011,38.66162000000065],[41.85414000000014,38.66193000000004],[41.85484000000014,38.662080000000344],[41.85527000000019,38.66244000000029],[41.85480000000018,38.663130000000535],[41.85456000000005,38.663650000000246],[41.85393000000016,38.66380000000004],[41.85309000000012,38.66441000000003],[41.85455000000013,38.66553000000016],[41.854850000000056,38.66561000000041],[41.85511000000008,38.66630000000009],[41.85506000000004,38.67129000000068],[41.855030000000056,38.67172000000005],[41.85487000000012,38.67176000000012],[41.85489973105439,38.67378171168849],[41.85480364163743,38.673667757771625],[41.85462764207455,38.673692085638265],[41.85449356000004,38.67423766900009],[41.85429280000017,38.67425662800065],[41.85331579900003,38.67325837100003],[41.85114906299998,38.67320980400018],[41.85108829100011,38.67329670800012],[41.85119681600014,38.67425947200053],[41.851070712000194,38.6743520870001],[41.84532294500008,38.67339089600006],[41.84385381600009,38.67510024100005],[41.83955111800009,38.678150151000125],[41.839547216000085,38.678332277000095]]],"type":"Polygon"}},{"type":"Feature","properties":{"area_id":"TR-49-002-60368","name_tr":"Kültür","area_level":"neighbourhood","parent_id":"TR-49-002","endeksa_id":60368},"geometry":{"coordinates":[[[41.690945983465326,38.68269996820243],[41.690920000000176,38.68265000000042],[41.690406733555164,38.682819519129964],[41.69033701983591,38.68297403967142],[41.689841899853036,38.68216379491139],[41.68978941577626,38.68190902432849],[41.68909567724205,38.68049943357289],[41.68522343807149,38.674208991387445],[41.68289474061993,38.67023061489215],[41.68149643735637,38.666017839390236],[41.68679000000003,38.66354000000035],[41.68726000000004,38.66351000000003],[41.690710000000195,38.66380000000004],[41.69380000000007,38.66370000000012],[41.69603000000018,38.66405000000009],[41.69859000000008,38.664310000000114],[41.70060000000012,38.66467000000006],[41.70185000000015,38.66473000000008],[41.705450000000155,38.66664000000037],[41.70639000000011,38.66688000000033],[41.70713000000006,38.6671900000004],[41.708330000000046,38.667000000000314],[41.708860000000186,38.66671000000031],[41.7098000000002,38.66596000000021],[41.71090000000004,38.66544000000016],[41.71074000000016,38.66501000000011],[41.710316451970584,38.66433184725588],[41.71081772711949,38.66428870520929],[41.71566705123149,38.665318517418314],[41.71571228329901,38.66599699842942],[41.71966924500043,38.66689730200085],[41.719926200000316,38.66721730700044],[41.719906571000536,38.66731948700033],[41.719281235000494,38.667272583000226],[41.71916555700051,38.66735211500037],[41.71883913914883,38.66948534465871],[41.71885562678494,38.66986688070466],[41.71896259003603,38.67056157756275],[41.719926285552106,38.671585742237596],[41.7187315236842,38.67202070284486],[41.715224727441296,38.67285595568387],[41.708730140434454,38.671641732143826],[41.703982200985024,38.67319765624609],[41.70241066197906,38.674007545854806],[41.701100338653646,38.675301714380964],[41.69800378810203,38.67754411681341],[41.693997229892204,38.68004940151343],[41.69329941509693,38.681597254914436],[41.690945983465326,38.68269996820243]]],"type":"Polygon"}},{"type":"Feature","properties":{"area_id":"TR-49-002-199029","name_tr":"Zafer","area_level":"neighbourhood","parent_id":"TR-49-002","endeksa_id":199029},"geometry":{"coordinates":[[[41.706059143654954,38.72139506743815],[41.70592000000033,38.7213000000005],[41.705850000000396,38.72134000000011],[41.705770000000314,38.72117000000026],[41.70531000000011,38.72119000000032],[41.70340000000033,38.72268000000014],[41.70206000000013,38.724000000000615],[41.7020200000004,38.72420000000028],[41.70148000000012,38.724550000000136],[41.70091000000036,38.72480000000019],[41.69989000000038,38.72501000000034],[41.699840000000336,38.72522000000015],[41.69896000000017,38.72531000000032],[41.69880000000006,38.72524000000021],[41.69880000000023,38.725110000000086],[41.69866000000036,38.724990000000275],[41.69872000000038,38.72480000000019],[41.69810000000007,38.72424000000058],[41.69785000000013,38.72374000000042],[41.697280000000035,38.72365000000008],[41.69612000000035,38.723750000000166],[41.69531000000029,38.72370000000012],[41.69482000000011,38.72348000000039],[41.69446000000016,38.72312000000028],[41.69419000000016,38.722670000000164],[41.69423303758202,38.722361563996856],[41.694051560172056,38.7225460156572],[41.69376382625143,38.722509487063576],[41.693930000000364,38.722700000001055],[41.69403000000011,38.72324000000043],[41.69420000000031,38.72362000000061],[41.69445000000036,38.7238200000001],[41.69496000000032,38.724680000000205],[41.69498000000016,38.72519000000034],[41.695230000000265,38.72603000000021],[41.69516000000033,38.72665000000052],[41.694830000000195,38.727100000000064],[41.6945300000001,38.72735000000068],[41.69305000000003,38.72774000000044],[41.69212000000033,38.727690000000564],[41.69097000000022,38.727060000000165],[41.69069000000013,38.72699000000023],[41.689870000000326,38.72696000000042],[41.688510000000065,38.727060000000165],[41.68790000000024,38.72698000000008],[41.68762000000015,38.7268600000001],[41.68698000000012,38.72621000000032],[41.686810000000264,38.72544000000039],[41.68677000000014,38.72444000000007],[41.68634000000009,38.72327000000007],[41.68605000000025,38.72178000000042],[41.68567000000007,38.721550000000036],[41.68540000000013,38.72166000000027],[41.68450000000013,38.722330000000284],[41.68410000000023,38.7229200000001],[41.684110000000146,38.723130000000026],[41.68431000000038,38.72352000000069],[41.685410000000275,38.72449000000012],[41.685660000000325,38.72516000000013],[41.68568000000005,38.72553000000073],[41.685560000000066,38.72587000000044],[41.68531000000036,38.72619000000009],[41.6840600000001,38.72721000000064],[41.68305000000021,38.727620000000286],[41.681750000000136,38.72774000000027],[41.68043000000017,38.72755000000018],[41.67837000000026,38.726840000000266],[41.677630000000136,38.726850000000525],[41.67692000000034,38.72708000000057],[41.676770000000374,38.72727000000032],[41.676700000000096,38.727560000000324],[41.676800000000185,38.72786000000025],[41.6774700000002,38.72857000000022],[41.67780000000033,38.729360000000725],[41.67784000000023,38.72977000000054],[41.67779000000036,38.730970000000355],[41.677360000000135,38.73160000000007],[41.67710000000011,38.73181000000022],[41.67663000000016,38.73197000000016],[41.67541000000011,38.73201000000046],[41.67458000000016,38.731060000000184],[41.67430000000007,38.7309800000001],[41.67372000000023,38.73103000000037],[41.673420000000306,38.73141000000015],[41.6728600000003,38.73250000000064],[41.67266000000012,38.73268000000047],[41.67140000000012,38.73324000000059],[41.67031000000003,38.73365000000058],[41.670080000000326,38.73366000000016],[41.66833000000031,38.73454000000032],[41.66773000000023,38.73469000000034],[41.667320000000075,38.73468000000037],[41.66681000000051,38.73454000000032],[41.66620000000012,38.7341100000001],[41.66594000000026,38.733810000000176],[41.66555000000034,38.73247000000083],[41.66530000000006,38.73217000000017],[41.66470000000015,38.73194000000035],[41.66402000000005,38.73194000000035],[41.662520000000086,38.73226000000068],[41.66157000000021,38.73291000000029],[41.66114000000016,38.733510000000194],[41.65901000000031,38.73450000000042],[41.657940000000224,38.73418000000038],[41.65742000000034,38.73434000000066],[41.65721000000042,38.73534000000029],[41.65696000000014,38.73603000000054],[41.65655000000032,38.73618000000016],[41.65343000000013,38.73454000000015],[41.65287000000029,38.734750000000645],[41.6524600000003,38.73450000000042],[41.6520001463694,38.73462117764626],[41.65058846500028,38.73211434199999],[41.64925033600031,38.7310357020001],[41.65316553500014,38.730194798000184],[41.65332443900053,38.73027120800009],[41.65335219000042,38.73016934700013],[41.65352907700003,38.730115861000286],[41.66242337116665,38.722534758629536],[41.66064942711523,38.71312470429024],[41.658464785443414,38.707116045158386],[41.656914465664215,38.70374268267608],[41.65668748383587,38.70341272702268],[41.65992348500049,38.70199440499999],[41.66013350800017,38.701982124000324],[41.660686221396645,38.702412285856326],[41.67321408675542,38.69765842563601],[41.679400000000555,38.69523000000066],[41.68926000000033,38.691570000000354],[41.69416000000035,38.689400000000035],[41.69624000000016,38.68833000000018],[41.700500000000204,38.69069000000019],[41.70522000000028,38.69416000000007],[41.70574007680767,38.6948706393016],[41.704285498000274,38.69566275200009],[41.703241225000454,38.696390453000674],[41.701206734000266,38.698264178000215],[41.70089531500048,38.69871509400036],[41.70309262000029,38.70030568700025],[41.70490597700052,38.70130657100083],[41.70519413500023,38.70303854800051],[41.70257910100037,38.70469561600083],[41.70077798400047,38.70547772900062],[41.699532860702675,38.706928663555175],[41.69848636451712,38.707964770563365],[41.69855637077927,38.70963848419473],[41.69976063691496,38.71021568890859],[41.702883520770285,38.70990880192471],[41.703215501278635,38.71110856654548],[41.704400585876556,38.71264273913431],[41.70475750502732,38.71492702169985],[41.7066618150854,38.71872668937692],[41.7064707169518,38.72070911194396],[41.706059143654954,38.72139506743815]]],"type":"Polygon"}},{"type":"Feature","properties":{"area_id":"TR-49-002-60369","name_tr":"Sayanlar","area_level":"neighbourhood","parent_id":"TR-49-002","endeksa_id":60369},"geometry":{"coordinates":[[[41.68909567724205,38.68049943357289],[41.68740000000008,38.68149000000051],[41.68725000000006,38.681660000000534],[41.68732000000017,38.681990000000155],[41.68669222638647,38.682297773633195],[41.6860200000001,38.681810000000155],[41.68419950412408,38.6796155285993],[41.6809900744293,38.67799879773139],[41.67870395665847,38.67729174585372],[41.67729851353022,38.676686815476614],[41.67333701190478,38.67636013424328],[41.669840292752326,38.67772540094228],[41.66601923111136,38.67965290133532],[41.66222630708637,38.68077315775662],[41.66214570200589,38.680470837405835],[41.66043035391567,38.67742063205566],[41.65937633258517,38.6748922060122],[41.66070481715627,38.67320301083117],[41.66191139350815,38.67304855998475],[41.66444632345144,38.67120485837415],[41.66555539699556,38.67076413553315],[41.66698096477813,38.66772213676222],[41.67023388127393,38.665582134054205],[41.67224606642827,38.664722401709014],[41.67351375788246,38.66492172373489],[41.67529008447832,38.6629994965964],[41.67585848240242,38.662658409244784],[41.67724000000072,38.66318000000058],[41.68115000000074,38.66618000000028],[41.68149643735637,38.666017839390236],[41.68289474061993,38.67023061489215],[41.68522343807149,38.674208991387445],[41.68909567724205,38.68049943357289]]],"type":"Polygon"}},{"type":"Feature","properties":{"area_id":"TR-49-002-199033","name_tr":"Vatan","area_level":"neighbourhood","parent_id":"TR-49-002","endeksa_id":199033},"geometry":{"coordinates":[[[41.71979789831971,38.68814638952239],[41.720760000000155,38.690640000000144],[41.720380000000205,38.6913200000003],[41.71944000000019,38.692650000000185],[41.7192500000001,38.6932800000003],[41.71919000000014,38.694940000000656],[41.718920000000196,38.695560000000114],[41.71838000000008,38.69567000000012],[41.71771000000007,38.6955700000002],[41.71733000000006,38.695350000000474],[41.71612000000016,38.69409000000013],[41.71581000000009,38.69321000000036],[41.71520000000004,38.692870000000084],[41.71441000000004,38.69276000000008],[41.713940000000036,38.69289000000015],[41.7136500000002,38.69331000000011],[41.71385000000009,38.693950000000314],[41.71464000000009,38.69477000000012],[41.71584000000007,38.69637000000034],[41.71529000000004,38.697240000000534],[41.71479000000005,38.69735000000043],[41.713290000000086,38.697420000000136],[41.71127000000013,38.697240000000534],[41.70931000000013,38.697240000000534],[41.7078400000002,38.69774000000018],[41.70522000000028,38.69416000000007],[41.700500000000204,38.69069000000019],[41.69624000000016,38.68833000000018],[41.69583000000034,38.68808000000007],[41.69456000000008,38.686830000000384],[41.692200000000184,38.68582000000015],[41.69175000000007,38.68549000000053],[41.690960000000075,38.68433000000033],[41.69033701983591,38.68297403967142],[41.690406733555164,38.682819519129964],[41.690920000000176,38.68265000000042],[41.691050000000075,38.68290000000013],[41.69138000000004,38.68306000000041],[41.69245000000012,38.68316000000016],[41.694080000000156,38.68361000000027],[41.69776000000019,38.68395000000015],[41.69959000000006,38.68427000000048],[41.703500000000076,38.68461000000019],[41.721340000000396,38.67551000000043],[41.72145000000023,38.67566000000005],[41.72154000000023,38.67700000000008],[41.721030000000326,38.67722000000106],[41.72098000000028,38.67736000000042],[41.721160000000225,38.67763000000036],[41.720850000000326,38.677910000000054],[41.72074000000032,38.67820000000046],[41.72146000000038,38.67962000000068],[41.72002000000026,38.68012000000033],[41.720200000000204,38.680510000000595],[41.72079000000036,38.68049000000036],[41.72074000000032,38.6808900000006],[41.719020000000285,38.681380000000104],[41.71876000000026,38.6816400000003],[41.71801000000039,38.68282000000028],[41.718060000000435,38.68318000000056],[41.718310000000315,38.68319000000065],[41.7183900000004,38.6836200000007],[41.71801000000039,38.683820000000196],[41.71793000000031,38.6841500000005],[41.71802000000031,38.68456000000032],[41.717690000000346,38.68467000000021],[41.71743000000032,38.684910000000684],[41.7176400000003,38.68507000000028],[41.71886000000035,38.68532000000067],[41.71870000000024,38.68575000000055],[41.7183900000004,38.68569000000042],[41.71821000000023,38.68597000000045],[41.71869000000032,38.68631000000016],[41.71940000000029,38.68606000000062],[41.71982000000037,38.6862900000005],[41.719950000000324,38.68725000000052],[41.72013949559391,38.687657415534545],[41.719983339802354,38.687908279990836],[41.719819528286166,38.68806273047403],[41.71979789831971,38.68814638952239]]],"type":"Polygon"}},{"type":"Feature","properties":{"area_id":"TR-49-002-2024810","name_tr":"Umurca Köyü","area_level":"neighbourhood","parent_id":"TR-49-002","endeksa_id":2024810},"geometry":{"coordinates":[[[41.79756038400012,38.68937868300014],[41.79737314900018,38.689295453],[41.793778746000044,38.69096443799998],[41.793820257000164,38.6910638960004],[41.79653385299997,38.692788556000096],[41.79651201100012,38.6929448140001],[41.789699577000135,38.693470622000405],[41.78944552800033,38.69335460500048],[41.7807095510002,38.68826538500025],[41.77582346000031,38.682455891000245],[41.77589962300033,38.6804488960002],[41.768354199000214,38.67418364400032],[41.762620129000254,38.67189217900085],[41.75925173500025,38.672500975000276],[41.75557968300035,38.66907604100055],[41.756887677000236,38.66716898700014],[41.757052394000254,38.66723183200031],[41.7612197440003,38.66366545300036],[41.76134224300023,38.662908953000624],[41.76127667200018,38.662808251000286],[41.76144051100016,38.6628292660007],[41.76771317600003,38.65971339800046],[41.76838533100016,38.65961207400011],[41.77343061900012,38.6600904540004],[41.77355380100005,38.660043476000055],[41.77271989400003,38.655670089000125],[41.769453841000086,38.65241852300022],[41.76947971100009,38.652278659000046],[41.771505443000194,38.651946029000385],[41.773800046000076,38.65475997200042],[41.77526813600019,38.65411546500047],[41.77472934000002,38.652016053000125],[41.77664183100012,38.6538040050001],[41.77713558900007,38.65397488300039],[41.77699003300012,38.65400260900037],[41.776981780000085,38.654121331000056],[41.778159927000104,38.65517639900014],[41.78545710000003,38.65428380800046],[41.78550684600003,38.654380907000586],[41.78490380500017,38.65671224400012],[41.78495355100017,38.65680934500011],[41.785097425000174,38.65681236300014],[41.786502866000035,38.65593658900019],[41.7866366720001,38.65593058200011],[41.789723649000166,38.659317563000116],[41.79253999200006,38.65918980800012],[41.794561643000065,38.66208267400003],[41.80179543200006,38.66385081100003],[41.80449286400011,38.66980585200008],[41.80964078400007,38.67137109800046],[41.81361631400006,38.67029307900003],[41.813496488000055,38.670393450000574],[41.81348410700019,38.67353759100007],[41.816000276000125,38.67352410100017],[41.81709463500016,38.67495481900005],[41.81718723099999,38.675384212000154],[41.8096989120001,38.68243545900049],[41.80709862100014,38.684873942000365],[41.79761843700004,38.68918389700019],[41.79756038400012,38.68937868300014]]],"type":"Polygon"}},{"type":"Feature","properties":{"area_id":"TR-49-002-199023","name_tr":"İstiklal","area_level":"neighbourhood","parent_id":"TR-49-002","endeksa_id":199023},"geometry":{"coordinates":[[[41.68500134508787,38.683636399029865],[41.68241059511615,38.68354275473257],[41.6810354012473,38.683724781186925],[41.680252145721624,38.684909763340386],[41.678262088401084,38.68655513934493],[41.675089760928415,38.687980881508906],[41.671995616251934,38.689613608784384],[41.66886465454991,38.6902540274765],[41.66654406419201,38.691219398451494],[41.662225422289055,38.69249630011166],[41.66232928800048,38.692465021999965],[41.665654143659026,38.687601262709904],[41.66291721015551,38.68570769320394],[41.665016419175856,38.682650089892775],[41.662406390419164,38.681448582155554],[41.66222630708637,38.68077315775662],[41.66601923111136,38.67965290133532],[41.669840292752326,38.67772540094228],[41.67333701190478,38.67636013424328],[41.67729851353022,38.676686815476614],[41.67870395665847,38.67729174585372],[41.6809900744293,38.67799879773139],[41.68419950412408,38.6796155285993],[41.6860200000001,38.681810000000155],[41.68669222638647,38.682297773633195],[41.686250000000484,38.683050000000264],[41.68592000000018,38.68316000000084],[41.68543000000011,38.68315000000018],[41.68500134508787,38.683636399029865]]],"type":"Polygon"}},{"type":"Feature","properties":{"area_id":"TR-49-002-199025","name_tr":"Bahçelievler","area_level":"neighbourhood","parent_id":"TR-49-002","endeksa_id":199025},"geometry":{"coordinates":[[[41.67321408675542,38.69765842563601],[41.660686221396645,38.702412285856326],[41.66013350800017,38.701982124000324],[41.65992348500049,38.70199440499999],[41.659952839000425,38.701839955000196],[41.65517713900033,38.69806860600016],[41.65528567700005,38.69805990700007],[41.654499968514585,38.69541858042487],[41.654810000000055,38.69533000000024],[41.654900000000396,38.694910000000505],[41.660260000000164,38.693610000000206],[41.66099000000054,38.69331000000079],[41.66142000000019,38.692870000000084],[41.66145748577577,38.692727554052965],[41.66654406419201,38.691219398451494],[41.66886465454991,38.6902540274765],[41.671995616251934,38.689613608784384],[41.675089760928415,38.687980881508906],[41.678262088401084,38.68655513934493],[41.680252145721624,38.684909763340386],[41.6810354012473,38.683724781186925],[41.68241059511615,38.68354275473257],[41.68500134508787,38.683636399029865],[41.68480000000039,38.68383000000017],[41.68438000000015,38.68482999999992],[41.68324000000047,38.686580000000504],[41.68221000000068,38.68789000000015],[41.6736198526375,38.69733283740976],[41.67321408675542,38.69765842563601]]],"type":"Polygon"}},{"type":"Feature","properties":{"area_id":"TR-49-002-2024802","name_tr":"Eşmepınar Köyü","area_level":"neighbourhood","parent_id":"TR-49-002","endeksa_id":2024802},"geometry":{"coordinates":[[[41.78944552800033,38.69335460500048],[41.789494655000226,38.69345136000027],[41.78940702000034,38.693528918000425],[41.78240037200021,38.69507416600038],[41.782240000000286,38.69464000000016],[41.78182000000032,38.69399000000038],[41.7811300000003,38.69331000000079],[41.7800900000002,38.69258000000025],[41.77993000000026,38.692370000000494],[41.778120000000285,38.69142000000022],[41.77570000000043,38.68975000000057],[41.77491000000026,38.68939000000063],[41.771900000000244,38.68751000000037],[41.76894000000027,38.6862500000002],[41.765950000000316,38.685870000000705],[41.765830000000335,38.68561000000051],[41.764710000000434,38.68552000000017],[41.763350000000344,38.68578000000036],[41.761710000000335,38.68594000000064],[41.76030000000037,38.68591000000049],[41.75985000000031,38.68615000000045],[41.75835000000035,38.686360000000036],[41.757800000000316,38.686360000000036],[41.75626000000028,38.68674000000021],[41.756320000000244,38.686820000000466],[41.75626000000028,38.68685000000062],[41.75491000000028,38.685370000000546],[41.754640000000336,38.68530000000044],[41.754300000000285,38.68470000000053],[41.75355000000036,38.6847900000007],[41.75317000000041,38.68474000000083],[41.752350000000206,38.684130000000266],[41.752190000000326,38.68406000000016],[41.75194000000022,38.68421000000103],[41.751800000000344,38.684190000000285],[41.75103000000024,38.68373000000025],[41.750650000000235,38.68363000000011],[41.74970000000036,38.68295000000069],[41.749290000000315,38.68278000000066],[41.749190000000226,38.682830000000706],[41.74868000000032,38.68272000000013],[41.74822000000029,38.68331000000063],[41.746310000000335,38.683110000000966],[41.74500000000029,38.68332000000004],[41.74494000000033,38.68437000000023],[41.74462000000028,38.684820000000514],[41.74444000000034,38.68498000000079],[41.74400000000031,38.68505000000039],[41.74361000000022,38.68570000000068],[41.743090000000336,38.68611000000067],[41.7427055755042,38.6862881479376],[41.74194774883881,38.6863705627909],[41.741234642246866,38.68708732793215],[41.737616893904544,38.68748897743211],[41.73795098605888,38.68858638836565],[41.73815884252957,38.68975483955671],[41.736237774134736,38.690085448799266],[41.73523840051229,38.691441741572646],[41.73515829018146,38.691667507051136],[41.73318271600061,38.69285271400042],[41.73072221200056,38.69206808200039],[41.72827280500053,38.6935566180004],[41.728148013000464,38.693531509000366],[41.725715954000236,38.69150838300067],[41.72343902300025,38.691735892000395],[41.7231069470003,38.689491563000274],[41.72091333000026,38.69056392900069],[41.72075880400024,38.690546619000315],[41.72048435169438,38.68930538238709],[41.72040087927803,38.68940790760723],[41.72026008382363,38.689344219958684],[41.71979789831971,38.68814638952239],[41.719819528286166,38.68806273047403],[41.719983339802354,38.687908279990836],[41.72013949559391,38.687657415534545],[41.719950000000324,38.68725000000052],[41.71982000000037,38.6862900000005],[41.71940000000029,38.68606000000062],[41.71869000000032,38.68631000000016],[41.71821000000023,38.68597000000045],[41.7183900000004,38.68569000000042],[41.71870000000024,38.68575000000055],[41.71886000000035,38.68532000000067],[41.7176400000003,38.68507000000028],[41.71743000000032,38.684910000000684],[41.717690000000346,38.68467000000021],[41.71802000000031,38.68456000000032],[41.71793000000031,38.6841500000005],[41.71801000000039,38.683820000000196],[41.7183900000004,38.6836200000007],[41.718310000000315,38.68319000000065],[41.718060000000435,38.68318000000056],[41.71801000000039,38.68282000000028],[41.71876000000026,38.6816400000003],[41.719020000000285,38.681380000000104],[41.72074000000032,38.6808900000006],[41.72079000000036,38.68049000000036],[41.720200000000204,38.680510000000595],[41.72002000000026,38.68012000000033],[41.72146000000038,38.67962000000068],[41.72074000000032,38.67820000000046],[41.720850000000326,38.677910000000054],[41.721160000000225,38.67763000000036],[41.72098000000028,38.67736000000042],[41.721030000000326,38.67722000000106],[41.72154000000023,38.67700000000008],[41.72145000000023,38.67566000000005],[41.721340000000396,38.67551000000043],[41.72077632146403,38.67579752660811],[41.72003621064158,38.67170256243378],[41.71896259003603,38.67056157756275],[41.71885562678494,38.66986688070466],[41.71883913914883,38.66948534465871],[41.71916555700051,38.66735211500037],[41.719281235000494,38.667272583000226],[41.719906571000536,38.66731948700033],[41.719926200000316,38.66721730700044],[41.71966924500043,38.66689730200085],[41.72031934600051,38.66707553800035],[41.72037092400029,38.66739763500044],[41.72045526900047,38.66746465700027],[41.72668456800045,38.66848059600039],[41.73102610800032,38.66292106100025],[41.73777540500038,38.65918588100078],[41.73788592400035,38.65925091400038],[41.739618398000346,38.66306538800069],[41.74275948800039,38.664379836000194],[41.749868491000484,38.67161072900029],[41.75001332100044,38.67161328800029],[41.75346514600028,38.6698093650005],[41.7535206510002,38.66971612600048],[41.75341090000023,38.6696286210003],[41.749549725000236,38.66928193400025],[41.749295169000504,38.66722291800079],[41.749476134000474,38.66717301100033],[41.752465371000255,38.668794630000264],[41.752609878000214,38.66879193100084],[41.75343698800043,38.66475538800023],[41.7535824000002,38.6647686700004],[41.756887677000236,38.66716898700014],[41.75557968300035,38.66907604100055],[41.75925173500025,38.672500975000276],[41.762620129000254,38.67189217900085],[41.768354199000214,38.67418364400032],[41.77589962300033,38.6804488960002],[41.77582346000031,38.682455891000245],[41.7807095510002,38.68826538500025],[41.78944552800033,38.69335460500048]]],"type":"Polygon"}},{"type":"Feature","properties":{"area_id":"TR-49-002-2024799","name_tr":"Dağdibi Köyü","area_level":"neighbourhood","parent_id":"TR-49-002","endeksa_id":2024799},"geometry":{"coordinates":[[[41.654499968514585,38.69541858042487],[41.65404000000012,38.69555000000014],[41.6538402993894,38.694989302131034],[41.653555512000196,38.69507332100005],[41.65329854000004,38.691379721000146],[41.6524461969035,38.689800000000275],[41.65211000000011,38.689800000000275],[41.651939128398794,38.688860206191805],[41.64761662300003,38.68084893400004],[41.64201148300026,38.67866877900076],[41.63251806400035,38.67127024100023],[41.62898138900022,38.668480425000155],[41.625130167000066,38.65951554499998],[41.62537808100035,38.65073499900001],[41.6426780930002,38.65419227000069],[41.64604807100028,38.65667222100012],[41.65228292200004,38.656092431000445],[41.65674433900034,38.65374023900051],[41.65678008100025,38.65384531400076],[41.66130357300011,38.65700831100037],[41.67290633283619,38.65962340732955],[41.67422000000022,38.66129000000035],[41.67528000000016,38.66244000000029],[41.67585848240242,38.662658409244784],[41.67529008447832,38.6629994965964],[41.67351375788246,38.66492172373489],[41.67224606642827,38.664722401709014],[41.67023388127393,38.665582134054205],[41.66698096477813,38.66772213676222],[41.66555539699556,38.67076413553315],[41.66444632345144,38.67120485837415],[41.66191139350815,38.67304855998475],[41.66070481715627,38.67320301083117],[41.65937633258517,38.6748922060122],[41.66043035391567,38.67742063205566],[41.66214570200589,38.680470837405835],[41.662406390419164,38.681448582155554],[41.665016419175856,38.682650089892775],[41.66291721015551,38.68570769320394],[41.665654143659026,38.687601262709904],[41.66232928800048,38.692465021999965],[41.66145748577577,38.692727554052965],[41.66142000000019,38.692870000000084],[41.66099000000054,38.69331000000079],[41.660260000000164,38.693610000000206],[41.654900000000396,38.694910000000505],[41.654810000000055,38.69533000000024],[41.654499968514585,38.69541858042487]]],"type":"Polygon"}},{"type":"Feature","properties":{"area_id":"TR-49-002-60370","name_tr":"Sunay","area_level":"neighbourhood","parent_id":"TR-49-002","endeksa_id":60370},"geometry":{"coordinates":[[[41.69624000000016,38.68833000000018],[41.69416000000035,38.689400000000035],[41.68926000000033,38.691570000000354],[41.68800000000016,38.690510000000074],[41.68771000000015,38.688870000000065],[41.6877400000003,38.686920000000214],[41.687850000000196,38.68623000000048],[41.68750000000017,38.68552000000017],[41.68729000000036,38.68549000000036],[41.687240000000486,38.68535000000014],[41.68741000000034,38.68471000000034],[41.68708000000004,38.684310000000096],[41.686680000000194,38.684100000000456],[41.686250000000484,38.683050000000264],[41.68669222638647,38.682297773633195],[41.68732000000017,38.681990000000155],[41.68725000000006,38.681660000000534],[41.68740000000008,38.68149000000051],[41.68909567724205,38.68049943357289],[41.68978941577626,38.68190902432849],[41.689841899853036,38.68216379491139],[41.69033701983591,38.68297403967142],[41.690960000000075,38.68433000000033],[41.69175000000007,38.68549000000053],[41.692200000000184,38.68582000000015],[41.69456000000008,38.686830000000384],[41.69583000000034,38.68808000000007],[41.69624000000016,38.68833000000018]]],"type":"Polygon"}},{"type":"Feature","properties":{"area_id":"TR-49-002-60371","name_tr":"Bahçelievler Düzkışla","area_level":"neighbourhood","parent_id":"TR-49-002","endeksa_id":60371},"geometry":{"coordinates":[[[41.72730694500052,38.692831923000426],[41.72150336800041,38.70349430900029],[41.71457536200023,38.70120454500022],[41.71147771200026,38.70128928300028],[41.71147771200026,38.70018074500075],[41.70585504200028,38.69832240500011],[41.703241225000454,38.696390453000674],[41.704285498000274,38.69566275200009],[41.70574007680767,38.6948706393016],[41.7078400000002,38.69774000000018],[41.70931000000013,38.697240000000534],[41.71127000000013,38.697240000000534],[41.713290000000086,38.697420000000136],[41.71479000000005,38.69735000000043],[41.71529000000004,38.697240000000534],[41.71584000000007,38.69637000000034],[41.71464000000009,38.69477000000012],[41.71385000000009,38.693950000000314],[41.7136500000002,38.69331000000011],[41.713940000000036,38.69289000000015],[41.71441000000004,38.69276000000008],[41.71520000000004,38.692870000000084],[41.71581000000009,38.69321000000036],[41.71612000000016,38.69409000000013],[41.71733000000006,38.695350000000474],[41.71771000000007,38.6955700000002],[41.71838000000008,38.69567000000012],[41.718920000000196,38.695560000000114],[41.71919000000014,38.694940000000656],[41.7192500000001,38.6932800000003],[41.71944000000019,38.692650000000185],[41.720380000000205,38.6913200000003],[41.720760000000155,38.690640000000144],[41.71979789831971,38.68814638952239],[41.72026008382363,38.689344219958684],[41.72040087927803,38.68940790760723],[41.72048435169438,38.68930538238709],[41.72075880400024,38.690546619000315],[41.72091333000026,38.69056392900069],[41.7231069470003,38.689491563000274],[41.72343902300025,38.691735892000395],[41.725715954000236,38.69150838300067],[41.72730694500052,38.692831923000426]]],"type":"Polygon"}},{"type":"Feature","properties":{"area_id":"TR-49-002-199031","name_tr":"Hürriyet","area_level":"neighbourhood","parent_id":"TR-49-002","endeksa_id":199031},"geometry":{"coordinates":[[[41.72077632146403,38.67579752660811],[41.703500000000076,38.68461000000019],[41.69959000000006,38.68427000000048],[41.69776000000019,38.68395000000015],[41.694080000000156,38.68361000000027],[41.69245000000012,38.68316000000016],[41.69138000000004,38.68306000000041],[41.691050000000075,38.68290000000013],[41.690945983465326,38.68269996820243],[41.69329941509693,38.681597254914436],[41.693997229892204,38.68004940151343],[41.69800378810203,38.67754411681341],[41.701100338653646,38.675301714380964],[41.70241066197906,38.674007545854806],[41.703982200985024,38.67319765624609],[41.708730140434454,38.671641732143826],[41.715224727441296,38.67285595568387],[41.7187315236842,38.67202070284486],[41.719926285552106,38.671585742237596],[41.72003621064158,38.67170256243378],[41.72077632146403,38.67579752660811]]],"type":"Polygon"}},{"type":"Feature","properties":{"area_id":"TR-49-002-199027","name_tr":"15 Temmuz","area_level":"neighbourhood","parent_id":"TR-49-002","endeksa_id":199027},"geometry":{"coordinates":[[[41.68926000000033,38.691570000000354],[41.679400000000555,38.69523000000066],[41.67321408675542,38.69765842563601],[41.6736198526375,38.69733283740976],[41.68221000000068,38.68789000000015],[41.68324000000047,38.686580000000504],[41.68438000000015,38.68482999999992],[41.68480000000039,38.68383000000017],[41.68500134508787,38.683636399029865],[41.68543000000011,38.68315000000018],[41.68592000000018,38.68316000000084],[41.686250000000484,38.683050000000264],[41.686680000000194,38.684100000000456],[41.68708000000004,38.684310000000096],[41.68741000000034,38.68471000000034],[41.687240000000486,38.68535000000014],[41.68729000000036,38.68549000000036],[41.68750000000017,38.68552000000017],[41.687850000000196,38.68623000000048],[41.6877400000003,38.686920000000214],[41.68771000000015,38.688870000000065],[41.68800000000016,38.690510000000074],[41.68926000000033,38.691570000000354]]],"type":"Polygon"}},{"type":"Feature","properties":{"area_id":"TR-49-002-60373","name_tr":"Yeni","area_level":"neighbourhood","parent_id":"TR-49-002","endeksa_id":60373},"geometry":{"coordinates":[[[41.72162000000009,38.727620000000286],[41.717660000000365,38.73168000000015],[41.71536000000032,38.730130000000486],[41.71312000000006,38.72763000000003],[41.709630000000345,38.72485000000006],[41.709890000000144,38.724620000000755],[41.70869000000033,38.72401000000019],[41.708430000000135,38.72398000000055],[41.70815000000027,38.72377000000023],[41.707470000000114,38.72291000000013],[41.70738000000034,38.722450000000265],[41.70754000000022,38.721670000000415],[41.706059143654954,38.72139506743815],[41.7064707169518,38.72070911194396],[41.7066618150854,38.71872668937692],[41.70475750502732,38.71492702169985],[41.704400585876556,38.71264273913431],[41.703215501278635,38.71110856654548],[41.702883520770285,38.70990880192471],[41.69976063691496,38.71021568890859],[41.69855637077927,38.70963848419473],[41.69848636451712,38.707964770563365],[41.699532860702675,38.706928663555175],[41.70077798400047,38.70547772900062],[41.70257910100037,38.70469561600083],[41.70519413500023,38.70303854800051],[41.70490597700052,38.70130657100083],[41.70309262000029,38.70030568700025],[41.70089531500048,38.69871509400036],[41.701206734000266,38.698264178000215],[41.703241225000454,38.696390453000674],[41.70585504200028,38.69832240500011],[41.71147771200026,38.70018074500075],[41.71147771200026,38.70128928300028],[41.71457536200023,38.70120454500022],[41.72150336800041,38.70349430900029],[41.71965591600065,38.70688846400054],[41.71762954336566,38.7085378375034],[41.734574824354866,38.715736733490985],[41.73436000000049,38.71590000000032],[41.734320000000366,38.71617000000026],[41.73282000000023,38.71708000000075],[41.730820000000506,38.71887000000106],[41.730390000000284,38.71915000000007],[41.72842000000014,38.721240000000535],[41.72536000000031,38.723750000000166],[41.72369000000032,38.72540000000009],[41.72193000000033,38.7268600000001],[41.72162000000009,38.727620000000286]]],"type":"Polygon"}}]}