{"type":"FeatureCollection","source_id":"endeksa","retrieved_at":"2026-08-23T15:21:47.189Z","features":[{"type":"Feature","properties":{"area_id":"TR-44-007-166119","name_tr":"Konurtay","area_level":"neighbourhood","parent_id":"TR-44-007","endeksa_id":166119},"geometry":{"coordinates":[[[39.13091900000052,38.258637800000315],[39.12986750000039,38.258873700001004],[39.129245300000434,38.25850300000053],[39.128193800000474,38.258873700001004],[39.127635900000485,38.25793010000041],[39.123966700000494,38.25627890000089],[39.12319420000051,38.25481290000039],[39.12312980000053,38.25413890000044],[39.123301500000366,38.2534986000004],[39.12240030000038,38.252824600000395],[39.12152050000043,38.2513081000003],[39.118516400000374,38.250617200000534],[39.1182589000004,38.24760080000016],[39.11703580000045,38.24802210000041],[39.112014700000486,38.2471964000008],[39.110362500000576,38.24451690000046],[39.1072941000005,38.243253000000664],[39.104247100000464,38.23880370000023],[39.10459040000046,38.238197000000355],[39.114997400000505,38.23309010000071],[39.117658100000426,38.22929760000062],[39.12081240000043,38.2271738000004],[39.122357300000374,38.22317870000046],[39.12278650000053,38.21754820000052],[39.1198069900006,38.21091983300056],[39.120480395000754,38.211357546000784],[39.12863280000073,38.218652700000575],[39.131256221001024,38.2223070550009],[39.13199203100095,38.22209694700092],[39.134799556000985,38.22520000200109],[39.13539955600089,38.226000002001],[39.13545658184074,38.226855387103285],[39.13509092903888,38.22693332218091],[39.13707955700016,38.229121759000236],[39.13970178400035,38.238906258000384],[39.1398051030003,38.23898199500053],[39.14005014800023,38.23894579600045],[39.14012468900023,38.23904544300029],[39.13949757800032,38.24439043900037],[39.1374465850684,38.245582202986895],[39.13889955600041,38.25300000200053],[39.138699556000404,38.25400000200045],[39.13799955600052,38.25490000200085],[39.13640057200911,38.255585280020625],[39.1364969779782,38.25707845503712],[39.13696343100037,38.25735832700042],[39.134829600000444,38.25743310000047],[39.133917700000495,38.257077100000856],[39.1317987000005,38.257273000000396],[39.13141250000052,38.25754260000065],[39.131348100000366,38.25789640000079],[39.13091900000052,38.258637800000315]]],"type":"Polygon"}},{"type":"Feature","properties":{"area_id":"TR-44-007-166125","name_tr":"Ulutaş","area_level":"neighbourhood","parent_id":"TR-44-007","endeksa_id":166125},"geometry":{"coordinates":[[[39.13338660000028,38.272595900000226],[39.132034800000326,38.272873800000355],[39.13067220000022,38.272705400000234],[39.129481300000236,38.272435900000346],[39.12832800000024,38.27264010000033],[39.1276708000002,38.27262330000036],[39.126485300000354,38.27244220000034],[39.11626340000032,38.27194730000025],[39.11172510000034,38.271585100000266],[39.10720820000034,38.269521500000224],[39.105180500000245,38.26743250000027],[39.10563110000021,38.265714000000855],[39.103324400000304,38.26454310000025],[39.09905430000032,38.26405460000069],[39.09647085105013,38.2632795709402],[39.09638337412554,38.26318050267872],[39.09643857539487,38.263070793587815],[39.097020000000214,38.26268000000033],[39.09768000000031,38.2629000000004],[39.09808000000038,38.26281000000023],[39.09826000000032,38.26291000000049],[39.09861000000035,38.261990000000424],[39.1002100000004,38.25999000000047],[39.10124000000036,38.25789000000026],[39.10158000000024,38.257400000000246],[39.10190000000023,38.25636000000037],[39.103550000000325,38.2545700000004],[39.10371000000026,38.25426000000033],[39.10362000000026,38.25335000000035],[39.10376000000031,38.25297000000086],[39.104170000000295,38.252670000000364],[39.104290000000276,38.25216000000063],[39.10432000000026,38.25077000000073],[39.10411000000033,38.250220000000695],[39.104230000000314,38.24924000000061],[39.104140000000314,38.24827000000033],[39.103640000000325,38.24738000000036],[39.10346000000038,38.24664000000024],[39.10105000000027,38.24475000000058],[39.101630000000284,38.24344000000036],[39.101660000000265,38.24195000000037],[39.1024800000003,38.240520000000345],[39.10081000000031,38.24009000000029],[39.10118411043413,38.23902522415091],[39.10459040000046,38.238197000000355],[39.104247100000464,38.23880370000023],[39.1072941000005,38.243253000000664],[39.110362500000576,38.24451690000046],[39.112014700000486,38.2471964000008],[39.11703580000045,38.24802210000041],[39.1182589000004,38.24760080000016],[39.118516400000374,38.250617200000534],[39.12152050000043,38.2513081000003],[39.12240030000038,38.252824600000395],[39.123301500000366,38.2534986000004],[39.12312980000053,38.25413890000044],[39.12319420000051,38.25481290000039],[39.123966700000494,38.25627890000089],[39.127635900000485,38.25793010000041],[39.128193800000474,38.258873700001004],[39.129245300000434,38.25850300000053],[39.12986750000039,38.258873700001004],[39.13091900000052,38.258637800000315],[39.131348100000366,38.25789640000079],[39.13141250000052,38.25754260000065],[39.1317987000005,38.257273000000396],[39.133917700000495,38.257077100000856],[39.134829600000444,38.25743310000047],[39.13696343100037,38.25735832700042],[39.13929955600048,38.25870000200052],[39.139699556000494,38.25910000100049],[39.13949955600049,38.25940000200069],[39.13859955600043,38.25950000200061],[39.137399556000446,38.25920000100075],[39.13719955600044,38.25930000200043],[39.13729955600053,38.259600002000525],[39.137899556000434,38.26020000200043],[39.139999556000475,38.261600001000545],[39.1402995560004,38.262100002000466],[39.14119955600046,38.265300002000345],[39.14209955600052,38.267500002000475],[39.14209955600052,38.26850000100035],[39.141799556000535,38.26940000100058],[39.14119955600046,38.269700002000434],[39.137265055000285,38.269700002000434],[39.137396581998075,38.27186134197143],[39.134597904000486,38.272075139000265],[39.13338660000028,38.272595900000226]]],"type":"Polygon"}},{"type":"Feature","properties":{"area_id":"TR-44-007-166131","name_tr":"Yeşilköy","area_level":"neighbourhood","parent_id":"TR-44-007","endeksa_id":166131},"geometry":{"coordinates":[[[39.050570865328325,38.23361539561182],[39.05074000000013,38.234170000000404],[39.05124000000012,38.23491000000013],[39.05140000000023,38.23535000000015],[39.052220000000034,38.23565000000008],[39.05245000000019,38.236060000000066],[39.05272000000019,38.236240000000066],[39.05263000000019,38.23693000000014],[39.05279000000013,38.237830000000145],[39.05254000000019,38.238600000000076],[39.052690000000155,38.23878000000042],[39.052650000000085,38.239060000000165],[39.052840000000174,38.23932000000036],[39.052770000000066,38.239870000000394],[39.05291000000011,38.24023000000034],[39.05297000000007,38.240310000000534],[39.05381000000011,38.24038000000064],[39.055930000000046,38.242260000000044],[39.0574400000001,38.242880000000184],[39.0575300000001,38.24329000000017],[39.057730000000106,38.24365000000034],[39.05771000000004,38.24390000000005],[39.05803000000026,38.24439000000007],[39.05850000000004,38.245470000000296],[39.05831000000012,38.246650000000045],[39.05811000000011,38.24728000000027],[39.058600000000126,38.24855000000019],[39.058940000000234,38.24902000000003],[39.05927000000014,38.250340000000506],[39.059220000000096,38.25092000000018],[39.05961000000025,38.251240000000394],[39.05967000000004,38.251520000000085],[39.0596000000001,38.25169000000011],[39.05967000000004,38.251820000000066],[39.05985000000021,38.25199000000009],[39.0603000000001,38.25216000000046],[39.06047000000012,38.25255000000004],[39.060890000000086,38.252940000000365],[39.06175000000019,38.2532700000001],[39.06316000000015,38.254370000000165],[39.06370000000004,38.255170000000135],[39.06360000000012,38.25565000000006],[39.06391000000019,38.25588000000005],[39.0644700000002,38.2560900000002],[39.06481000000008,38.25662000000017],[39.0653700000002,38.25681000000009],[39.065760000000125,38.257310000000246],[39.06457000000012,38.25770000000017],[39.063650000000166,38.258760000000166],[39.06422000000009,38.25949000000014],[39.0645100000001,38.259730000000104],[39.06516000000005,38.26002000000011],[39.0655500000002,38.26039000000071],[39.065760000000125,38.26067000000006],[39.065910000000144,38.26108000000028],[39.06579000000016,38.26206000000036],[39.065600000000074,38.26259000000016],[39.065640000000144,38.26322000000039],[39.06552000000016,38.26358000000033],[39.06539000000009,38.26371000000029],[39.06549000000018,38.264620000000264],[39.06540000000018,38.264900000000125],[39.06562000000014,38.26541000000003],[39.065290000000175,38.26621000000051],[39.06522000000007,38.26709000000017],[39.06525000000005,38.26819000000023],[39.06546564994932,38.26955095784905],[39.065116138610676,38.270365400949004],[39.064925178489375,38.27041286764836],[39.064826001899235,38.27027169508534],[39.0641212000001,38.273109700000475],[39.052598500000045,38.27200630000016],[39.05193330000009,38.27085230000057],[39.048253300000056,38.2669355000005],[39.04631140000015,38.26463580000029],[39.04695510000016,38.263170000000514],[39.046804900000154,38.262799400000404],[39.04616119999997,38.26252980000015],[39.04182670000017,38.26246240000023],[39.03815740000016,38.26131670000029],[39.03624770000005,38.256497900000056],[39.03835060000017,38.25199900000064],[39.03380149999998,38.24465170000008],[39.03463840000012,38.24065760000019],[39.03661250000005,38.23012360000041],[39.03498170000012,38.22769630000016],[39.044899300000054,38.22796700000032],[39.04480500000005,38.22920310000063],[39.046912100000156,38.2314214000005],[39.050570865328325,38.23361539561182]]],"type":"Polygon"}},{"type":"Feature","properties":{"area_id":"TR-44-007-166113","name_tr":"Gevheruşağı","area_level":"neighbourhood","parent_id":"TR-44-007","endeksa_id":166113},"geometry":{"coordinates":[[[39.0964385753947,38.263070793587644],[39.09566000000018,38.263010000000065],[39.09526000000011,38.26280000000048],[39.09495000000004,38.26280000000048],[39.09480000000025,38.26259000000016],[39.09427000000005,38.262550000000374],[39.09343401030128,38.26173410380869],[39.09291807708229,38.261368781225315],[39.09221000000014,38.26142000000016],[39.09134916290378,38.260971920905945],[39.091186216686594,38.26097334823834],[39.08984000000015,38.26200000000034],[39.08906000000013,38.262980000000425],[39.08711000000005,38.265090000000214],[39.08575000000019,38.265610000000606],[39.08440000000019,38.266010000000335],[39.08309000000014,38.2670700000001],[39.081220000000144,38.26840000000038],[39.07781000000011,38.270220000000336],[39.075950000000034,38.27070000000026],[39.07575000000003,38.27133000000015],[39.07535000000013,38.27216000000004],[39.075420000000065,38.27235000000013],[39.073840000000075,38.27309000000008],[39.07376000000022,38.273380000000316],[39.07296000000008,38.274500000000046],[39.07061000000016,38.27714000000037],[39.069510050731765,38.27645961424389],[39.06930630179568,38.27650265044463],[39.06933526087488,38.27666852398619],[39.0641212000001,38.273109700000475],[39.064826001899235,38.27027169508534],[39.064925178489375,38.27041286764836],[39.065116138610676,38.270365400949004],[39.06546564994932,38.26955095784905],[39.06525000000005,38.26819000000023],[39.06522000000007,38.26709000000017],[39.065290000000175,38.26621000000051],[39.06562000000014,38.26541000000003],[39.06540000000018,38.264900000000125],[39.06549000000018,38.264620000000264],[39.06539000000009,38.26371000000029],[39.06552000000016,38.26358000000033],[39.065640000000144,38.26322000000039],[39.065600000000074,38.26259000000016],[39.06579000000016,38.26206000000036],[39.065910000000144,38.26108000000028],[39.065760000000125,38.26067000000006],[39.0655500000002,38.26039000000071],[39.06516000000005,38.26002000000011],[39.0645100000001,38.259730000000104],[39.06422000000009,38.25949000000014],[39.063650000000166,38.258760000000166],[39.06457000000012,38.25770000000017],[39.065760000000125,38.257310000000246],[39.0653700000002,38.25681000000009],[39.06481000000008,38.25662000000017],[39.0644700000002,38.2560900000002],[39.06391000000019,38.25588000000005],[39.06360000000012,38.25565000000006],[39.06370000000004,38.255170000000135],[39.06316000000015,38.254370000000165],[39.06175000000019,38.2532700000001],[39.060890000000086,38.252940000000365],[39.06047000000012,38.25255000000004],[39.0603000000001,38.25216000000046],[39.05985000000021,38.25199000000009],[39.05967000000004,38.251820000000066],[39.0596000000001,38.25169000000011],[39.05967000000004,38.251520000000085],[39.05961000000025,38.251240000000394],[39.059220000000096,38.25092000000018],[39.05927000000014,38.250340000000506],[39.058940000000234,38.24902000000003],[39.058600000000126,38.24855000000019],[39.05811000000011,38.24728000000027],[39.05831000000012,38.246650000000045],[39.05850000000004,38.245470000000296],[39.05803000000026,38.24439000000007],[39.05771000000004,38.24390000000005],[39.057730000000106,38.24365000000034],[39.0575300000001,38.24329000000017],[39.0574400000001,38.242880000000184],[39.055930000000046,38.242260000000044],[39.05381000000011,38.24038000000064],[39.05297000000007,38.240310000000534],[39.05291000000011,38.24023000000034],[39.052770000000066,38.239870000000394],[39.052840000000174,38.23932000000036],[39.052650000000085,38.239060000000165],[39.052690000000155,38.23878000000042],[39.05254000000019,38.238600000000076],[39.05279000000013,38.237830000000145],[39.05263000000019,38.23693000000014],[39.05272000000019,38.236240000000066],[39.05245000000019,38.236060000000066],[39.052220000000034,38.23565000000008],[39.05140000000023,38.23535000000015],[39.05124000000012,38.23491000000013],[39.05074000000013,38.234170000000404],[39.05031000000008,38.23276000000004],[39.05176000000017,38.2319200000004],[39.054140000000075,38.23115000000007],[39.05680000000007,38.23091000000011],[39.058570000000145,38.23099000000036],[39.05982000000017,38.23043000000018],[39.06236000000018,38.22972000000027],[39.06350000000003,38.2296300000001],[39.0652800000002,38.229890000000296],[39.06834000000009,38.231070000000045],[39.069350000000156,38.23173000000031],[39.07304000000016,38.232100000000514],[39.07484000000005,38.23285000000004],[39.07674000000003,38.23291000000006],[39.08125000000018,38.23242000000016],[39.082920000000115,38.23374000000035],[39.08500000000009,38.23469000000023],[39.087410000000034,38.23521000000062],[39.08909000000011,38.235690000000545],[39.09381000000019,38.23682000000025],[39.096920000000125,38.237330000000384],[39.09865000000008,38.238260000000025],[39.10118411043396,38.23902522415074],[39.10081000000014,38.24009000000012],[39.10248000000007,38.240520000000174],[39.101660000000095,38.241950000000145],[39.101630000000114,38.24344000000019],[39.1010500000001,38.24475000000041],[39.103460000000155,38.24664000000007],[39.103640000000155,38.24738000000019],[39.10414000000014,38.248270000000105],[39.10423000000014,38.24924000000044],[39.10411000000016,38.250220000000525],[39.10432000000009,38.25077000000056],[39.104290000000105,38.25216000000046],[39.104170000000124,38.252670000000194],[39.103760000000136,38.25297000000069],[39.10362000000009,38.25335000000018],[39.10371000000009,38.25426000000016],[39.103550000000155,38.25457000000023],[39.10190000000006,38.25636000000014],[39.10158000000007,38.257400000000075],[39.10124000000019,38.25789000000009],[39.10021000000023,38.2599900000003],[39.09861000000018,38.26199000000025],[39.09826000000015,38.26291000000032],[39.09808000000021,38.26281000000006],[39.09768000000014,38.26290000000023],[39.09702000000004,38.2626800000001],[39.0964385753947,38.263070793587644]]],"type":"Polygon"}},{"type":"Feature","properties":{"area_id":"TR-44-007-166107","name_tr":"Burçköy","area_level":"neighbourhood","parent_id":"TR-44-007","endeksa_id":166107},"geometry":{"coordinates":[[[38.9426064000001,38.28420170000021],[38.940632300000175,38.28439540000011],[38.94070740000018,38.28392380000031],[38.94194130000011,38.28226480000018],[38.93938780000008,38.281776300000615],[38.93931270000007,38.28151520000017],[38.939001500000074,38.28145630000006],[38.93856170000009,38.28095089999999],[38.938787000000104,38.280353000000446],[38.93819050000013,38.27924110000009],[38.93833640000008,38.27782630000013],[38.937531700000136,38.277767400000016],[38.93870110000006,38.27647880000035],[38.93873330000008,38.275013200000046],[38.93969690000006,38.27107030000013],[38.93868950000018,38.26554600000014],[38.94041770000018,38.25811550000009],[38.94249910000008,38.25735730000025],[38.94367930000004,38.25912640000007],[38.947026700000094,38.259564500000124],[38.95655390000019,38.25793010000007],[38.95352840000015,38.25341440000051],[38.9634863,38.24999250000053],[38.962443900000096,38.244850000000156],[38.95880700000009,38.24305070000014],[38.95786280000016,38.24146660000031],[38.9585709000001,38.240725000000054],[38.95972970000008,38.23994980000003],[38.96828690000001,38.23895050000067],[38.96460050000019,38.23550040000049],[38.9662742000001,38.23504530000014],[38.966553200000135,38.23100010000013],[38.96865600000018,38.22909540000006],[38.971831800000075,38.228606500000296],[38.972368200000005,38.22901110000038],[38.97580140000008,38.22766260000003],[38.97509330000008,38.2263478000001],[38.974921700000095,38.2257747000001],[38.97734640000016,38.22702210000011],[38.97869820000011,38.227949200000126],[38.98492090000019,38.23427000000015],[38.98406270000004,38.2365453000001],[38.98217440000013,38.23624190000038],[38.97992130000006,38.23711830000042],[38.974406700000145,38.2415845000001],[38.97326940000016,38.241989000000046],[38.97219660000002,38.24468540000004],[38.97322650000018,38.25592500000005],[38.972367900000165,38.25996909999998],[38.97775410000014,38.259564500000124],[38.98940560000017,38.25772790000036],[38.98639080000015,38.2608450000007],[38.98775340000009,38.26375130000065],[38.97850510000012,38.265680400000065],[38.97515770000007,38.27341290000015],[38.97223950000006,38.272823300000084],[38.971660100000065,38.272823300000084],[38.97099490000011,38.2731771],[38.96957870000017,38.27419620000012],[38.97031900000013,38.275206900000626],[38.97051210000012,38.27573760000013],[38.96995420000013,38.27654610000059],[38.969589500000154,38.276579800000036],[38.966134800000134,38.275779700000044],[38.96586660000014,38.275493300000164],[38.96472929999999,38.27635240000001],[38.94934410000013,38.28252580000009],[38.9426064000001,38.28420170000021]]],"type":"Polygon"}},{"type":"Feature","properties":{"area_id":"TR-44-007-166115","name_tr":"Gümüşsu","area_level":"neighbourhood","parent_id":"TR-44-007","endeksa_id":166115},"geometry":{"coordinates":[[[39.048253300000056,38.2669355000005],[39.0455389,38.27244430000013],[39.04453040000004,38.27247800000043],[39.0434039000001,38.27569550000055],[39.042062699999974,38.27597340000045],[39.03892990000014,38.278171600000064],[39.0319884000001,38.280740400000525],[39.02481080000007,38.28548180000007],[39.02189250000015,38.28506070000009],[39.01770829999998,38.284024900000134],[39.02115220000019,38.27812110000019],[39.016292100000044,38.274962700000174],[39.02136680000018,38.27022060000053],[39.01863100000014,38.27007740000005],[39.01735420000017,38.269462500000145],[39.015820000000076,38.26973200000009],[39.01448960000016,38.26957200000015],[39.010326900000166,38.269555200000184],[39.00950070000016,38.26974050000024],[39.00781630000006,38.27044800000016],[39.004265100000055,38.270557500000336],[39.00216220000016,38.26915930000047],[39.001185899999996,38.26943720000037],[39.00070310000001,38.2694204000004],[39.00037050000003,38.2690750000001],[39.00039190000007,38.2688813000002],[39.00062800000006,38.268502200000455],[38.99967310000005,38.267786200000046],[38.99909380000008,38.26759250000015],[38.998621700000115,38.26724710000019],[38.99822470000015,38.2672134000004],[38.997870700000135,38.26685120000013],[38.99764540000018,38.26696920000012],[38.99714110000019,38.26771890000066],[38.99691580000018,38.26783680000011],[38.996669000000054,38.267828400000155],[38.99636860000004,38.26768520000036],[38.995896600000094,38.26768520000036],[38.995521100000076,38.267297700000086],[38.99374009999997,38.263523800000144],[38.99127240000007,38.26266460000011],[38.990961300000095,38.262243400000045],[38.99055360000011,38.26314480000002],[38.988772600000004,38.264273600000024],[38.98775340000009,38.26375130000065],[38.98639080000015,38.2608450000007],[38.98940560000017,38.25772790000036],[38.989362700000186,38.256043000000034],[38.99122950000009,38.255385800000056],[38.99386880000014,38.253144800000086],[38.99953360000006,38.25248760000056],[39.00335310000008,38.25103850000039],[39.00710820000012,38.248578200000395],[39.006507400000146,38.24795470000032],[39.01110150000011,38.245072100000016],[39.011238800000115,38.24260410000028],[39.012343900000076,38.24245240000016],[39.01489730000014,38.23944420000066],[39.015047500000094,38.23897230000034],[39.01591660000008,38.237994700000456],[39.016710500000045,38.236671700000045],[39.01769760000019,38.235525600000074],[39.020558700000095,38.231626600000425],[39.02417760000003,38.2297382000005],[39.024553300000036,38.22850540000013],[39.028179600000044,38.23079780000006],[39.03197760000006,38.225505],[39.03498170000012,38.22769630000016],[39.03661250000005,38.23012360000041],[39.03463840000012,38.24065760000019],[39.03380149999998,38.24465170000008],[39.03835060000017,38.25199900000064],[39.03624770000005,38.256497900000056],[39.03815740000016,38.26131670000029],[39.04182670000017,38.26246240000023],[39.04616119999997,38.26252980000015],[39.046804900000154,38.262799400000404],[39.04695510000016,38.263170000000514],[39.04631140000015,38.26463580000029],[39.048253300000056,38.2669355000005]]],"type":"Polygon"}},{"type":"Feature","properties":{"area_id":"TR-44-007-166109","name_tr":"Damlı","area_level":"neighbourhood","parent_id":"TR-44-007","endeksa_id":166109},"geometry":{"coordinates":[[[38.97515770000007,38.27341290000015],[38.97653100000019,38.275619700000675],[38.97753950000015,38.27566180000025],[38.97852660000012,38.27740520000026],[38.97976040000009,38.27903910000009],[38.97735710000018,38.280049800000086],[38.978376400000116,38.28385650000007],[38.97794720000013,38.285507100000075],[38.97692799999999,38.28577660000013],[38.97672410000018,38.286820800000555],[38.97748590000015,38.28796610000046],[38.97594090000007,38.288639800000055],[38.97589800000003,38.28929660000006],[38.976134100000024,38.28993660000043],[38.97593020000005,38.290029200000276],[38.976230600000065,38.29115760000002],[38.97432090000012,38.29110710000015],[38.97590870000005,38.29421430000019],[38.97483590000013,38.2953847],[38.97405270000013,38.296016200000395],[38.97394540000016,38.29671510000031],[38.97244330000001,38.296706700000186],[38.97105930000009,38.29562890000068],[38.97148850000008,38.29507319999999],[38.971971300000064,38.29076190000018],[38.97045850000012,38.290778700000146],[38.969696700000156,38.290382900000054],[38.96821620000003,38.29058500000008],[38.966360100000145,38.29130920000017],[38.96586660000014,38.2905092000002],[38.96608110000011,38.29026500000009],[38.96657470000014,38.28902710000017],[38.964364500000045,38.28901030000003],[38.96343110000009,38.28920400000021],[38.962540600000125,38.28918710000005],[38.96042700000004,38.28991130000014],[38.959440000000086,38.29016400000006],[38.959354200000064,38.289844000000585],[38.9590108000001,38.28991130000014],[38.95891430000012,38.29029030000021],[38.95738000000017,38.290526100000534],[38.956092600000034,38.29025660000008],[38.95513770000008,38.29019770000036],[38.95381810000015,38.29039980000039],[38.952863200000024,38.29099760000014],[38.95167230000004,38.290989200000126],[38.95056720000008,38.29064400000016],[38.94868969999999,38.29028190000008],[38.947895800000026,38.28999560000034],[38.94783140000004,38.28951560000041],[38.94817470000004,38.28944819999998],[38.948839900000166,38.28807560000064],[38.94896860000017,38.28672820000003],[38.94742370000006,38.28593660000058],[38.94730570000007,38.28536390000045],[38.94379730000003,38.2855492000005],[38.9426064000001,38.28420170000021],[38.94934410000013,38.28252580000009],[38.96472929999999,38.27635240000001],[38.96586660000014,38.275493300000164],[38.966134800000134,38.275779700000044],[38.969589500000154,38.276579800000036],[38.96995420000013,38.27654610000059],[38.97051210000012,38.27573760000013],[38.97031900000013,38.275206900000626],[38.96957870000017,38.27419620000012],[38.97099490000011,38.2731771],[38.971660100000065,38.272823300000084],[38.97223950000006,38.272823300000084],[38.97515770000007,38.27341290000015]]],"type":"Polygon"}},{"type":"Feature","properties":{"area_id":"TR-44-007-166123","name_tr":"Poyraz","area_level":"neighbourhood","parent_id":"TR-44-007","endeksa_id":166123},"geometry":{"coordinates":[[[39.11626340000009,38.27194730000008],[39.11010500000003,38.27445730000005],[39.10671470000017,38.279123400000174],[39.101221500000065,38.2841260000007],[39.093883000000005,38.28675340000012],[39.092230800000095,38.28838720000016],[39.08982750000001,38.2896166000001],[39.08592220000003,38.29251340000047],[39.08270360000017,38.29744770000053],[39.08051490000008,38.297178200000076],[39.07806870000019,38.293321700000206],[39.0758800000001,38.286298699999975],[39.07346600000005,38.286382900000206],[39.07202840000008,38.28491760000014],[39.071438300000125,38.281986800000084],[39.07258630000007,38.27888750000034],[39.06933526087488,38.27666852398619],[39.06930630179568,38.27650265044463],[39.069510050731765,38.27645961424389],[39.07061000000016,38.27714000000037],[39.07296000000008,38.274500000000046],[39.07376000000022,38.273380000000316],[39.073840000000075,38.27309000000008],[39.075420000000065,38.27235000000013],[39.07535000000013,38.27216000000004],[39.07575000000003,38.27133000000015],[39.075950000000034,38.27070000000026],[39.07781000000011,38.270220000000336],[39.081220000000144,38.26840000000038],[39.08309000000014,38.2670700000001],[39.08440000000019,38.266010000000335],[39.08575000000019,38.265610000000606],[39.08711000000005,38.265090000000214],[39.08906000000013,38.262980000000425],[39.08984000000015,38.26200000000034],[39.091186216686594,38.26097334823834],[39.09134916290378,38.260971920905945],[39.09221000000014,38.26142000000016],[39.09291807708229,38.261368781225315],[39.09343401030128,38.26173410380869],[39.09427000000005,38.262550000000374],[39.09480000000025,38.26259000000016],[39.09495000000004,38.26280000000048],[39.09526000000011,38.26280000000048],[39.09566000000018,38.263010000000065],[39.0964385753947,38.263070793587644],[39.09638337412537,38.26318050267855],[39.0964708510499,38.26327957094003],[39.09905430000015,38.26405460000052],[39.10332440000013,38.26454310000008],[39.10563110000004,38.265714000000685],[39.105180500000074,38.26743250000004],[39.10720820000017,38.26952150000005],[39.111725100000115,38.271585100000095],[39.11626340000009,38.27194730000008]]],"type":"Polygon"}},{"type":"Feature","properties":{"area_id":"TR-44-007-166101","name_tr":"Gökçe","area_level":"neighbourhood","parent_id":"TR-44-007","endeksa_id":166101},"geometry":{"coordinates":[[[39.01770829999998,38.284024900000134],[39.013577699999985,38.28453860000019],[39.0117431000001,38.28602920000043],[39.010734500000126,38.28666920000012],[39.01033760000013,38.28708190000049],[39.009929900000145,38.28768820000005],[39.009790400000156,38.29084610000018],[39.00913600000018,38.29090500000012],[39.00870680000003,38.291182900000024],[39.00771970000005,38.29206710000017],[39.00727990000013,38.29224390000002],[39.0070760000001,38.29253860000006],[39.00685070000014,38.29317860000009],[39.00460840000005,38.29536790000003],[39.00202270000017,38.2949385000004],[39.00170090000017,38.295586800000024],[39.00077820000001,38.29531740000016],[39.00048850000002,38.29456800000014],[38.99310710000003,38.292504900000154],[38.98865460000019,38.29675720000006],[38.98851510000003,38.297001400000056],[38.98856880000005,38.297296100000096],[38.98848290000001,38.29754869999999],[38.98811820000003,38.29790230000049],[38.98812890000005,38.298222300000134],[38.98754950000006,38.29952740000016],[38.982067100000165,38.29867700000028],[38.980811800000026,38.29897170000015],[38.98016810000007,38.29854230000018],[38.97529720000006,38.29773390000008],[38.973677100000145,38.297607600000106],[38.97394540000016,38.29671510000031],[38.97405270000013,38.296016200000395],[38.97483590000013,38.2953847],[38.97590870000005,38.29421430000019],[38.97432090000012,38.29110710000015],[38.976230600000065,38.29115760000002],[38.97593020000005,38.290029200000276],[38.976134100000024,38.28993660000043],[38.97589800000003,38.28929660000006],[38.97594090000007,38.288639800000055],[38.97748590000015,38.28796610000046],[38.97672410000018,38.286820800000555],[38.97692799999999,38.28577660000013],[38.97794720000013,38.285507100000075],[38.978376400000116,38.28385650000007],[38.97735710000018,38.280049800000086],[38.97976040000009,38.27903910000009],[38.97852660000012,38.27740520000026],[38.97753950000015,38.27566180000025],[38.97653100000019,38.275619700000675],[38.97515770000007,38.27341290000015],[38.97850510000012,38.265680400000065],[38.98775340000009,38.26375130000065],[38.988772600000004,38.264273600000024],[38.99055360000011,38.26314480000002],[38.990961300000095,38.262243400000045],[38.99127240000007,38.26266460000011],[38.99374009999997,38.263523800000144],[38.995521100000076,38.267297700000086],[38.995896600000094,38.26768520000036],[38.99636860000004,38.26768520000036],[38.996669000000054,38.267828400000155],[38.99691580000018,38.26783680000011],[38.99714110000019,38.26771890000066],[38.99764540000018,38.26696920000012],[38.997870700000135,38.26685120000013],[38.99822470000015,38.2672134000004],[38.998621700000115,38.26724710000019],[38.99909380000008,38.26759250000015],[38.99967310000005,38.267786200000046],[39.00062800000006,38.268502200000455],[39.00039190000007,38.2688813000002],[39.00037050000003,38.2690750000001],[39.00070310000001,38.2694204000004],[39.001185899999996,38.26943720000037],[39.00216220000016,38.26915930000047],[39.004265100000055,38.270557500000336],[39.00781630000006,38.27044800000016],[39.00950070000016,38.26974050000024],[39.010326900000166,38.269555200000184],[39.01448960000016,38.26957200000015],[39.015820000000076,38.26973200000009],[39.01735420000017,38.269462500000145],[39.01863100000014,38.27007740000005],[39.02136680000018,38.27022060000053],[39.016292100000044,38.274962700000174],[39.02115220000019,38.27812110000019],[39.01770829999998,38.284024900000134]]],"type":"Polygon"}},{"type":"Feature","properties":{"area_id":"TR-44-007-166105","name_tr":"Behramlı","area_level":"neighbourhood","parent_id":"TR-44-007","endeksa_id":166105},"geometry":{"coordinates":[[[39.14828955600035,38.28846500399999],[39.14413690000015,38.28866500000038],[39.142259300000035,38.28838710000048],[39.139909700000146,38.28782290000015],[39.13355830000006,38.287696600000004],[39.118344800000045,38.28857240000053],[39.11553380000015,38.29069450000026],[39.11383870000003,38.29279969999999],[39.11057710000017,38.29466900000011],[39.10997630000003,38.29519110000069],[39.10892480000007,38.29626889999997],[39.10858150000007,38.29736350000013],[39.10823820000013,38.29775080000002],[39.10712240000015,38.29866010000012],[39.105212700000095,38.299535800000285],[39.10454750000008,38.299990500000604],[39.10336730000017,38.30029360000009],[39.10218710000004,38.30079880000034],[39.10062070000009,38.30177540000017],[39.09429069999999,38.30236480000008],[39.091544100000135,38.301522900000066],[39.087338400000135,38.30079880000034],[39.08270360000017,38.29744770000053],[39.08592220000003,38.29251340000047],[39.08982750000001,38.2896166000001],[39.092230800000095,38.28838720000016],[39.093883000000005,38.28675340000012],[39.101221500000065,38.2841260000007],[39.10671470000017,38.279123400000174],[39.11010500000003,38.27445730000005],[39.11626340000009,38.27194730000008],[39.12648530000018,38.27244220000017],[39.12767080000003,38.27262330000019],[39.12832800000001,38.27264010000016],[39.129481300000066,38.272435900000175],[39.13067219999999,38.27270540000006],[39.132034800000156,38.27287380000013],[39.13338660000005,38.272595900000056],[39.134597904000316,38.27207513900004],[39.138199556000245,38.2718000010002],[39.14049955600029,38.27230000200029],[39.14289955600026,38.27230000200029],[39.143499556000336,38.27260000100034],[39.14409955600024,38.273200002000124],[39.14469955600032,38.27410000100025],[39.14759955600027,38.28420000200043],[39.14819955600035,38.28680000200029],[39.14828955600035,38.28846500399999]]],"type":"Polygon"}},{"type":"Feature","properties":{"area_id":"TR-44-007-166117","name_tr":"Koldere","area_level":"neighbourhood","parent_id":"TR-44-007","endeksa_id":166117},"geometry":{"coordinates":[[[38.973677100000145,38.297607600000106],[38.972872499999994,38.29798649999998],[38.971638700000085,38.30050410000047],[38.97538300000008,38.30398130000003],[38.97628430000003,38.30387190000005],[38.977110400000186,38.30388030000006],[38.97701380000018,38.304183400000056],[38.97861240000009,38.305202099999974],[38.98213150000015,38.305286300000375],[38.98263570000012,38.30552200000034],[38.985317900000155,38.30508420000035],[38.98397680000005,38.307180600000436],[38.98367640000009,38.307812000000126],[38.98134890000023,38.3082973760001],[38.981399556000326,38.308500001000084],[38.98119955600032,38.309000002000516],[38.97999955600034,38.30990000100064],[38.9793995560002,38.31050000200031],[38.97909955600028,38.31140000200031],[38.97899955600036,38.312400001000185],[38.97899955600036,38.31310000100024],[38.979035109079405,38.31327776798446],[38.979033523000055,38.3134209600002],[38.96945200300007,38.31609092100007],[38.96582400400018,38.31572002799999],[38.96576136800013,38.31581213400034],[38.96605489900003,38.31945249700004],[38.96592640900019,38.319553124000095],[38.963092480000114,38.31697254000011],[38.95870932100007,38.312981224000055],[38.9573495669606,38.312964372051056],[38.95069955600019,38.307800002000704],[38.942399556000225,38.30380000100041],[38.93196972500027,38.299656006000305],[38.92438419100023,38.29664211100004],[38.91999955600028,38.294900001000315],[38.90831494594386,38.28980671012931],[38.91132791400008,38.28537130199999],[38.911691605000044,38.28483591100019],[38.91460617200005,38.28404808900001],[38.91401424200012,38.28232344100013],[38.91407631800013,38.28221703000031],[38.91671314700005,38.281370923000054],[38.92217762900009,38.28299458300006],[38.92295533400022,38.281632936000335],[38.923262142000226,38.28172242200077],[38.923230200000035,38.28092570000058],[38.92432450000018,38.27924130000048],[38.9260733000001,38.28000770000011],[38.927629000000024,38.28036140000006],[38.931330400000036,38.28216370000018],[38.93210330000005,38.28233500000016],[38.93303229999998,38.28230720000016],[38.93577220000003,38.28008349999999],[38.93657680000018,38.27986450000003],[38.936450500000035,38.279215800000145],[38.93819050000013,38.27924110000009],[38.938787000000104,38.280353000000446],[38.93856170000009,38.28095089999999],[38.939001500000074,38.28145630000006],[38.93931270000007,38.28151520000017],[38.93938780000008,38.281776300000615],[38.94194130000011,38.28226480000018],[38.94070740000018,38.28392380000031],[38.940632300000175,38.28439540000011],[38.9426064000001,38.28420170000021],[38.94379730000003,38.2855492000005],[38.94730570000007,38.28536390000045],[38.94742370000006,38.28593660000058],[38.94896860000017,38.28672820000003],[38.948839900000166,38.28807560000064],[38.94817470000004,38.28944819999998],[38.94783140000004,38.28951560000041],[38.947895800000026,38.28999560000034],[38.94868969999999,38.29028190000008],[38.95056720000008,38.29064400000016],[38.95167230000004,38.290989200000126],[38.952863200000024,38.29099760000014],[38.95381810000015,38.29039980000039],[38.95513770000008,38.29019770000036],[38.956092600000034,38.29025660000008],[38.95738000000017,38.290526100000534],[38.95891430000012,38.29029030000021],[38.9590108000001,38.28991130000014],[38.959354200000064,38.289844000000585],[38.959440000000086,38.29016400000006],[38.96042700000004,38.28991130000014],[38.962540600000125,38.28918710000005],[38.96343110000009,38.28920400000021],[38.964364500000045,38.28901030000003],[38.96657470000014,38.28902710000017],[38.96608110000011,38.29026500000009],[38.96586660000014,38.2905092000002],[38.966360100000145,38.29130920000017],[38.96821620000003,38.29058500000008],[38.969696700000156,38.290382900000054],[38.97045850000012,38.290778700000146],[38.971971300000064,38.29076190000018],[38.97148850000008,38.29507319999999],[38.97105930000009,38.29562890000068],[38.97244330000001,38.296706700000186],[38.97394540000016,38.29671510000031],[38.973677100000145,38.297607600000106]]],"type":"Polygon"}},{"type":"Feature","properties":{"area_id":"TR-44-007-166129","name_tr":"Yalınca","area_level":"neighbourhood","parent_id":"TR-44-007","endeksa_id":166129},"geometry":{"coordinates":[[[39.13034386200019,38.32237540800003],[39.130324492,38.32263033900023],[39.12449220400009,38.32588833600005],[39.11997111800014,38.32888508800005],[39.118109742000115,38.33047176000002],[39.1154798820001,38.33383903400011],[39.11534631700016,38.333879147000175],[39.115251497000145,38.333795920000284],[39.1150451179393,38.33256804895137],[39.115899556000215,38.33150000100028],[39.11879955600034,38.32900000200033],[39.11909955600032,38.32820000200053],[39.11927030500033,38.327431632000014],[39.11890269999998,38.32712220000053],[39.11779180000008,38.32578239999998],[39.111435400000175,38.319403800000146],[39.10922530000005,38.31140670000019],[39.10147900000004,38.30445280000015],[39.09429069999999,38.30236480000008],[39.10062070000009,38.30177540000017],[39.10218710000004,38.30079880000034],[39.10336730000017,38.30029360000009],[39.10454750000008,38.299990500000604],[39.105212700000095,38.299535800000285],[39.10712240000015,38.29866010000012],[39.10823820000013,38.29775080000002],[39.10858150000007,38.29736350000013],[39.10892480000007,38.29626889999997],[39.10997630000003,38.29519110000069],[39.11057710000017,38.29466900000011],[39.11383870000003,38.29279969999999],[39.11553380000015,38.29069450000026],[39.118344800000045,38.28857240000053],[39.13355830000006,38.287696600000004],[39.139909700000146,38.28782290000015],[39.142259300000035,38.28838710000048],[39.14413690000015,38.28866500000038],[39.14828955600035,38.28846500399999],[39.14869955600034,38.296600001000286],[39.14859955600025,38.29900000100031],[39.14839955600024,38.30010000200025],[39.147899556000255,38.30120000100004],[39.143899556000235,38.30490000200024],[39.14279955600034,38.30610000100029],[39.14229955600035,38.30650000200029],[39.14149955600021,38.306400002000146],[39.14039955600015,38.30600000100037],[39.14009955600022,38.30600000100037],[39.14009955600022,38.30620000100021],[39.14049955600029,38.3071000020002],[39.14049955600029,38.3080000020002],[39.14039955600015,38.30840000100034],[39.139199556000335,38.31030000200025],[39.13759955600034,38.313200001000666],[39.13659955600036,38.31450000200067],[39.13269955600026,38.31850000200052],[39.13139955600036,38.31900000200068],[39.13099955600029,38.31940000200001],[39.13026267400022,38.32056147200001],[39.13034386200019,38.32237540800003]]],"type":"Polygon"}},{"type":"Feature","properties":{"area_id":"TR-44-007-51960","name_tr":"Çolak","area_level":"neighbourhood","parent_id":"TR-44-007","endeksa_id":51960},"geometry":{"coordinates":[[[38.965816855303274,38.3157305401316],[38.96582400400018,38.31572002799999],[38.96945200300007,38.31609092100007],[38.979033523000055,38.3134209600002],[38.979035109079405,38.31327776798446],[38.97899955600036,38.31310000100024],[38.97899955600036,38.312400001000185],[38.97909955600028,38.31140000200031],[38.9793995560002,38.31050000200031],[38.97999955600034,38.30990000100064],[38.98119955600032,38.309000002000516],[38.981399556000326,38.308500001000084],[38.98134890000023,38.3082973760001],[38.98367640000009,38.307812000000126],[38.98397680000005,38.307180600000436],[38.985317900000155,38.30508420000035],[38.98263570000012,38.30552200000034],[38.98213150000015,38.305286300000375],[38.97861240000009,38.305202099999974],[38.97701380000018,38.304183400000056],[38.977110400000186,38.30388030000006],[38.97628430000003,38.30387190000005],[38.97538300000008,38.30398130000003],[38.971638700000085,38.30050410000047],[38.972872499999994,38.29798649999998],[38.973677100000145,38.297607600000106],[38.97529720000006,38.29773390000008],[38.98016810000007,38.29854230000018],[38.980811800000026,38.29897170000015],[38.982067100000165,38.29867700000028],[38.98754950000006,38.29952740000016],[38.98812890000005,38.298222300000134],[38.98811820000003,38.29790230000049],[38.98848290000001,38.29754869999999],[38.98856880000005,38.297296100000096],[38.98851510000003,38.297001400000056],[38.98865460000019,38.29675720000006],[38.99310710000003,38.292504900000154],[39.00048850000002,38.29456800000014],[39.00077820000001,38.29531740000016],[39.00170090000017,38.295586800000024],[39.00202270000017,38.2949385000004],[39.00460840000005,38.29536790000003],[39.00685070000014,38.29317860000009],[39.0070760000001,38.29253860000006],[39.00727990000013,38.29224390000002],[39.00771970000005,38.29206710000017],[39.00870680000003,38.291182900000024],[39.00913600000018,38.29090500000012],[39.009790400000156,38.29084610000018],[39.009929900000145,38.28768820000005],[39.01033760000013,38.28708190000049],[39.010734500000126,38.28666920000012],[39.0117431000001,38.28602920000043],[39.013577699999985,38.28453860000019],[39.01770829999998,38.284024900000134],[39.02189250000015,38.28506070000009],[39.02481080000007,38.28548180000007],[39.0319884000001,38.280740400000525],[39.03892990000014,38.278171600000064],[39.042062699999974,38.27597340000045],[39.0434039000001,38.27569550000055],[39.04453040000004,38.27247800000043],[39.0455389,38.27244430000013],[39.048253300000056,38.2669355000005],[39.05193330000009,38.27085230000057],[39.052598500000045,38.27200630000016],[39.0641212000001,38.273109700000475],[39.07258630000007,38.27888750000034],[39.071438300000125,38.281986800000084],[39.07202840000008,38.28491760000014],[39.07346600000005,38.286382900000206],[39.06428220000009,38.29130920000017],[39.060301800000104,38.294576400000096],[39.059411300000136,38.2957636000001],[39.05832770000018,38.296883500000035],[39.05696510000007,38.29734659999997],[39.05670760000004,38.297582400000124],[39.05759810000001,38.29809599999999],[39.05749080000004,38.29914850000057],[39.056096100000104,38.30217110000001],[39.05419710000018,38.30382130000066],[39.052276600000084,38.304873800000166],[39.05033470000018,38.304856900000004],[39.04932620000005,38.30505060000041],[39.04762030000012,38.30618710000016],[39.04653670000016,38.307180600000436],[39.044594800000084,38.30739100000011],[39.043918800000085,38.30787929999997],[39.042599200000154,38.308190800000034],[39.04104350000006,38.308056100000044],[39.040389100000084,38.308157200000096],[39.040045700000064,38.30847710000006],[39.040088600000104,38.308721200000036],[39.0395415000001,38.30890640000041],[39.03882260000012,38.309622000000104],[39.03831840000015,38.30979880000035],[39.03738500000003,38.31075010000001],[39.036934400000064,38.311524600000325],[39.03691290000006,38.31211390000004],[39.03680560000004,38.31246740000017],[39.036290600000086,38.3134692000001],[39.035486000000105,38.31382280000008],[39.03461690000012,38.31388170000031],[39.03442380000013,38.31418480000019],[39.03370500000017,38.31454670000062],[39.03327580000018,38.31536330000017],[39.032835900000066,38.31564110000022],[39.032642800000076,38.31595250000004],[39.03270720000006,38.316516500000034],[39.031666500000085,38.317240500000025],[39.031655800000124,38.31835160000031],[39.03006790000018,38.32031290000009],[39.03121590000012,38.32244240000057],[39.031838200000095,38.32303160000015],[39.0312588000001,38.32378920000008],[39.03220837600014,38.325292945000285],[39.03241969502841,38.32512389003523],[39.03278175600019,38.32593354000005],[39.033117150000066,38.326867340000035],[39.03308037300013,38.32791350100018],[39.03112552499999,38.331663335000144],[39.03069775400007,38.33197915700032],[39.03051092800007,38.332070515000055],[39.02795283600011,38.33181486700005],[39.02309521400019,38.33179120800031],[39.02036935700016,38.33199048400013],[39.0178071950001,38.332920289000015],[39.015951788000166,38.33328570000015],[39.012345757000105,38.33330695600017],[39.004237467000166,38.33293398400036],[39.004121130000044,38.33286447600011],[39.00256713900018,38.33073918900004],[39.001366432000054,38.32834578799998],[38.99860259900004,38.32453564000002],[38.994388516000186,38.320855253000104],[38.990829818000066,38.31960028300034],[38.98637570300019,38.31927517500026],[38.98001489500007,38.3184725990003],[38.97019846300003,38.31874645900007],[38.96868427476335,38.31935254365999],[38.965816855303274,38.3157305401316]]],"type":"Polygon"}},{"type":"Feature","properties":{"area_id":"TR-44-007-51961","name_tr":"İsak","area_level":"neighbourhood","parent_id":"TR-44-007","endeksa_id":51961},"geometry":{"coordinates":[[[39.0484175310001,38.337222804000305],[39.04835573600019,38.33734206100013],[39.04686402100015,38.33784826800019],[39.046736835000104,38.3378480450001],[39.04673675900011,38.337891454000214],[39.04663656300016,38.33784786900026],[39.04097471900013,38.33590277999997],[39.03651500700005,38.33397152300017],[39.032676295000044,38.33292090600003],[39.030719368000064,38.33213838100016],[39.03069775400007,38.33197915700032],[39.03112552499999,38.331663335000144],[39.03308037300013,38.32791350100018],[39.033117150000066,38.326867340000035],[39.03278175600019,38.32593354000005],[39.03241969502841,38.32512389003523],[39.03220837600014,38.325292945000285],[39.0312588000001,38.32378920000008],[39.031838200000095,38.32303160000015],[39.03121590000012,38.32244240000057],[39.03006790000018,38.32031290000009],[39.031655800000124,38.31835160000031],[39.031666500000085,38.317240500000025],[39.03270720000006,38.316516500000034],[39.032642800000076,38.31595250000004],[39.032835900000066,38.31564110000022],[39.03327580000018,38.31536330000017],[39.03370500000017,38.31454670000062],[39.03442380000013,38.31418480000019],[39.03461690000012,38.31388170000031],[39.035486000000105,38.31382280000008],[39.036290600000086,38.3134692000001],[39.03680560000004,38.31246740000017],[39.03691290000006,38.31211390000004],[39.036934400000064,38.311524600000325],[39.03738500000003,38.31075010000001],[39.03831840000015,38.30979880000035],[39.03882260000012,38.309622000000104],[39.0395415000001,38.30890640000041],[39.040088600000104,38.308721200000036],[39.040045700000064,38.30847710000006],[39.040389100000084,38.308157200000096],[39.04104350000006,38.308056100000044],[39.042599200000154,38.308190800000034],[39.043918800000085,38.30787929999997],[39.044594800000084,38.30739100000011],[39.04653670000016,38.307180600000436],[39.04762030000012,38.30618710000016],[39.04932620000005,38.30505060000041],[39.05033470000018,38.304856900000004],[39.052276600000084,38.304873800000166],[39.05419710000018,38.30382130000066],[39.056096100000104,38.30217110000001],[39.05749080000004,38.29914850000057],[39.05759810000001,38.29809599999999],[39.05670760000004,38.297582400000124],[39.05696510000007,38.29734659999997],[39.05832770000018,38.296883500000035],[39.059411300000136,38.2957636000001],[39.060301800000104,38.294576400000096],[39.06428220000009,38.29130920000017],[39.07346600000005,38.286382900000206],[39.0758800000001,38.286298699999975],[39.07806870000019,38.293321700000206],[39.08051490000008,38.297178200000076],[39.08270360000017,38.29744770000053],[39.08048270000006,38.300925100000484],[39.07627700000012,38.30169120000028],[39.074141999999995,38.3035519000004],[39.07079460000017,38.30435180000018],[39.06953930000003,38.30553040000018],[39.06708240000012,38.306801700000165],[39.06548380000004,38.30687750000004],[39.06565550000005,38.30762680000004],[39.063777900000105,38.310219700000175],[39.060301800000104,38.31293050000011],[39.05743720000004,38.314008000000456],[39.05612830000007,38.31579260000018],[39.05717970000006,38.318536800000174],[39.056857800000046,38.31995930000011],[39.05756590000004,38.321272400000396],[39.057523,38.32155860000012],[39.05771609999999,38.322055200000136],[39.05820960000017,38.322114200000044],[39.05875680000014,38.32395750000052],[39.05890700000015,38.32535470000016],[39.05803800000018,38.32823320000011],[39.05605320000012,38.32956300000069],[39.053939600000035,38.329554600000165],[39.05182600000012,38.3309685000001],[39.047207533000346,38.3316920240008],[39.04749955600022,38.33140000100053],[39.047599556000364,38.331000002000394],[39.0473995560003,38.330700001000196],[39.04697280400018,38.330700001000196],[39.04691291400036,38.33198664300022],[39.04659955600022,38.33230000100025],[39.04549955600032,38.3331000010005],[39.04549955600032,38.333500002000335],[39.04569955600033,38.33370000200068],[39.04696858799963,38.33377691300802],[39.0484175310001,38.337222804000305]]],"type":"Polygon"}},{"type":"Feature","properties":{"area_id":"TR-44-007-166121","name_tr":"Mezraa","area_level":"neighbourhood","parent_id":"TR-44-007","endeksa_id":166121},"geometry":{"coordinates":[[[39.07939987000003,38.34322678300032],[39.07928403200003,38.34335274000017],[39.07767735700003,38.34343671500028],[39.07659637300014,38.343792812000345],[39.07647513600017,38.3439229280001],[39.07639342000016,38.34377540700024],[39.07045481400013,38.34286553300012],[39.066039698,38.341451716999984],[39.06320021900018,38.3396647910003],[39.060560139000074,38.33838803300017],[39.05706048300004,38.33782298300014],[39.04853776800019,38.3373149360001],[39.0484175310001,38.337222804000305],[39.04696858799963,38.33377691300802],[39.04569955600033,38.33370000200068],[39.04549955600032,38.333500002000335],[39.04549955600032,38.3331000010005],[39.04659955600022,38.33230000100025],[39.04691291400036,38.33198664300022],[39.04697280400018,38.330700001000196],[39.0473995560003,38.330700001000196],[39.047599556000364,38.331000002000394],[39.04749955600022,38.33140000100053],[39.047207533000346,38.3316920240008],[39.05182600000012,38.3309685000001],[39.053939600000035,38.329554600000165],[39.05605320000012,38.32956300000069],[39.05803800000018,38.32823320000011],[39.05890700000015,38.32535470000016],[39.05875680000014,38.32395750000052],[39.05820960000017,38.322114200000044],[39.05771609999999,38.322055200000136],[39.057523,38.32155860000012],[39.05756590000004,38.321272400000396],[39.056857800000046,38.31995930000011],[39.05717970000006,38.318536800000174],[39.05612830000007,38.31579260000018],[39.05743720000004,38.314008000000456],[39.060301800000104,38.31293050000011],[39.063777900000105,38.310219700000175],[39.06565550000005,38.30762680000004],[39.06548380000004,38.30687750000004],[39.06708240000012,38.306801700000165],[39.06953930000003,38.30553040000018],[39.07079460000017,38.30435180000018],[39.074141999999995,38.3035519000004],[39.07627700000012,38.30169120000028],[39.08048270000006,38.300925100000484],[39.08270360000017,38.29744770000053],[39.087338400000135,38.30079880000034],[39.091544100000135,38.301522900000066],[39.09429069999999,38.30236480000008],[39.09137250000015,38.30893170000019],[39.09296030000007,38.31019450000008],[39.09356120000007,38.31324190000066],[39.09214490000011,38.31931960000014],[39.09057850000016,38.32004350000068],[39.08909800000009,38.322737000000075],[39.08793920000011,38.32332620000051],[39.087510100000145,38.32329260000006],[39.086952200000155,38.323107400000026],[39.08577200000019,38.3231411000001],[39.08422710000008,38.324235300000055],[39.083132700000135,38.32549780000005],[39.08296110000015,38.32622160000062],[39.08248900000018,38.326558300000045],[39.081501900000035,38.327888100000166],[39.08107280000007,38.32797230000017],[39.07991410000011,38.329403100000604],[39.07952780000011,38.329706100000124],[39.078969900000175,38.330009100000154],[39.078412000000185,38.330126900000096],[39.07721040000007,38.33005950000006],[39.07549380000012,38.33058140000003],[39.07317640000008,38.33313979999997],[39.07339090000005,38.33472200000051],[39.07237054600034,38.33571297300034],[39.07239955600028,38.33580000200021],[39.0717995560002,38.33710000100035],[39.07159955600031,38.33790000100032],[39.0717995560002,38.3385000020001],[39.072199556000214,38.338700001000404],[39.07359955600026,38.338900002000514],[39.07939955600034,38.338900002000514],[39.08046851199765,38.338924861110854],[39.08012775700013,38.34078149500033],[39.07939987000003,38.34322678300032]]],"type":"Polygon"}},{"type":"Feature","properties":{"area_id":"TR-44-007-166103","name_tr":"Akkent","area_level":"neighbourhood","parent_id":"TR-44-007","endeksa_id":166103},"geometry":{"coordinates":[[[39.11248650400006,38.34647373300021],[39.112388259000056,38.34661745800014],[39.11194744300013,38.34653374400011],[39.10909532600016,38.34676604600014],[39.107726099000104,38.34735457100027],[39.10559901400006,38.347200407000116],[39.10391531900012,38.346423308000226],[39.10258797700004,38.34541083300019],[39.10116339600006,38.3436859870003],[39.09918263900005,38.343040132000056],[39.09908717800005,38.342921275000265],[39.09864731700014,38.34209479900028],[39.09722260500001,38.34137173600004],[39.096357623000074,38.34119701900005],[39.09234161500012,38.34130704300014],[39.08288326400009,38.34332963000003],[39.07951963700009,38.34334845799998],[39.07939987000003,38.34322678300032],[39.08012775700013,38.34078149500033],[39.08046851199765,38.338924861110854],[39.07939955600034,38.338900002000514],[39.07359955600026,38.338900002000514],[39.072199556000214,38.338700001000404],[39.0717995560002,38.3385000020001],[39.07159955600031,38.33790000100032],[39.0717995560002,38.33710000100035],[39.07239955600028,38.33580000200021],[39.07237054600034,38.33571297300034],[39.07339090000005,38.33472200000051],[39.07317640000008,38.33313979999997],[39.07549380000012,38.33058140000003],[39.07721040000007,38.33005950000006],[39.078412000000185,38.330126900000096],[39.078969900000175,38.330009100000154],[39.07952780000011,38.329706100000124],[39.07991410000011,38.329403100000604],[39.08107280000007,38.32797230000017],[39.081501900000035,38.327888100000166],[39.08248900000018,38.326558300000045],[39.08296110000015,38.32622160000062],[39.083132700000135,38.32549780000005],[39.08422710000008,38.324235300000055],[39.08577200000019,38.3231411000001],[39.086952200000155,38.323107400000026],[39.087510100000145,38.32329260000006],[39.08793920000011,38.32332620000051],[39.08909800000009,38.322737000000075],[39.09057850000016,38.32004350000068],[39.09214490000011,38.31931960000014],[39.09356120000007,38.31324190000066],[39.09296030000007,38.31019450000008],[39.09137250000015,38.30893170000019],[39.09429069999999,38.30236480000008],[39.10147900000004,38.30445280000015],[39.10922530000005,38.31140670000019],[39.111435400000175,38.319403800000146],[39.11779180000008,38.32578239999998],[39.11890269999998,38.32712220000053],[39.11927030500033,38.327431632000014],[39.11909955600032,38.32820000200053],[39.11879955600034,38.32900000200033],[39.115899556000215,38.33150000100028],[39.1150451179393,38.33256804895137],[39.115251497000145,38.333795920000284],[39.11528769400002,38.33409688000012],[39.11395582700004,38.336770248000164],[39.11337396300007,38.33889004800005],[39.113137440000116,38.340992242000084],[39.11187000100011,38.34484794000025],[39.11214818900004,38.34595096400005],[39.11248650400006,38.34647373300021]]],"type":"Polygon"}}]}