{"type":"FeatureCollection","source_id":"endeksa","retrieved_at":null,"features":[{"type":"Feature","properties":{"area_id":"TR-59-007-70648","name_tr":"Mustafa Kemal Paşa","area_level":"neighbourhood","parent_id":"TR-59-007","endeksa_id":70648},"geometry":{"coordinates":[[[27.949976933988637,40.96511528256036],[27.952332605000095,40.96467506400012],[27.950688694000064,40.96504389500018],[27.950982549000173,40.964996746000054],[27.952570958000024,40.96464035900033],[27.954041200000177,40.96421700000002],[27.955291500000044,40.96407330000039],[27.956681000000117,40.96429000000006],[27.957145800000035,40.964477300000055],[27.960756000000117,40.965026000000194],[27.961794892000114,40.96549501600043],[27.963372400000083,40.96581020000008],[27.965137700000128,40.96677870000042],[27.966688800000043,40.96799580000004],[27.967147200000113,40.968572300000176],[27.967305800000076,40.96919270000012],[27.967713700000104,40.96981080000012],[27.967701400000124,40.97013830000003],[27.96751048600015,40.97031437500016],[27.966396443000065,40.97063123200013],[27.964374303000113,40.96945910600033],[27.962814498000114,40.96909692200006],[27.962420400000155,40.96915009999998],[27.96270580000015,40.969667500000696],[27.962995200000137,40.96973030000021],[27.962977400000057,40.96979190000019],[27.96261370000019,40.96970840000017],[27.96229466200009,40.96912991300036],[27.960428725000327,40.96925067500058],[27.957175664286865,40.96909235464216],[27.954800834253433,40.96927250275991],[27.954850447821627,40.96883056697186],[27.95475357575964,40.9686280839195],[27.954330000000084,40.96851000000049],[27.954040000000077,40.96828000000011],[27.953813654244072,40.96795374117255],[27.952355995731068,40.96651676578284],[27.951823378267534,40.96609216735851],[27.95092166325179,40.965665518097694],[27.95025000000004,40.965490000000045],[27.95005546241788,40.965274413200405],[27.95008587081884,40.965167268777634],[27.949976933988637,40.96511528256036]]],"type":"Polygon"}},{"type":"Feature","properties":{"area_id":"TR-59-007-70647","name_tr":"Kamaradere","area_level":"neighbourhood","parent_id":"TR-59-007","endeksa_id":70647},"geometry":{"coordinates":[[[27.98327790000019,41.00060120000006],[27.982408646937756,41.00162294357267],[27.981612983762943,41.00167891132719],[27.981373100000155,40.9993384000004],[27.977322900000047,40.99792130000003],[27.97715968987586,40.99797436678108],[27.973997900000086,40.99688110000011],[27.97531523776786,41.000071980962446],[27.972261143994956,41.004651172195906],[27.971802900000057,41.004690400000015],[27.971255876008797,41.00535160482161],[27.96861110000009,41.00585630000006],[27.969331234687104,41.0083370900154],[27.96926519436363,41.008437407435906],[27.965633900000114,41.00810710000013],[27.961306391235667,41.00810159601633],[27.955354340967006,41.00730431264475],[27.953456600000152,41.00667809999999],[27.95343509049752,41.00289956073436],[27.953950045993906,40.998121184883075],[27.954003714368525,40.996506376580555],[27.953285084046513,40.98484024018495],[27.95308101521232,40.982795994590106],[27.952920522317413,40.97935971804469],[27.952953858925923,40.97909512554031],[27.953984989009996,40.97778797695503],[27.955020756792862,40.97619983949829],[27.95538780000004,40.975491700000134],[27.955480509853544,40.97307170899717],[27.955881300000044,40.97223539999999],[27.95620104390906,40.9722171847323],[27.95611538500009,40.972926461999975],[27.956206081000175,40.973177498000325],[27.956767500000183,40.97391410000034],[27.957134999999994,40.97386810000012],[27.95734540000018,40.97396000000009],[27.956536987000163,40.97420172000034],[27.956364079000082,40.97454081600017],[27.956393271000024,40.976174800000194],[27.957158501000094,40.9774531700001],[27.95780798100003,40.977661534000106],[27.957979000000023,40.977580600000124],[27.958608509000157,40.97831050200011],[27.961506800000052,40.97798870000014],[27.961512890218728,40.97812684774175],[27.962430000000268,40.97802000000007],[27.962440000000186,40.97807000000029],[27.961460000000102,40.97819000000027],[27.96134000000012,40.978250000000116],[27.95942000000008,40.9784600000001],[27.959310000000187,40.978540000000294],[27.95923000000016,40.97858000000025],[27.958486266397642,40.97869936465264],[27.95833820000007,40.9788551000006],[27.958378400000015,40.979124200000115],[27.958639500000174,40.97948430000008],[27.959361613000112,40.98008342899999],[27.959860800000115,40.980337899999995],[27.96009741100005,40.98042679500003],[27.962335000000053,40.98041700000016],[27.963710000000106,40.981739500000515],[27.964446600000144,40.981973400000186],[27.96534340000005,40.98268190000033],[27.96577550800015,40.982911574000184],[27.967256091000138,40.983484191],[27.969563676000007,40.98299394000003],[27.970364225000083,40.98248549100015],[27.9708270000001,40.98201500000022],[27.971343100000183,40.98193000000015],[27.97397654600013,40.98262057800008],[27.974268800000118,40.98259050000058],[27.974473165000063,40.98266346900016],[27.97490078000004,40.98259954500003],[27.975060200000087,40.98237919999997],[27.976390300000162,40.982493600000055],[27.976968700000043,40.98304730000018],[27.977450999999974,40.98324200000013],[27.97810935400014,40.98410019700003],[27.978501417000132,40.984180449000064],[27.97889379999998,40.98351730000053],[27.978001700000107,40.98240370000008],[27.97810094818294,40.98235779057234],[27.977680000000134,40.9817900000001],[27.977750000000242,40.981760000000065],[27.978134799158113,40.982342132059614],[27.978158000000064,40.982331400000135],[27.978168488067865,40.98234430238682],[27.978240000000085,40.98233000000033],[27.979110000000105,40.983430000000055],[27.980220000000145,40.9823100000001],[27.97924000000006,40.98105000000032],[27.979140000000143,40.981080000000304],[27.97903000000008,40.98094000000009],[27.97912000000008,40.98091000000028],[27.979050000000143,40.98081000000036],[27.97894000000008,40.980860000000234],[27.978550000000155,40.98038000000031],[27.978640000000155,40.980330000000095],[27.977810000000034,40.97929000000033],[27.97776000000016,40.97929000000033],[27.97766000000007,40.97920000000022],[27.97782000000018,40.97913000000011],[27.97789000000006,40.97920000000022],[27.97785000000016,40.97925000000009],[27.978670000000136,40.98031000000037],[27.978770000000054,40.98029000000031],[27.97913000000017,40.980760000000146],[27.979100000000187,40.98078000000021],[27.979170000000124,40.980860000000234],[27.979230000000086,40.98085000000009],[27.97934000000015,40.980980000000045],[27.979280000000358,40.98102000000017],[27.980370000000107,40.982350000000224],[27.97922000000017,40.98348000000027],[27.978654864134626,40.98439954310385],[27.978659879000077,40.98443482700014],[27.9787800000002,40.984420000000114],[27.978960000000143,40.98452000000003],[27.9790000000001,40.98465000000027],[27.981950000000097,40.98484000000036],[27.981640000000027,40.984580000000335],[27.981070000000102,40.98428000000007],[27.98104000000012,40.98431000000022],[27.98095000000012,40.98422000000022],[27.981070000000102,40.984150000000284],[27.981150000000184,40.984230000000196],[27.981120000000146,40.98426000000035],[27.981680000000154,40.98453000000012],[27.98176000000018,40.98449000000022],[27.981900000000053,40.98462000000029],[27.981840000000034,40.98466000000025],[27.981890000000135,40.984700000000316],[27.982010000000287,40.984670000000335],[27.982350000000167,40.98500000000013],[27.98228000000006,40.98503000000028],[27.982330000000104,40.985070000000064],[27.98240000000004,40.98503000000028],[27.982540000000085,40.98517000000032],[27.982460000000174,40.985230000000115],[27.982760000000155,40.985660000000166],[27.98281000000003,40.985690000000204],[27.982820000000117,40.98576000000014],[27.98272000000003,40.98578000000015],[27.982360000000085,40.98521000000011],[27.98222000000004,40.985070000000064],[27.98200000000014,40.98490000000021],[27.9790000000001,40.98474000000027],[27.979100000000187,40.98512000000028],[27.979110000000105,40.985280000000216],[27.979260000000124,40.985510000000204],[27.97943000000015,40.98571000000004],[27.979600000000175,40.98590000000013],[27.979792699085124,40.98607342917677],[27.979880900000126,40.98598350000066],[27.979885800000034,40.985839900000144],[27.980069200000116,40.98594190000006],[27.98012710000006,40.98653200000007],[27.980462400000135,40.9870203000001],[27.98080340000007,40.98811290000009],[27.981972300000166,40.99019230000005],[27.9823763,40.99079370000004],[27.98299090000006,40.99089500000025],[27.98325410000018,40.99179190000007],[27.983085238000058,40.99210900600019],[27.983678873000088,40.99216793300013],[27.985449330000108,40.99166309300011],[27.985776310208337,40.991719882458085],[27.985740000000135,40.991640000000245],[27.985330000000147,40.991420000000346],[27.98495000000014,40.99054000000035],[27.985020000000077,40.99052000000012],[27.98538000000019,40.99138000000022],[27.98575000000011,40.99163000000033],[27.985900000000072,40.99158000000011],[27.98603000000037,40.99185000000023],[27.98609000000016,40.99184000000014],[27.986290000000167,40.99227000000019],[27.986250000000098,40.99228000000028],[27.98641000000015,40.992540000000304],[27.986350000000186,40.992560000000196],[27.986210000000142,40.992250000000126],[27.986050000000034,40.992290000000196],[27.98606000000018,40.99292000000014],[27.986440000000187,40.99381000000005],[27.986380000000167,40.993830000000116],[27.98600000000016,40.9929400000002],[27.986020000000053,40.992290000000196],[27.98597534008485,40.99218579353101],[27.985235731000103,40.99228506700007],[27.984672400000136,40.99251563500013],[27.984740900000077,40.99264890000006],[27.984167703000026,40.992722301000185],[27.983355707000158,40.993057273000545],[27.983614100000125,40.99372750000049],[27.983813900000143,40.99506990000003],[27.983650500000124,40.996451600000285],[27.98349303700013,40.99676953400012],[27.983325182000044,40.99768772900018],[27.983398900000054,40.99780160000006],[27.983832600000085,40.99785420000052],[27.984085000000164,40.99867860000052],[27.98378100000008,40.998849000000405],[27.983233700000085,40.99890400000015],[27.98304390000004,40.999820600000135],[27.98327790000019,41.00060120000006]]],"type":"Polygon"}},{"type":"Feature","properties":{"area_id":"TR-59-007-70646","name_tr":"Dereağzı","area_level":"neighbourhood","parent_id":"TR-59-007","endeksa_id":70646},"geometry":{"coordinates":[[[27.946087030978617,40.977335159087204],[27.946147573917983,40.97746023825698],[27.945218213364114,40.979700678950394],[27.944283499999983,40.98230360000014],[27.942887861580743,40.985463857135926],[27.936271883061977,40.99702153529995],[27.93559040182464,40.998731675471674],[27.93376458424433,41.00135323595288],[27.932257622636712,41.0053228676868],[27.93183630244448,41.0061789007886],[27.93177582292691,41.00659239616044],[27.93208569612142,41.00767919602174],[27.93212233148529,41.008297976990434],[27.93127340921751,41.00898123567595],[27.930805798452468,41.009814611174534],[27.928097628135163,41.01357841562452],[27.92729140889554,41.015303757222114],[27.925817403064514,41.01736722153811],[27.924051039235962,41.02023478672129],[27.92194923581826,41.02288094210712],[27.92157341141484,41.023487293665596],[27.920283100000177,41.02627640000014],[27.9143390221372,41.037804696357455],[27.91436126303273,41.037897886822236],[27.911883800000112,41.03546870000008],[27.910687871190248,41.03408066520325],[27.909413448385635,41.03199596815591],[27.908030700000154,41.02930350000014],[27.90668960000005,41.02753100000035],[27.905131169647632,41.02760342960329],[27.904261245023406,41.02755618034371],[27.90283800000003,41.02714250000054],[27.901290528111986,41.02693311333644],[27.900319255702982,41.0266841079237],[27.89977465688827,41.026303469895765],[27.898463536839643,41.02506507394145],[27.89570329999998,41.02197030000019],[27.893278600000087,41.01981710000052],[27.89177797598836,41.019193182180004],[27.891282999999987,41.01814960000007],[27.88987750000007,41.017599100000325],[27.88901695540858,41.01756005863854],[27.888704498295795,41.01735302190042],[27.888343300000145,41.01701630000042],[27.88788200000016,41.01635250000021],[27.886740258262193,41.01584082534646],[27.887436070259753,41.01501502444273],[27.887935600000162,41.014644400000634],[27.886455088808134,41.01455362313925],[27.885792401939,41.014151104636596],[27.885028100000113,41.0134139000001],[27.884459500000162,41.013025300000095],[27.883831474798342,41.01277434855166],[27.88348778163322,41.01243086062857],[27.88325174779186,41.01193734365944],[27.883590400000173,41.01177860000013],[27.883783600000186,41.01153570000014],[27.88384790000015,41.01103380000018],[27.883646000531087,41.0100020555675],[27.884105400000124,41.00914740000002],[27.882456890713,41.00756630224225],[27.881948900000054,41.00626520000014],[27.881584200000077,41.005819900000574],[27.87953153190574,41.00416977340967],[27.87980319999997,41.00389290000015],[27.87792871931856,41.00211455933214],[27.87698510117616,41.00104687683222],[27.875345263246174,40.99866691705506],[27.875402998277195,40.99854279638345],[27.876144600000146,40.998297900000125],[27.877035100000114,40.99783630000013],[27.87494432203266,40.99506865002974],[27.87316788405974,40.99245186816796],[27.87238950000011,40.990329599999995],[27.87177829171776,40.98959991182238],[27.871735099999967,40.98936590000005],[27.87110210000003,40.988726100000065],[27.86897186074708,40.98807445533345],[27.867872700000135,40.98713870000017],[27.865960363852025,40.98586938362865],[27.864300000000128,40.984559200000035],[27.864006837741954,40.984706559984204],[27.86258791772417,40.98468762062032],[27.862218789104077,40.98442873665965],[27.861596300000087,40.9832674000001],[27.85976170000015,40.981971499999986],[27.857583400000067,40.98059450000028],[27.857284614232526,40.981038490638696],[27.85571400000009,40.982794100000376],[27.854756208000083,40.98346076300038],[27.854599779000182,40.98331723300004],[27.856012991000057,40.98210865100009],[27.857971608000184,40.979271650999976],[27.858178710000118,40.97801962300031],[27.858092111000133,40.977553147000435],[27.85768150399997,40.977266703],[27.857678773000032,40.97706586800035],[27.860179586000072,40.97573868900008],[27.86195486700018,40.974278076000076],[27.86306508299998,40.97214017600015],[27.86387497100003,40.971053360999974],[27.864343339000072,40.969889788000614],[27.869323760000157,40.968941783000105],[27.870976400000075,40.968281503000185],[27.871596496000052,40.968242131000125],[27.871819099999982,40.968119000000115],[27.872170216000086,40.968205704000184],[27.87303905100015,40.96815050200041],[27.874185186000034,40.967864885000495],[27.877335603000176,40.96668147300028],[27.877349912000057,40.96619073700003],[27.877848700000072,40.96599040000007],[27.878943794000122,40.966245602000185],[27.879955917000075,40.96633191300049],[27.88336522000003,40.966119646000095],[27.886173507000137,40.96565443400016],[27.888085535000016,40.965006160000485],[27.890370754000003,40.965064091000215],[27.89306726000001,40.965843439000025],[27.893866418000073,40.96591491200036],[27.89474013300014,40.96615212099999],[27.895134000000155,40.96612910000067],[27.895593500000132,40.96636380000001],[27.89627410000014,40.966533200000356],[27.89642830000014,40.96650080000052],[27.89726726200007,40.96693654100005],[27.898126000000104,40.96707100000009],[27.89983000000001,40.967828000000054],[27.900626800000055,40.96803750000015],[27.901137779000123,40.96828294300008],[27.904703921000134,40.96900528700053],[27.908124278000116,40.96919060700009],[27.91004263200017,40.96872623600012],[27.91616614300017,40.96988868900007],[27.91998921700008,40.97015282000035],[27.92233371200018,40.97004352800019],[27.926645690416308,40.96945129510567],[27.926781351670797,40.969563242555694],[27.926441188780416,40.969891093325884],[27.92636529004335,40.97053686692118],[27.926913168744306,40.9713631145554],[27.927765072382954,40.971664061757],[27.93588286761559,40.97229360074698],[27.93596299314919,40.97300943295488],[27.936283014061928,40.974017983710155],[27.937372606876465,40.974947845916404],[27.94073491923865,40.97611476608938],[27.94300296526592,40.97638399863354],[27.946087030978617,40.977335159087204]]],"type":"Polygon"}},{"type":"Feature","properties":{"area_id":"TR-59-007-70644","name_tr":"Bahçelievler","area_level":"neighbourhood","parent_id":"TR-59-007","endeksa_id":70644},"geometry":{"coordinates":[[[27.954800834253433,40.96927250275991],[27.949614201951704,40.97288617949965],[27.948268228751033,40.97440245806064],[27.94655821785335,40.97693217817954],[27.946261604154415,40.97729470603406],[27.946087030978617,40.977335159087204],[27.94300296526592,40.97638399863354],[27.94073491923865,40.97611476608938],[27.937372606876465,40.974947845916404],[27.936283014061928,40.974017983710155],[27.93596299314919,40.97300943295488],[27.93588286761559,40.97229360074698],[27.927765072382954,40.971664061757],[27.926913168744306,40.9713631145554],[27.92636529004335,40.97053686692118],[27.926441188780416,40.969891093325884],[27.926781351670797,40.969563242555694],[27.926645690416308,40.96945129510567],[27.927226013000052,40.969370318000074],[27.929185028000063,40.96804836600012],[27.929494755000178,40.967420157000106],[27.930102664000117,40.96708471199997],[27.930678562000196,40.96599850700079],[27.931265561000146,40.96581270000007],[27.93180387300032,40.965938913000116],[27.931938972000182,40.96286287200007],[27.9322603737628,40.9629140302676],[27.93046000000004,40.961720000000355],[27.930700000000172,40.96145000000024],[27.931975405769094,40.96231058932966],[27.93226800000008,40.96230800000035],[27.93272800000011,40.962729000000365],[27.93295200000017,40.96281600000009],[27.93296700000019,40.96384200000011],[27.93330700000007,40.96396800000002],[27.934511686000064,40.964110006000055],[27.934978493000074,40.964012048000654],[27.93536267000013,40.963494259000356],[27.935378250002657,40.96348798354944],[27.935610000000167,40.963180000000364],[27.935770000000105,40.963270000000364],[27.936660000000188,40.96204000000023],[27.93700000000007,40.96223000000015],[27.935812452230778,40.96392412409057],[27.935816339000098,40.96437614100017],[27.93679350500014,40.96466239600011],[27.938474358000008,40.96484602800001],[27.940495966000128,40.964744865000625],[27.94110381600035,40.96493123800013],[27.941997906000097,40.96492403899998],[27.942826063000098,40.96468986800011],[27.943395403000352,40.96437087700059],[27.943469000000107,40.964014000000134],[27.94414600000016,40.96400800000032],[27.94415700000019,40.96477800000008],[27.944706852000024,40.965058401000135],[27.949976933988637,40.96511528256036],[27.95008587081884,40.965167268777634],[27.95005546241788,40.965274413200405],[27.95025000000004,40.965490000000045],[27.95092166325179,40.965665518097694],[27.951823378267534,40.96609216735851],[27.952355995731068,40.96651676578284],[27.953813654244072,40.96795374117255],[27.954040000000077,40.96828000000011],[27.954330000000084,40.96851000000049],[27.95475357575964,40.9686280839195],[27.954850447821627,40.96883056697186],[27.954800834253433,40.96927250275991]]],"type":"Polygon"}},{"type":"Feature","properties":{"area_id":"TR-59-007-175849","name_tr":"Yeniçiftlik","area_level":"neighbourhood","parent_id":"TR-59-007","endeksa_id":175849},"geometry":{"coordinates":[[[27.891282999999987,41.01814960000007],[27.890242300000068,41.02104750000018],[27.89017800000005,41.021541300000365],[27.890253100000052,41.02220500000021],[27.89037110000004,41.02286070000014],[27.890574900000047,41.02337060000019],[27.89045690000006,41.02392100000009],[27.88931960000008,41.02592840000011],[27.88860080000012,41.027862800000094],[27.88808580000017,41.02826750000054],[27.887291900000037,41.028024700000344],[27.886691100000064,41.02755520000022],[27.885961500000064,41.02744190000044],[27.883815700000184,41.027328600000146],[27.882592700000032,41.028008500000055],[27.881197900000075,41.027959900000155],[27.878837600000054,41.0275633],[27.87831190000003,41.0273691000001],[27.87729260000009,41.026292600000204],[27.876670300000114,41.02592840000011],[27.876058800000123,41.026260200000365],[27.875565300000176,41.02637350000015],[27.875157600000023,41.02632500000004],[27.874782100000004,41.026171200000135],[27.87438510000004,41.02587170000004],[27.87406320000008,41.02581510000016],[27.87380580000007,41.02590410000039],[27.873151300000075,41.02729620000014],[27.872260800000163,41.02768470000012],[27.87198180000013,41.0278952000001],[27.871735099999967,41.028607400000055],[27.87074800000005,41.029368200000306],[27.87054420000004,41.02995900000019],[27.870061400000054,41.03008040000026],[27.86963220000007,41.0300481000001],[27.8691065000001,41.030541800000094],[27.868806100000086,41.030582200000026],[27.86853790000015,41.03033130000006],[27.868248200000153,41.030347500000175],[27.867937100000177,41.03067940000011],[27.867582999999968,41.030776500000115],[27.86714310000019,41.03108400000019],[27.866510100000028,41.03207140000018],[27.86592010000004,41.03237890000037],[27.86561960000006,41.03237890000037],[27.86545870000009,41.03276740000018],[27.86454680000014,41.03336630000035],[27.863935200000128,41.03353630000021],[27.86358120000017,41.033892400000184],[27.863420200000178,41.034515500000225],[27.863516800000184,41.03479880000003],[27.863334400000156,41.03505770000032],[27.86246540000002,41.03532480000007],[27.861553400000048,41.03583460000016],[27.86031960000014,41.03636070000016],[27.859514900000136,41.03638490000003],[27.85884980000003,41.036627700000054],[27.858431300000007,41.036457800000164],[27.858248900000035,41.03627160000008],[27.857723200000066,41.03627160000008],[27.8568542000001,41.03677340000053],[27.85629630000011,41.03688670000031],[27.854408000000035,41.03682190000063],[27.85391450000003,41.036894800000084],[27.852686000000176,41.037445100000184],[27.851548800000046,41.03739650000057],[27.851264500000184,41.03730350000069],[27.85041150000012,41.037517900000125],[27.849665900000048,41.03718210000005],[27.849156300000175,41.03710110000014],[27.848217500000146,41.03762310000013],[27.84755230000013,41.038157200000114],[27.846779800000036,41.03825430000012],[27.84540650000008,41.038756100000114],[27.84521340000009,41.039063600000304],[27.844741300000123,41.03938730000044],[27.84405470000013,41.040164100000084],[27.84283160000018,41.041038100000605],[27.84261700000019,41.04176640000014],[27.84210200000001,41.04231660000016],[27.84175870000007,41.04338480000007],[27.84175870000007,41.04401590000043],[27.841994700000043,41.04467940000012],[27.842123500000014,41.04587700000059],[27.839034000000026,41.04506010000017],[27.836126100000115,41.04427480000004],[27.831988864692562,41.042718705658444],[27.83111570000017,41.0425917],[27.8328298963022,41.04076546080853],[27.833287864266197,41.04016415711209],[27.83190960000013,41.03885320000012],[27.83020380000005,41.03670060000019],[27.83063157384163,41.036458569188994],[27.83064447970895,41.03632276493721],[27.828615900000102,41.03601270000047],[27.827950700000144,41.035211500000116],[27.82988230930215,41.03395590607062],[27.829899207696485,41.03383278080793],[27.82858426178217,41.032534597277504],[27.828449233515585,41.03250478299026],[27.826721266137838,41.0335984937837],[27.826280399124926,41.0339990667004],[27.826030200000048,41.034604500000114],[27.824646200000075,41.03241939999998],[27.824424330243914,41.03176996479499],[27.823461671495465,41.030252955508615],[27.820392200000185,41.02633309999999],[27.81992911778798,41.02557862919292],[27.81935150000004,41.025086600000066],[27.818930958720728,41.02410770815038],[27.818307062390033,41.023181668536154],[27.81576924858973,41.02107335653824],[27.81450749999999,41.02024210000019],[27.813761800000123,41.01950550000032],[27.811229800000035,41.01634850000005],[27.80932736012403,41.013596132462794],[27.80894459642809,41.01315951058319],[27.807936100000006,41.01243430000005],[27.807340600000146,41.01185140000047],[27.80522700000006,41.00942270000024],[27.803639200000134,41.0070303],[27.802866700000152,41.00512360000016],[27.803630359204476,41.004931522675975],[27.804030984373412,41.004472066384835],[27.80334410000006,41.00291720000007],[27.80351166952505,41.00285314118844],[27.803522746105784,41.00276462521896],[27.802938502940094,41.001778335122594],[27.80278660954002,41.001731388780684],[27.8022539160919,41.001891557827776],[27.80152562772753,41.002237531336675],[27.800906173000044,41.00267647200019],[27.80070346300016,41.002706046000185],[27.80064832100004,41.00261064600011],[27.800992259000054,41.0021168140006],[27.801892087000056,41.00176048700018],[27.80993561700018,40.99968349599999],[27.817378497000163,40.9988207360002],[27.82552089300009,40.996875641000145],[27.840286909000042,40.99198814400046],[27.843405568000094,40.990713306000316],[27.848261930999968,40.98831939300004],[27.85256947700003,40.98540589300006],[27.85297036200012,40.98429828000013],[27.854599779000182,40.98331723300004],[27.854756208000083,40.98346076300038],[27.85571400000009,40.982794100000376],[27.857284614232526,40.981038490638696],[27.857583400000067,40.98059450000028],[27.85976170000015,40.981971499999986],[27.861596300000087,40.9832674000001],[27.862218789104077,40.98442873665965],[27.86258791772417,40.98468762062032],[27.864006837741954,40.984706559984204],[27.864300000000128,40.984559200000035],[27.865960363852025,40.98586938362865],[27.867872700000135,40.98713870000017],[27.86897186074708,40.98807445533345],[27.87110210000003,40.988726100000065],[27.871735099999967,40.98936590000005],[27.87177829171776,40.98959991182238],[27.87238950000011,40.990329599999995],[27.87316788405974,40.99245186816796],[27.87494432203266,40.99506865002974],[27.877035100000114,40.99783630000013],[27.876144600000146,40.998297900000125],[27.875402998277195,40.99854279638345],[27.875345263246174,40.99866691705506],[27.87698510117616,41.00104687683222],[27.87792871931856,41.00211455933214],[27.87980319999997,41.00389290000015],[27.87953153190574,41.00416977340967],[27.881584200000077,41.005819900000574],[27.881948900000054,41.00626520000014],[27.882456890713,41.00756630224225],[27.884105400000124,41.00914740000002],[27.883646000531087,41.0100020555675],[27.88384790000015,41.01103380000018],[27.883783600000186,41.01153570000014],[27.883590400000173,41.01177860000013],[27.88325174779186,41.01193734365944],[27.88348778163322,41.01243086062857],[27.883831474798342,41.01277434855166],[27.884459500000162,41.013025300000095],[27.885028100000113,41.0134139000001],[27.885792401939,41.014151104636596],[27.886455088808134,41.01455362313925],[27.887935600000162,41.014644400000634],[27.887436070259753,41.01501502444273],[27.886740258262193,41.01584082534646],[27.88788200000016,41.01635250000021],[27.888343300000145,41.01701630000042],[27.888704498295795,41.01735302190042],[27.88901695540858,41.01756005863854],[27.88987750000007,41.017599100000325],[27.891282999999987,41.01814960000007]]],"type":"Polygon"}},{"type":"Feature","properties":{"area_id":"TR-59-007-175847","name_tr":"Sultanköy","area_level":"neighbourhood","parent_id":"TR-59-007","endeksa_id":175847},"geometry":{"coordinates":[[[27.975680095789016,41.065198555124425],[27.975546707148794,41.065247538876065],[27.970150000000046,41.06433000000044],[27.96586000000019,41.06425000000024],[27.957195113691625,41.06484822300308],[27.957237799999973,41.06474529999997],[27.95388280000003,41.064312400000404],[27.955977899999993,41.04469160000002],[27.95594570000003,41.04433960000006],[27.954792400000144,41.04188770000002],[27.953762400000187,41.037882100000104],[27.953660500000126,41.03692310000048],[27.95367660000005,41.036150300000486],[27.95419127946991,41.03197659150629],[27.95422325235046,41.03108794581095],[27.95363370000001,41.02724770000003],[27.952877300000182,41.02522010000064],[27.953515615267804,41.010386715151355],[27.953456600000152,41.00667809999999],[27.955354340967006,41.00730431264475],[27.961306391235667,41.00810159601633],[27.965633900000114,41.00810710000013],[27.96926519436363,41.008437407435906],[27.969331234687104,41.0083370900154],[27.96861110000009,41.00585630000006],[27.971255876008797,41.00535160482161],[27.971802900000057,41.004690400000015],[27.972261143994956,41.004651172195906],[27.97531523776786,41.000071980962446],[27.973997900000086,40.99688110000011],[27.97715968987586,40.99797436678108],[27.977322900000047,40.99792130000003],[27.981373100000155,40.9993384000004],[27.981612983762943,41.00167891132719],[27.982408646937756,41.00162294357267],[27.98327790000019,41.00060120000006],[27.982949000000133,41.001633200000015],[27.98295200000007,41.00184550000017],[27.982823451000172,41.001922492000176],[27.982764065000026,41.00284006900017],[27.983265936000066,41.005598426000006],[27.984085100000186,41.00778970000016],[27.985138400000096,41.00995020000005],[27.985346300000117,41.01030690000022],[27.98561220000005,41.01045019999998],[27.985997999999995,41.01115300000009],[27.986813000000097,41.013001400000405],[27.98834272800002,41.01515945500017],[27.989465199999984,41.016326100000185],[27.99090617400003,41.01869721100013],[27.992747995000116,41.019759361000126],[27.993263400000046,41.020488900000146],[27.993604855000115,41.02081812000006],[27.9941016840001,41.02096995199997],[27.99461310000015,41.02099149999998],[27.99476210000006,41.02109490000038],[27.995421200000067,41.02115370000013],[27.996142900000052,41.0214739000001],[27.996392872000172,41.02185112700033],[27.996686581000006,41.02209833400008],[27.99725010000003,41.022380399999975],[27.998140100000114,41.023315900000114],[27.998693700000103,41.02359430000041],[27.999413800000184,41.024720600000194],[28.00063040000009,41.02602150000018],[28.002347030000067,41.027335936000554],[28.005085700000166,41.02899840000026],[28.00566050000009,41.02925240000013],[28.005773600000055,41.02916180000028],[28.00668020000012,41.029953600000056],[28.00752330000006,41.03048250000012],[28.008149800000183,41.030701300000146],[28.00886580000008,41.03107860000006],[28.009545898000056,41.03179511900015],[28.01012420000012,41.03210990000014],[28.01021750000001,41.0320677000002],[28.010939715000177,41.03273512500044],[28.01213829800014,41.033543462000125],[28.01342200700003,41.03427511800004],[28.013248900000008,41.03478640000026],[28.01334540000005,41.03524770000041],[28.01317155100014,41.03516917800016],[28.013152483000113,41.03534823800038],[28.01004003700018,41.03353824900046],[28.008331640000165,41.03218194700014],[28.008120147000113,41.03241275700009],[28.00745639100012,41.031919938000044],[28.006608079000102,41.03289460700017],[28.005840514000056,41.033403766000106],[28.005736714000193,41.03356464100051],[28.006190873000037,41.03526963200045],[28.006322412000145,41.03682439000016],[28.005247999000176,41.039996304000056],[28.004926120000107,41.039995137000005],[28.004862652000156,41.040130865000094],[28.003707899999995,41.04005159999997],[28.001673108000034,41.03966431700036],[27.996122870000193,41.03915221599999],[27.99543879400011,41.03860512800003],[27.995073732000094,41.03852491600014],[27.994656462000023,41.03868057800008],[27.994586530000106,41.038931990000606],[27.99460081100011,41.03993313200016],[27.99443402700018,41.040936174000194],[27.993403607000175,41.04187887200004],[27.993045366000104,41.04199874900024],[27.992396170000063,41.042854225000326],[27.985854918000086,41.04396664500035],[27.98451679700014,41.04326077700057],[27.98205265200005,41.04076674999999],[27.981567115000132,41.040079321000235],[27.980757911000126,41.04063246300035],[27.980310404000136,41.0436362320001],[27.97662473100013,41.04374787500001],[27.97677737100014,41.04341043800025],[27.976899901000138,41.04254436500008],[27.976855863000026,41.042103734000136],[27.974745000000098,41.04229850000007],[27.974249400000133,41.04258880000066],[27.974110767000127,41.04273549100009],[27.97430882300017,41.04383847800017],[27.974610931000086,41.04448616400026],[27.976213734000112,41.04672599200012],[27.976235926000186,41.04691893000029],[27.97705129900004,41.047983405000025],[27.977205530000106,41.04857572200024],[27.978553762000104,41.049404446000096],[27.97867554800007,41.04956983000005],[27.978057000000035,41.05132210000028],[27.978565110000147,41.05228198600014],[27.97780190800006,41.05223918300004],[27.97771831100016,41.052405598000064],[27.977389216000063,41.05241223500013],[27.978486364000048,41.057592539000666],[27.97878154500006,41.05765659800005],[27.978747400000145,41.05823460000005],[27.978534100000104,41.05882860000003],[27.97786706100004,41.05982031100007],[27.97745694600013,41.06073980200006],[27.977409050000063,41.06139600000017],[27.97765636300005,41.06272209800045],[27.975815450000027,41.06460007700014],[27.975680095789016,41.065198555124425]]],"type":"Polygon"}},{"type":"Feature","properties":{"area_id":"TR-59-007-70645","name_tr":"Cedit Ali Paşa","area_level":"neighbourhood","parent_id":"TR-59-007","endeksa_id":70645},"geometry":{"coordinates":[[[27.95388280000003,41.064312400000404],[27.948973800000147,41.06332260000022],[27.948389876127294,41.06556407490922],[27.94735780000019,41.06540020000017],[27.94606316696172,41.06595496605371],[27.94461610000019,41.065132000000176],[27.94141570000005,41.06367140000066],[27.94072645865424,41.064356592508375],[27.937202400000103,41.06489740000012],[27.935311800000193,41.06539800000019],[27.93325643059609,41.06627749067337],[27.931885155940677,41.06672411563119],[27.928871950385542,41.06746168130138],[27.927460600000188,41.064404000000025],[27.926533498564766,41.06313215809229],[27.926108800000065,41.06220360000003],[27.924671200000148,41.06016510000012],[27.92301611345289,41.05812192521944],[27.919137618186937,41.05219203361946],[27.91853430000009,41.05095830000005],[27.91785358305839,41.04983536982451],[27.917546826321086,41.0486375436364],[27.91737576823357,41.04559047805344],[27.91763300000008,41.04252700000052],[27.91763300000008,41.041475100000525],[27.917182400000115,41.04022890000044],[27.91436126303273,41.037897886822236],[27.9143390221372,41.037804696357455],[27.920283100000177,41.02627640000014],[27.92157341141484,41.023487293665596],[27.92194923581826,41.02288094210712],[27.924051039235962,41.02023478672129],[27.925817403064514,41.01736722153811],[27.92729140889554,41.015303757222114],[27.928097628135163,41.01357841562452],[27.930805798452468,41.009814611174534],[27.93127340921751,41.00898123567595],[27.93212233148529,41.008297976990434],[27.93208569612142,41.00767919602174],[27.93177582292691,41.00659239616044],[27.93183630244448,41.0061789007886],[27.932257622636712,41.0053228676868],[27.93376458424433,41.00135323595288],[27.93559040182464,40.998731675471674],[27.936271883061977,40.99702153529995],[27.942887861580743,40.985463857135926],[27.944283499999983,40.98230360000014],[27.945218213364114,40.979700678950394],[27.946147573917983,40.97746023825698],[27.946087030978617,40.977335159087204],[27.946261604154415,40.97729470603406],[27.94655821785335,40.97693217817954],[27.948268228751033,40.97440245806064],[27.949614201951704,40.97288617949965],[27.954800834253433,40.96927250275991],[27.957175664286865,40.96909235464216],[27.960428725000327,40.96925067500058],[27.960282500000005,40.96977990000005],[27.96035580000006,40.9698360000001],[27.960255200000063,40.97052910000008],[27.96062020000005,40.97066530000012],[27.960590000000252,40.970767503905904],[27.960580000000107,40.97084000000035],[27.96048000000019,40.970850000000155],[27.960340000000144,40.97083000000009],[27.9602000000001,40.97078000000005],[27.960090000000093,40.97075000000024],[27.9599400000003,40.97078000000005],[27.95961000000017,40.97090000000037],[27.95951000000025,40.97090000000037],[27.95945000000006,40.97086000000024],[27.959490000000187,40.97075000000024],[27.95961000000017,40.970730000000174],[27.95968941676523,40.97067912514791],[27.959650000000067,40.97062000000028],[27.95995000000005,40.97046000000017],[27.96004000000005,40.969800000000305],[27.960000000000093,40.969700000000216],[27.95986000000005,40.969620000000305],[27.95985661467762,40.96953875225739],[27.959841440000105,40.969527264000135],[27.957898675000024,40.969988526000066],[27.957039946000123,40.97062362900067],[27.95620104390906,40.9722171847323],[27.955881300000044,40.97223539999999],[27.955480509853544,40.97307170899717],[27.95538780000004,40.975491700000134],[27.955020756792862,40.97619983949829],[27.953984989009996,40.97778797695503],[27.952953858925923,40.97909512554031],[27.952920522317413,40.97935971804469],[27.95308101521232,40.982795994590106],[27.953285084046513,40.98484024018495],[27.954003714368525,40.996506376580555],[27.953950045993906,40.998121184883075],[27.95343509049752,41.00289956073436],[27.953456600000152,41.00667809999999],[27.953515615267804,41.010386715151355],[27.952877300000182,41.02522010000064],[27.95363370000001,41.02724770000003],[27.95422325235046,41.03108794581095],[27.95419127946991,41.03197659150629],[27.95367660000005,41.036150300000486],[27.953660500000126,41.03692310000048],[27.953762400000187,41.037882100000104],[27.954792400000144,41.04188770000002],[27.95594570000003,41.04433960000006],[27.955977899999993,41.04469160000002],[27.95388280000003,41.064312400000404]]],"type":"Polygon"}},{"type":"Feature","properties":{"area_id":"TR-59-007-175853","name_tr":"Türkmenli","area_level":"neighbourhood","parent_id":"TR-59-007","endeksa_id":175853},"geometry":{"coordinates":[[[27.911883800000112,41.03546870000008],[27.90260600000005,41.03683100000018],[27.894929000000047,41.03726860000029],[27.88980420000007,41.03906310000008],[27.886877800000036,41.040367300000526],[27.88628340000008,41.04189580000019],[27.88589710000008,41.04232470000011],[27.88583280000006,41.0426403000003],[27.88597230000005,41.042883100000495],[27.885854200000097,41.04310150000009],[27.88512470000012,41.043344300000285],[27.885060300000134,41.04365990000014],[27.88530710000009,41.043910700000254],[27.8851461000001,41.04425060000017],[27.8847813000001,41.044501400000456],[27.884674100000154,41.04511640000004],[27.884349100000065,41.045800800000166],[27.883708500000182,41.046411000000035],[27.882120600000064,41.04686410000005],[27.881187200000113,41.04751140000013],[27.88039330000015,41.0478351000001],[27.879599300000166,41.0479241000005],[27.87944910000016,41.04811020000011],[27.879213100000186,41.0487332000003],[27.878946200000144,41.05094420000012],[27.879020000000025,41.051864400000056],[27.87875170000001,41.05252790000003],[27.879011100000184,41.052987700000244],[27.879953400000147,41.05397610000017],[27.879931900000145,41.05450200000013],[27.879524200000162,41.054833700000074],[27.878796900000054,41.05514500000004],[27.878161700000078,41.05604720000008],[27.878029100000106,41.05665400000055],[27.87766810000005,41.0573012000001],[27.87674550000014,41.05797270000005],[27.875404300000184,41.0581102000001],[27.87407600000006,41.05799540000015],[27.87308690000009,41.0576410000005],[27.871874600000183,41.05744680000009],[27.870694400000048,41.057463000000155],[27.866992900000184,41.058239700000115],[27.86494430000016,41.05878300000012],[27.862304400000028,41.06082030000016],[27.86249760000004,41.06109540000068],[27.860587800000133,41.061904300000094],[27.86012650000015,41.06229260000026],[27.860083600000166,41.06284270000015],[27.858581500000184,41.06383770000002],[27.85172740000013,41.0695410000003],[27.84256470000014,41.07325310000016],[27.84228440000004,41.07493530000005],[27.84219762223637,41.07609042428089],[27.842044455505516,41.076194297072675],[27.841873502423084,41.07610348411305],[27.84095410000009,41.07341070000001],[27.840806131746433,41.0719096071731],[27.839784600000144,41.06952420000033],[27.838599100000124,41.066458599999976],[27.838281677355667,41.065428188492035],[27.83815920000012,41.06528160000016],[27.83766030000004,41.06357880000013],[27.837365300000158,41.06199330000004],[27.837563700000032,41.06100640000005],[27.83752080000005,41.060565499999996],[27.837631495374183,41.05988500394017],[27.837311600000135,41.05651650000004],[27.839092600000072,41.056318200000476],[27.839824097954363,41.056548023226696],[27.84106651341557,41.055934200426464],[27.84111768336828,41.05584372139015],[27.840852100000177,41.054578800000115],[27.84093626568864,41.05410700357646],[27.840664400000094,41.05351489999998],[27.84060810097975,41.05195821872633],[27.840029835178427,41.05134616367434],[27.839639800000043,41.05141940000016],[27.839489600000093,41.05118880000026],[27.83970683038291,41.05103538638991],[27.83979058301975,41.05031847652475],[27.83967419542472,41.05023484442847],[27.839446700000053,41.05033930000013],[27.83934235291281,41.04997002805254],[27.838658100000032,41.04941290000005],[27.83951640000015,41.04962320000004],[27.839590570512712,41.04949170685194],[27.838529300000175,41.04852290000031],[27.83851921505152,41.04811865379099],[27.83826931919333,41.047788570506725],[27.837263300000075,41.04706640000023],[27.83772423591597,41.046969452669885],[27.83771390000004,41.046815600000116],[27.83860405515992,41.046282768868366],[27.838558125906275,41.046186096013],[27.83771390000004,41.045731300000114],[27.837939300000073,41.04546430000005],[27.838572784664393,41.0456618871209],[27.839034000000026,41.04506010000017],[27.842123500000014,41.04587700000059],[27.841994700000043,41.04467940000012],[27.84175870000007,41.04401590000043],[27.84175870000007,41.04338480000007],[27.84210200000001,41.04231660000016],[27.84261700000019,41.04176640000014],[27.84283160000018,41.041038100000605],[27.84405470000013,41.040164100000084],[27.844741300000123,41.03938730000044],[27.84521340000009,41.039063600000304],[27.84540650000008,41.038756100000114],[27.846779800000036,41.03825430000012],[27.84755230000013,41.038157200000114],[27.848217500000146,41.03762310000013],[27.849156300000175,41.03710110000014],[27.849665900000048,41.03718210000005],[27.85041150000012,41.037517900000125],[27.851264500000184,41.03730350000069],[27.851548800000046,41.03739650000057],[27.852686000000176,41.037445100000184],[27.85391450000003,41.036894800000084],[27.854408000000035,41.03682190000063],[27.85629630000011,41.03688670000031],[27.8568542000001,41.03677340000053],[27.857723200000066,41.03627160000008],[27.858248900000035,41.03627160000008],[27.858431300000007,41.036457800000164],[27.85884980000003,41.036627700000054],[27.859514900000136,41.03638490000003],[27.86031960000014,41.03636070000016],[27.861553400000048,41.03583460000016],[27.86246540000002,41.03532480000007],[27.863334400000156,41.03505770000032],[27.863516800000184,41.03479880000003],[27.863420200000178,41.034515500000225],[27.86358120000017,41.033892400000184],[27.863935200000128,41.03353630000021],[27.86454680000014,41.03336630000035],[27.86545870000009,41.03276740000018],[27.86561960000006,41.03237890000037],[27.86592010000004,41.03237890000037],[27.866510100000028,41.03207140000018],[27.86714310000019,41.03108400000019],[27.867582999999968,41.030776500000115],[27.867937100000177,41.03067940000011],[27.868248200000153,41.030347500000175],[27.86853790000015,41.03033130000006],[27.868806100000086,41.030582200000026],[27.8691065000001,41.030541800000094],[27.86963220000007,41.0300481000001],[27.870061400000054,41.03008040000026],[27.87054420000004,41.02995900000019],[27.87074800000005,41.029368200000306],[27.871735099999967,41.028607400000055],[27.87198180000013,41.0278952000001],[27.872260800000163,41.02768470000012],[27.873151300000075,41.02729620000014],[27.87380580000007,41.02590410000039],[27.87406320000008,41.02581510000016],[27.87438510000004,41.02587170000004],[27.874782100000004,41.026171200000135],[27.875157600000023,41.02632500000004],[27.875565300000176,41.02637350000015],[27.876058800000123,41.026260200000365],[27.876670300000114,41.02592840000011],[27.87729260000009,41.026292600000204],[27.87831190000003,41.0273691000001],[27.878837600000054,41.0275633],[27.881197900000075,41.027959900000155],[27.882592700000032,41.028008500000055],[27.883815700000184,41.027328600000146],[27.885961500000064,41.02744190000044],[27.886691100000064,41.02755520000022],[27.887291900000037,41.028024700000344],[27.88808580000017,41.02826750000054],[27.88860080000012,41.027862800000094],[27.88931960000008,41.02592840000011],[27.89045690000006,41.02392100000009],[27.890574900000047,41.02337060000019],[27.89037110000004,41.02286070000014],[27.890253100000052,41.02220500000021],[27.89017800000005,41.021541300000365],[27.890242300000068,41.02104750000018],[27.891282999999987,41.01814960000007],[27.89177797598836,41.019193182180004],[27.893278600000087,41.01981710000052],[27.89570329999998,41.02197030000019],[27.898463536839643,41.02506507394145],[27.89977465688827,41.026303469895765],[27.900319255702982,41.0266841079237],[27.901290528111986,41.02693311333644],[27.90283800000003,41.02714250000054],[27.904261245023406,41.02755618034371],[27.905131169647632,41.02760342960329],[27.90668960000005,41.02753100000035],[27.908030700000154,41.02930350000014],[27.909413448385635,41.03199596815591],[27.910687871190248,41.03408066520325],[27.911883800000112,41.03546870000008]]],"type":"Polygon"}},{"type":"Feature","properties":{"area_id":"TR-59-007-175851","name_tr":"Çeşmeli","area_level":"neighbourhood","parent_id":"TR-59-007","endeksa_id":175851},"geometry":{"coordinates":[[[27.845639200000164,41.085698100000116],[27.842785151388625,41.086856295525195],[27.84263103205359,41.08682817850644],[27.841461647985057,41.08554946101043],[27.84079272838642,41.08463798749722],[27.84064290000009,41.08393660000053],[27.84023520000011,41.08347560000004],[27.839049108216045,41.082506045306786],[27.83769250000006,41.080863500000135],[27.835131546972093,41.07814145122171],[27.833288300000163,41.075732000000244],[27.832773299999985,41.07527500000009],[27.831860305412363,41.07542552073039],[27.831700400000045,41.074923200000114],[27.82895270000006,41.07321450000012],[27.825837100000058,41.07183750000024],[27.824624800000095,41.07151400000015],[27.822917700000062,41.07135210000058],[27.821073500000068,41.071311800000444],[27.81943200000012,41.07154640000067],[27.817579271222087,41.07213861522882],[27.816131370896983,41.072088587598955],[27.814846238096266,41.07192861106489],[27.812082700000133,41.070842700000355],[27.80617703802892,41.06927182245391],[27.799538500000097,41.066981300000066],[27.797149700180455,41.06752051009869],[27.796415422140683,41.066655199432546],[27.796101130864486,41.06611819973733],[27.795946600000093,41.065641600000106],[27.795724148945567,41.06560390593995],[27.792900585389418,41.06365664754895],[27.792899600000055,41.062834599999974],[27.79139968046502,41.06301276287593],[27.78973460000003,41.061669700000095],[27.78920352684463,41.061965013259055],[27.78863329999524,41.06204860314574],[27.78787850000009,41.06199330000004],[27.787416711669152,41.06217320918819],[27.786262000000136,41.06135770000003],[27.785252778839094,41.06099103341472],[27.784921507369063,41.06078197684019],[27.784680553083206,41.06056183616863],[27.784677351886614,41.06030603204283],[27.785287500000152,41.05989400000004],[27.785797100000025,41.059339900000055],[27.78571856297424,41.059077775107596],[27.785757796799317,41.05877147754762],[27.78604390000004,41.05825990000005],[27.78473500000007,41.05739830000016],[27.7841475438438,41.05728947269051],[27.783812035319215,41.05710508750957],[27.78323460000007,41.056586300000276],[27.781606419446177,41.059075766981664],[27.781291000000067,41.05888690000006],[27.778308400000185,41.06027830000022],[27.775651969396506,41.061707848625474],[27.773770400000046,41.06253880000003],[27.771696400000053,41.063715400000035],[27.772543841321976,41.06439012380753],[27.773759400000188,41.06607030000055],[27.775400900000136,41.067866000000265],[27.77699552155633,41.0694341764343],[27.776950913383928,41.069585347719396],[27.77418978575605,41.07209127468684],[27.76611010120422,41.07228159544172],[27.76210183680223,41.070228159965495],[27.760585584002285,41.06584613692843],[27.755362033845415,41.059594144461414],[27.755076037571143,41.05628090759649],[27.751268334174995,41.05092093546102],[27.739904267189786,41.04263335348156],[27.739122677165426,41.041751063514596],[27.738703522867866,41.04081298744393],[27.737999900000148,41.03982940000043],[27.73803155391414,41.03949791127968],[27.738451228933116,41.03886991777307],[27.738518848976753,41.03856504436442],[27.73830427974127,41.03806742830267],[27.737266196522285,41.03687144321907],[27.736488938535217,41.035598842077775],[27.73638842957672,41.035053398277796],[27.736510788587452,41.03415141468969],[27.73644648948914,41.033722424359325],[27.735625072509947,41.031771386581056],[27.735354046370787,41.03080485132375],[27.734677572902967,41.03003610143156],[27.73474884283695,41.028127166605145],[27.734618479424398,41.02786706387667],[27.734209401870032,41.02756527986338],[27.733121934871804,41.02717056832955],[27.73164792628387,41.02622444163342],[27.730622422742613,41.02399609958729],[27.730347200520157,41.02359496257742],[27.730249699858405,41.02252011761789],[27.72994182923236,41.02164714879075],[27.729838767041542,41.02056537941104],[27.730871079452584,41.01994294017794],[27.731401394794602,41.018208193414466],[27.731661086566703,41.016962185000295],[27.73126860654827,41.01643705143272],[27.731074209997132,41.015905991523084],[27.731243603041264,41.01465937370682],[27.730997083767136,41.01379741905782],[27.730590538401202,41.013425701197434],[27.729428834752582,41.01262832433616],[27.72926964848341,41.01229230243467],[27.72930839382974,41.01158472495308],[27.730039351189248,41.01163904654618],[27.730123409989858,41.011575374230574],[27.73005305594603,41.01146856101491],[27.730699047000144,41.01166595400025],[27.73377707700007,41.01218583600007],[27.733791021000172,41.01234343900023],[27.73393154600012,41.01237275500017],[27.741299711000067,41.013008716000115],[27.743856000000108,41.01309800000058],[27.74561684500003,41.01338133500013],[27.753557912000076,41.0136913190002],[27.75937363700018,41.013589861000185],[27.760785956000063,41.01328952800009],[27.76100445999998,41.01177744000006],[27.761086900000237,41.010291200000154],[27.762550000000147,41.01024247441836],[27.762550000000147,41.005200000000116],[27.762840000000153,41.005120000000204],[27.762837682157397,41.005245858864555],[27.762860600000124,41.00526260000015],[27.762915399999997,41.010306300000025],[27.762809200000277,41.01040850000027],[27.762600200000065,41.01043570000007],[27.761350353944408,41.01042997038502],[27.761254300000246,41.010526900000116],[27.761231700000167,41.01147540000011],[27.761539300000038,41.01172900000029],[27.762046188000056,41.011958492000076],[27.763241911000136,41.01216630900018],[27.763825628000177,41.01209479200003],[27.763904903000082,41.01148513600003],[27.763872600000184,41.01046520000017],[27.763492500000154,41.01046860000008],[27.763486700000044,41.01024400000034],[27.764120000000048,41.01023950000018],[27.764270935000184,41.01252771000014],[27.76719236200006,41.01275608000003],[27.769156225000074,41.01262737000019],[27.77776127700014,41.01051800800013],[27.79156167500014,41.00651440300004],[27.794355308999968,41.005291237999984],[27.79848366700014,41.00418984999999],[27.79938954800008,41.0037238650001],[27.799748586000078,41.00314418000016],[27.80070346300016,41.002706046000185],[27.800906173000044,41.00267647200019],[27.80152562772753,41.002237531336675],[27.8022539160919,41.001891557827776],[27.80278660954002,41.001731388780684],[27.802938502940094,41.001778335122594],[27.803522746105784,41.00276462521896],[27.80351166952505,41.00285314118844],[27.80334410000006,41.00291720000007],[27.804030984373412,41.004472066384835],[27.803630359204476,41.004931522675975],[27.802866700000152,41.00512360000016],[27.803639200000134,41.0070303],[27.80522700000006,41.00942270000024],[27.807340600000146,41.01185140000047],[27.807936100000006,41.01243430000005],[27.80894459642809,41.01315951058319],[27.80932736012403,41.013596132462794],[27.811229800000035,41.01634850000005],[27.813761800000123,41.01950550000032],[27.81450749999999,41.02024210000019],[27.81576924858973,41.02107335653824],[27.818307062390033,41.023181668536154],[27.818930958720728,41.02410770815038],[27.81935150000004,41.025086600000066],[27.81992911778798,41.02557862919292],[27.820392200000185,41.02633309999999],[27.823461671495465,41.030252955508615],[27.824424330243914,41.03176996479499],[27.824646200000075,41.03241939999998],[27.826030200000048,41.034604500000114],[27.826280399124926,41.0339990667004],[27.826721266137838,41.0335984937837],[27.828449233515585,41.03250478299026],[27.82858426178217,41.032534597277504],[27.829899207696485,41.03383278080793],[27.82988230930215,41.03395590607062],[27.827950700000144,41.035211500000116],[27.828615900000102,41.03601270000047],[27.83064447970895,41.03632276493721],[27.83063157384163,41.036458569188994],[27.83020380000005,41.03670060000019],[27.83190960000013,41.03885320000012],[27.833287864266197,41.04016415711209],[27.8328298963022,41.04076546080853],[27.83111570000017,41.0425917],[27.831988864692562,41.042718705658444],[27.836126100000115,41.04427480000004],[27.839034000000026,41.04506010000017],[27.838572784664393,41.0456618871209],[27.837939300000073,41.04546430000005],[27.83771390000004,41.045731300000114],[27.838558125906275,41.046186096013],[27.83860405515992,41.046282768868366],[27.83771390000004,41.046815600000116],[27.83772423591597,41.046969452669885],[27.837263300000075,41.04706640000023],[27.83826931919333,41.047788570506725],[27.83851921505152,41.04811865379099],[27.838529300000175,41.04852290000031],[27.839590570512712,41.04949170685194],[27.83951640000015,41.04962320000004],[27.838658100000032,41.04941290000005],[27.83934235291281,41.04997002805254],[27.839446700000053,41.05033930000013],[27.83967419542472,41.05023484442847],[27.83979058301975,41.05031847652475],[27.83970683038291,41.05103538638991],[27.839489600000093,41.05118880000026],[27.839639800000043,41.05141940000016],[27.840029835178427,41.05134616367434],[27.84060810097975,41.05195821872633],[27.840664400000094,41.05351489999998],[27.84093626568864,41.05410700357646],[27.840852100000177,41.054578800000115],[27.84111768336828,41.05584372139015],[27.84106651341557,41.055934200426464],[27.839824097954363,41.056548023226696],[27.839092600000072,41.056318200000476],[27.837311600000135,41.05651650000004],[27.837631495374183,41.05988500394017],[27.83752080000005,41.060565499999996],[27.837563700000032,41.06100640000005],[27.837365300000158,41.06199330000004],[27.83766030000004,41.06357880000013],[27.83815920000012,41.06528160000016],[27.838281677355667,41.065428188492035],[27.838599100000124,41.066458599999976],[27.839784600000144,41.06952420000033],[27.840806131746433,41.0719096071731],[27.84095410000009,41.07341070000001],[27.841873502423084,41.07610348411305],[27.842990411172423,41.079336828836915],[27.843089100000157,41.080046700000196],[27.843216400000074,41.080337400000076],[27.843940609363813,41.08115367302241],[27.844376600000146,41.083047000000136],[27.845639200000164,41.085698100000116]]],"type":"Polygon"}},{"type":"Feature","properties":{"area_id":"TR-59-007-175855","name_tr":"Yakuplu","area_level":"neighbourhood","parent_id":"TR-59-007","endeksa_id":175855},"geometry":{"coordinates":[[[27.957195113691625,41.06484822300308],[27.956590000000233,41.06489000000005],[27.947880000000055,41.066940000000386],[27.933510000000126,41.078650000000096],[27.926930000000198,41.08496000000014],[27.919750000000136,41.09351000000038],[27.91436000000016,41.09802000000036],[27.904180000000053,41.100270000000364],[27.899990000000116,41.100270000000364],[27.894610000000114,41.09892000000036],[27.866034237400584,41.11108473783253],[27.864984700000093,41.109236800000076],[27.864042500000153,41.10550060000003],[27.863334400000156,41.10378670000051],[27.863160800000003,41.10265700000048],[27.863591900000188,41.10217790000013],[27.86419270000016,41.101725200000146],[27.8652120000001,41.1011673000005],[27.865508600000112,41.10145580000005],[27.867679600000145,41.09985760000012],[27.868902700000092,41.098596300000224],[27.870050700000036,41.09714100000025],[27.870994800000176,41.096995500000105],[27.87200330000013,41.09651040000011],[27.87453350000004,41.09381460000003],[27.876818500000127,41.09184210000058],[27.879792200000168,41.09025390000011],[27.884663300000113,41.08692050000013],[27.886908000000062,41.085661000000016],[27.887948600000186,41.084056799999985],[27.88851640000007,41.081846200000086],[27.89054040000019,41.07980410000005],[27.89217360000015,41.07792290000015],[27.895960800000182,41.0740133000005],[27.897119500000088,41.0724603000001],[27.896947800000135,41.07205590000001],[27.8962178000001,41.0719127000001],[27.89715610000013,41.07093430000015],[27.897491599999967,41.07037000000014],[27.897684000000083,41.06908480000021],[27.89794530000006,41.06859660000032],[27.89857870000003,41.0683102000001],[27.899394200000188,41.068154000000106],[27.90006020000004,41.06824590000008],[27.90050660000003,41.068677600000115],[27.901526100000012,41.068296300000156],[27.901526100000012,41.06819500000012],[27.900787100000173,41.06809140000007],[27.90067010000007,41.067834800000526],[27.900738200000035,41.067262600000106],[27.901387500000112,41.06714210000041],[27.901995000000113,41.06730670000053],[27.90236370000008,41.06767080000009],[27.902832300000114,41.06777680000016],[27.903121900000087,41.06762229999998],[27.90302950000006,41.0672682],[27.902553500000124,41.06682139999998],[27.902624800000183,41.06642010000036],[27.902852200000154,41.06582720000017],[27.903342500000065,41.065248300000064],[27.90364960000005,41.06416060000009],[27.90523840000003,41.06259680000005],[27.90520510000016,41.06225710000052],[27.904430600000182,41.06157210000015],[27.90425420000014,41.06100640000005],[27.9053593000001,41.06011650000033],[27.905194900000026,41.05982540000008],[27.903985999999975,41.05984950000027],[27.903137100000095,41.05969110000012],[27.90323490000003,41.05906479999999],[27.90383810000003,41.05833350000006],[27.90207810000004,41.0562087000003],[27.901668500000085,41.054890300000125],[27.899286700000175,41.05380620000011],[27.898342600000035,41.052463200000034],[27.899243800000193,41.051508400000046],[27.898707400000035,41.05011680000001],[27.897849100000087,41.04893549999997],[27.895059600000025,41.04686410000005],[27.894887900000015,41.04613589999997],[27.89574620000019,41.045083999999974],[27.896003700000165,41.044533800000295],[27.895209800000032,41.04393500000049],[27.892870900000105,41.04260790000046],[27.89291340000011,41.04048620000009],[27.89510750000011,41.04019750000015],[27.9138521000001,41.03887320000018],[27.91431210000013,41.03785650000026],[27.917182400000115,41.04022890000044],[27.91763300000008,41.041475100000525],[27.91763300000008,41.04252700000052],[27.91737576823357,41.04559047805344],[27.917546826321086,41.0486375436364],[27.91785358305839,41.04983536982451],[27.91853430000009,41.05095830000005],[27.919137618186937,41.05219203361946],[27.92301611345289,41.05812192521944],[27.924671200000148,41.06016510000012],[27.926108800000065,41.06220360000003],[27.926533498564766,41.06313215809229],[27.927460600000188,41.064404000000025],[27.928871950385542,41.06746168130138],[27.931885155940677,41.06672411563119],[27.93325643059609,41.06627749067337],[27.935311800000193,41.06539800000019],[27.937202400000103,41.06489740000012],[27.94072645865424,41.064356592508375],[27.94141570000005,41.06367140000066],[27.94461610000019,41.065132000000176],[27.94606316696172,41.06595496605371],[27.94735780000019,41.06540020000017],[27.948389876127294,41.06556407490922],[27.948973800000147,41.06332260000022],[27.95388280000003,41.064312400000404],[27.957237799999973,41.06474529999997],[27.957195113691625,41.06484822300308]]],"type":"Polygon"}}]}