{"type":"FeatureCollection","source_id":"endeksa","retrieved_at":null,"features":[{"type":"Feature","properties":{"area_id":"TR-54-005-61606","name_tr":"Damlık","area_level":"neighbourhood","parent_id":"TR-54-005","endeksa_id":61606},"geometry":{"coordinates":[[[30.538190061221883,40.93808003760779],[30.537510000000168,40.938200000000165],[30.536030000000096,40.938110000000506],[30.53450000000015,40.937870000000544],[30.53178000000014,40.937090000000126],[30.531500000000108,40.937150000000656],[30.530960000000164,40.93763000000058],[30.530610000000195,40.937710000000095],[30.529790000000162,40.93750000000034],[30.52939000000015,40.937620000000095],[30.52796000000012,40.93733000000009],[30.527680000000203,40.937770000000114],[30.526860000000056,40.93753000000015],[30.526410000000112,40.937150000000656],[30.526490000000138,40.936970000000144],[30.52638000000013,40.93676000000039],[30.525780000000054,40.936470000000156],[30.525480000000073,40.936840000000075],[30.52447000000018,40.937460000000044],[30.52384000000012,40.937590000000114],[30.523770000000184,40.93713000000042],[30.523610000000076,40.936910000000694],[30.522440000000074,40.93612000000019],[30.521980000000042,40.93545000000017],[30.520820000000185,40.93502000000012],[30.52007000000009,40.935050000000274],[30.519780000000083,40.93537000000009],[30.519920000000127,40.93572000000029],[30.520310000000052,40.93615000000034],[30.519270000000176,40.936310000000105],[30.518530000000055,40.93658000000039],[30.51830000000018,40.93652000000003],[30.517080000000135,40.93578000000031],[30.516220000000033,40.93580000000014],[30.51489000000015,40.936130000000105],[30.514130000000137,40.93617000000006],[30.512840000000153,40.935690000000136],[30.512330000000077,40.93563000000012],[30.511470000000145,40.9357500000001],[30.510790000000213,40.93574000000052],[30.509790000000066,40.93540000000013],[30.509580000000085,40.93513000000013],[30.508160000000203,40.93497000000008],[30.507260000000144,40.9349600000001],[30.506270000000143,40.935170000000255],[30.505743015991698,40.935473415035574],[30.50580380000008,40.93538369999999],[30.50454850000017,40.933073700000534],[30.504290999999967,40.93218210000066],[30.503679500000032,40.93067450000012],[30.503196700000046,40.93001790000011],[30.50253150000009,40.928510300000255],[30.50198430000006,40.927667200000485],[30.50143720000011,40.92720520000012],[30.500632500000165,40.92669450000011],[30.50052520000014,40.92634590000023],[30.500181899999973,40.9260946000004],[30.49996729999998,40.92569740000022],[30.49959180000019,40.92548670000019],[30.49867990000007,40.925324600000636],[30.498197100000084,40.92497600000007],[30.497885900000085,40.92488680000065],[30.497252900000092,40.925097600000186],[30.496448300000168,40.92495170000018],[30.495697200000166,40.925243500000136],[30.49489260000007,40.925146200000086],[30.49345490000013,40.92580280000004],[30.493122300000095,40.92586770000008],[30.49270390000015,40.9261352000002],[30.492360600000154,40.92572180000013],[30.491169700000057,40.9261352000002],[30.490955100000065,40.92596490000017],[30.49175980000018,40.924899000000096],[30.491969000000097,40.92476929999998],[30.492038699999966,40.92450990000037],[30.492800500000158,40.9240762],[30.494077200000106,40.92298580000039],[30.49481210000016,40.922612900000445],[30.496008400000164,40.921765800000344],[30.497328000000095,40.92034300000057],[30.497714300000098,40.9200471000006],[30.498797900000056,40.919536400000084],[30.50075590000006,40.91834870000008],[30.502333000000135,40.916654300000005],[30.502799700000025,40.916001600000186],[30.50294460000015,40.91546660000017],[30.50404080000004,40.91567230000015],[30.503959664000092,40.915917061000016],[30.504420727000138,40.91648584500001],[30.504057900000078,40.91678590000009],[30.504176941000026,40.91692819300056],[30.503992444000176,40.91711299200011],[30.504040944000053,40.917209622000485],[30.50565360000013,40.91785820000018],[30.506163722000053,40.91832728300017],[30.509572697000124,40.92005895400018],[30.51095795700013,40.92296116100022],[30.511994300000026,40.92244680000056],[30.516472169000053,40.92233468900025],[30.517355080000186,40.92221309000058],[30.51864620000009,40.923654600000305],[30.518796400000042,40.92370330000006],[30.518919800000162,40.92362630000008],[30.51893590000003,40.92347630000012],[30.518710600000077,40.92307910000011],[30.520745500000032,40.92286800000005],[30.531443882000076,40.92466163700004],[30.536370000000147,40.92347000000012],[30.53640222900009,40.92321463200017],[30.535759322000104,40.92178630000012],[30.535510926000143,40.92158518400032],[30.53625490900015,40.9215784160001],[30.54039530700004,40.922182801000474],[30.540554500000155,40.921603700000105],[30.54092000000003,40.921040000000175],[30.544095000000027,40.92244680000056],[30.544095000000027,40.92374380000058],[30.54684160000005,40.925738000000194],[30.543748100000073,40.92972970000011],[30.541455700000142,40.93074750000062],[30.540318500000183,40.931006800000034],[30.539288500000055,40.931541800000105],[30.53879500000005,40.93173630000018],[30.538365800000065,40.93178500000016],[30.535748000000012,40.93308180000014],[30.534900400000083,40.93545670000003],[30.538292105433754,40.93786712352761],[30.53832881222104,40.93799777279736],[30.538190061221883,40.93808003760779]]],"type":"Polygon"}},{"type":"Feature","properties":{"area_id":"TR-54-005-61612","name_tr":"Devlet","area_level":"neighbourhood","parent_id":"TR-54-005","endeksa_id":61612},"geometry":{"coordinates":[[[30.500063900000157,40.9510693000002],[30.49876030000013,40.95260070000006],[30.496678900000063,40.953147700000216],[30.49620690000006,40.953350300000125],[30.49491940000013,40.95449680000013],[30.494657000000075,40.95491420000036],[30.494366900000045,40.95467910000008],[30.492371300000173,40.95360960000005],[30.492264000000148,40.95220780000011],[30.492371300000173,40.95177830000006],[30.492135299999973,40.95109760000008],[30.491684700000178,40.950538500000334],[30.49107310000005,40.949979400000075],[30.490247000000068,40.94937160000006],[30.48944230000012,40.948917800000174],[30.488348000000144,40.94798590000016],[30.488197799999966,40.94784010000018],[30.488095900000076,40.947495700000104],[30.492333800000097,40.94638950000024],[30.494372200000157,40.94574930000056],[30.494517100000053,40.9452266000003],[30.495708000000036,40.94526310000015],[30.49887300000006,40.94989019999997],[30.500063900000157,40.9510693000002]]],"type":"Polygon"}},{"type":"Feature","properties":{"area_id":"TR-54-005-61611","name_tr":"Yeni","area_level":"neighbourhood","parent_id":"TR-54-005","endeksa_id":61611},"geometry":{"coordinates":[[[30.457745300000113,40.95678960000009],[30.456043500000135,40.956964100000505],[30.45577529999997,40.95703700000013],[30.455678700000192,40.9571990000004],[30.4549169,40.95690730000007],[30.453618800000072,40.95702080000058],[30.453382700000077,40.957190900000114],[30.452224000000115,40.956866800000626],[30.451623199999972,40.956542700000455],[30.450056800000084,40.95527870000018],[30.448941000000104,40.954500900000085],[30.447342400000025,40.9531396000001],[30.447117100000185,40.953253000000075],[30.446795199999997,40.953601500000104],[30.44654720000011,40.95421890000006],[30.444134500000132,40.95356900000007],[30.444102300000168,40.953366500000016],[30.443533599999967,40.95324490000007],[30.443522900000175,40.952604800000415],[30.443995000000143,40.95177830000006],[30.444960600000115,40.9509518000001],[30.446085800000105,40.95044190000016],[30.447782300000142,40.94890160000011],[30.448007600000153,40.948139900000115],[30.448790800000097,40.947888700000135],[30.45161250000018,40.946503000000064],[30.453311000000042,40.94610710000018],[30.454745300000013,40.94602490000011],[30.456075700000156,40.94619500000016],[30.458071200000063,40.94599240000042],[30.46023840000015,40.945911400000114],[30.46216960000004,40.94490650000046],[30.462877700000035,40.94501190000011],[30.464637300000106,40.945076700000186],[30.46523810000008,40.945271200000434],[30.46549560000011,40.94577360000011],[30.46622510000003,40.94614640000037],[30.466740100000038,40.94627610000009],[30.46753400000017,40.94629230000004],[30.46875710000012,40.94616260000015],[30.4691648000001,40.946211300000414],[30.46970130000011,40.946421900000075],[30.470538100000056,40.947248500000114],[30.471053100000006,40.94750780000004],[30.47259810000014,40.947264700000176],[30.473113000000126,40.947378200000685],[30.47356360000009,40.947686100000226],[30.47412150000008,40.94783200000006],[30.474829700000043,40.947848200000124],[30.475237300000174,40.94723230000034],[30.47555920000019,40.94718370000004],[30.47622440000015,40.947362000000055],[30.476546300000166,40.94755650000019],[30.4775762000001,40.94848030000003],[30.47770500000007,40.94893410000009],[30.476878900000145,40.94926630000009],[30.474475600000062,40.94968770000014],[30.473778200000083,40.949947000000066],[30.472780500000113,40.95074110000007],[30.471020900000042,40.951721599999985],[30.470452300000034,40.95194040000018],[30.467963200000156,40.95241030000017],[30.466911800000048,40.95281550000044],[30.466750800000057,40.952791200000206],[30.463403500000027,40.954452300000185],[30.45995950000014,40.95666430000006],[30.45963760000018,40.95675340000048],[30.457745300000113,40.95678960000009]]],"type":"Polygon"}},{"type":"Feature","properties":{"area_id":"TR-54-005-61608","name_tr":"İnönü","area_level":"neighbourhood","parent_id":"TR-54-005","endeksa_id":61608},"geometry":{"coordinates":[[[30.50854000000021,40.9518400000004],[30.508640000000128,40.95265000000006],[30.50804000000022,40.95336000000037],[30.507750000000215,40.954870000000255],[30.5070800000002,40.95564000000019],[30.507260000000144,40.95574000000033],[30.50665000000015,40.95655000000016],[30.506422988774318,40.956709748640606],[30.50210240000007,40.95257240000058],[30.501201100000117,40.95183910000014],[30.500063900000157,40.9510693000002],[30.49887300000006,40.94989019999997],[30.495708000000036,40.94526310000015],[30.494517100000053,40.9452266000003],[30.494372200000157,40.94574930000056],[30.492333800000097,40.94638950000024],[30.488095900000076,40.947495700000104],[30.487961800000164,40.94672990000015],[30.487457500000176,40.94634090000011],[30.487221500000032,40.94594380000012],[30.486159300000054,40.943220900000256],[30.48495770000011,40.942280800000276],[30.48523660000012,40.94139740000037],[30.485612100000083,40.94070050000062],[30.486760100000026,40.93924970000012],[30.48697470000002,40.93853650000062],[30.487983199999974,40.937620700000025],[30.488154900000154,40.93729650000034],[30.488294400000143,40.936615700000175],[30.48828360000016,40.936259100000484],[30.487983199999974,40.935732200000075],[30.487929599999973,40.93519730000003],[30.488026100000184,40.93403020000045],[30.48794030000016,40.93328450000007],[30.48714640000003,40.93095010000019],[30.48518300000012,40.92765910000003],[30.483258600000056,40.92476680000016],[30.483809700000165,40.92470040000018],[30.483262500000023,40.92320070000005],[30.484035000000176,40.92303040000053],[30.483648800000026,40.92238190000052],[30.484088600000177,40.9222603000004],[30.48341170000009,40.92116980000009],[30.48579020000011,40.9201817],[30.488518400000032,40.923259500000654],[30.489045400000123,40.92315200000064],[30.490075300000058,40.92540560000009],[30.490657600000134,40.92621080000009],[30.490955100000065,40.92596490000017],[30.491169700000057,40.9261352000002],[30.492360600000154,40.92572180000013],[30.49270390000015,40.9261352000002],[30.493122300000095,40.92586770000008],[30.49345490000013,40.92580280000004],[30.49489260000007,40.925146200000086],[30.495697200000166,40.925243500000136],[30.496448300000168,40.92495170000018],[30.497252900000092,40.925097600000186],[30.497885900000085,40.92488680000065],[30.498197100000084,40.92497600000007],[30.49867990000007,40.925324600000636],[30.49959180000019,40.92548670000019],[30.49996729999998,40.92569740000022],[30.500181899999973,40.9260946000004],[30.50052520000014,40.92634590000023],[30.500632500000165,40.92669450000011],[30.50143720000011,40.92720520000012],[30.50198430000006,40.927667200000485],[30.50253150000009,40.928510300000255],[30.503196700000046,40.93001790000011],[30.503679500000032,40.93067450000012],[30.504290999999967,40.93218210000066],[30.50454850000017,40.933073700000534],[30.50580380000008,40.93538369999999],[30.505743015991698,40.935473415035574],[30.504410000000064,40.93688000000037],[30.50349000000017,40.9380000000001],[30.504530000000045,40.93847000000045],[30.50489000000016,40.938820000000305],[30.505560000000173,40.940840000000435],[30.506120000000124,40.9419400000005],[30.505930000000035,40.944740000000536],[30.50691000000012,40.94608000000005],[30.507480000000044,40.947870000000194],[30.508310000000165,40.94872000000015],[30.507260000000144,40.949790000000576],[30.50854000000021,40.9518400000004]]],"type":"Polygon"}},{"type":"Feature","properties":{"area_id":"TR-54-005-184799","name_tr":"Akçukur","area_level":"neighbourhood","parent_id":"TR-54-005","endeksa_id":184799},"geometry":{"coordinates":[[[30.584086640000123,40.954792305000126],[30.583995600000037,40.95484120000003],[30.585036300000183,40.95612950000037],[30.58518650000019,40.95681010000055],[30.584886100000176,40.95786340000012],[30.584113600000023,40.959111200000166],[30.582611500000098,40.96047230000016],[30.581324100000188,40.961331100000166],[30.580143900000053,40.9618172000001],[30.57533740000008,40.96152560000013],[30.57297700000015,40.96178480000003],[30.569157600000153,40.96129870000033],[30.566518300000098,40.96050470000017],[30.56452270000017,40.960067200000026],[30.56308510000008,40.96003480000002],[30.562291100000095,40.96053710000001],[30.561518600000113,40.961379700000634],[30.558342900000127,40.96233580000052],[30.556390300000032,40.96285430000006],[30.55493110000009,40.96312970000048],[30.552141600000027,40.96309730000064],[30.54960960000011,40.96337280000034],[30.548383000000058,40.96333760000027],[30.54851903812431,40.96269424678246],[30.54875000000004,40.96219000000053],[30.549480000000074,40.96113000000025],[30.5492500000002,40.960760000000164],[30.549180000000092,40.960440000000176],[30.549390000000074,40.95937000000026],[30.548860000000104,40.95785000000029],[30.549180000000092,40.957200000000114],[30.549600000000055,40.956640000000334],[30.549670000000162,40.95548000000031],[30.54912000000013,40.95426000000026],[30.54909000000015,40.953600000000336],[30.548250000000053,40.953320000000076],[30.548050000000046,40.95297000000011],[30.546450000000164,40.951430000000414],[30.546290000000113,40.95114000000018],[30.54599000000013,40.949050000000454],[30.545880000000068,40.94879000000026],[30.545490000000143,40.94836000000021],[30.545050000000174,40.94743000000017],[30.54500000000013,40.94652000000019],[30.54525000000018,40.944490000000314],[30.545600000000036,40.942750000000046],[30.545390000000054,40.94181000000026],[30.543660000000102,40.94129000000004],[30.543280000000095,40.94076000000024],[30.542020000000093,40.9407300000002],[30.54135000000008,40.94095000000033],[30.539970000000153,40.94113000000027],[30.53996000000018,40.94030000000015],[30.539820000000134,40.93974000000037],[30.5394500000001,40.938950000000375],[30.538190061221883,40.93808003760779],[30.53832881222104,40.93799777279736],[30.538292105433754,40.93786712352761],[30.534900400000083,40.93545670000003],[30.535748000000012,40.93308180000014],[30.538365800000065,40.93178500000016],[30.53879500000005,40.93173630000018],[30.539288500000055,40.931541800000105],[30.540318500000183,40.931006800000034],[30.541455700000142,40.93074750000062],[30.543748100000073,40.92972970000011],[30.54684160000005,40.925738000000194],[30.544095000000027,40.92374380000058],[30.544095000000027,40.92269078200013],[30.55294137300018,40.92353398800009],[30.558464775000175,40.92524964900002],[30.559386441000186,40.92571866600019],[30.559664605000137,40.92592943800008],[30.55964582000007,40.92604744300013],[30.556488025000192,40.92616797699998],[30.556606825000074,40.92753842000013],[30.565083438000045,40.929731808999975],[30.56838705700011,40.93260763900025],[30.57186045900005,40.93650643500007],[30.572028768000052,40.936581256000125],[30.573597247000066,40.94216092900007],[30.57395648000005,40.94275543200047],[30.578381143000115,40.94692275500006],[30.580093045000183,40.94745670600025],[30.58019625899999,40.94791126800038],[30.58051845900019,40.94758939500031],[30.581155186000046,40.94778799400012],[30.579867252000042,40.950466258000574],[30.583157679000067,40.95459373600016],[30.58373500000016,40.95462590000017],[30.584086640000123,40.954792305000126]]],"type":"Polygon"}},{"type":"Feature","properties":{"area_id":"TR-54-005-139727","name_tr":"Ferizliosb","area_level":"neighbourhood","parent_id":"TR-54-005","endeksa_id":139727},"geometry":{"coordinates":[[[30.54851903812431,40.96269424678246],[30.54844000000014,40.96298000000053],[30.546680000000038,40.963200000000256],[30.54491000000013,40.96319000000017],[30.542690000000107,40.96340000000032],[30.541640000000086,40.963700000000415],[30.540620000000104,40.96421000000015],[30.540010000000052,40.964310000000296],[30.538270000000182,40.96507000000008],[30.53047000000015,40.96762000000007],[30.529170000000192,40.96842000000015],[30.528140000000064,40.969180000000506],[30.527090000000044,40.97026000000034],[30.526590000000112,40.970540000000085],[30.525700000000143,40.97077000000007],[30.524880000000167,40.970730000000174],[30.524270000000172,40.970540000000085],[30.522590000000037,40.97083000000009],[30.51786000000004,40.969710000000305],[30.516330000000096,40.969060000000525],[30.515620000000126,40.968690000000095],[30.515030000000195,40.96821000000017],[30.513790000000085,40.96780000000018],[30.512810000000172,40.96723000000031],[30.512310000000184,40.96709000000027],[30.51155000000017,40.966420000000255],[30.509800000000155,40.965190000000064],[30.50964865868133,40.96359145732015],[30.510220000000118,40.96254000000039],[30.510320000000036,40.962180000000046],[30.510350000000187,40.96124000000009],[30.51024000000018,40.96082000000018],[30.509800000000155,40.96005000000042],[30.506422988774318,40.956709748640606],[30.50665000000015,40.95655000000016],[30.507260000000144,40.95574000000033],[30.5070800000002,40.95564000000019],[30.507750000000215,40.954870000000255],[30.50804000000022,40.95336000000037],[30.508640000000128,40.95265000000006],[30.50854000000021,40.9518400000004],[30.511840000000177,40.951590000000294],[30.519620000000145,40.95051000000046],[30.523560000000032,40.95046000000059],[30.5268200000001,40.94882000000007],[30.529880000000162,40.94744000000014],[30.53293000000008,40.94687000000056],[30.54500000000013,40.94652000000019],[30.545050000000174,40.94743000000017],[30.545490000000143,40.94836000000021],[30.545880000000068,40.94879000000026],[30.54599000000013,40.949050000000454],[30.546290000000113,40.95114000000018],[30.546450000000164,40.951430000000414],[30.548050000000046,40.95297000000011],[30.548250000000053,40.953320000000076],[30.54909000000015,40.953600000000336],[30.54912000000013,40.95426000000026],[30.549670000000162,40.95548000000031],[30.549600000000055,40.956640000000334],[30.549180000000092,40.957200000000114],[30.548860000000104,40.95785000000029],[30.549390000000074,40.95937000000026],[30.549180000000092,40.960440000000176],[30.5492500000002,40.960760000000164],[30.549480000000074,40.96113000000025],[30.54875000000004,40.96219000000053],[30.54851903812431,40.96269424678246]]],"type":"Polygon"}},{"type":"Feature","properties":{"area_id":"TR-54-005-61609","name_tr":"İstiklal","area_level":"neighbourhood","parent_id":"TR-54-005","endeksa_id":61609},"geometry":{"coordinates":[[[30.50964865868133,40.96359145732015],[30.509174200000075,40.96408820000056],[30.508453800000154,40.963178300000095],[30.507338000000004,40.96287050000035],[30.5062008000001,40.96283810000051],[30.505363900000134,40.96269220000016],[30.50448420000015,40.962400600000194],[30.503561500000046,40.96272460000017],[30.50238130000008,40.96369680000015],[30.5019736000001,40.96421530000009],[30.501909200000114,40.964863500000035],[30.50090070000016,40.96386700000005],[30.49996729999998,40.96323500000017],[30.49938800000001,40.96238440000013],[30.49845460000006,40.96163900000005],[30.497692800000095,40.96089360000002],[30.49618000000015,40.958317100000045],[30.495150100000046,40.956291500000134],[30.49466730000006,40.95520980000015],[30.494657000000075,40.95491420000036],[30.49491940000013,40.95449680000013],[30.49620690000006,40.953350300000125],[30.496678900000063,40.953147700000216],[30.49876030000013,40.95260070000006],[30.500063900000157,40.9510693000002],[30.501201100000117,40.95183910000014],[30.50210240000007,40.95257240000058],[30.506422988774318,40.956709748640606],[30.509800000000155,40.96005000000042],[30.51024000000018,40.96082000000018],[30.510350000000187,40.96124000000009],[30.510320000000036,40.962180000000046],[30.510220000000118,40.96254000000039],[30.50964865868133,40.96359145732015]]],"type":"Polygon"}},{"type":"Feature","properties":{"area_id":"TR-54-005-61607","name_tr":"Değirmencik","area_level":"neighbourhood","parent_id":"TR-54-005","endeksa_id":61607},"geometry":{"coordinates":[[[30.54500000000013,40.94652000000019],[30.53293000000008,40.94687000000056],[30.529880000000162,40.94744000000014],[30.5268200000001,40.94882000000007],[30.523560000000032,40.95046000000059],[30.519620000000145,40.95051000000046],[30.511840000000177,40.951590000000294],[30.50854000000021,40.9518400000004],[30.507260000000144,40.949790000000576],[30.508310000000165,40.94872000000015],[30.507480000000044,40.947870000000194],[30.50691000000012,40.94608000000005],[30.505930000000035,40.944740000000536],[30.506120000000124,40.9419400000005],[30.505560000000173,40.940840000000435],[30.50489000000016,40.938820000000305],[30.504530000000045,40.93847000000045],[30.50349000000017,40.9380000000001],[30.504410000000064,40.93688000000037],[30.505743015991698,40.935473415035574],[30.506270000000143,40.935170000000255],[30.507260000000144,40.9349600000001],[30.508160000000203,40.93497000000008],[30.509580000000085,40.93513000000013],[30.509790000000066,40.93540000000013],[30.510790000000213,40.93574000000052],[30.511470000000145,40.9357500000001],[30.512330000000077,40.93563000000012],[30.512840000000153,40.935690000000136],[30.514130000000137,40.93617000000006],[30.51489000000015,40.936130000000105],[30.516220000000033,40.93580000000014],[30.517080000000135,40.93578000000031],[30.51830000000018,40.93652000000003],[30.518530000000055,40.93658000000039],[30.519270000000176,40.936310000000105],[30.520310000000052,40.93615000000034],[30.519920000000127,40.93572000000029],[30.519780000000083,40.93537000000009],[30.52007000000009,40.935050000000274],[30.520820000000185,40.93502000000012],[30.521980000000042,40.93545000000017],[30.522440000000074,40.93612000000019],[30.523610000000076,40.936910000000694],[30.523770000000184,40.93713000000042],[30.52384000000012,40.937590000000114],[30.52447000000018,40.937460000000044],[30.525480000000073,40.936840000000075],[30.525780000000054,40.936470000000156],[30.52638000000013,40.93676000000039],[30.526490000000138,40.936970000000144],[30.526410000000112,40.937150000000656],[30.526860000000056,40.93753000000015],[30.527680000000203,40.937770000000114],[30.52796000000012,40.93733000000009],[30.52939000000015,40.937620000000095],[30.529790000000162,40.93750000000034],[30.530610000000195,40.937710000000095],[30.530960000000164,40.93763000000058],[30.531500000000108,40.937150000000656],[30.53178000000014,40.937090000000126],[30.53450000000015,40.937870000000544],[30.536030000000096,40.938110000000506],[30.537510000000168,40.938200000000165],[30.538190061221883,40.93808003760779],[30.5394500000001,40.938950000000375],[30.539820000000134,40.93974000000037],[30.53996000000018,40.94030000000015],[30.539970000000153,40.94113000000027],[30.54135000000008,40.94095000000033],[30.542020000000093,40.9407300000002],[30.543280000000095,40.94076000000024],[30.543660000000102,40.94129000000004],[30.545390000000054,40.94181000000026],[30.545600000000036,40.942750000000046],[30.54525000000018,40.944490000000314],[30.54500000000013,40.94652000000019]]],"type":"Polygon"}},{"type":"Feature","properties":{"area_id":"TR-54-005-184809","name_tr":"Karadiken","area_level":"neighbourhood","parent_id":"TR-54-005","endeksa_id":184809},"geometry":{"coordinates":[[[30.47770500000007,40.94893410000009],[30.47755480000012,40.950019900000086],[30.477125600000136,40.95164050000005],[30.47714710000014,40.95220780000011],[30.477812300000096,40.953536600000064],[30.477050500000132,40.95420920000015],[30.477651300000105,40.95549750000066],[30.477629900000068,40.95590260000006],[30.477125600000136,40.956640000000334],[30.47714710000014,40.956866800000626],[30.477232900000104,40.95718280000011],[30.477823000000058,40.95825229999997],[30.47828430000004,40.958568300000366],[30.478681300000062,40.95897340000016],[30.4793358,40.95916790000024],[30.47973270000017,40.9589977],[30.480494500000134,40.95906260000004],[30.481417200000124,40.95870610000003],[30.481964300000072,40.958673600000054],[30.482200400000067,40.95834960000002],[30.482597300000066,40.958025500000076],[30.482897700000024,40.95757170000019],[30.48335910000003,40.95736920000013],[30.48372390000003,40.95736920000013],[30.48461440000017,40.95794440000026],[30.485258100000124,40.95804170000014],[30.485494100000096,40.95826040000014],[30.485526300000117,40.95852780000007],[30.48576230000009,40.959030100000064],[30.486009100000103,40.95910310000056],[30.486148600000092,40.9597188000007],[30.485912600000063,40.96014820000016],[30.485580000000084,40.96028600000005],[30.485290300000088,40.96064250000006],[30.48504350000013,40.96183340000016],[30.48553700000008,40.96314590000003],[30.486738700000046,40.965260400000204],[30.487157100000047,40.96563310000016],[30.48791880000016,40.965949000000194],[30.48939940000008,40.9659815],[30.49101950000005,40.965843700000505],[30.492178200000183,40.966062500000135],[30.493508600000098,40.967504500000075],[30.49423280000019,40.96803920000008],[30.494924800000035,40.96823760000018],[30.49598690000016,40.96829840000004],[30.497928800000068,40.968930300000125],[30.499860000000183,40.969116600000234],[30.501233300000138,40.970202100000165],[30.50130840000014,40.97057480000012],[30.50101880000011,40.97111750000005],[30.50032140000019,40.97119040000007],[30.500203399999975,40.9714982000001],[30.50051450000018,40.971976200000086],[30.500475800000174,40.973345000000506],[30.499355800000046,40.973061600000506],[30.49759630000011,40.97300490000043],[30.4974246000001,40.97255130000002],[30.492929200000106,40.97204910000022],[30.488337300000182,40.97127950000049],[30.48721070000005,40.970923100000164],[30.485925881000014,40.97013835700017],[30.485500682000122,40.97068279900009],[30.485440500000095,40.97253510000064],[30.484297653000112,40.972223207000184],[30.483856393000053,40.97278821500004],[30.483670135000068,40.97281950400037],[30.480749703000015,40.97130767400051],[30.480392600000073,40.97122690000003],[30.478359500000067,40.97025880000024],[30.477043294000055,40.96938896500012],[30.46952637200019,40.9654976540001],[30.462742736000052,40.96498251000048],[30.462146200000063,40.965254138000034],[30.462684600000046,40.9648959000001],[30.46223400000008,40.96430449999997],[30.462073100000055,40.96391560000012],[30.461429300000077,40.96318640000004],[30.46125770000009,40.96231960000006],[30.45965910000018,40.95955680000009],[30.459369400000185,40.95924080000009],[30.45783520000009,40.95840630000009],[30.457781500000067,40.95815510000028],[30.458017600000062,40.95770950000036],[30.457745300000113,40.95678960000009],[30.45963760000018,40.95675340000048],[30.45995950000014,40.95666430000006],[30.463403500000027,40.954452300000185],[30.466750800000057,40.952791200000206],[30.466911800000048,40.95281550000044],[30.467963200000156,40.95241030000017],[30.470452300000034,40.95194040000018],[30.471020900000042,40.951721599999985],[30.472780500000113,40.95074110000007],[30.473778200000083,40.949947000000066],[30.474475600000062,40.94968770000014],[30.476878900000145,40.94926630000009],[30.47770500000007,40.94893410000009]]],"type":"Polygon"}},{"type":"Feature","properties":{"area_id":"TR-54-005-61610","name_tr":"Kemalpaşa","area_level":"neighbourhood","parent_id":"TR-54-005","endeksa_id":61610},"geometry":{"coordinates":[[[30.501909200000114,40.964863500000035],[30.502252600000077,40.96551160000001],[30.503003600000056,40.9674397000004],[30.50416230000019,40.969756600000096],[30.504784600000164,40.97126330000003],[30.50504210000014,40.97217060000014],[30.504848900000127,40.97311030000009],[30.503883299999984,40.974681700000076],[30.502960700000074,40.975653700000066],[30.50287480000003,40.976836400000195],[30.50321820000005,40.97751679999999],[30.50195220000012,40.976650000000404],[30.501523000000134,40.97605060000001],[30.500954400000126,40.975597000000676],[30.500686200000132,40.975232500000175],[30.500578900000164,40.97482750000006],[30.500475800000174,40.973345000000506],[30.50051450000018,40.971976200000086],[30.500203399999975,40.9714982000001],[30.50032140000019,40.97119040000007],[30.50101880000011,40.97111750000005],[30.50130840000014,40.97057480000012],[30.501233300000138,40.970202100000165],[30.499860000000183,40.969116600000234],[30.497928800000068,40.968930300000125],[30.49598690000016,40.96829840000004],[30.494924800000035,40.96823760000018],[30.49423280000019,40.96803920000008],[30.493508600000098,40.967504500000075],[30.492178200000183,40.966062500000135],[30.49101950000005,40.965843700000505],[30.48939940000008,40.9659815],[30.48791880000016,40.965949000000194],[30.487157100000047,40.96563310000016],[30.486738700000046,40.965260400000204],[30.48553700000008,40.96314590000003],[30.48504350000013,40.96183340000016],[30.485290300000088,40.96064250000006],[30.485580000000084,40.96028600000005],[30.485912600000063,40.96014820000016],[30.486148600000092,40.9597188000007],[30.486009100000103,40.95910310000056],[30.48576230000009,40.959030100000064],[30.485526300000117,40.95852780000007],[30.485494100000096,40.95826040000014],[30.485258100000124,40.95804170000014],[30.48461440000017,40.95794440000026],[30.48372390000003,40.95736920000013],[30.48335910000003,40.95736920000013],[30.482897700000024,40.95757170000019],[30.482597300000066,40.958025500000076],[30.482200400000067,40.95834960000002],[30.481964300000072,40.958673600000054],[30.481417200000124,40.95870610000003],[30.480494500000134,40.95906260000004],[30.47973270000017,40.9589977],[30.4793358,40.95916790000024],[30.478681300000062,40.95897340000016],[30.47828430000004,40.958568300000366],[30.477823000000058,40.95825229999997],[30.477232900000104,40.95718280000011],[30.47714710000014,40.956866800000626],[30.477125600000136,40.956640000000334],[30.477629900000068,40.95590260000006],[30.477651300000105,40.95549750000066],[30.477050500000132,40.95420920000015],[30.477812300000096,40.953536600000064],[30.47714710000014,40.95220780000011],[30.477125600000136,40.95164050000005],[30.47755480000012,40.950019900000086],[30.47770500000007,40.94893410000009],[30.4775762000001,40.94848030000003],[30.476546300000166,40.94755650000019],[30.47622440000015,40.947362000000055],[30.47555920000019,40.94718370000004],[30.475237300000174,40.94723230000034],[30.474829700000043,40.947848200000124],[30.47412150000008,40.94783200000006],[30.47356360000009,40.947686100000226],[30.473113000000126,40.947378200000685],[30.47259810000014,40.947264700000176],[30.471053100000006,40.94750780000004],[30.470538100000056,40.947248500000114],[30.46970130000011,40.946421900000075],[30.4691648000001,40.946211300000414],[30.46875710000012,40.94616260000015],[30.46753400000017,40.94629230000004],[30.466740100000038,40.94627610000009],[30.46622510000003,40.94614640000037],[30.46549560000011,40.94577360000011],[30.46523810000008,40.945271200000434],[30.464637300000106,40.945076700000186],[30.462877700000035,40.94501190000011],[30.46216960000004,40.94490650000046],[30.46178340000006,40.944655300000136],[30.461547400000086,40.944331100000454],[30.461358200000063,40.94376710000017],[30.460978700000112,40.94348020000007],[30.459782900000107,40.94343930000002],[30.459197700000175,40.94324520000049],[30.458884400000045,40.94280910000015],[30.458478900000046,40.93933080000011],[30.45853260000007,40.93903090000032],[30.458742599999994,40.938834900000074],[30.460302800000136,40.93871480000013],[30.460732700000165,40.938483400000166],[30.460581800000114,40.93811510000057],[30.460120400000164,40.93755590000012],[30.460088200000143,40.937134400000105],[30.46017410000013,40.93684260000009],[30.46047820000007,40.93647630000015],[30.4604652000001,40.936155100000406],[30.460141900000167,40.93582140000018],[30.460002400000178,40.93542430000019],[30.459901000000116,40.93449930000054],[30.459476699999982,40.93428950000009],[30.45874710000004,40.934127400000136],[30.46073290000004,40.93353170000006],[30.461880000000065,40.93330070000013],[30.462855300000115,40.93321960000003],[30.46294210000019,40.93309000000011],[30.464924900000142,40.933275500000036],[30.466697200000056,40.93160670000066],[30.466890300000045,40.930828500000075],[30.467389500000138,40.930870000000084],[30.4718438000001,40.92800990000006],[30.47261950000012,40.9284859],[30.47375110000013,40.928660600000114],[30.47352350000017,40.927119400000095],[30.47527890000009,40.92718940000003],[30.47552700000017,40.92667830000005],[30.476167100000055,40.926532500000064],[30.476664300000152,40.92597310000065],[30.477983400000028,40.925758600000165],[30.47804410000009,40.92517760000055],[30.47845600000005,40.92462740000013],[30.47896480000003,40.92370840000012],[30.481795700000134,40.92349170000068],[30.48264030000007,40.92475710000008],[30.48318740000019,40.92465979999997],[30.48518300000012,40.92765910000003],[30.48714640000003,40.93095010000019],[30.48794030000016,40.93328450000007],[30.488026100000184,40.93403020000045],[30.487929599999973,40.93519730000003],[30.487983199999974,40.935732200000075],[30.48828360000016,40.936259100000484],[30.488294400000143,40.936615700000175],[30.488154900000154,40.93729650000034],[30.487983199999974,40.937620700000025],[30.48697470000002,40.93853650000062],[30.486760100000026,40.93924970000012],[30.485612100000083,40.94070050000062],[30.48523660000012,40.94139740000037],[30.48495770000011,40.942280800000276],[30.486159300000054,40.943220900000256],[30.487221500000032,40.94594380000012],[30.487457500000176,40.94634090000011],[30.487961800000164,40.94672990000015],[30.488095900000076,40.947495700000104],[30.488197799999966,40.94784010000018],[30.488348000000144,40.94798590000016],[30.48944230000012,40.948917800000174],[30.490247000000068,40.94937160000006],[30.49107310000005,40.949979400000075],[30.491684700000178,40.950538500000334],[30.492135299999973,40.95109760000008],[30.492371300000173,40.95177830000006],[30.492264000000148,40.95220780000011],[30.492371300000173,40.95360960000005],[30.494366900000045,40.95467910000008],[30.494657000000075,40.95491420000036],[30.49466730000006,40.95520980000015],[30.495150100000046,40.956291500000134],[30.49618000000015,40.958317100000045],[30.497692800000095,40.96089360000002],[30.49845460000006,40.96163900000005],[30.49938800000001,40.96238440000013],[30.49996729999998,40.96323500000017],[30.50090070000016,40.96386700000005],[30.501909200000114,40.964863500000035]]],"type":"Polygon"}},{"type":"Feature","properties":{"area_id":"TR-54-005-184819","name_tr":"Seyifler","area_level":"neighbourhood","parent_id":"TR-54-005","endeksa_id":184819},"geometry":{"coordinates":[[[30.51129505529127,40.98610264625461],[30.51068000000015,40.98580000000004],[30.5100300000002,40.985720000000526],[30.509560000000192,40.98588000000029],[30.50541000000004,40.9863000000002],[30.50439000000017,40.9864800000002],[30.504250000000127,40.986430000000325],[30.50235000000015,40.987050000000295],[30.50213000000008,40.98762000000016],[30.50077000000016,40.98799000000008],[30.49915235889324,40.987889882055356],[30.49929936000018,40.98784869800011],[30.4977850680001,40.98548946000028],[30.487511204000043,40.982353074000116],[30.480926677000127,40.976816745000065],[30.480907525000134,40.976699950000125],[30.483102212000063,40.973747476000085],[30.485029716000042,40.97363296999998],[30.484999172000187,40.97350945800008],[30.483869747000085,40.97292141700018],[30.483856393000053,40.97278821500004],[30.484297653000112,40.972223207000184],[30.485440500000095,40.97253510000064],[30.485500682000122,40.97068279900009],[30.485925881000014,40.97013835700017],[30.48721070000005,40.970923100000164],[30.488337300000182,40.97127950000049],[30.492929200000106,40.97204910000022],[30.4974246000001,40.97255130000002],[30.49759630000011,40.97300490000043],[30.499355800000046,40.973061600000506],[30.500475800000174,40.973345000000506],[30.500578900000164,40.97482750000006],[30.500686200000132,40.975232500000175],[30.500954400000126,40.975597000000676],[30.501523000000134,40.97605060000001],[30.50195220000012,40.976650000000404],[30.50321820000005,40.97751679999999],[30.504441200000144,40.97845630000029],[30.50523520000013,40.978780300000096],[30.510470800000064,40.97934730000014],[30.51109310000004,40.97965510000017],[30.511522300000024,40.98015729999997],[30.511693900000182,40.98085380000009],[30.51145790000004,40.98193920000034],[30.51162960000005,40.98308930000064],[30.511608100000046,40.984644300000696],[30.51129505529127,40.98610264625461]]],"type":"Polygon"}},{"type":"Feature","properties":{"area_id":"TR-54-005-184805","name_tr":"Osmanağa Çiftliği","area_level":"neighbourhood","parent_id":"TR-54-005","endeksa_id":184805},"geometry":{"coordinates":[[[30.51430636086951,40.99604566454934],[30.512430000000165,40.99619000000013],[30.512000000000114,40.9959300000001],[30.511600000000044,40.99516000000017],[30.51040000000006,40.995450000000176],[30.50900000000007,40.99544000000043],[30.509050000000116,40.99600000000004],[30.509170000000097,40.996070000000145],[30.5073000000001,40.99835000000036],[30.50665000000015,40.99860000000041],[30.50572000000011,40.998800000000074],[30.50563000000011,40.999070000000245],[30.505280000000084,40.99909000000008],[30.503910000000076,40.99998000000022],[30.502920000000074,41.00045000000017],[30.500660000000096,41.00191000000018],[30.500070000000164,41.00233000000014],[30.499450000000195,41.00304000000028],[30.49962000000005,41.00312000000065],[30.49880592983675,41.00369772721285],[30.498235717660464,41.00444052076239],[30.498235847869864,41.00431428483313],[30.498091732786463,41.004251252474035],[30.49776000000014,41.00444000000044],[30.496220000000108,41.00162000000017],[30.496070000000145,41.00011000000029],[30.49587000000008,40.9995700000004],[30.495140000000106,40.99860000000041],[30.4946700000001,40.99756000000036],[30.494560000000035,40.99648000000036],[30.49402000000015,40.99532000000045],[30.492820000000165,40.99343000000039],[30.49255171267589,40.99239146842217],[30.492110000000196,40.98986000000059],[30.493540000000053,40.98954000000026],[30.49439000000018,40.98886000000027],[30.496100000000126,40.98905000000036],[30.497460000000217,40.98865000000012],[30.497900000000186,40.98843000000022],[30.498120000000085,40.98821000000049],[30.49882000000008,40.98811000000006],[30.49915235889324,40.987889882055356],[30.50077000000016,40.98799000000008],[30.50213000000008,40.98762000000016],[30.50235000000015,40.987050000000295],[30.504250000000127,40.986430000000325],[30.50439000000017,40.9864800000002],[30.50541000000004,40.9863000000002],[30.509560000000192,40.98588000000029],[30.5100300000002,40.985720000000526],[30.51068000000015,40.98580000000004],[30.51129505529127,40.98610264625461],[30.511140000000182,40.98704000000032],[30.51195000000007,40.98803000000015],[30.512490000000184,40.98969000000005],[30.512980000000027,40.99054000000018],[30.51334000000014,40.991420000000346],[30.513160000000198,40.99315000000013],[30.51366000000013,40.99482000000029],[30.514380000000244,40.996040000000335],[30.51430636086951,40.99604566454934]]],"type":"Polygon"}},{"type":"Feature","properties":{"area_id":"TR-54-005-184823","name_tr":"Tokat","area_level":"neighbourhood","parent_id":"TR-54-005","endeksa_id":184823},"geometry":{"coordinates":[[[30.49255171267589,40.99239146842217],[30.492319088983663,40.99230114006809],[30.486581778000016,40.99443869200036],[30.486991010000168,40.996506757000134],[30.48100414100014,40.992493805000095],[30.4711442520001,40.99367510100018],[30.47098087800009,40.99353039700026],[30.470770906000098,40.99355242400003],[30.470859908000193,40.993056057000445],[30.470487753000043,40.983824372000356],[30.470561154000166,40.983657757000515],[30.47593075200018,40.98199056900006],[30.475955368000086,40.98032346100018],[30.475805245000004,40.980297852000604],[30.47449624500007,40.980808689000185],[30.47309498000004,40.979688949000035],[30.473108944000103,40.979550829000345],[30.480773597000052,40.97679354000002],[30.480926677000127,40.976816745000065],[30.487511204000043,40.982353074000116],[30.4977850680001,40.98548946000028],[30.49929936000018,40.98784869800011],[30.49915235889324,40.987889882055356],[30.49882000000008,40.98811000000006],[30.498120000000085,40.98821000000049],[30.497900000000186,40.98843000000022],[30.497460000000217,40.98865000000012],[30.496100000000126,40.98905000000036],[30.49439000000018,40.98886000000027],[30.493540000000053,40.98954000000026],[30.492110000000196,40.98986000000059],[30.49255171267589,40.99239146842217]]],"type":"Polygon"}},{"type":"Feature","properties":{"area_id":"TR-54-005-184795","name_tr":"Sinanoğlu","area_level":"neighbourhood","parent_id":"TR-54-005","endeksa_id":184795},"geometry":{"coordinates":[[[30.55103660000009,40.991487600000255],[30.549824200000103,40.99253229999999],[30.549931500000127,40.993074900000124],[30.549491600000124,40.993625500000576],[30.54795740000003,40.99497790000021],[30.545822400000134,40.99616010000068],[30.544609999999977,40.99752860000058],[30.542174600000124,40.99662980000011],[30.54062960000016,40.99557710000005],[30.539642600000036,40.994799700000385],[30.53888410000019,40.99359870000012],[30.538591429000178,40.99379984700016],[30.537594979000175,40.99360347600003],[30.537463360000004,40.99364997800029],[30.537466414000107,40.99375639900012],[30.534132720000116,40.98998878400005],[30.526415879000183,40.98757707100026],[30.526215393000086,40.987326454000026],[30.526207272000022,40.987425964000636],[30.526090052000086,40.987469766000174],[30.525454108000076,40.987275928000145],[30.52570580000014,40.990523900000085],[30.525169400000152,40.99175490000016],[30.524868900000172,40.99284000000006],[30.524525600000175,40.99350410000011],[30.52295920000006,40.99496170000015],[30.519096800000057,40.99654879999997],[30.517251500000157,40.99703470000003],[30.516189943000143,40.99703470000003],[30.51615990100015,40.99716516600017],[30.515924682000104,40.99702309800017],[30.51532030000004,40.99698610000013],[30.51463360000008,40.99646780000006],[30.514566337000076,40.996202685000014],[30.51430636086951,40.99604566454934],[30.514380000000244,40.996040000000335],[30.51366000000013,40.99482000000029],[30.513160000000198,40.99315000000013],[30.51334000000014,40.991420000000346],[30.512980000000027,40.99054000000018],[30.512490000000184,40.98969000000005],[30.51195000000007,40.98803000000015],[30.511140000000182,40.98704000000032],[30.51129505529127,40.98610264625461],[30.511608100000046,40.984644300000696],[30.51162960000005,40.98308930000064],[30.51145790000004,40.98193920000034],[30.511693900000182,40.98085380000009],[30.511522300000024,40.98015729999997],[30.51109310000004,40.97965510000017],[30.510470800000064,40.97934730000014],[30.50523520000013,40.978780300000096],[30.504441200000144,40.97845630000029],[30.50321820000005,40.97751679999999],[30.50287480000003,40.976836400000195],[30.502960700000074,40.975653700000066],[30.503883299999984,40.974681700000076],[30.504848900000127,40.97311030000009],[30.50504210000014,40.97217060000014],[30.504784600000164,40.97126330000003],[30.50416230000019,40.969756600000096],[30.503003600000056,40.9674397000004],[30.502252600000077,40.96551160000001],[30.501909200000114,40.964863500000035],[30.5019736000001,40.96421530000009],[30.50238130000008,40.96369680000015],[30.503561500000046,40.96272460000017],[30.50448420000015,40.962400600000194],[30.505363900000134,40.96269220000016],[30.5062008000001,40.96283810000051],[30.507338000000004,40.96287050000035],[30.508453800000154,40.963178300000095],[30.509174200000075,40.96408820000056],[30.50964865868133,40.96359145732015],[30.509800000000155,40.965190000000064],[30.51155000000017,40.966420000000255],[30.512310000000184,40.96709000000027],[30.512810000000172,40.96723000000031],[30.513790000000085,40.96780000000018],[30.515030000000195,40.96821000000017],[30.515620000000126,40.968690000000095],[30.516330000000096,40.969060000000525],[30.51786000000004,40.969710000000305],[30.522590000000037,40.97083000000009],[30.524270000000172,40.970540000000085],[30.524880000000167,40.970730000000174],[30.525700000000143,40.97077000000007],[30.526590000000112,40.970540000000085],[30.527090000000044,40.97026000000034],[30.528140000000064,40.969180000000506],[30.529170000000192,40.96842000000015],[30.53047000000015,40.96762000000007],[30.538270000000182,40.96507000000008],[30.540010000000052,40.964310000000296],[30.540620000000104,40.96421000000015],[30.541640000000086,40.963700000000415],[30.542690000000107,40.96340000000032],[30.54491000000013,40.96319000000017],[30.546680000000038,40.963200000000256],[30.54844000000014,40.96298000000053],[30.54851903812431,40.96269424678246],[30.548383000000058,40.96333760000027],[30.54960960000011,40.96337280000034],[30.552141600000027,40.96309730000064],[30.55493110000009,40.96312970000048],[30.556390300000032,40.96285430000006],[30.558342900000127,40.96233580000052],[30.561518600000113,40.961379700000634],[30.562291100000095,40.96053710000001],[30.56308510000008,40.96003480000002],[30.56452270000017,40.960067200000026],[30.566518300000098,40.96050470000017],[30.569157600000153,40.96129870000033],[30.57297700000015,40.96178480000003],[30.57533740000008,40.96152560000013],[30.580143900000053,40.9618172000001],[30.581324100000188,40.961331100000166],[30.582611500000098,40.96047230000016],[30.584113600000023,40.959111200000166],[30.584886100000176,40.95786340000012],[30.58518650000019,40.95681010000055],[30.585036300000183,40.95612950000037],[30.583995600000037,40.95484120000003],[30.584408056000086,40.95461968000018],[30.585006083000053,40.95387330300048],[30.585046999999975,40.9534637000001],[30.58567550000015,40.95323970000004],[30.586109200000124,40.95497080000007],[30.588061800000048,40.95549750000066],[30.589059599999985,40.95600800000011],[30.589467299999967,40.95634830000017],[30.591055100000062,40.95672100000013],[30.591419900000062,40.95693970000008],[30.59176320000006,40.957344900000066],[30.592052900000056,40.958382000000086],[30.59151650000007,40.95969450000047],[30.591441400000065,40.960083400000315],[30.591623800000093,40.961331100000166],[30.59151650000007,40.96166330000011],[30.590969300000097,40.96222230000018],[30.590904900000112,40.96290290000019],[30.591087300000083,40.96397230000002],[30.59101220000008,40.964628500000174],[30.59120530000007,40.964952600000174],[30.591988600000036,40.96573030000036],[30.591269700000055,40.96607060000008],[30.589563800000178,40.966483700000026],[30.58607700000016,40.96777990000015],[30.585229400000173,40.967796100000044],[30.584778800000038,40.967536900000084],[30.584542700000043,40.967577400000096],[30.583963400000073,40.96744780000017],[30.58357710000007,40.96771510000008],[30.57674290000017,40.96803920000008],[30.576313700000185,40.968120200000214],[30.576195700000028,40.96821740000007],[30.575766600000065,40.96823360000036],[30.57407140000015,40.96748020000001],[30.573502800000142,40.96758550000038],[30.57315940000018,40.967520700000705],[30.571925600000043,40.9680230000007],[30.57183980000002,40.968533300000104],[30.573298900000168,40.96897080000025],[30.57277320000003,40.971457700000315],[30.57221530000004,40.97157110000046],[30.571228300000087,40.971611600000074],[30.570327000000134,40.97114180000011],[30.569962300000157,40.97103650000014],[30.569618900000137,40.97106890000015],[30.568803500000172,40.97175750000025],[30.56813840000001,40.971951900000704],[30.567215700000077,40.971903300000236],[30.5665934000001,40.97302109999998],[30.56637880000011,40.97360440000011],[30.56636810000009,40.97409850000014],[30.56529520000015,40.97503000000012],[30.565316700000153,40.97532970000009],[30.565166500000146,40.9755403000006],[30.563621500000067,40.97583190000057],[30.563213800000085,40.97611540000008],[30.563256700000068,40.976512300000024],[30.56294560000009,40.977192700000046],[30.56187270000015,40.978083700000184],[30.56088569999997,40.979420200000106],[30.560027400000024,40.980214000000046],[30.559952200000055,40.98043270000039],[30.558589700000084,40.98150180000039],[30.558439500000077,40.982279300000414],[30.558471700000098,40.98302450000011],[30.557956700000148,40.98302450000011],[30.557935200000145,40.98474150000021],[30.55603620000005,40.985745700000166],[30.555521200000044,40.98752750000051],[30.55547830000006,40.9879648000001],[30.55399770000014,40.990596800000446],[30.551519400000075,40.99051580000014],[30.55103660000009,40.991487600000255]]],"type":"Polygon"}},{"type":"Feature","properties":{"area_id":"TR-54-005-184807","name_tr":"Doğancı","area_level":"neighbourhood","parent_id":"TR-54-005","endeksa_id":184807},"geometry":{"coordinates":[[[30.436449663000133,41.00229143400048],[30.43635016600018,41.00239286599998],[30.436200918000054,41.00233901399997],[30.433477230000165,40.99738921900018],[30.427199834000135,40.997778213000174],[30.426060608000057,40.99598728500018],[30.428549449000172,40.992442390000065],[30.42917925100005,40.9893968560001],[30.427628894000122,40.986407246],[30.427732306000166,40.986275416000296],[30.432268400000112,40.986110200000155],[30.434564300000034,40.986158800000055],[30.435251000000164,40.986037300000135],[30.435690900000168,40.98586720000009],[30.436173700000154,40.9854866000004],[30.437278700000093,40.984158300000274],[30.438190700000064,40.98291110000014],[30.438770000000034,40.98195540000012],[30.438748599999997,40.98157470000001],[30.43925280000019,40.98100770000036],[30.444241800000157,40.978172800000095],[30.449080500000093,40.973798800000395],[30.457760100000087,40.96807970000009],[30.45979860000017,40.96665390000004],[30.462146200000063,40.965254138000034],[30.462742736000052,40.96498251000048],[30.46952637200019,40.9654976540001],[30.477043294000055,40.96938896500012],[30.478359500000067,40.97025880000024],[30.480392600000073,40.97122690000003],[30.480749703000015,40.97130767400051],[30.483670135000068,40.97281950400037],[30.483856393000053,40.97278821500004],[30.483869747000085,40.97292141700018],[30.484999172000187,40.97350945800008],[30.485029716000042,40.97363296999998],[30.483102212000063,40.973747476000085],[30.480907525000134,40.976699950000125],[30.480926677000127,40.976816745000065],[30.480773597000052,40.97679354000002],[30.473108944000103,40.979550829000345],[30.47309498000004,40.979688949000035],[30.47449624500007,40.980808689000185],[30.475805245000004,40.980297852000604],[30.475955368000086,40.98032346100018],[30.47593075200018,40.98199056900006],[30.470561154000166,40.983657757000515],[30.470487753000043,40.983824372000356],[30.470312370000045,40.98373347800015],[30.465708444000143,40.985144337000236],[30.462906795000038,40.989569693000135],[30.45140202500005,40.99080440000057],[30.44886760600008,40.99424981700008],[30.437787966000144,40.99858503200005],[30.43633705200017,41.00057627100006],[30.436449663000133,41.00229143400048]]],"type":"Polygon"}},{"type":"Feature","properties":{"area_id":"TR-54-005-184821","name_tr":"Teberik","area_level":"neighbourhood","parent_id":"TR-54-005","endeksa_id":184821},"geometry":{"coordinates":[[[30.48044457100019,41.01606059900013],[30.47684409200008,41.01678645700014],[30.476715304000095,41.01670460700012],[30.476479802000142,41.01359267300006],[30.478652953999983,41.012025278000465],[30.475594605000026,41.01005238200014],[30.47555790000007,41.00994403400057],[30.476606934000188,41.0080598780001],[30.47840643900014,41.00805569900001],[30.47851754700008,41.00799677100048],[30.477648490000036,41.00584004700005],[30.48102243800014,41.00250626200017],[30.481598541000096,40.99932290500027],[30.48628697000015,40.99928415599999],[30.486473050000086,40.996202482000456],[30.48626967900003,40.9960210590001],[30.486991010000168,40.996506757000134],[30.486581778000016,40.99443869200036],[30.492319088983663,40.99230114006809],[30.49255171267589,40.99239146842217],[30.492820000000165,40.99343000000039],[30.49402000000015,40.99532000000045],[30.494560000000035,40.99648000000036],[30.4946700000001,40.99756000000036],[30.495140000000106,40.99860000000041],[30.49587000000008,40.9995700000004],[30.496070000000145,41.00011000000029],[30.496220000000108,41.00162000000017],[30.49776000000014,41.00444000000044],[30.498091732786463,41.004251252474035],[30.498235847869864,41.00431428483313],[30.498235717660464,41.00444052076239],[30.497456367000154,41.005455751000056],[30.491877024000132,41.0062497560001],[30.49182805000015,41.00635147800017],[30.492418388000146,41.00885434800011],[30.481074055000022,41.01481660000013],[30.48044457100019,41.01606059900013]]],"type":"Polygon"}},{"type":"Feature","properties":{"area_id":"TR-54-005-184825","name_tr":"Hocaoğlu","area_level":"neighbourhood","parent_id":"TR-54-005","endeksa_id":184825},"geometry":{"coordinates":[[[30.4374741802946,41.00821436263726],[30.437391621000074,41.01011666100055],[30.43744697300008,41.01051425300005],[30.431955090000145,41.01405044400019],[30.430984857000055,41.01423688800031],[30.430647233000002,41.01460270000001],[30.430397096000036,41.01505362800003],[30.426637750000168,41.01747424900003],[30.42585468200008,41.01385668000012],[30.426269998000123,41.012990303000095],[30.42635746300016,41.01199658700017],[30.426029383000014,41.01138661900029],[30.425196366000137,41.01081543400005],[30.425007049000158,41.00994084100057],[30.426348354000027,41.007724681000525],[30.42518652800004,41.006677085000035],[30.424256762000027,41.00558787700015],[30.423743300000126,41.00542521100016],[30.419645383000102,41.00187062500004],[30.41907620799998,41.001833937000015],[30.41812196400008,41.00134078100007],[30.417414817999997,40.99941415300003],[30.417391820999967,40.9990953950001],[30.417107012000145,40.99722561200019],[30.417106381000167,40.99482889200067],[30.421754925000016,40.99166696399999],[30.42212561000008,40.989978968000116],[30.42476514300006,40.991038068000364],[30.424319433000107,40.98608486300043],[30.423917379996794,40.98595627296868],[30.424078027862265,40.985897552224856],[30.42408437644957,40.98588032066891],[30.424135900000124,40.986004900000296],[30.42549850000006,40.98633700000005],[30.427732306000166,40.986275416000296],[30.427628894000122,40.986407246],[30.42917925100005,40.9893968560001],[30.428549449000172,40.992442390000065],[30.426060608000057,40.99598728500018],[30.427199834000135,40.997778213000174],[30.433477230000165,40.99738921900018],[30.436200918000054,41.00233901399997],[30.43635016600018,41.00239286599998],[30.436449663000133,41.00229143400048],[30.436826829999973,41.00763292200048],[30.4374741802946,41.00821436263726]]],"type":"Polygon"}},{"type":"Feature","properties":{"area_id":"TR-54-005-184811","name_tr":"Abdürrezzak","area_level":"neighbourhood","parent_id":"TR-54-005","endeksa_id":184811},"geometry":{"coordinates":[[[30.476661156000034,41.01599845900017],[30.476589821999994,41.01609239999999],[30.475585220000028,41.01642314600019],[30.472236612000074,41.01428103100068],[30.470488927000133,41.01400689900038],[30.469852619000108,41.01855656600014],[30.464173348000088,41.02027468500046],[30.463641803000087,41.020713179000325],[30.46350729800008,41.020699772],[30.463460365000174,41.02060523],[30.4635184980001,41.02035870900016],[30.463461850000044,41.020277131000114],[30.455529887000182,41.016630261000046],[30.454051319000087,41.01722997800016],[30.445308099000158,41.01449673000013],[30.44526023500009,41.01436142400013],[30.446754161000115,41.012677214000405],[30.446736503000068,41.01255775800047],[30.445476855000095,41.01197539600042],[30.442629063000027,41.012370891000046],[30.4374741802946,41.00821436263726],[30.436826829999973,41.00763292200048],[30.436449663000133,41.00229143400048],[30.43633705200017,41.00057627100006],[30.437787966000144,40.99858503200005],[30.44886760600008,40.99424981700008],[30.45140202500005,40.99080440000057],[30.462906795000038,40.989569693000135],[30.465708444000143,40.985144337000236],[30.470312370000045,40.98373347800015],[30.470487753000043,40.983824372000356],[30.470859908000193,40.993056057000445],[30.470770906000098,40.99355242400003],[30.47098087800009,40.99353039700026],[30.4711442520001,40.99367510100018],[30.48100414100014,40.992493805000095],[30.48626967900003,40.9960210590001],[30.486473050000086,40.996202482000456],[30.48628697000015,40.99928415599999],[30.481598541000096,40.99932290500027],[30.48102243800014,41.00250626200017],[30.477648490000036,41.00584004700005],[30.47851754700008,41.00799677100048],[30.47840643900014,41.00805569900001],[30.476606934000188,41.0080598780001],[30.47555790000007,41.00994403400057],[30.475594605000026,41.01005238200014],[30.478652953999983,41.012025278000465],[30.476479802000142,41.01359267300006],[30.476661156000034,41.01599845900017]]],"type":"Polygon"}},{"type":"Feature","properties":{"area_id":"TR-54-005-184797","name_tr":"Ağacık","area_level":"neighbourhood","parent_id":"TR-54-005","endeksa_id":184797},"geometry":{"coordinates":[[[30.525342694000074,41.02406098900002],[30.523734915000034,41.0234163180001],[30.51837835800012,41.02497185100026],[30.516244140000083,41.025280572000156],[30.511805388000028,41.02875854200016],[30.511698284000033,41.028637064000065],[30.512644935000083,41.02596050200026],[30.51252274900014,41.02585952500016],[30.512102380000044,41.025935685000604],[30.50590698900004,41.030879514000105],[30.49998961400007,41.03165596500014],[30.493201384000088,41.034120500000085],[30.49306367700018,41.034106065],[30.492992080000192,41.033985718999986],[30.492806938000115,41.03354901200055],[30.488594035000176,41.02804083100017],[30.488133109000046,41.02799150400011],[30.48720831999998,41.02489006200051],[30.48483662800004,41.024841030000175],[30.48059131100007,41.02099085500021],[30.481112286000098,41.016409378000105],[30.48044457100019,41.01606059900013],[30.481074055000022,41.01481660000013],[30.492418388000146,41.00885434800011],[30.49182805000015,41.00635147800017],[30.491877024000132,41.0062497560001],[30.497456367000154,41.005455751000056],[30.49880592983675,41.00369772721285],[30.49962000000005,41.00312000000065],[30.499450000000195,41.00304000000028],[30.500070000000164,41.00233000000014],[30.500660000000096,41.00191000000018],[30.502920000000074,41.00045000000017],[30.503910000000076,40.99998000000022],[30.505280000000084,40.99909000000008],[30.50563000000011,40.999070000000245],[30.50572000000011,40.998800000000074],[30.50665000000015,40.99860000000041],[30.5073000000001,40.99835000000036],[30.509170000000097,40.996070000000145],[30.509050000000116,40.99600000000004],[30.50900000000007,40.99544000000043],[30.51040000000006,40.995450000000176],[30.511600000000044,40.99516000000017],[30.512000000000114,40.9959300000001],[30.512430000000165,40.99619000000013],[30.51430636086951,40.99604566454934],[30.514566337000076,40.996202685000014],[30.51463360000008,40.99646780000006],[30.51532030000004,40.99698610000013],[30.515924682000104,40.99702309800017],[30.51615990100015,40.99716516600017],[30.516189943000143,40.99703470000003],[30.517251500000157,40.99703470000003],[30.519096800000057,40.99654879999997],[30.52295920000006,40.99496170000015],[30.524525600000175,40.99350410000011],[30.524868900000172,40.99284000000006],[30.525169400000152,40.99175490000016],[30.52570580000014,40.990523900000085],[30.525454108000076,40.987275928000145],[30.526090052000086,40.987469766000174],[30.526207272000022,40.987425964000636],[30.526215393000086,40.987326454000026],[30.526415879000183,40.98757707100026],[30.534132720000116,40.98998878400005],[30.537466414000107,40.99375639900012],[30.53749529600003,40.99388796500017],[30.53392819100003,40.998615229000336],[30.531150324000123,41.00948787500022],[30.531008594000127,41.00954986100055],[30.53046024200006,41.00945651000001],[30.530027400000108,41.0092039000001],[30.529967313000043,41.00937259500063],[30.529689513000108,41.00932530300008],[30.52824126000013,41.011492246000046],[30.528668683000035,41.01232001300025],[30.528544700000168,41.012400700000114],[30.52881607800009,41.01260546400033],[30.52955278899998,41.01403221099997],[30.529470242000173,41.01448753800008],[30.529165000000148,41.01493510000017],[30.528983400000072,41.0154488000004],[30.529283942000063,41.0155151670001],[30.52839314900018,41.02042877700006],[30.52571716799997,41.023619182000516],[30.525382500000035,41.02364510000035],[30.525170700000047,41.02390760000003],[30.525342694000074,41.02406098900002]]],"type":"Polygon"}},{"type":"Feature","properties":{"area_id":"TR-54-005-184813","name_tr":"Kusca","area_level":"neighbourhood","parent_id":"TR-54-005","endeksa_id":184813},"geometry":{"coordinates":[[[30.493000727000094,41.04328290800004],[30.492875326000103,41.04333718100014],[30.492761972000153,41.04327426100008],[30.492926489000183,41.04273613400005],[30.49001936100018,41.03766881900009],[30.490315999000188,41.03722554900037],[30.489696590000165,41.03539308400036],[30.492931653000085,41.034101749],[30.492992080000192,41.033985718999986],[30.49306367700018,41.034106065],[30.493201384000088,41.034120500000085],[30.49998961400007,41.03165596500014],[30.50590698900004,41.030879514000105],[30.512102380000044,41.025935685000604],[30.51252274900014,41.02585952500016],[30.512644935000083,41.02596050200026],[30.511698284000033,41.028637064000065],[30.511805388000028,41.02875854200016],[30.516244140000083,41.025280572000156],[30.51837835800012,41.02497185100026],[30.523734915000034,41.0234163180001],[30.525342694000074,41.02406098900002],[30.525760700000035,41.02440990000002],[30.525806100000068,41.0246039000001],[30.526335700000175,41.02491210000005],[30.527031700000066,41.025071900000455],[30.527243500000168,41.02519750000005],[30.527409900000066,41.025528500000064],[30.527984900000035,41.02543720000011],[30.528196700000137,41.025802400000146],[30.528378200000077,41.025870900000484],[30.52859010000003,41.025802400000146],[30.529074200000082,41.02600790000008],[30.529815600000177,41.02559700000006],[30.529936600000042,41.0256883000003],[30.52999710000006,41.02592800000059],[30.53034510000009,41.02613339999999],[30.531010900000126,41.026259000000266],[30.531423812000185,41.026181086000065],[30.532764700000087,41.02743739200042],[30.533247832000086,41.027654599000186],[30.533416500000044,41.02786840000056],[30.534067100000016,41.028130900000065],[30.53627610000001,41.02834780000006],[30.537441100000137,41.02859890000025],[30.537419256000135,41.028346246000126],[30.542818943000043,41.02868381000019],[30.54306950000006,41.02887279999999],[30.544431200000133,41.029283700000065],[30.545384400000103,41.02904400000011],[30.5458534,41.02911250000011],[30.546221756000136,41.02889653900013],[30.54626434300019,41.02898819000012],[30.545662882000045,41.03139086400017],[30.54576260000016,41.031634900000086],[30.545911434000004,41.03174177200009],[30.547364716000175,41.03379352900026],[30.547774057000026,41.033705779000286],[30.548319600000127,41.03389470000019],[30.548743200000047,41.034419700000115],[30.54885879600016,41.03466287300006],[30.548340667000048,41.03565282900013],[30.551492004000067,41.03844535300004],[30.551512344000173,41.038549652000086],[30.551395902000138,41.03860879200033],[30.52620847700007,41.039083031000075],[30.52185817600008,41.041551342000616],[30.51597356600007,41.041153753000174],[30.51270995400006,41.040098994000175],[30.51123149900002,41.039772567000114],[30.50809878900003,41.038859234000086],[30.50021955400007,41.039238906000094],[30.49893215400016,41.03886930200002],[30.49881811900002,41.0389484210001],[30.498810100000185,41.039291402000174],[30.49752626300011,41.039380248000214],[30.494236268000122,41.04143755900003],[30.493000727000094,41.04328290800004]]],"type":"Polygon"}},{"type":"Feature","properties":{"area_id":"TR-54-005-184817","name_tr":"Sarıahmetler","area_level":"neighbourhood","parent_id":"TR-54-005","endeksa_id":184817},"geometry":{"coordinates":[[[30.449784656000077,41.04073016100011],[30.444487140000035,41.04185236000012],[30.4392603217006,41.04662095735017],[30.438733799000147,41.04562245300008],[30.437632361000112,41.04406596400031],[30.433268684000097,41.03896670500001],[30.43281467600019,41.038571931000035],[30.429991373999997,41.038889858000175],[30.431501743000183,41.03790414800011],[30.427331469000137,41.03391756200017],[30.42726034399999,41.03374225800019],[30.426890991000107,41.02686513300006],[30.428570574000048,41.0244852670005],[30.42788704500009,41.02373815600009],[30.42691628200015,41.02284577600011],[30.42680725100007,41.02286239400007],[30.42686868100003,41.02283190500066],[30.426456169000176,41.01808737300013],[30.42675606800003,41.01802084800005],[30.426637750000168,41.01747424900003],[30.430397096000036,41.01505362800003],[30.430647233000002,41.01460270000001],[30.430984857000055,41.01423688800031],[30.431955090000145,41.01405044400019],[30.43744697300008,41.01051425300005],[30.437391621000074,41.01011666100055],[30.4374741802946,41.00821436263726],[30.442629063000027,41.012370891000046],[30.445476855000095,41.01197539600042],[30.446736503000068,41.01255775800047],[30.446754161000115,41.012677214000405],[30.44526023500009,41.01436142400013],[30.445308099000158,41.01449673000013],[30.454051319000087,41.01722997800016],[30.455529887000182,41.016630261000046],[30.463461850000044,41.020277131000114],[30.4635184980001,41.02035870900016],[30.463460365000174,41.02060523],[30.463321819999976,41.02097314700052],[30.455787522000094,41.02374510600009],[30.457393374000105,41.02569629200025],[30.456658415000163,41.027119351000124],[30.457058595000035,41.02713063200008],[30.45707295400007,41.02724059400066],[30.457154342000024,41.027203045000306],[30.45712958600012,41.02739506200015],[30.456969173000118,41.027406269000096],[30.458043124000028,41.02988680700014],[30.449784656000077,41.04073016100011]]],"type":"Polygon"}},{"type":"Feature","properties":{"area_id":"TR-54-005-184815","name_tr":"Nalköy","area_level":"neighbourhood","parent_id":"TR-54-005","endeksa_id":184815},"geometry":{"coordinates":[[[30.49288257400019,41.04747608500014],[30.49071123800013,41.046869877000404],[30.4867111100001,41.05037292900016],[30.48687939900003,41.05303666200007],[30.481165373000124,41.05502449300013],[30.481178471000135,41.05508617400017],[30.48064461600012,41.05527818200022],[30.48154042300007,41.05717204600006],[30.476814227000034,41.058540915000265],[30.472206323000137,41.0573239470001],[30.471326679000185,41.05707358300003],[30.471067233000042,41.05680261200041],[30.470138189000068,41.05576940900028],[30.47015002500018,41.05565464900019],[30.47067262800016,41.05537881800001],[30.473148448000188,41.05298829100002],[30.4751619270001,41.05300936000026],[30.475747975000104,41.05263010400017],[30.47515050300001,41.05187605000009],[30.47287397200006,41.050586632000034],[30.47174771500005,41.05093505500014],[30.468135458000006,41.05351085500013],[30.468046205000178,41.0535059110004],[30.467702370000097,41.05395851900005],[30.463661033000108,41.049101852000604],[30.468264436000027,41.04566665200059],[30.46826303600011,41.045524575000115],[30.465806326000063,41.044314828000154],[30.459894150000082,41.04527692700009],[30.449971003000144,41.040722813],[30.449784656000077,41.04073016100011],[30.458043124000028,41.02988680700014],[30.456969173000118,41.027406269000096],[30.45712958600012,41.02739506200015],[30.457154342000024,41.027203045000306],[30.45707295400007,41.02724059400066],[30.457058595000035,41.02713063200008],[30.456658415000163,41.027119351000124],[30.457393374000105,41.02569629200025],[30.455787522000094,41.02374510600009],[30.463321819999976,41.02097314700052],[30.463460365000174,41.02060523],[30.46350729800008,41.020699772],[30.463641803000087,41.020713179000325],[30.464173348000088,41.02027468500046],[30.469852619000108,41.01855656600014],[30.470488927000133,41.01400689900038],[30.472236612000074,41.01428103100068],[30.475585220000028,41.01642314600019],[30.476589821999994,41.01609239999999],[30.476661156000034,41.01599845900017],[30.476715304000095,41.01670460700012],[30.47684409200008,41.01678645700014],[30.48044457100019,41.01606059900013],[30.481112286000098,41.016409378000105],[30.48059131100007,41.02099085500021],[30.48483662800004,41.024841030000175],[30.48720831999998,41.02489006200051],[30.488133109000046,41.02799150400011],[30.488594035000176,41.02804083100017],[30.492806938000115,41.03354901200055],[30.492992080000192,41.033985718999986],[30.492931653000085,41.034101749],[30.489696590000165,41.03539308400036],[30.490315999000188,41.03722554900037],[30.49001936100018,41.03766881900009],[30.492926489000183,41.04273613400005],[30.492761972000153,41.04327426100008],[30.492875326000103,41.04333718100014],[30.493000727000094,41.04328290800004],[30.49242629200006,41.04414828500046],[30.49192756800005,41.045566473000065],[30.49208852000004,41.04566286400063],[30.49288257400019,41.04747608500014]]],"type":"Polygon"}},{"type":"Feature","properties":{"area_id":"TR-54-005-184793","name_tr":"Gölkent","area_level":"neighbourhood","parent_id":"TR-54-005","endeksa_id":184793},"geometry":{"coordinates":[[[30.56273250000004,41.05727930000006],[30.561347000000126,41.058263899999986],[30.55692670000019,41.058765500000106],[30.551935700000058,41.05841640000017],[30.551784400000145,41.0563628000001],[30.55095220000004,41.05603200000024],[30.55052860000012,41.05576960000002],[30.55031680000019,41.055438700000536],[30.550226000000123,41.05485679999998],[30.549832600000116,41.05412660000019],[30.551542300000165,41.05283730000008],[30.551648200000045,41.05240380000009],[30.551481800000147,41.05207290000004],[30.551950800000043,41.051445400000034],[30.552919100000054,41.05114870000017],[30.553660500000092,41.05111450000015],[30.553766400000143,41.05069230000004],[30.553736200000174,41.049562700000365],[30.55464400000011,41.048878100000024],[30.554386700000123,41.04869550000001],[30.55417490000019,41.04882100000009],[30.55382689999999,41.048764000000176],[30.553357900000094,41.04801090000058],[30.553131000000178,41.04739470000004],[30.553070400000138,41.04707520000011],[30.55331250000006,41.04702960000003],[30.553267100000085,41.04676719999998],[30.552852108000025,41.04619154900041],[30.552677100000096,41.045146800000566],[30.55247732900017,41.042173583000135],[30.554254023000112,41.0416408530001],[30.553705900000125,41.040753500000505],[30.553877649000015,41.04068591099997],[30.553649127000142,41.04026584300021],[30.55311580000017,41.04011440000056],[30.553146100000163,41.03940690000013],[30.553357900000094,41.03909870000018],[30.55374817700016,41.03915554000008],[30.554614991000108,41.03873038300003],[30.554670381000108,41.03863359600007],[30.554541529000062,41.03854961800005],[30.551721726000096,41.03860223000032],[30.551492004000067,41.03844535300004],[30.548340667000048,41.03565282900013],[30.54885879600016,41.03466287300006],[30.548743200000047,41.034419700000115],[30.548319600000127,41.03389470000019],[30.547774057000026,41.033705779000286],[30.547364716000175,41.03379352900026],[30.545911434000004,41.03174177200009],[30.54576260000016,41.031634900000086],[30.545662882000045,41.03139086400017],[30.54626434300019,41.02898819000012],[30.546221756000136,41.02889653900013],[30.5458534,41.02911250000011],[30.545384400000103,41.02904400000011],[30.544431200000133,41.029283700000065],[30.54306950000006,41.02887279999999],[30.542818943000043,41.02868381000019],[30.537419256000135,41.028346246000126],[30.537441100000137,41.02859890000025],[30.53627610000001,41.02834780000006],[30.534067100000016,41.028130900000065],[30.533416500000044,41.02786840000056],[30.533247832000086,41.027654599000186],[30.532764700000087,41.02743739200042],[30.531423812000185,41.026181086000065],[30.531010900000126,41.026259000000266],[30.53034510000009,41.02613339999999],[30.52999710000006,41.02592800000059],[30.529936600000042,41.0256883000003],[30.529815600000177,41.02559700000006],[30.529074200000082,41.02600790000008],[30.52859010000003,41.025802400000146],[30.528378200000077,41.025870900000484],[30.528196700000137,41.025802400000146],[30.527984900000035,41.02543720000011],[30.527409900000066,41.025528500000064],[30.527243500000168,41.02519750000005],[30.527031700000066,41.025071900000455],[30.526335700000175,41.02491210000005],[30.525806100000068,41.0246039000001],[30.525760700000035,41.02440990000002],[30.525342694000074,41.02406098900002],[30.525170700000047,41.02390760000003],[30.525382500000035,41.02364510000035],[30.52571716799997,41.023619182000516],[30.52839314900018,41.02042877700006],[30.529283942000063,41.0155151670001],[30.528983400000072,41.0154488000004],[30.529165000000148,41.01493510000017],[30.529470242000173,41.01448753800008],[30.52955278899998,41.01403221099997],[30.52881607800009,41.01260546400033],[30.528544700000168,41.012400700000114],[30.528668683000035,41.01232001300025],[30.52824126000013,41.011492246000046],[30.529689513000108,41.00932530300008],[30.529967313000043,41.00937259500063],[30.530027400000108,41.0092039000001],[30.53046024200006,41.00945651000001],[30.531008594000127,41.00954986100055],[30.531150324000123,41.00948787500022],[30.53392819100003,40.998615229000336],[30.53749529600003,40.99388796500017],[30.537466414000107,40.99375639900012],[30.537463360000004,40.99364997800029],[30.537594979000175,40.99360347600003],[30.538591429000178,40.99379984700016],[30.53888410000019,40.99359870000012],[30.539642600000036,40.994799700000385],[30.54062960000016,40.99557710000005],[30.542174600000124,40.99662980000011],[30.544609999999977,40.99752860000058],[30.545469000000026,40.99775210000024],[30.54635880000012,40.99786870000014],[30.5474344000001,40.998222000000396],[30.548000300000183,40.99918050000048],[30.54838010000003,41.000248500000055],[30.547878600000104,41.002374100000395],[30.544527700000117,41.00857520000011],[30.544542300000103,41.009968400000275],[30.545414500000106,41.01072530000005],[30.550022800000193,41.01041810000004],[30.553991400000143,41.00785120000006],[30.556651700000145,41.00698450000016],[30.56111460000011,41.00785120000006],[30.565199500000062,41.01024260000008],[30.567510900000173,41.01192090000018],[30.569575200000088,41.012228100000186],[30.571392300000127,41.01057170000013],[30.57200290000003,41.008333900000025],[30.570432900000185,41.0060521000006],[30.570403800000065,41.00446140000008],[30.57320950000002,41.00226720000006],[30.57570980000014,41.00066540000006],[30.579431300000067,40.99941470000067],[30.58235330000008,40.99814200000003],[30.58475190000007,40.99772510000014],[30.58560960000017,40.997900600000094],[30.587470400000143,40.99867960000006],[30.590654000000143,40.99901970000013],[30.593490600000166,40.99965820000057],[30.595037200000036,40.999643800000115],[30.59486390000012,41.0010185000005],[30.59381240000016,41.00370670000052],[30.59535740000007,41.004370600000016],[30.59518570000006,41.0063300000005],[30.59482100000008,41.006815700000004],[30.591645200000073,41.00893690000055],[30.59117320000007,41.00998940000005],[30.591816900000083,41.01547820000019],[30.589950100000124,41.01795530000015],[30.58960670000016,41.018327700000214],[30.586881600000083,41.02009240000007],[30.58537960000018,41.02268260000011],[30.581109499999968,41.02656780000024],[30.57748320000013,41.03008050000062],[30.574436200000093,41.03038800000013],[30.573771000000136,41.03038800000013],[30.573084300000176,41.03027470000035],[30.572869799999978,41.029983300000026],[30.570981500000073,41.029999500000315],[30.57016590000012,41.03064710000007],[30.570133900000144,41.031626300000084],[30.570423600000083,41.032370900000046],[30.570981500000073,41.03316400000017],[30.571700300000032,41.033900400000164],[30.572097300000053,41.03419180000009],[30.572290400000043,41.03458030000007],[30.572934100000168,41.035365300000194],[30.573931900000105,41.03590750000029],[30.574146500000097,41.036239300000034],[30.57491900000008,41.036409200000094],[30.57605620000004,41.03624739999998],[30.577053999999976,41.03656300000017],[30.577558300000135,41.037331800000004],[30.576893100000177,41.038286700000185],[30.57693600000016,41.03886940000007],[30.577268599999968,41.0393549000006],[30.578523900000107,41.04030980000039],[30.579060300000094,41.04096520000007],[30.579575300000045,41.04221950000016],[30.579800600000056,41.043805500000076],[30.58006880000005,41.04471180000013],[30.580884200000185,41.046241099999975],[30.581066600000156,41.04728490000019],[30.58206600000011,41.04967220000003],[30.56273250000004,41.05727930000006]]],"type":"Polygon"}},{"type":"Feature","properties":{"area_id":"TR-54-005-184801","name_tr":"Bakırlı","area_level":"neighbourhood","parent_id":"TR-54-005","endeksa_id":184801},"geometry":{"coordinates":[[[30.53228680000018,41.069252600000596],[30.53117750000007,41.07074560000012],[30.530512300000055,41.0713765000001],[30.530104600000072,41.071894200000315],[30.529836400000136,41.072047800000234],[30.52954670000014,41.07237940000016],[30.52878500000014,41.07250080000006],[30.528484600000183,41.072686799999985],[30.527122000000077,41.072816200000034],[30.525459000000126,41.07313170000003],[30.523173800000052,41.07321250000018],[30.522776800000088,41.07327720000035],[30.522326200000066,41.073495600000115],[30.52155370000014,41.07327720000035],[30.519193622000046,41.0734349060001],[30.517680972000164,41.07333690000013],[30.510818520000043,41.065564721000044],[30.510463375000086,41.064473998000096],[30.50835429900019,41.062067695000394],[30.499010742000053,41.05845392200007],[30.49825266600004,41.04914567200018],[30.49288257400019,41.04747608500014],[30.49208852000004,41.04566286400063],[30.49192756800005,41.045566473000065],[30.49242629200006,41.04414828500046],[30.494236268000122,41.04143755900003],[30.49752626300011,41.039380248000214],[30.498810100000185,41.039291402000174],[30.49881811900002,41.0389484210001],[30.49893215400016,41.03886930200002],[30.50021955400007,41.039238906000094],[30.50809878900003,41.038859234000086],[30.51123149900002,41.039772567000114],[30.51270995400006,41.040098994000175],[30.51597356600007,41.041153753000174],[30.52185817600008,41.041551342000616],[30.52620847700007,41.039083031000075],[30.551395902000138,41.03860879200033],[30.551512344000173,41.038549652000086],[30.551492004000067,41.03844535300004],[30.551721726000096,41.03860223000032],[30.554541529000062,41.03854961800005],[30.554670381000108,41.03863359600007],[30.554614991000108,41.03873038300003],[30.55374817700016,41.03915554000008],[30.553357900000094,41.03909870000018],[30.553146100000163,41.03940690000013],[30.55311580000017,41.04011440000056],[30.553649127000142,41.04026584300021],[30.553877649000015,41.04068591099997],[30.553705900000125,41.040753500000505],[30.554254023000112,41.0416408530001],[30.55247732900017,41.042173583000135],[30.552677100000096,41.045146800000566],[30.552852108000025,41.04619154900041],[30.553267100000085,41.04676719999998],[30.55331250000006,41.04702960000003],[30.553070400000138,41.04707520000011],[30.553131000000178,41.04739470000004],[30.553357900000094,41.04801090000058],[30.55382689999999,41.048764000000176],[30.55417490000019,41.04882100000009],[30.554386700000123,41.04869550000001],[30.55464400000011,41.048878100000024],[30.553736200000174,41.049562700000365],[30.553766400000143,41.05069230000004],[30.553660500000092,41.05111450000015],[30.552919100000054,41.05114870000017],[30.551950800000043,41.051445400000034],[30.551481800000147,41.05207290000004],[30.551648200000045,41.05240380000009],[30.551542300000165,41.05283730000008],[30.549832600000116,41.05412660000019],[30.550226000000123,41.05485679999998],[30.55031680000019,41.055438700000536],[30.55052860000012,41.05576960000002],[30.55095220000004,41.05603200000024],[30.551784400000145,41.0563628000001],[30.551935700000058,41.05841640000017],[30.55566416872631,41.058677191378536],[30.555462773971612,41.05871834152458],[30.555347160735437,41.05884779805115],[30.555376057177284,41.05901062589288],[30.5555345094553,41.059112904316805],[30.55414790000009,41.058983900000044],[30.553278900000123,41.05942080000068],[30.55304290000015,41.05959070000017],[30.553193100000158,41.05990620000034],[30.55307510000017,41.06011650000033],[30.55281759999997,41.06025400000016],[30.550940000000082,41.060059900000624],[30.550650300000086,41.06015700000012],[30.550382100000093,41.06006800000023],[30.550178300000084,41.0597767000001],[30.549384300000156,41.05924280000016],[30.549309200000152,41.058725100000174],[30.549631100000113,41.058005000000094],[30.549663300000134,41.057632900000044],[30.549384300000156,41.05744680000009],[30.54890150000017,41.05732550000033],[30.548579700000175,41.057147499999985],[30.548450899999978,41.05689670000038],[30.54704550000008,41.05686430000003],[30.54665920000008,41.05653260000008],[30.54358000000002,41.05633040000009],[30.542517900000064,41.05606340000003],[30.542238900000086,41.056128100000194],[30.54300070000005,41.057147499999985],[30.543655100000024,41.058409500000494],[30.543998500000043,41.05966350000051],[30.54394480000019,41.06012460000011],[30.543655100000024,41.06035110000005],[30.543483500000036,41.06129759999999],[30.54355860000004,41.06160500000021],[30.543354700000066,41.06244630000003],[30.543118700000036,41.06289930000037],[30.544599300000186,41.06260810000043],[30.545983300000103,41.062834599999974],[30.54576870000011,41.06318249999998],[30.546970400000077,41.06379720000041],[30.547142000000065,41.06432310000008],[30.546723600000064,41.06488120000006],[30.546240800000078,41.06449290000006],[30.54575800000015,41.06500250000016],[30.546433900000068,41.06537460000004],[30.54622994099998,41.065895886000135],[30.545082100000172,41.066126900000256],[30.543805400000053,41.06580340000016],[30.54358000000002,41.06559310000017],[30.542732500000056,41.06529380000006],[30.541820500000142,41.06573060000051],[30.54155230000015,41.06576290000015],[30.54131630000012,41.06600559999998],[30.542024400000116,41.06628870000014],[30.54160590000015,41.06686300000041],[30.54245350000008,41.06713810000008],[30.54265740000011,41.067413100000124],[30.54275222900003,41.06773962400047],[30.541793032000157,41.06808736900001],[30.54160590000015,41.06774469999999],[30.54029700000018,41.06776090000045],[30.540800151000155,41.06844732600007],[30.539490399000158,41.06892216100016],[30.53778991400003,41.06870366900006],[30.537546590000147,41.06886244100019],[30.537132000000156,41.06881240000041],[30.536359500000174,41.069136000000185],[30.535082800000055,41.06909550000006],[30.534396200000117,41.0689742000003],[30.53426740000009,41.06875580000019],[30.534310300000072,41.068513199999984],[30.534203000000105,41.06825430000009],[30.53375240000014,41.06793080000011],[30.533130100000164,41.06694390000035],[30.532572200000175,41.06665270000042],[30.532894100000135,41.067898400000104],[30.53228680000018,41.069252600000596]]],"type":"Polygon"}},{"type":"Feature","properties":{"area_id":"TR-54-005-184803","name_tr":"Ceylandere","area_level":"neighbourhood","parent_id":"TR-54-005","endeksa_id":184803},"geometry":{"coordinates":[[[30.489083419000167,41.08082392600005],[30.488879612000062,41.08077431000004],[30.487519723000105,41.08150943099997],[30.484394586000064,41.081951512000046],[30.484174500000165,41.081939100000454],[30.483841900000186,41.08177730000057],[30.483305400000177,41.08201190000011],[30.48246860000006,41.08217360000032],[30.481685984000137,41.08181225499999],[30.48079490000015,41.08104140000006],[30.479807800000174,41.08079070000065],[30.47891323400006,41.08044708000028],[30.47806110300013,41.07537065300028],[30.475909598000044,41.073683341000105],[30.478463735000048,41.071298536000086],[30.47937080700018,41.066636859000084],[30.47920763400009,41.06656072600009],[30.47619278000019,41.06731435000063],[30.470298957000068,41.064614231000064],[30.470305515000064,41.064507439000465],[30.474142609000126,41.060392415000194],[30.47204335100014,41.0574596460001],[30.47206306900017,41.05735168500013],[30.472206323000137,41.0573239470001],[30.476814227000034,41.058540915000265],[30.48154042300007,41.05717204600006],[30.48064461600012,41.05527818200022],[30.481178471000135,41.05508617400017],[30.481165373000124,41.05502449300013],[30.48687939900003,41.05303666200007],[30.4867111100001,41.05037292900016],[30.49071123800013,41.046869877000404],[30.49288257400019,41.04747608500014],[30.49825266600004,41.04914567200018],[30.499010742000053,41.05845392200007],[30.50835429900019,41.062067695000394],[30.510463375000086,41.064473998000096],[30.510818520000043,41.065564721000044],[30.517680972000164,41.07333690000013],[30.517823841000165,41.07350525000021],[30.51687600000014,41.0736574],[30.51468730000005,41.074547100000075],[30.514382012000056,41.07475372200048],[30.51264627000012,41.07530677700032],[30.51028818700013,41.07324857800029],[30.510153430999992,41.07321900900024],[30.506050532000074,41.07485309399999],[30.50579310000012,41.07476540000005],[30.505117200000143,41.07503230000026],[30.50433399999997,41.07512940000015],[30.50395850000018,41.07549340000003],[30.503003600000056,41.07586540000011],[30.502482851000025,41.07627401500008],[30.50118284700011,41.076792502000046],[30.500589600000126,41.07687640000006],[30.499868901000127,41.07731686300019],[30.49707505100008,41.078431813000066],[30.496019100000183,41.07933500000013],[30.494930100000147,41.080709800000704],[30.494661900000153,41.08129610000003],[30.490221326000096,41.08007823800017],[30.489558351000028,41.08041870000005],[30.48938870000012,41.08041870000005],[30.489360846000125,41.080520126000465],[30.489127560000156,41.08063992700016],[30.489083419000167,41.08082392600005]]],"type":"Polygon"}}]}