{"type":"FeatureCollection","source_id":"endeksa","retrieved_at":null,"features":[{"type":"Feature","properties":{"area_id":"TR-60-006-2030459","name_tr":"Ovacık Köyü","area_level":"neighbourhood","parent_id":"TR-60-006","endeksa_id":2030459},"geometry":{"coordinates":[[[36.283405984000126,40.223455312],[36.28332581700016,40.223505665000175],[36.269053236000104,40.21492918200016],[36.26613467900012,40.21095593199999],[36.267284298000106,40.20678868100026],[36.26235465400009,40.20152720200008],[36.26073181800007,40.19694056400033],[36.261087843000155,40.19594959500017],[36.26292919600019,40.19369959000022],[36.27299712299998,40.19451624900006],[36.279130176000024,40.19284954800008],[36.28417295600019,40.194565818000115],[36.285072869000146,40.19438551500008],[36.2873791020001,40.19369377500004],[36.2913383560001,40.190924468000105],[36.2927995326001,40.18862037620045],[36.29293533800006,40.18856581700027],[36.293042901000035,40.18864650500001],[36.292866901000025,40.18958771700011],[36.29303221800012,40.18968279900014],[36.29716426600004,40.186849525000184],[36.30655982200011,40.19468894500028],[36.31402090100005,40.198757726000224],[36.3164754710001,40.19937333199999],[36.32158256212631,40.19972312326581],[36.31997000000018,40.20025000000027],[36.3230200000001,40.2047000000004],[36.322970000000055,40.205430000000376],[36.32278000000014,40.205740000000446],[36.32313000000016,40.20700000000028],[36.32408000000004,40.20755000000031],[36.32407000000012,40.207810000000336],[36.323960000000056,40.20795000000015],[36.32330000000019,40.20844000000005],[36.32317000000006,40.208660000000464],[36.32324000000017,40.209710000000655],[36.32313000000016,40.21009000000015],[36.32346000000007,40.210790000000486],[36.32450000000017,40.21189000000004],[36.324480203876135,40.21512666629144],[36.324339719798616,40.215146751314364],[36.315202787000146,40.21149720600056],[36.30924696400007,40.21119182700011],[36.30467398900015,40.21503950800019],[36.296984881000014,40.21492762800017],[36.283405984000126,40.223455312]]],"type":"Polygon"}},{"type":"Feature","properties":{"area_id":"TR-60-006-2030463","name_tr":"Tepeçaylı Köyü","area_level":"neighbourhood","parent_id":"TR-60-006","endeksa_id":2030463},"geometry":{"coordinates":[[[36.28128243000015,40.23255086400047],[36.28120450600005,40.232500490000064],[36.27771986900012,40.23446479500029],[36.2731121970001,40.2332334780001],[36.26955992400008,40.23473506900012],[36.26953694700006,40.23462579900047],[36.26534102000005,40.23119639100008],[36.254131828000084,40.227281574000585],[36.2560268310001,40.221008885],[36.25431640300013,40.219073938000406],[36.25858709099998,40.216569493000065],[36.25431803900011,40.207794042000046],[36.25213556699998,40.20716035800001],[36.25077358600004,40.201836454000045],[36.252376979000076,40.20104256100018],[36.25243197800012,40.200950316000274],[36.25231784700014,40.20086265700007],[36.25110541500004,40.20085433800068],[36.251012682000066,40.200765735000004],[36.25109077900004,40.20066816700029],[36.25748845400017,40.19857051100013],[36.2563969740001,40.1979695870001],[36.25638581700014,40.197858058000065],[36.25651289100017,40.19780921300003],[36.25853748500015,40.1979930710001],[36.26001194700012,40.1972631750001],[36.26040727600008,40.19678051000005],[36.26073181800007,40.19694056400033],[36.26235465400009,40.20152720200008],[36.267284298000106,40.20678868100026],[36.26613467900012,40.21095593199999],[36.269053236000104,40.21492918200016],[36.28332581700016,40.223505665000175],[36.283405984000126,40.223455312],[36.28331735300003,40.22354155600004],[36.28121776000012,40.23244430300008],[36.28128243000015,40.23255086400047]]],"type":"Polygon"}},{"type":"Feature","properties":{"area_id":"TR-60-006-70930","name_tr":"Mrş.Fevzi Çakmak","area_level":"neighbourhood","parent_id":"TR-60-006","endeksa_id":70930},"geometry":{"coordinates":[[[36.19632315400014,40.23542367300058],[36.19618844100012,40.23573918600016],[36.19587539600002,40.23596907700005],[36.195609519000186,40.23646829700033],[36.195695865000005,40.236968158000025],[36.195517823000046,40.2371381760006],[36.19469789600015,40.23741212100026],[36.193990248000034,40.237370809000026],[36.193529487000035,40.23723041500068],[36.19195153300018,40.2373416210001],[36.19165270100018,40.23711290700055],[36.19134466000014,40.236704385000166],[36.19116962100014,40.236696102999986],[36.19125573800011,40.236576809999974],[36.1910625160001,40.23626091800031],[36.19118129700007,40.23550217800005],[36.192005776000144,40.23460005200002],[36.19338936400004,40.234058740000535],[36.194035577000136,40.23390203300045],[36.194247755000106,40.233980030000055],[36.194337924000024,40.23408509800004],[36.1941026020001,40.23444823500034],[36.1941212750001,40.2352032390001],[36.19447823400009,40.23524805599999],[36.19452396800011,40.23482512999999],[36.194662101999995,40.234754390000035],[36.19626195600006,40.235306438000066],[36.19632315400014,40.23542367300058]]],"type":"Polygon"}},{"type":"Feature","properties":{"area_id":"TR-60-006-70929","name_tr":"Kazova","area_level":"neighbourhood","parent_id":"TR-60-006","endeksa_id":70929},"geometry":{"coordinates":[[[36.19116962100014,40.236696102999986],[36.18996290600006,40.23743401200056],[36.18855903500014,40.236968857000534],[36.188214544000175,40.237185893],[36.18627777800015,40.236338974000375],[36.18577318200016,40.23630917700012],[36.185704812000154,40.23619680500025],[36.194429070000126,40.22768593100005],[36.19739679200018,40.227612745000044],[36.19752793100008,40.2277141780005],[36.19731997400004,40.22933891000014],[36.1968688610001,40.229964693000454],[36.196444841000186,40.23013262600023],[36.1956841330001,40.2312329720005],[36.195506342000044,40.23243212200009],[36.19442789700008,40.233947964000095],[36.194247755000106,40.233980030000055],[36.194035577000136,40.23390203300045],[36.19338936400004,40.234058740000535],[36.192005776000144,40.23460005200002],[36.19118129700007,40.23550217800005],[36.1910625160001,40.23626091800031],[36.19125573800011,40.236576809999974],[36.19116962100014,40.236696102999986]]],"type":"Polygon"}},{"type":"Feature","properties":{"area_id":"TR-60-006-70931","name_tr":"Yeşildere","area_level":"neighbourhood","parent_id":"TR-60-006","endeksa_id":70931},"geometry":{"coordinates":[[[36.20760256700004,40.23420282600006],[36.207597081000074,40.23440071700014],[36.20794201700005,40.234688501000505],[36.20754402100016,40.239019051000525],[36.20719012800009,40.239803956],[36.20703035600019,40.239853650000214],[36.20438789500014,40.23927700000013],[36.20302541400014,40.23610976400005],[36.20076396800005,40.23686113000008],[36.19870295000004,40.23615739000013],[36.19855484700014,40.23620294300008],[36.19855793100004,40.23635032600009],[36.19734572100009,40.2353134060001],[36.19644217300015,40.23531795500003],[36.19632315400014,40.23542367300058],[36.19626195600006,40.235306438000066],[36.194662101999995,40.234754390000035],[36.19452396800011,40.23482512999999],[36.19447823400009,40.23524805599999],[36.1941212750001,40.2352032390001],[36.1941026020001,40.23444823500034],[36.194337924000024,40.23408509800004],[36.194247755000106,40.233980030000055],[36.19442789700008,40.233947964000095],[36.195506342000044,40.23243212200009],[36.1956841330001,40.2312329720005],[36.196444841000186,40.23013262600023],[36.1968688610001,40.229964693000454],[36.19731997400004,40.22933891000014],[36.19752793100008,40.2277141780005],[36.19739679200018,40.227612745000044],[36.19754993900011,40.22754223900006],[36.207391051000116,40.23426752200004],[36.20760256700004,40.23420282600006]]],"type":"Polygon"}},{"type":"Feature","properties":{"area_id":"TR-60-006-2030449","name_tr":"Ballıca Köyü","area_level":"neighbourhood","parent_id":"TR-60-006","endeksa_id":2030449},"geometry":{"coordinates":[[[36.30185141300018,40.24318012800029],[36.29740918400006,40.247919456000204],[36.296170860000075,40.24579165500063],[36.29622134100009,40.24571764400014],[36.292864785000006,40.24040660500003],[36.291869666000025,40.235334024],[36.286375485000065,40.235835326000085],[36.28128243000015,40.23255086400047],[36.28121776000012,40.23244430300008],[36.28331735300003,40.22354155600004],[36.283405984000126,40.223455312],[36.296984881000014,40.21492762800017],[36.30467398900015,40.21503950800019],[36.30924696400007,40.21119182700011],[36.315202787000146,40.21149720600056],[36.324339719798616,40.215146751314364],[36.324480203876135,40.21512666629144],[36.32455463168532,40.215232472009404],[36.32433064005687,40.2151676747892],[36.31805847499999,40.21894525100015],[36.31140460000006,40.23173341300043],[36.305329117000156,40.236966783000184],[36.30543407800002,40.23935772400057],[36.30185141300018,40.24318012800029]]],"type":"Polygon"}},{"type":"Feature","properties":{"area_id":"TR-60-006-2030456","name_tr":"Kaledere Köyü","area_level":"neighbourhood","parent_id":"TR-60-006","endeksa_id":2030456},"geometry":{"coordinates":[[[36.14508056206779,40.270289607296036],[36.14118000000013,40.27028000000007],[36.14039000000014,40.26945000000035],[36.139720000000125,40.26936000000069],[36.138230000000135,40.26961000000006],[36.137790000000166,40.269520000000284],[36.13775000000004,40.26971000000037],[36.1372600000002,40.269490000000076],[36.136460000000056,40.26950000000022],[36.13606000000016,40.269680000000164],[36.13558000000006,40.27016000000009],[36.13517000000007,40.269900000000064],[36.1344400000001,40.27035000000018],[36.13341046819255,40.270512099252585],[36.13357000000019,40.267820000000086],[36.134330000000034,40.26412000000005],[36.133550000000184,40.26203000000032],[36.13354000000004,40.26154000000025],[36.134050000000116,40.26019000000014],[36.13419000000016,40.25960000000032],[36.13438000000008,40.25786000000005],[36.13394000000011,40.256290000000035],[36.13394000000011,40.255860000000666],[36.134140000000116,40.255340000000274],[36.13524000000018,40.25368000000009],[36.13548000000014,40.2527800000002],[36.13554000000016,40.251840000000584],[36.13523000000009,40.25055000000043],[36.13492000000019,40.250100000000145],[36.134980000000155,40.24931000000015],[36.13540000000012,40.24750000000034],[36.13545000000016,40.24654000000032],[36.13536000000016,40.2458400000001],[36.1355200000001,40.24543000000028],[36.135560000000226,40.244840000000124],[36.136310000000094,40.24404000000038],[36.13712000000015,40.242540000000076],[36.13713000000007,40.24229000000054],[36.13729000000018,40.241990000000044],[36.137140000000215,40.24188000000004],[36.13670000000019,40.24116000000015],[36.136650000000145,40.24057000000033],[36.1364700000002,40.24009000000041],[36.13650000000018,40.23955000000035],[36.1356100000001,40.23930000000041],[36.13460000000015,40.23947000000027],[36.13457000000017,40.23907000000003],[36.13440000000014,40.23907000000003],[36.13443000000012,40.23885000000013],[36.13431000000014,40.238830000000064],[36.13331000000022,40.23902000000015],[36.1322600000002,40.239100000000235],[36.13254000000006,40.23854000000006],[36.13286000000011,40.2374200000001],[36.13246000000004,40.23639000000037],[36.132410000000164,40.23543000000012],[36.13249000000019,40.235200000000134],[36.133180000000095,40.234300000000246],[36.133670000000166,40.233990000000176],[36.133520000000146,40.2339000000004],[36.13361000000015,40.233780000000195],[36.133180000000095,40.233440000000144],[36.13334000000003,40.23333000000031],[36.133520000000146,40.23286000000047],[36.13351000000006,40.23258000000004],[36.13303000000013,40.23231000000044],[36.13245000000012,40.2322200000001],[36.13259000000011,40.23206000000039],[36.132350000000145,40.231790000000046],[36.132220000000075,40.23130000000003],[36.132430000000056,40.23127000000039],[36.13246000000004,40.23112000000003],[36.13233000000014,40.23085000000043],[36.132250000000056,40.23029000000031],[36.13206000000014,40.23029000000031],[36.13351000000006,40.22845000000012],[36.13351000000006,40.227240000000165],[36.13474000000019,40.2249700000001],[36.13648000000012,40.22244000000023],[36.13564000000008,40.217630000000156],[36.13517000000007,40.2158500000001],[36.13517000000007,40.21362000000016],[36.134940000000256,40.211930000000336],[36.133890000000065,40.20953000000014],[36.1322600000002,40.20347000000021],[36.13237000000004,40.2005400000001],[36.132840000000044,40.19662000000045],[36.131253823421844,40.19387062726457],[36.13119000000012,40.193760000000054],[36.14595000000014,40.19800000000026],[36.14831000000015,40.19553000000013],[36.14884000000012,40.19576000000035],[36.1492300000001,40.19569000000024],[36.14937000000009,40.195340000000044],[36.1492300000001,40.19505000000004],[36.15594000000016,40.196510000000046],[36.15766783162462,40.1993117454341],[36.15995234300004,40.19858694900006],[36.16087277200006,40.19830624200017],[36.172260192000124,40.19793892399997],[36.17226242500004,40.19800814200005],[36.172360125000125,40.197935700000244],[36.17235841400009,40.198001636000185],[36.170776655,40.242934215000105],[36.170626580000146,40.24380706900001],[36.168442080983084,40.24552098890558],[36.16770000000008,40.24513000000036],[36.16548000000006,40.243620000000305],[36.163410000000056,40.241270000000156],[36.16076000000015,40.241740000000505],[36.15961000000004,40.241860000000486],[36.157060000000115,40.24184000000025],[36.15638000000013,40.241730000000416],[36.15547000000015,40.241950000000145],[36.15478000000007,40.24222000000043],[36.1553100000001,40.243410000000154],[36.155330000000106,40.243570000000034],[36.155110000000036,40.24424000000005],[36.15553000000017,40.244150000000275],[36.155260000000226,40.24455000000012],[36.155020000000036,40.24525000000034],[36.15445000000017,40.24636000000049],[36.153280000000166,40.24777000000063],[36.15538000000021,40.25009000000006],[36.15647000000013,40.25095000000016],[36.156910000000096,40.251560000000154],[36.15764000000013,40.25206000000031],[36.15773000000013,40.253140000000144],[36.15736000000004,40.25452000000064],[36.15730000000008,40.255490000000066],[36.157100000000185,40.2562200000001],[36.15633000000008,40.256170000000054],[36.15528000000006,40.255890000000306],[36.1550400000001,40.25607000000031],[36.15503000000018,40.25655000000023],[36.154640000000086,40.256480000000124],[36.15408000000008,40.25975000000011],[36.152110000000164,40.26667000000015],[36.15216000000004,40.26715000000007],[36.15150000000011,40.26908000000026],[36.15086000000014,40.26911000000007],[36.15007000000014,40.26973000000004],[36.14861000000013,40.27009000000015],[36.147090000000105,40.27031000000005],[36.14508056206779,40.270289607296036]]],"type":"Polygon"}},{"type":"Feature","properties":{"area_id":"TR-60-006-70928","name_tr":"Gazi Osman Paşa","area_level":"neighbourhood","parent_id":"TR-60-006","endeksa_id":70928},"geometry":{"coordinates":[[[36.20703035600019,40.239853650000214],[36.20712495100014,40.23995562700003],[36.206987009000045,40.24041271800013],[36.20664470000008,40.24063580500018],[36.20425345700005,40.256716884000184],[36.20413988300004,40.25679961900016],[36.20380306100009,40.25675541400017],[36.203710728000146,40.25683971800004],[36.20416897200005,40.25722315100006],[36.2040450180001,40.2581048780001],[36.203959011000165,40.25818295100004],[36.203015430000164,40.25837188500003],[36.20241484600007,40.262499776000084],[36.19761711299998,40.26388729000013],[36.195031001182485,40.262013224520445],[36.19496000000015,40.25979000000041],[36.19463000000019,40.257040000000245],[36.19382000000013,40.25409000000059],[36.19262000000015,40.25368000000009],[36.18986000000007,40.25341000000009],[36.18923000000018,40.25327000000027],[36.18738000000019,40.25245000000007],[36.18692000000016,40.252170000000206],[36.18449000000021,40.2516100000002],[36.18257000000011,40.25015000000019],[36.18148000000019,40.25011000000029],[36.18072000000018,40.2499200000002],[36.18092000000024,40.24940000000049],[36.18114000000014,40.24909000000042],[36.181970000000035,40.24817000000036],[36.18182000000007,40.24803000000014],[36.18147000000005,40.247160000000065],[36.18124000000006,40.24705000000006],[36.179620000000114,40.24720000000036],[36.17925000000008,40.246970000000374],[36.178690000000074,40.24680000000012],[36.17766000000012,40.24702000000042],[36.17663000000016,40.247130000000254],[36.176370000000134,40.247040000000084],[36.17610000000019,40.246690000000115],[36.17572000000018,40.246420000000114],[36.175310000000195,40.24624000000051],[36.17398701743548,40.24618433424814],[36.17110878400007,40.244019381000044],[36.17069010800003,40.24390581500006],[36.170626580000146,40.24380706900001],[36.170776655,40.242934215000105],[36.17235841400009,40.198001636000185],[36.17674562500008,40.19866836900002],[36.195525209000095,40.19866837000029],[36.20463512000009,40.19846213000028],[36.20829742600006,40.19780403000004],[36.20845084900003,40.19790136600005],[36.208454313000175,40.20117447900026],[36.211815149000074,40.20579085800057],[36.20760256700004,40.23420282600006],[36.207391051000116,40.23426752200004],[36.19754993900011,40.22754223900006],[36.19739679200018,40.227612745000044],[36.194429070000126,40.22768593100005],[36.185704812000154,40.23619680500025],[36.18577318200016,40.23630917700012],[36.18627777800015,40.236338974000375],[36.188214544000175,40.237185893],[36.18855903500014,40.236968857000534],[36.18996290600006,40.23743401200056],[36.19116962100014,40.236696102999986],[36.19134466000014,40.236704385000166],[36.19165270100018,40.23711290700055],[36.19195153300018,40.2373416210001],[36.193529487000035,40.23723041500068],[36.193990248000034,40.237370809000026],[36.19469789600015,40.23741212100026],[36.195517823000046,40.2371381760006],[36.195695865000005,40.236968158000025],[36.195609519000186,40.23646829700033],[36.19587539600002,40.23596907700005],[36.19618844100012,40.23573918600016],[36.19632315400014,40.23542367300058],[36.19644217300015,40.23531795500003],[36.19734572100009,40.2353134060001],[36.19855793100004,40.23635032600009],[36.19855484700014,40.23620294300008],[36.19870295000004,40.23615739000013],[36.20076396800005,40.23686113000008],[36.20302541400014,40.23610976400005],[36.20438789500014,40.23927700000013],[36.20703035600019,40.239853650000214]]],"type":"Polygon"}},{"type":"Feature","properties":{"area_id":"TR-60-006-99168","name_tr":"Fatih","area_level":"neighbourhood","parent_id":"TR-60-006","endeksa_id":99168},"geometry":{"coordinates":[[[36.170626580000146,40.24380706900001],[36.17069010800003,40.24390581500006],[36.17110878400007,40.244019381000044],[36.17398701743548,40.24618433424814],[36.16956000000016,40.24611000000027],[36.168442080983084,40.24552098890558],[36.170626580000146,40.24380706900001]]],"type":"Polygon"}},{"type":"Feature","properties":{"area_id":"TR-60-006-2030450","name_tr":"Beşevler Köyü","area_level":"neighbourhood","parent_id":"TR-60-006","endeksa_id":2030450},"geometry":{"coordinates":[[[36.19511293104898,40.264578653468504],[36.19512000000009,40.26480000000015],[36.193430000000205,40.26504000000011],[36.19174000000021,40.265590000000145],[36.19170000000008,40.26793000000032],[36.19310000000007,40.267910000000086],[36.193030000000135,40.268410000000245],[36.19333000000012,40.269990000000234],[36.19348000000008,40.27154000000007],[36.19267000000019,40.27173000000016],[36.19282000000021,40.272750000000144],[36.19406000000009,40.272620000000416],[36.19416000000024,40.27328000000034],[36.1915800000001,40.273430000000644],[36.19156000000004,40.2743500000002],[36.19192000000015,40.27446000000009],[36.19273000000004,40.27446000000009],[36.19326000000018,40.2745700000001],[36.1934500000001,40.275350000000344],[36.19162000000023,40.27549000000056],[36.19174000000021,40.27644000000032],[36.190670000000125,40.276490000000194],[36.19065000000006,40.27623000000017],[36.18910000000005,40.27650000000028],[36.18928000000005,40.27779000000044],[36.191820000000064,40.277670000000455],[36.19147000000004,40.2785600000002],[36.19128000000012,40.279590000000155],[36.191206521623315,40.279597347837864],[36.19108000000011,40.280120000000124],[36.1894200000001,40.27997000000033],[36.18917988417542,40.28010720904285],[36.188871529179835,40.283573610655196],[36.18871804534888,40.283439260351145],[36.185381721936665,40.28340998553],[36.18538000000012,40.28333000000015],[36.18506000000008,40.28330000000017],[36.18244000000004,40.283250000000294],[36.182680000000175,40.28177000000005],[36.18227000000019,40.28161000000034],[36.18187000000012,40.28122000000019],[36.182280000000105,40.27973000000037],[36.18233000000015,40.278350000000216],[36.18219000000016,40.27827000000036],[36.17935000000017,40.278200000000254],[36.17945000000009,40.27888000000041],[36.179400000000044,40.27923000000021],[36.17876000000018,40.27920000000006],[36.17862000000014,40.27911000000023],[36.17876000000018,40.27814000000029],[36.17713000000015,40.27808000000027],[36.17734000000013,40.27644000000032],[36.17599000000018,40.27624000000009],[36.17434000000026,40.27683000000059],[36.17421000000013,40.27673000000016],[36.17431000000005,40.27624000000009],[36.17421000000013,40.27615000000009],[36.17316000000011,40.27703000000008],[36.17241000000007,40.27748000000037],[36.17191000000008,40.27806000000004],[36.17041000000012,40.277550000000474],[36.1705300000001,40.27726000000064],[36.17096000000015,40.276740000000245],[36.17098000000004,40.27644000000032],[36.17006000000015,40.276090000000465],[36.16929000000022,40.2761100000007],[36.167940000000044,40.27579000000037],[36.16839000000016,40.27445000000034],[36.1663700000002,40.27371000000039],[36.166230000000155,40.27396000000044],[36.16615000000007,40.27592000000061],[36.16395000000017,40.2757000000002],[36.16387000000009,40.275560000000155],[36.163500000000056,40.27546000000024],[36.163410000000056,40.27608000000038],[36.163320000000056,40.27620000000036],[36.16083000000009,40.27642000000009],[36.16091000000017,40.27633000000043],[36.15961000000004,40.27628000000004],[36.15959000000015,40.27651000000043],[36.15703000000008,40.27648000000005],[36.15714000000014,40.2740500000001],[36.15558000000004,40.274070000000336],[36.15546000000006,40.27353000000039],[36.154960000000074,40.27229000000011],[36.154020000000116,40.2710100000001],[36.15367000000009,40.26984000000061],[36.15322000000015,40.26922000000047],[36.15299000000016,40.26904000000036],[36.15150000000011,40.26908000000026],[36.15216000000004,40.26715000000007],[36.152110000000164,40.26667000000015],[36.15408000000008,40.25975000000011],[36.154640000000086,40.256480000000124],[36.15503000000018,40.25655000000023],[36.1550400000001,40.25607000000031],[36.15528000000006,40.255890000000306],[36.15633000000008,40.256170000000054],[36.157100000000185,40.2562200000001],[36.15730000000008,40.255490000000066],[36.15736000000004,40.25452000000064],[36.15773000000013,40.253140000000144],[36.15764000000013,40.25206000000031],[36.156910000000096,40.251560000000154],[36.15647000000013,40.25095000000016],[36.15538000000021,40.25009000000006],[36.153280000000166,40.24777000000063],[36.15445000000017,40.24636000000049],[36.155020000000036,40.24525000000034],[36.155260000000226,40.24455000000012],[36.15553000000017,40.244150000000275],[36.155110000000036,40.24424000000005],[36.155330000000106,40.243570000000034],[36.1553100000001,40.243410000000154],[36.15478000000007,40.24222000000043],[36.15547000000015,40.241950000000145],[36.15638000000013,40.241730000000416],[36.157060000000115,40.24184000000025],[36.15961000000004,40.241860000000486],[36.16076000000015,40.241740000000505],[36.163410000000056,40.241270000000156],[36.16548000000006,40.243620000000305],[36.16770000000008,40.24513000000036],[36.16956000000016,40.24611000000027],[36.17398701743548,40.24618433424814],[36.175310000000195,40.24624000000051],[36.17572000000018,40.246420000000114],[36.17610000000019,40.246690000000115],[36.176370000000134,40.247040000000084],[36.17663000000016,40.247130000000254],[36.17766000000012,40.24702000000042],[36.178690000000074,40.24680000000012],[36.17925000000008,40.246970000000374],[36.179620000000114,40.24720000000036],[36.18124000000006,40.24705000000006],[36.18147000000005,40.247160000000065],[36.18182000000007,40.24803000000014],[36.181970000000035,40.24817000000036],[36.18114000000014,40.24909000000042],[36.18092000000024,40.24940000000049],[36.18072000000018,40.2499200000002],[36.18148000000019,40.25011000000029],[36.18257000000011,40.25015000000019],[36.18449000000021,40.2516100000002],[36.18692000000016,40.252170000000206],[36.18738000000019,40.25245000000007],[36.18923000000018,40.25327000000027],[36.18986000000007,40.25341000000009],[36.19262000000015,40.25368000000009],[36.19382000000013,40.25409000000059],[36.19463000000019,40.257040000000245],[36.19496000000015,40.25979000000041],[36.19511293104898,40.264578653468504]]],"type":"Polygon"}},{"type":"Feature","properties":{"area_id":"TR-60-006-2030453","name_tr":"Dereçaylı Köyü","area_level":"neighbourhood","parent_id":"TR-60-006","endeksa_id":2030453},"geometry":{"coordinates":[[[36.291747632258875,40.269873355161735],[36.291370000000086,40.26993000000027],[36.28797074665317,40.27177504927698],[36.288094738000154,40.27170327200008],[36.28149171200005,40.26538464200007],[36.2767465070001,40.266281953000146],[36.27424859000007,40.26917574300012],[36.26823750700004,40.26499249300036],[36.26690636500018,40.26857483600003],[36.26315722500016,40.27010175099997],[36.26252395400007,40.270337152000025],[36.26660461900008,40.263926703000095],[36.26356427500008,40.26283062400046],[36.25880807699997,40.26391159000019],[36.25933708700006,40.26228446900012],[36.25676455300004,40.261693069000216],[36.25658534400003,40.26178142900005],[36.25653213900017,40.26164099900035],[36.25556893100003,40.26141807800013],[36.2567592530001,40.25966489300009],[36.26219175200009,40.252471288000095],[36.264071423000075,40.24383496200011],[36.26955992400008,40.23473506900012],[36.2731121970001,40.2332334780001],[36.27771986900012,40.23446479500029],[36.28120450600005,40.232500490000064],[36.286375485000065,40.235835326000085],[36.291869666000025,40.235334024],[36.292864785000006,40.24040660500003],[36.29622134100009,40.24571764400014],[36.288332804000106,40.25728493899999],[36.29053128000015,40.26074729000021],[36.288278934999994,40.2635843060001],[36.289674670000124,40.26800656100016],[36.28953295900004,40.26853470300017],[36.29006669700016,40.26922180400027],[36.29178878258506,40.26963657267481],[36.291878642614336,40.26976879948103],[36.291747632258875,40.269873355161735]]],"type":"Polygon"}},{"type":"Feature","properties":{"area_id":"TR-60-006-70926","name_tr":"Tekke","area_level":"neighbourhood","parent_id":"TR-60-006","endeksa_id":70926},"geometry":{"coordinates":[[[36.30185141300018,40.24318012800029],[36.30349759700016,40.24578530100064],[36.301128027000175,40.25294677700009],[36.29709120600006,40.25435742999997],[36.29968897900011,40.25907084000005],[36.30092066599997,40.25869993800063],[36.299819832000026,40.26213795700011],[36.30068380600011,40.26176144800013],[36.30274363100011,40.26550741700015],[36.301556733000155,40.26810075300068],[36.305115059,40.27030429200016],[36.304550723000034,40.27042576800005],[36.307755199000155,40.270577686000365],[36.30984247700019,40.270813989000146],[36.31051593800004,40.271586609999986],[36.31033509698676,40.272488130413194],[36.31013000000007,40.2719500000004],[36.304360000000145,40.272030000000086],[36.30303000000009,40.27242000000024],[36.30143000000004,40.272280000000706],[36.30009000000018,40.271970000000124],[36.29945000000015,40.271560000000136],[36.29644000000019,40.27075000000059],[36.295710000000156,40.270420000000286],[36.29473000000007,40.270210000000134],[36.294130000000166,40.269900000000064],[36.291747632258875,40.269873355161735],[36.291878642614336,40.26976879948103],[36.29178878258506,40.26963657267481],[36.29006669700016,40.26922180400027],[36.28953295900004,40.26853470300017],[36.289674670000124,40.26800656100016],[36.288278934999994,40.2635843060001],[36.29053128000015,40.26074729000021],[36.288332804000106,40.25728493899999],[36.296170860000075,40.24579165500063],[36.29740918400006,40.247919456000204],[36.30185141300018,40.24318012800029]]],"type":"Polygon"}},{"type":"Feature","properties":{"area_id":"TR-60-006-2030458","name_tr":"Ocaklı Köyü","area_level":"neighbourhood","parent_id":"TR-60-006","endeksa_id":2030458},"geometry":{"coordinates":[[[36.35299367068069,40.26733072269377],[36.35375460000006,40.27071278200003],[36.35022924000003,40.2746134090001],[36.345461453000155,40.27484785700045],[36.34068515300004,40.27819517500012],[36.33901898200014,40.28058896600021],[36.33882118500003,40.28045129200018],[36.338800819000085,40.280902401000105],[36.33842845700019,40.280757505000565],[36.33868149900019,40.280396937000035],[36.33857639000007,40.280356036000114],[36.340692773000114,40.274917222000056],[36.33505946200006,40.27319724200004],[36.33417393200017,40.26859423800039],[36.33532825899999,40.26718607100014],[36.33530966000018,40.26706805200041],[36.32987655500011,40.26659319000038],[36.32917169000018,40.265426266000134],[36.328901384000176,40.265242869000474],[36.32820679200006,40.265490686000135],[36.327569980000135,40.26489907199999],[36.327421298000104,40.265828831000135],[36.326829884000006,40.26617199700007],[36.32608996699997,40.268961975000025],[36.32343107100007,40.27013453800015],[36.32004115799998,40.268804179000085],[36.31378594299997,40.27524233500026],[36.31216036395864,40.27395854416659],[36.31206000000009,40.273760000000266],[36.31237000000016,40.27331000000015],[36.31232000000011,40.27321000000023],[36.312160000000176,40.273140000000126],[36.311850000000106,40.27342000000016],[36.31033509698676,40.272488130413194],[36.31051593800004,40.271586609999986],[36.30984247700019,40.270813989000146],[36.307755199000155,40.270577686000365],[36.304550723000034,40.27042576800005],[36.305115059,40.27030429200016],[36.301556733000155,40.26810075300068],[36.30274363100011,40.26550741700015],[36.30068380600011,40.26176144800013],[36.299819832000026,40.26213795700011],[36.30092066599997,40.25869993800063],[36.29968897900011,40.25907084000005],[36.29709120600006,40.25435742999997],[36.301128027000175,40.25294677700009],[36.30349759700016,40.24578530100064],[36.30185141300018,40.24318012800029],[36.30543407800002,40.23935772400057],[36.305329117000156,40.236966783000184],[36.31140460000006,40.23173341300043],[36.31805847499999,40.21894525100015],[36.32433064005687,40.2151676747892],[36.32455463168532,40.215232472009404],[36.327800000000195,40.216860000000395],[36.32990000000018,40.21828000000062],[36.33188000000007,40.22042000000005],[36.33433000000008,40.22255000000007],[36.33980000000008,40.22567000000032],[36.3427200000001,40.22976000000011],[36.34319000000011,40.232880000000705],[36.34319000000011,40.235820000000274],[36.343070000000125,40.23813000000024],[36.3435800000002,40.24171000000018],[36.34294000000017,40.24188000000004],[36.34248000000014,40.24225000000007],[36.34225000000009,40.24262000000016],[36.343010000000106,40.24234000000041],[36.343510000000094,40.242300000000114],[36.34401000000008,40.24194000000017],[36.345830000000035,40.24293000000023],[36.34570000000008,40.24305000000021],[36.345960000000105,40.24321000000009],[36.34618000000023,40.24311000000017],[36.34730000000013,40.2437700000001],[36.3477900000002,40.243880000000104],[36.348620000000096,40.244590000000414],[36.34891000000016,40.244710000000396],[36.3491800000001,40.24500000000023],[36.34937000000019,40.24548000000016],[36.34913000000006,40.245850000000246],[36.349430000000154,40.24613000000011],[36.349390000000085,40.24645000000015],[36.34910000000025,40.24626000000006],[36.34894000000014,40.24649000000005],[36.34914000000015,40.24719000000027],[36.349820000000136,40.247310000000255],[36.349950000000206,40.24769000000026],[36.34866000000005,40.24791000000016],[36.34814000000017,40.24833000000007],[36.34764000000024,40.248520000000156],[36.348000000000184,40.249360000000195],[36.34863000000007,40.25008000000008],[36.34929000000011,40.25058000000007],[36.34932000000015,40.25076000000007],[36.34894000000014,40.251860000000136],[36.34857000000005,40.25193000000024],[36.34854000000007,40.25178000000005],[36.34814000000017,40.25185000000016],[36.34813000000008,40.25207000000006],[36.34681000000012,40.25197000000014],[36.34678000000014,40.25219000000027],[36.3466200000002,40.25228000000004],[36.345960000000105,40.25136000000066],[36.34560000000016,40.25117000000057],[36.345122393681436,40.250698045611614],[36.34519113299842,40.25084277312635],[36.34512134462227,40.25098842567024],[36.34472272757711,40.2510503147206],[36.34498000000019,40.25108000000023],[36.34510000000017,40.2513900000003],[36.34494000000012,40.25158000000039],[36.346050000000105,40.25240000000019],[36.34628000000015,40.25291000000033],[36.346980000000144,40.25393000000014],[36.346920000000125,40.254590000000064],[36.34637000000009,40.25452000000064],[36.346020000000124,40.254220000000146],[36.34492000000006,40.25523000000004],[36.34430000000009,40.254930000000456],[36.34409000000011,40.25497000000024],[36.34550000000007,40.255860000000666],[36.34572000000014,40.25619000000029],[36.34620000000007,40.25632000000036],[36.34652000000011,40.25728000000021],[36.346390000000156,40.257570000000044],[36.346730000000036,40.258500000000254],[36.34681000000012,40.25950000000057],[36.34668000000016,40.260200000000225],[36.34695000000016,40.26055000000008],[36.34687000000008,40.26078000000007],[36.346420000000194,40.260910000000194],[36.345920000000206,40.260910000000194],[36.34601000000015,40.26158000000004],[36.34581000000014,40.26168000000047],[36.34573000000012,40.26157000000006],[36.34581000000014,40.261220000000094],[36.34564000000012,40.26124000000033],[36.3455800000001,40.26138000000037],[36.34523000000013,40.26140000000004],[36.34533000000005,40.26118000000031],[36.34514000000013,40.261000000000365],[36.34480000000008,40.261000000000365],[36.344690000000185,40.260690000000295],[36.34423000000015,40.26095000000032],[36.34441000000015,40.26119000000028],[36.34432000000015,40.26152000000019],[36.3449700000001,40.26157000000006],[36.34495000000004,40.261960000000215],[36.344160000000045,40.261770000000126],[36.343910000000164,40.262270000000285],[36.343500000000176,40.26203000000032],[36.34308000000004,40.26195000000007],[36.34330000000011,40.26267000000013],[36.34290000000004,40.26297000000011],[36.34283000000016,40.26282000000032],[36.342550000000074,40.26293000000015],[36.34261000000021,40.263200000000325],[36.342370000000074,40.26330000000024],[36.342180000000155,40.263040000000046],[36.341960000000086,40.26300000000026],[36.34160000000014,40.263450000000034],[36.34163000000012,40.2636200000004],[36.341490000000135,40.263670000000275],[36.34024000000005,40.26334000000014],[36.34033000000005,40.26372000000015],[36.340570000000184,40.26403000000022],[36.340470000000096,40.26426000000009],[36.34068000000008,40.26442000000014],[36.34052000000014,40.26465000000036],[36.34050000000008,40.26490000000007],[36.34036000000003,40.26505000000009],[36.34019000000018,40.26504000000011],[36.33993000000015,40.26560000000012],[36.33962000000008,40.26589000000013],[36.33971000000008,40.26603000000017],[36.33932000000016,40.26613000000009],[36.33915000000013,40.266300000000456],[36.33915000000013,40.26642000000044],[36.33962000000008,40.26654000000042],[36.3394600000002,40.266890000000274],[36.3392800000002,40.26694000000015],[36.339675716107024,40.26707454801249],[36.3393544440778,40.26711812400242],[36.33928072035144,40.267356166910645],[36.33925000000005,40.267290000000116],[36.33885000000015,40.26728000000071],[36.338710000000106,40.26735000000065],[36.338580000000036,40.26821000000058],[36.3393364807323,40.2682887628107],[36.339760000000126,40.268350000000794],[36.33972005433736,40.267940036826985],[36.33997000000011,40.268100000000175],[36.34156000000024,40.268100000000175],[36.34163000000012,40.26829000000026],[36.341430000000116,40.26855000000046],[36.34179000000006,40.2691700000006],[36.341310000000135,40.26950000000022],[36.34039000000024,40.26991000000004],[36.33949000000018,40.26954000000012],[36.339080000000195,40.26979000000006],[36.33862000000016,40.26979000000006],[36.33764000000008,40.27077000000014],[36.338020000000256,40.27182000000033],[36.338710000000106,40.27246000000014],[36.338990000000194,40.27239000000003],[36.33915000000013,40.27252000000067],[36.339110000000176,40.2728800000001],[36.33941000000016,40.272830000000056],[36.339450000000056,40.27273000000031],[36.33957000000004,40.272930000000486],[36.34005000000013,40.272750000000144],[36.34019000000018,40.27261000000033],[36.34042000000005,40.272800000000416],[36.34036000000003,40.2729200000004],[36.34054000000003,40.27304000000038],[36.34129000000007,40.27320000000009],[36.341520000000116,40.27307000000019],[36.341680000000224,40.27267000000029],[36.34107000000017,40.27247000000011],[36.341220000000135,40.27230000000026],[36.341060000000084,40.27207000000038],[36.34084000000013,40.27211000000017],[36.340750000000185,40.27190000000053],[36.34111000000013,40.271850000000654],[36.34114000000011,40.27158000000037],[36.34132000000005,40.27146000000039],[36.341620000000034,40.27150000000012],[36.34182000000004,40.272030000000086],[36.34252000000009,40.27202000000051],[36.343100000000106,40.27134000000041],[36.34336000000013,40.271170000000154],[36.3436700000002,40.27111000000053],[36.34412000000009,40.27066000000025],[36.34440000000018,40.270760000000166],[36.34423000000015,40.27093000000019],[36.34448000000003,40.27111000000053],[36.34472000000022,40.27116000000041],[36.34493000000015,40.270920000000444],[36.34613000000013,40.27071000000012],[36.346260000000086,40.27075000000059],[36.346230000000105,40.27094000000068],[36.3464400000002,40.27108000000021],[36.346880000000056,40.271100000000274],[36.3468400000001,40.27128000000039],[36.346980000000144,40.27129000000036],[36.347040000000106,40.271100000000274],[36.34764000000024,40.27096000000023],[36.3478300000001,40.2707400000001],[36.347850000000165,40.27016000000009],[36.34777000000014,40.270020000000045],[36.347840000000076,40.269800000000146],[36.34768000000014,40.26971000000037],[36.347720000000095,40.26957000000033],[36.34752000000026,40.269520000000284],[36.347600000000114,40.269180000000176],[36.347720000000095,40.269210000000385],[36.347850000000165,40.26886000000053],[36.348060000000146,40.26888000000008],[36.34851000000009,40.26836000000037],[36.348930000000166,40.267290000000116],[36.34907000000004,40.26758000000012],[36.34960000000018,40.26790000000017],[36.34960000000018,40.268070000000534],[36.35025000000019,40.268190000000516],[36.350270000000194,40.26808000000011],[36.35142000000013,40.268070000000534],[36.351630000000114,40.26798000000019],[36.35147000000023,40.267660000000035],[36.35199000000006,40.26767000000012],[36.352370000000064,40.26730000000009],[36.35299367068069,40.26733072269377]]],"type":"Polygon"}},{"type":"Feature","properties":{"area_id":"TR-60-006-70924","name_tr":"Seyitali","area_level":"neighbourhood","parent_id":"TR-60-006","endeksa_id":70924},"geometry":{"coordinates":[[[36.28764521531832,40.271965333204435],[36.28748373600001,40.27206696800016],[36.287051157000064,40.271905565],[36.286964001000115,40.27202667000017],[36.28716334400019,40.2722686220003],[36.286939950000146,40.27240922600021],[36.28345207500013,40.27630765100008],[36.278033317000165,40.27567375900003],[36.27262351899998,40.27597309000021],[36.26063280700015,40.273553838000055],[36.262540465000086,40.2703519210001],[36.26690636500018,40.26857483600003],[36.26823750700004,40.26499249300036],[36.27424859000007,40.26917574300012],[36.2767465070001,40.266281953000146],[36.28149171200005,40.26538464200007],[36.288094738000154,40.27170327200008],[36.28764521531832,40.271965333204435]]],"type":"Polygon"}},{"type":"Feature","properties":{"area_id":"TR-60-006-2030455","name_tr":"Doğancalı Köyü","area_level":"neighbourhood","parent_id":"TR-60-006","endeksa_id":2030455},"geometry":{"coordinates":[[[36.35299367068069,40.26733072269377],[36.352370000000064,40.26730000000009],[36.35199000000006,40.26767000000012],[36.35147000000023,40.267660000000035],[36.351630000000114,40.26798000000019],[36.35142000000013,40.268070000000534],[36.350270000000194,40.26808000000011],[36.35025000000019,40.268190000000516],[36.34960000000018,40.268070000000534],[36.34960000000018,40.26790000000017],[36.34907000000004,40.26758000000012],[36.348930000000166,40.267290000000116],[36.34851000000009,40.26836000000037],[36.348060000000146,40.26888000000008],[36.347850000000165,40.26886000000053],[36.347720000000095,40.269210000000385],[36.347600000000114,40.269180000000176],[36.34752000000026,40.269520000000284],[36.347720000000095,40.26957000000033],[36.34768000000014,40.26971000000037],[36.347840000000076,40.269800000000146],[36.34777000000014,40.270020000000045],[36.347850000000165,40.27016000000009],[36.3478300000001,40.2707400000001],[36.34764000000024,40.27096000000023],[36.347040000000106,40.271100000000274],[36.346980000000144,40.27129000000036],[36.3468400000001,40.27128000000039],[36.346880000000056,40.271100000000274],[36.3464400000002,40.27108000000021],[36.346230000000105,40.27094000000068],[36.346260000000086,40.27075000000059],[36.34613000000013,40.27071000000012],[36.34493000000015,40.270920000000444],[36.34472000000022,40.27116000000041],[36.34448000000003,40.27111000000053],[36.34423000000015,40.27093000000019],[36.34440000000018,40.270760000000166],[36.34412000000009,40.27066000000025],[36.3436700000002,40.27111000000053],[36.34336000000013,40.271170000000154],[36.343100000000106,40.27134000000041],[36.34252000000009,40.27202000000051],[36.34182000000004,40.272030000000086],[36.341620000000034,40.27150000000012],[36.34132000000005,40.27146000000039],[36.34114000000011,40.27158000000037],[36.34111000000013,40.271850000000654],[36.340750000000185,40.27190000000053],[36.34084000000013,40.27211000000017],[36.341060000000084,40.27207000000038],[36.341220000000135,40.27230000000026],[36.34107000000017,40.27247000000011],[36.341680000000224,40.27267000000029],[36.341520000000116,40.27307000000019],[36.34129000000007,40.27320000000009],[36.34054000000003,40.27304000000038],[36.34036000000003,40.2729200000004],[36.34042000000005,40.272800000000416],[36.34019000000018,40.27261000000033],[36.34005000000013,40.272750000000144],[36.33957000000004,40.272930000000486],[36.339450000000056,40.27273000000031],[36.33941000000016,40.272830000000056],[36.339110000000176,40.2728800000001],[36.33915000000013,40.27252000000067],[36.338990000000194,40.27239000000003],[36.338710000000106,40.27246000000014],[36.338020000000256,40.27182000000033],[36.33764000000008,40.27077000000014],[36.33862000000016,40.26979000000006],[36.339080000000195,40.26979000000006],[36.33949000000018,40.26954000000012],[36.34039000000024,40.26991000000004],[36.341310000000135,40.26950000000022],[36.34179000000006,40.2691700000006],[36.341430000000116,40.26855000000046],[36.34163000000012,40.26829000000026],[36.34156000000024,40.268100000000175],[36.33997000000011,40.268100000000175],[36.33972005433736,40.267940036826985],[36.339760000000126,40.268350000000794],[36.3393364807323,40.2682887628107],[36.338580000000036,40.26821000000058],[36.338710000000106,40.26735000000065],[36.33885000000015,40.26728000000071],[36.33925000000005,40.267290000000116],[36.33928072035144,40.267356166910645],[36.3393544440778,40.26711812400242],[36.339675716107024,40.26707454801249],[36.3392800000002,40.26694000000015],[36.3394600000002,40.266890000000274],[36.33962000000008,40.26654000000042],[36.33915000000013,40.26642000000044],[36.33915000000013,40.266300000000456],[36.33932000000016,40.26613000000009],[36.33971000000008,40.26603000000017],[36.33962000000008,40.26589000000013],[36.33993000000015,40.26560000000012],[36.34019000000018,40.26504000000011],[36.34036000000003,40.26505000000009],[36.34050000000008,40.26490000000007],[36.34052000000014,40.26465000000036],[36.34068000000008,40.26442000000014],[36.340470000000096,40.26426000000009],[36.340570000000184,40.26403000000022],[36.34033000000005,40.26372000000015],[36.34024000000005,40.26334000000014],[36.341490000000135,40.263670000000275],[36.34163000000012,40.2636200000004],[36.34160000000014,40.263450000000034],[36.341960000000086,40.26300000000026],[36.342180000000155,40.263040000000046],[36.342370000000074,40.26330000000024],[36.34261000000021,40.263200000000325],[36.342550000000074,40.26293000000015],[36.34283000000016,40.26282000000032],[36.34290000000004,40.26297000000011],[36.34330000000011,40.26267000000013],[36.34308000000004,40.26195000000007],[36.343500000000176,40.26203000000032],[36.343910000000164,40.262270000000285],[36.344160000000045,40.261770000000126],[36.34495000000004,40.261960000000215],[36.3449700000001,40.26157000000006],[36.34432000000015,40.26152000000019],[36.34441000000015,40.26119000000028],[36.34423000000015,40.26095000000032],[36.344690000000185,40.260690000000295],[36.34480000000008,40.261000000000365],[36.34514000000013,40.261000000000365],[36.34533000000005,40.26118000000031],[36.34523000000013,40.26140000000004],[36.3455800000001,40.26138000000037],[36.34564000000012,40.26124000000033],[36.34581000000014,40.261220000000094],[36.34573000000012,40.26157000000006],[36.34581000000014,40.26168000000047],[36.34601000000015,40.26158000000004],[36.345920000000206,40.260910000000194],[36.346420000000194,40.260910000000194],[36.34687000000008,40.26078000000007],[36.34695000000016,40.26055000000008],[36.34668000000016,40.260200000000225],[36.34681000000012,40.25950000000057],[36.346730000000036,40.258500000000254],[36.346390000000156,40.257570000000044],[36.34652000000011,40.25728000000021],[36.34620000000007,40.25632000000036],[36.34572000000014,40.25619000000029],[36.34550000000007,40.255860000000666],[36.34409000000011,40.25497000000024],[36.34430000000009,40.254930000000456],[36.34492000000006,40.25523000000004],[36.346020000000124,40.254220000000146],[36.34637000000009,40.25452000000064],[36.346920000000125,40.254590000000064],[36.346980000000144,40.25393000000014],[36.34628000000015,40.25291000000033],[36.346050000000105,40.25240000000019],[36.34494000000012,40.25158000000039],[36.34510000000017,40.2513900000003],[36.34498000000019,40.25108000000023],[36.34472272757711,40.2510503147206],[36.34512134462227,40.25098842567024],[36.34519113299842,40.25084277312635],[36.345122393681436,40.250698045611614],[36.34560000000016,40.25117000000057],[36.345960000000105,40.25136000000066],[36.3466200000002,40.25228000000004],[36.34678000000014,40.25219000000027],[36.34681000000012,40.25197000000014],[36.34813000000008,40.25207000000006],[36.34814000000017,40.25185000000016],[36.34854000000007,40.25178000000005],[36.34857000000005,40.25193000000024],[36.34894000000014,40.251860000000136],[36.34932000000015,40.25076000000007],[36.34929000000011,40.25058000000007],[36.34863000000007,40.25008000000008],[36.348000000000184,40.249360000000195],[36.34764000000024,40.248520000000156],[36.34814000000017,40.24833000000007],[36.34866000000005,40.24791000000016],[36.349950000000206,40.24769000000026],[36.349820000000136,40.247310000000255],[36.34914000000015,40.24719000000027],[36.34894000000014,40.24649000000005],[36.34910000000025,40.24626000000006],[36.349390000000085,40.24645000000015],[36.349430000000154,40.24613000000011],[36.34913000000006,40.245850000000246],[36.34937000000019,40.24548000000016],[36.3491800000001,40.24500000000023],[36.34891000000016,40.244710000000396],[36.348620000000096,40.244590000000414],[36.3477900000002,40.243880000000104],[36.34730000000013,40.2437700000001],[36.34618000000023,40.24311000000017],[36.345960000000105,40.24321000000009],[36.34570000000008,40.24305000000021],[36.345830000000035,40.24293000000023],[36.34401000000008,40.24194000000017],[36.343510000000094,40.242300000000114],[36.343010000000106,40.24234000000041],[36.34225000000009,40.24262000000016],[36.34248000000014,40.24225000000007],[36.34294000000017,40.24188000000004],[36.3435800000002,40.24171000000018],[36.343070000000125,40.23813000000024],[36.34319000000011,40.235820000000274],[36.34319000000011,40.232880000000705],[36.3427200000001,40.22976000000011],[36.33980000000008,40.22567000000032],[36.33433000000008,40.22255000000007],[36.33188000000007,40.22042000000005],[36.32990000000018,40.21828000000062],[36.327800000000195,40.216860000000395],[36.32455463168532,40.215232472009404],[36.324480203876135,40.21512666629144],[36.32450000000017,40.21189000000004],[36.32346000000007,40.210790000000486],[36.32313000000016,40.21009000000015],[36.32324000000017,40.209710000000655],[36.32317000000006,40.208660000000464],[36.32330000000019,40.20844000000005],[36.323960000000056,40.20795000000015],[36.32407000000012,40.207810000000336],[36.32408000000004,40.20755000000031],[36.32313000000016,40.20700000000028],[36.32278000000014,40.205740000000446],[36.322970000000055,40.205430000000376],[36.3230200000001,40.2047000000004],[36.31997000000018,40.20025000000027],[36.32158256212631,40.19972312326581],[36.32515971372453,40.19853278131018],[36.328670000000045,40.197320000000104],[36.331000000000074,40.19572000000005],[36.33380000000011,40.19483000000014],[36.33624977820017,40.192881983600216],[36.336230000000114,40.19279000000046],[36.33680000000021,40.192240000000425],[36.33766152979365,40.192568130252994],[36.337870000000066,40.19238000000064],[36.33808000000005,40.19234000000017],[36.33875101468067,40.192845706097785],[36.339826720540884,40.1931232794596],[36.339790000000164,40.19275000000016],[36.34172000000012,40.19340000000034],[36.3520400000001,40.19848000000019],[36.35356000000013,40.19879000000026],[36.35578000000015,40.198930000000075],[36.35799000000003,40.19875000000047],[36.36003000000005,40.198930000000075],[36.372910000000104,40.19911000000042],[36.37274000000008,40.2011500000001],[36.37274000000008,40.20694000000026],[36.373560000000055,40.210860000000594],[36.37519000000009,40.215840000000526],[36.37546000000009,40.22591000000028],[36.374880000000246,40.226130000000694],[36.3747400000002,40.226340000000334],[36.37476000000004,40.22689000000037],[36.37620000000021,40.23231000000044],[36.37803000000008,40.235950000000344],[36.36843000000016,40.246630000000096],[36.36896000000013,40.25100000000003],[36.36715000000015,40.25216000000006],[36.36706000000015,40.252480000000276],[36.367851094148705,40.2560292332077],[36.3682815595962,40.257445275357725],[36.36769818551329,40.2645209254772],[36.365909826482834,40.26882364816521],[36.365787557517024,40.268886033237095],[36.36320947089018,40.268421785511464],[36.35846000000021,40.267600000000186],[36.35299367068069,40.26733072269377]]],"type":"Polygon"}},{"type":"Feature","properties":{"area_id":"TR-60-006-99167","name_tr":"Mehmet Akif Ersoy","area_level":"neighbourhood","parent_id":"TR-60-006","endeksa_id":99167},"geometry":{"coordinates":[[[36.19761711299998,40.26388729000013],[36.19511293104898,40.264578653468504],[36.195031001182485,40.262013224520445],[36.19761711299998,40.26388729000013]]],"type":"Polygon"}},{"type":"Feature","properties":{"area_id":"TR-60-006-2030451","name_tr":"Çayköy Köyü","area_level":"neighbourhood","parent_id":"TR-60-006","endeksa_id":2030451},"geometry":{"coordinates":[[[36.12432599500016,40.285473868999986],[36.12411169100005,40.285415935000174],[36.12420375700003,40.28577003800007],[36.12239444700003,40.28583176700016],[36.11941324000003,40.284159965000356],[36.11806896700011,40.28556600899998],[36.11827544400006,40.283667654000055],[36.111655051000184,40.28321729400011],[36.109359538000035,40.28574638000043],[36.10927211300003,40.283833755000046],[36.109154963000094,40.28375846600011],[36.10902764400015,40.28381819700013],[36.10925615700012,40.283410753],[36.10922208000005,40.28290077900044],[36.10743037100002,40.28160914600005],[36.10848885800016,40.28182539000005],[36.111873437000156,40.27487485500001],[36.11146057700006,40.27019257300003],[36.1154646490001,40.26935536700057],[36.113631474000044,40.26536465200019],[36.11855272400004,40.25787542300003],[36.118629085000066,40.25771688600014],[36.11768774400008,40.25694601600014],[36.12086306100019,40.25519826499999],[36.123488644000076,40.250489602000584],[36.121960884000146,40.25052968000017],[36.12152490800014,40.247250342000086],[36.125135578000084,40.24084550400039],[36.12515773100006,40.23651040300007],[36.12109681600009,40.23308408500009],[36.12339438499998,40.22973961300016],[36.12574280200005,40.22878179300028],[36.121871811000176,40.21034578300009],[36.1187954400001,40.20673179900035],[36.119185641000115,40.204384061999974],[36.11605216400011,40.197677295999995],[36.11662756100003,40.19687744100003],[36.11653944800008,40.19681248900048],[36.11686671799998,40.19651365200053],[36.11670893700017,40.1963973440005],[36.117573408000055,40.19525102799997],[36.11810831100013,40.19475355000003],[36.118384739000135,40.19433422700024],[36.118432019000124,40.194369079000126],[36.11880340300013,40.1938885440004],[36.11874715000016,40.193847077999976],[36.11888697500012,40.19383167500007],[36.126456997000105,40.1886803700001],[36.12296808000019,40.196212758000684],[36.12298908500003,40.19630791000003],[36.12313820400004,40.19633776400019],[36.13104543433985,40.193803680051644],[36.131253823421844,40.19387062726457],[36.132840000000044,40.19662000000045],[36.13237000000004,40.2005400000001],[36.1322600000002,40.20347000000021],[36.133890000000065,40.20953000000014],[36.134940000000256,40.211930000000336],[36.13517000000007,40.21362000000016],[36.13517000000007,40.2158500000001],[36.13564000000008,40.217630000000156],[36.13648000000012,40.22244000000023],[36.13474000000019,40.2249700000001],[36.13351000000006,40.227240000000165],[36.13351000000006,40.22845000000012],[36.13206000000014,40.23029000000031],[36.132250000000056,40.23029000000031],[36.13233000000014,40.23085000000043],[36.13246000000004,40.23112000000003],[36.132430000000056,40.23127000000039],[36.132220000000075,40.23130000000003],[36.132350000000145,40.231790000000046],[36.13259000000011,40.23206000000039],[36.13245000000012,40.2322200000001],[36.13303000000013,40.23231000000044],[36.13351000000006,40.23258000000004],[36.133520000000146,40.23286000000047],[36.13334000000003,40.23333000000031],[36.133180000000095,40.233440000000144],[36.13361000000015,40.233780000000195],[36.133520000000146,40.2339000000004],[36.133670000000166,40.233990000000176],[36.133180000000095,40.234300000000246],[36.13249000000019,40.235200000000134],[36.132410000000164,40.23543000000012],[36.13246000000004,40.23639000000037],[36.13286000000011,40.2374200000001],[36.13254000000006,40.23854000000006],[36.1322600000002,40.239100000000235],[36.13331000000022,40.23902000000015],[36.13431000000014,40.238830000000064],[36.13443000000012,40.23885000000013],[36.13440000000014,40.23907000000003],[36.13457000000017,40.23907000000003],[36.13460000000015,40.23947000000027],[36.1356100000001,40.23930000000041],[36.13650000000018,40.23955000000035],[36.1364700000002,40.24009000000041],[36.136650000000145,40.24057000000033],[36.13670000000019,40.24116000000015],[36.137140000000215,40.24188000000004],[36.13729000000018,40.241990000000044],[36.13713000000007,40.24229000000054],[36.13712000000015,40.242540000000076],[36.136310000000094,40.24404000000038],[36.135560000000226,40.244840000000124],[36.1355200000001,40.24543000000028],[36.13536000000016,40.2458400000001],[36.13545000000016,40.24654000000032],[36.13540000000012,40.24750000000034],[36.134980000000155,40.24931000000015],[36.13492000000019,40.250100000000145],[36.13523000000009,40.25055000000043],[36.13554000000016,40.251840000000584],[36.13548000000014,40.2527800000002],[36.13524000000018,40.25368000000009],[36.134140000000116,40.255340000000274],[36.13394000000011,40.255860000000666],[36.13394000000011,40.256290000000035],[36.13438000000008,40.25786000000005],[36.13419000000016,40.25960000000032],[36.134050000000116,40.26019000000014],[36.13354000000004,40.26154000000025],[36.133550000000184,40.26203000000032],[36.134330000000034,40.26412000000005],[36.13357000000019,40.267820000000086],[36.13341046819255,40.270512099252585],[36.12759398200012,40.273333976000515],[36.12860353500008,40.278478382],[36.126206817000025,40.2786850600001],[36.12762539100015,40.279900188000056],[36.125634525000066,40.280701729000214],[36.12565796400014,40.284992375000115],[36.12377122000004,40.284106415],[36.12387613700008,40.28423313100001],[36.123826697000084,40.284319178000146],[36.12409898600015,40.2853661470005],[36.12432599500016,40.285473868999986]]],"type":"Polygon"}},{"type":"Feature","properties":{"area_id":"TR-60-006-2030448","name_tr":"Bağlarbaşı Köyü","area_level":"neighbourhood","parent_id":"TR-60-006","endeksa_id":2030448},"geometry":{"coordinates":[[[36.2305379120001,40.19727041800007],[36.23042347500012,40.1973559430005],[36.228889271000014,40.20627446800012],[36.23191318300013,40.2095875120001],[36.232065388000024,40.21655457900005],[36.236784009000075,40.234634281000126],[36.23244048500004,40.24454881600002],[36.233412535000184,40.245567096000116],[36.23342214000019,40.245667190000006],[36.22905966799999,40.246991024000124],[36.22742882299997,40.25095882800014],[36.22731289400008,40.25101408900019],[36.22540725200014,40.25094227400001],[36.225141587999985,40.25436534100004],[36.22303731799997,40.25596892300035],[36.22313226900013,40.256084232000035],[36.223614794000184,40.25615525400008],[36.22376617800006,40.256390287000045],[36.223675999000136,40.25635520100019],[36.22360828500007,40.25655708000011],[36.2219407450001,40.25670338000009],[36.22400024400008,40.25959831300008],[36.222774360000074,40.261503992000144],[36.22263992000012,40.26155201800003],[36.22013110200004,40.261112989000026],[36.219624223000096,40.264395566000076],[36.21734919100015,40.26417397600005],[36.217224516000044,40.26422301100047],[36.217060305000075,40.2687824690006],[36.21107054599997,40.26833478300068],[36.210420643000134,40.27454091900046],[36.20660252700003,40.27601322700042],[36.20662152900019,40.27812814900011],[36.20237733800013,40.280784685000185],[36.203815928000154,40.28526666800053],[36.20611515000013,40.28594484100006],[36.20430908200012,40.28830472900046],[36.20408256000019,40.288298458000384],[36.20148625100006,40.28416726900025],[36.19784882100015,40.28224161000003],[36.196150568000064,40.28257715700016],[36.19608834100018,40.282655831000056],[36.195346154000106,40.28550017500004],[36.19525052300014,40.28557528400012],[36.188848638000024,40.283830944000044],[36.18917988417542,40.28010720904285],[36.1894200000001,40.27997000000033],[36.19108000000011,40.280120000000124],[36.191206521623315,40.279597347837864],[36.19128000000012,40.279590000000155],[36.19147000000004,40.2785600000002],[36.191820000000064,40.277670000000455],[36.18928000000005,40.27779000000044],[36.18910000000005,40.27650000000028],[36.19065000000006,40.27623000000017],[36.190670000000125,40.276490000000194],[36.19174000000021,40.27644000000032],[36.19162000000023,40.27549000000056],[36.1934500000001,40.275350000000344],[36.19326000000018,40.2745700000001],[36.19273000000004,40.27446000000009],[36.19192000000015,40.27446000000009],[36.19156000000004,40.2743500000002],[36.1915800000001,40.273430000000644],[36.19416000000024,40.27328000000034],[36.19406000000009,40.272620000000416],[36.19282000000021,40.272750000000144],[36.19267000000019,40.27173000000016],[36.19348000000008,40.27154000000007],[36.19333000000012,40.269990000000234],[36.193030000000135,40.268410000000245],[36.19310000000007,40.267910000000086],[36.19170000000008,40.26793000000032],[36.19174000000021,40.265590000000145],[36.193430000000205,40.26504000000011],[36.19512000000009,40.26480000000015],[36.19511293104898,40.264578653468504],[36.19761711299998,40.26388729000013],[36.20241484600007,40.262499776000084],[36.203015430000164,40.25837188500003],[36.203959011000165,40.25818295100004],[36.2040450180001,40.2581048780001],[36.20416897200005,40.25722315100006],[36.203710728000146,40.25683971800004],[36.20380306100009,40.25675541400017],[36.20413988300004,40.25679961900016],[36.20425345700005,40.256716884000184],[36.20664470000008,40.24063580500018],[36.206987009000045,40.24041271800013],[36.20712495100014,40.23995562700003],[36.20703035600019,40.239853650000214],[36.20719012800009,40.239803956],[36.20754402100016,40.239019051000525],[36.20794201700005,40.234688501000505],[36.207597081000074,40.23440071700014],[36.20760256700004,40.23420282600006],[36.211815149000074,40.20579085800057],[36.208454313000175,40.20117447900026],[36.20845084900003,40.19790136600005],[36.20849944700018,40.193497114000024],[36.21605925100005,40.192780338000034],[36.21616742400016,40.19267609100018],[36.21605966900006,40.19260360800013],[36.2160592460001,40.19278026300009],[36.216041115543874,40.192591967516876],[36.216510000000085,40.19272000000035],[36.217340000000036,40.19272000000035],[36.21812804488059,40.19260325261064],[36.22634848000001,40.19738817300015],[36.229631718000064,40.19717461199997],[36.2305379120001,40.19727041800007]]],"type":"Polygon"}},{"type":"Feature","properties":{"area_id":"TR-60-006-70921","name_tr":"Erkilet","area_level":"neighbourhood","parent_id":"TR-60-006","endeksa_id":70921},"geometry":{"coordinates":[[[36.31518633076661,40.2797468346169],[36.315010000000086,40.27991000000037],[36.312870000000146,40.279900000000225],[36.304750000000126,40.27941000000021],[36.29084000000012,40.27704000000023],[36.29071000000016,40.27678000000071],[36.29077000000018,40.276300000000106],[36.29055208141068,40.276113742150756],[36.29004000000015,40.275970000000484],[36.289800000000184,40.27577000000031],[36.28932000000009,40.27401000000032],[36.288740000000075,40.272400000000175],[36.28764521531832,40.271965333204435],[36.28797074665317,40.27177504927698],[36.291370000000086,40.26993000000027],[36.291747632258875,40.269873355161735],[36.294130000000166,40.269900000000064],[36.29473000000007,40.270210000000134],[36.295710000000156,40.270420000000286],[36.29644000000019,40.27075000000059],[36.29945000000015,40.271560000000136],[36.30009000000018,40.271970000000124],[36.30143000000004,40.272280000000706],[36.30303000000009,40.27242000000024],[36.304360000000145,40.272030000000086],[36.31013000000007,40.2719500000004],[36.31033509698676,40.272488130413194],[36.311850000000106,40.27342000000016],[36.312160000000176,40.273140000000126],[36.31232000000011,40.27321000000023],[36.31237000000016,40.27331000000015],[36.31206000000009,40.273760000000266],[36.31216036395864,40.27395854416659],[36.31378594299997,40.27524233500026],[36.313982772722625,40.27503974881489],[36.31397226834605,40.275178064296824],[36.314130620040146,40.27524049945305],[36.31961000000024,40.27459000000016],[36.31680000000006,40.27825000000013],[36.316310000000215,40.27868000000018],[36.31641000000013,40.27910000000014],[36.31626000000017,40.27936000000034],[36.3155500000002,40.27906000000036],[36.31540000000024,40.27927000000068],[36.31528000000026,40.27970000000005],[36.31518633076661,40.2797468346169]]],"type":"Polygon"}},{"type":"Feature","properties":{"area_id":"TR-60-006-70923","name_tr":"Merkez","area_level":"neighbourhood","parent_id":"TR-60-006","endeksa_id":70923},"geometry":{"coordinates":[[[36.28305936400005,40.29227540900018],[36.28294020100009,40.29217523000034],[36.28302104200009,40.29237442300007],[36.28139523400006,40.29161085300012],[36.28060173800014,40.28755468500003],[36.27998844799998,40.28717003500003],[36.2799369870001,40.287007588000336],[36.27701669900006,40.28593045700012],[36.28141714600008,40.279734115999986],[36.28153137300001,40.27917967400049],[36.28345207500013,40.27630765100008],[36.286939950000146,40.27240922600021],[36.28716334400019,40.2722686220003],[36.286964001000115,40.27202667000017],[36.287051157000064,40.271905565],[36.28748373600001,40.27206696800016],[36.28764521531832,40.271965333204435],[36.288740000000075,40.272400000000175],[36.28932000000009,40.27401000000032],[36.289800000000184,40.27577000000031],[36.29004000000015,40.275970000000484],[36.29055208141068,40.276113742150756],[36.290487548000044,40.27716467500011],[36.28973514300009,40.27774928299999],[36.289264910000156,40.27776961100011],[36.28812651100003,40.276879905000044],[36.28753625300004,40.27690552800044],[36.28654788300014,40.27798685000005],[36.286280143,40.27884310900026],[36.28596981300012,40.2815416090001],[36.284386909000034,40.28573628500004],[36.28403278000013,40.28710959800043],[36.28401046400006,40.28787104000037],[36.285100620862124,40.28827918072159],[36.28518286306712,40.288385619749135],[36.28500753500913,40.288514150240985],[36.283996597000055,40.28834420300035],[36.28424857100015,40.29202222000015],[36.28418009500018,40.29216423700041],[36.283276701000034,40.2923738720001],[36.28305936400005,40.29227540900018]]],"type":"Polygon"}},{"type":"Feature","properties":{"area_id":"TR-60-006-2030454","name_tr":"Dereköy Köyü","area_level":"neighbourhood","parent_id":"TR-60-006","endeksa_id":2030454},"geometry":{"coordinates":[[[36.21788102127175,40.28908746503146],[36.212711033999994,40.2926415460002],[36.21079326900008,40.290718274000085],[36.21083931800007,40.29008858999998],[36.21015894200008,40.290107995000085],[36.20960073200007,40.28957094800069],[36.20947912000014,40.28961437300046],[36.20912404900014,40.290136038000185],[36.20532492000012,40.290224759000694],[36.204268236000075,40.28843559400036],[36.20430908200012,40.28830472900046],[36.20611515000013,40.28594484100006],[36.203815928000154,40.28526666800053],[36.20237733800013,40.280784685000185],[36.20662152900019,40.27812814900011],[36.20660252700003,40.27601322700042],[36.210420643000134,40.27454091900046],[36.21107054599997,40.26833478300068],[36.217060305000075,40.2687824690006],[36.217224516000044,40.26422301100047],[36.21734919100015,40.26417397600005],[36.219624223000096,40.264395566000076],[36.22013110200004,40.261112989000026],[36.22263992000012,40.26155201800003],[36.222774360000074,40.261503992000144],[36.22400024400008,40.25959831300008],[36.2219407450001,40.25670338000009],[36.22360828500007,40.25655708000011],[36.223675999000136,40.25635520100019],[36.22376617800006,40.256390287000045],[36.223614794000184,40.25615525400008],[36.22313226900013,40.256084232000035],[36.22303731799997,40.25596892300035],[36.225141587999985,40.25436534100004],[36.22540725200014,40.25094227400001],[36.22731289400008,40.25101408900019],[36.22742882299997,40.25095882800014],[36.22905966799999,40.246991024000124],[36.23342214000019,40.245667190000006],[36.233412535000184,40.245567096000116],[36.23244048500004,40.24454881600002],[36.236784009000075,40.234634281000126],[36.232065388000024,40.21655457900005],[36.23191318300013,40.2095875120001],[36.228889271000014,40.20627446800012],[36.23042347500012,40.1973559430005],[36.2305379120001,40.19727041800007],[36.238654506000046,40.196609544000296],[36.241857810000056,40.197499082000036],[36.241403206000086,40.19911944000012],[36.24894464000005,40.2013718390001],[36.25109077900004,40.20066816700029],[36.251012682000066,40.200765735000004],[36.25110541500004,40.20085433800068],[36.25231784700014,40.20086265700007],[36.25243197800012,40.200950316000274],[36.252376979000076,40.20104256100018],[36.25077358600004,40.201836454000045],[36.25213556699998,40.20716035800001],[36.25431803900011,40.207794042000046],[36.25858709099998,40.216569493000065],[36.25431640300013,40.219073938000406],[36.2560268310001,40.221008885],[36.254131828000084,40.227281574000585],[36.26534102000005,40.23119639100008],[36.26953694700006,40.23462579900047],[36.26955992400008,40.23473506900012],[36.264071423000075,40.24383496200011],[36.26219175200009,40.252471288000095],[36.2567592530001,40.25966489300009],[36.25556893100003,40.26141807800013],[36.25571856900018,40.26145248400047],[36.25541174100016,40.261449829000185],[36.25407216000008,40.26318368],[36.25176438700004,40.262729566000075],[36.24701209800003,40.267246779000004],[36.244704499000136,40.267192285000476],[36.24465167300019,40.26711054400005],[36.244782066000084,40.265469941000106],[36.242155565000076,40.26458151800006],[36.24201742500003,40.264652115000445],[36.240974877999975,40.267447608000055],[36.23616386399999,40.26624529400004],[36.23553860600015,40.272245825000084],[36.23143547900003,40.277268738000146],[36.23150038300008,40.27737266100013],[36.233865996000134,40.27825452600018],[36.23337581099997,40.279513103000454],[36.230823729000065,40.28076683300009],[36.230718468000134,40.28070654200019],[36.22998613200008,40.279292842000075],[36.22978971600003,40.27926473100018],[36.22698634700015,40.28375111100013],[36.22685605200013,40.28378154200004],[36.22497774300007,40.28335805900008],[36.22483574800009,40.28341125800017],[36.22577850400012,40.285643695000374],[36.22574861400017,40.28574205000007],[36.22273055599999,40.287225068000566],[36.222606806000044,40.28719768000008],[36.221822235000104,40.28649416500008],[36.22166520500008,40.286486344000195],[36.21788102127175,40.28908746503146]]],"type":"Polygon"}},{"type":"Feature","properties":{"area_id":"TR-60-006-2030457","name_tr":"Menteşe Köyü","area_level":"neighbourhood","parent_id":"TR-60-006","endeksa_id":2030457},"geometry":{"coordinates":[[[36.2441426961484,40.293169722926734],[36.24398188912386,40.29326871371177],[36.24381973806186,40.29316452690148],[36.24393498800015,40.29226357600004],[36.242504997000026,40.29269768200004],[36.242462056000136,40.292788482000276],[36.24241239899999,40.292725792000056],[36.24127879800011,40.29306992200014],[36.24000853700005,40.28969103800017],[36.23900530800012,40.28842450999997],[36.23664153499999,40.28770115900011],[36.23740049500009,40.290772424000124],[36.23780680600004,40.29157558300005],[36.23763594400015,40.29172521100014],[36.237803359000054,40.29240268300009],[36.23491695800004,40.294361145000096],[36.233952818000034,40.293982577000065],[36.23089964600018,40.29393971200017],[36.237084506000144,40.28625122000028],[36.23706860500016,40.28597952000018],[36.23757914300012,40.28559710500025],[36.24479157000013,40.27656952799998],[36.245349251000164,40.27537560200051],[36.246056162000116,40.27498283799997],[36.24689340600014,40.2739317430005],[36.246879117000105,40.273820430000114],[36.24625607600018,40.27343104000005],[36.249018068000055,40.26713071500018],[36.25104227100013,40.2685157370002],[36.251214812000114,40.26851138800009],[36.25184363800008,40.26771381700064],[36.252857721000055,40.265330447999986],[36.25341992700004,40.26559837100058],[36.253567374000056,40.26556830200013],[36.25658534400003,40.26178142900005],[36.25676455300004,40.261693069000216],[36.25933708700006,40.26228446900012],[36.25880807699997,40.26391159000019],[36.26356427500008,40.26283062400046],[36.26660461900008,40.263926703000095],[36.26252395400007,40.270337152000025],[36.26315722500016,40.27010175099997],[36.262540465000086,40.2703519210001],[36.26063280700015,40.273553838000055],[36.26050840800008,40.273528193000175],[36.26046677599999,40.273593763000065],[36.25835018300012,40.27317744999999],[36.25497834800012,40.280169848000526],[36.25119807100003,40.2811921010001],[36.25079892400015,40.284810158000596],[36.245958896000104,40.28684753400006],[36.2441426961484,40.293169722926734]]],"type":"Polygon"}},{"type":"Feature","properties":{"area_id":"TR-60-006-2030462","name_tr":"Tatarköy Köyü","area_level":"neighbourhood","parent_id":"TR-60-006","endeksa_id":2030462},"geometry":{"coordinates":[[[36.23089964600018,40.29393971200017],[36.228092361000165,40.29176373700017],[36.22167388300005,40.296354593000046],[36.22121782100015,40.29638876900003],[36.21788102127175,40.28908746503146],[36.22166520500008,40.286486344000195],[36.221822235000104,40.28649416500008],[36.222606806000044,40.28719768000008],[36.22273055599999,40.287225068000566],[36.22574861400017,40.28574205000007],[36.22577850400012,40.285643695000374],[36.22483574800009,40.28341125800017],[36.22497774300007,40.28335805900008],[36.22685605200013,40.28378154200004],[36.22698634700015,40.28375111100013],[36.22978971600003,40.27926473100018],[36.22998613200008,40.279292842000075],[36.230718468000134,40.28070654200019],[36.230823729000065,40.28076683300009],[36.23337581099997,40.279513103000454],[36.233865996000134,40.27825452600018],[36.23150038300008,40.27737266100013],[36.23143547900003,40.277268738000146],[36.23553860600015,40.272245825000084],[36.23616386399999,40.26624529400004],[36.240974877999975,40.267447608000055],[36.24201742500003,40.264652115000445],[36.242155565000076,40.26458151800006],[36.244782066000084,40.265469941000106],[36.24465167300019,40.26711054400005],[36.244704499000136,40.267192285000476],[36.24701209800003,40.267246779000004],[36.25176438700004,40.262729566000075],[36.25407216000008,40.26318368],[36.25541174100016,40.261449829000185],[36.25571856900018,40.26145248400047],[36.25653213900017,40.26164099900035],[36.25658534400003,40.26178142900005],[36.253567374000056,40.26556830200013],[36.25341992700004,40.26559837100058],[36.252857721000055,40.265330447999986],[36.25184363800008,40.26771381700064],[36.251214812000114,40.26851138800009],[36.25104227100013,40.2685157370002],[36.249018068000055,40.26713071500018],[36.24625607600018,40.27343104000005],[36.246879117000105,40.273820430000114],[36.24689340600014,40.2739317430005],[36.246056162000116,40.27498283799997],[36.245349251000164,40.27537560200051],[36.24479157000013,40.27656952799998],[36.23757914300012,40.28559710500025],[36.23706860500016,40.28597952000018],[36.237084506000144,40.28625122000028],[36.23089964600018,40.29393971200017]]],"type":"Polygon"}},{"type":"Feature","properties":{"area_id":"TR-60-006-70922","name_tr":"Esentepe","area_level":"neighbourhood","parent_id":"TR-60-006","endeksa_id":70922},"geometry":{"coordinates":[[[36.30963304700009,40.29633960700005],[36.304841559000124,40.29688413800022],[36.30406910800008,40.29652651500021],[36.301762085000064,40.29430249900008],[36.295534960000055,40.29504558500042],[36.29359699600013,40.28999549300005],[36.28441501100008,40.29211154100017],[36.28424857100015,40.29202222000015],[36.283996597000055,40.28834420300035],[36.28500753500913,40.288514150240985],[36.28518286306712,40.288385619749135],[36.285100620862124,40.28827918072159],[36.28401046400006,40.28787104000037],[36.28403278000013,40.28710959800043],[36.284386909000034,40.28573628500004],[36.28596981300012,40.2815416090001],[36.286280143,40.27884310900026],[36.28654788300014,40.27798685000005],[36.28753625300004,40.27690552800044],[36.28812651100003,40.276879905000044],[36.289264910000156,40.27776961100011],[36.28973514300009,40.27774928299999],[36.290487548000044,40.27716467500011],[36.29055208141068,40.276113742150756],[36.29077000000018,40.276300000000106],[36.29071000000016,40.27678000000071],[36.29084000000012,40.27704000000023],[36.304750000000126,40.27941000000021],[36.312870000000146,40.279900000000225],[36.315010000000086,40.27991000000037],[36.31518633076661,40.2797468346169],[36.31495564800002,40.28001464500005],[36.31661581300017,40.28455007300016],[36.3152780580001,40.28996113900001],[36.31371332800012,40.289406248000205],[36.313375318000055,40.28878173500016],[36.31046178600019,40.288054305000344],[36.309502855000176,40.296230306000155],[36.30963304700009,40.29633960700005]]],"type":"Polygon"}},{"type":"Feature","properties":{"area_id":"TR-60-006-2030452","name_tr":"Çiftlikköy Köyü","area_level":"neighbourhood","parent_id":"TR-60-006","endeksa_id":2030452},"geometry":{"coordinates":[[[36.185381721936665,40.28340998553],[36.18559172500011,40.28582638300003],[36.17606415800009,40.28576696900012],[36.17632632100003,40.2893633570003],[36.17626916800015,40.289387347000684],[36.16984153400017,40.289231955000105],[36.167314182000155,40.29234522900009],[36.167464119000044,40.29667568900015],[36.16456201200015,40.296693001000165],[36.16480912800017,40.29864487200007],[36.16027312500012,40.29956868800048],[36.15926683700019,40.29938465900011],[36.15909559500005,40.29791835999998],[36.15882238000006,40.29777290800007],[36.15864175500013,40.29403224100042],[36.149725192000176,40.291099260000124],[36.149647691999974,40.29099745500014],[36.14975379400005,40.29091068300011],[36.15233433000009,40.29076943800055],[36.15511118100005,40.288156276000166],[36.1545285360001,40.28544651100003],[36.14801713900016,40.280725149000375],[36.144106566000175,40.28137125800009],[36.14366697000003,40.27760964900017],[36.14116645500019,40.277308863000144],[36.141973793000034,40.271880802],[36.14448576400014,40.27206697300022],[36.145180575000154,40.27035430199999],[36.14508056206779,40.270289607296036],[36.147090000000105,40.27031000000005],[36.14861000000013,40.27009000000015],[36.15007000000014,40.26973000000004],[36.15086000000014,40.26911000000007],[36.15150000000011,40.26908000000026],[36.15299000000016,40.26904000000036],[36.15322000000015,40.26922000000047],[36.15367000000009,40.26984000000061],[36.154020000000116,40.2710100000001],[36.154960000000074,40.27229000000011],[36.15546000000006,40.27353000000039],[36.15558000000004,40.274070000000336],[36.15714000000014,40.2740500000001],[36.15703000000008,40.27648000000005],[36.15959000000015,40.27651000000043],[36.15961000000004,40.27628000000004],[36.16091000000017,40.27633000000043],[36.16083000000009,40.27642000000009],[36.163320000000056,40.27620000000036],[36.163410000000056,40.27608000000038],[36.163500000000056,40.27546000000024],[36.16387000000009,40.275560000000155],[36.16395000000017,40.2757000000002],[36.16615000000007,40.27592000000061],[36.166230000000155,40.27396000000044],[36.1663700000002,40.27371000000039],[36.16839000000016,40.27445000000034],[36.167940000000044,40.27579000000037],[36.16929000000022,40.2761100000007],[36.17006000000015,40.276090000000465],[36.17098000000004,40.27644000000032],[36.17096000000015,40.276740000000245],[36.1705300000001,40.27726000000064],[36.17041000000012,40.277550000000474],[36.17191000000008,40.27806000000004],[36.17241000000007,40.27748000000037],[36.17316000000011,40.27703000000008],[36.17421000000013,40.27615000000009],[36.17431000000005,40.27624000000009],[36.17421000000013,40.27673000000016],[36.17434000000026,40.27683000000059],[36.17599000000018,40.27624000000009],[36.17734000000013,40.27644000000032],[36.17713000000015,40.27808000000027],[36.17876000000018,40.27814000000029],[36.17862000000014,40.27911000000023],[36.17876000000018,40.27920000000006],[36.179400000000044,40.27923000000021],[36.17945000000009,40.27888000000041],[36.17935000000017,40.278200000000254],[36.18219000000016,40.27827000000036],[36.18233000000015,40.278350000000216],[36.182280000000105,40.27973000000037],[36.18187000000012,40.28122000000019],[36.18227000000019,40.28161000000034],[36.182680000000175,40.28177000000005],[36.18244000000004,40.283250000000294],[36.18506000000008,40.28330000000017],[36.18538000000012,40.28333000000015],[36.185381721936665,40.28340998553]]],"type":"Polygon"}},{"type":"Feature","properties":{"area_id":"TR-60-006-2030461","name_tr":"Taşlık Köyü","area_level":"neighbourhood","parent_id":"TR-60-006","endeksa_id":2030461},"geometry":{"coordinates":[[[36.33857174300016,40.28081326200015],[36.33853288500012,40.28086965000034],[36.33862591500019,40.28093440300046],[36.338414531000126,40.281457381000564],[36.33766196400012,40.28254011199999],[36.3381854700001,40.28519339999997],[36.33654026400018,40.287059883000666],[36.33802954800012,40.28783992400014],[36.33825556599999,40.29042611000057],[36.337619585000084,40.29160466100029],[36.33760120200003,40.291773471000226],[36.33510368599997,40.29626068100009],[36.336615527000106,40.29712810300009],[36.334381126000096,40.29985696600016],[36.33294885400005,40.29747284299998],[36.32575403300007,40.29614830500003],[36.30963304700009,40.29633960700005],[36.309502855000176,40.296230306000155],[36.31046178600019,40.288054305000344],[36.313375318000055,40.28878173500016],[36.31371332800012,40.289406248000205],[36.3152780580001,40.28996113900001],[36.31661581300017,40.28455007300016],[36.31495564800002,40.28001464500005],[36.31518633076661,40.2797468346169],[36.31528000000026,40.27970000000005],[36.31540000000024,40.27927000000068],[36.3155500000002,40.27906000000036],[36.31626000000017,40.27936000000034],[36.31641000000013,40.27910000000014],[36.316310000000215,40.27868000000018],[36.31680000000006,40.27825000000013],[36.31961000000024,40.27459000000016],[36.314130620040146,40.27524049945305],[36.31397226834605,40.275178064296824],[36.313982772722625,40.27503974881489],[36.32004115799998,40.268804179000085],[36.32343107100007,40.27013453800015],[36.32608996699997,40.268961975000025],[36.326829884000006,40.26617199700007],[36.327421298000104,40.265828831000135],[36.327569980000135,40.26489907199999],[36.32820679200006,40.265490686000135],[36.328901384000176,40.265242869000474],[36.32917169000018,40.265426266000134],[36.32987655500011,40.26659319000038],[36.33530966000018,40.26706805200041],[36.33532825899999,40.26718607100014],[36.33417393200017,40.26859423800039],[36.33505946200006,40.27319724200004],[36.340692773000114,40.274917222000056],[36.33857639000007,40.280356036000114],[36.33868149900019,40.280396937000035],[36.33842845700019,40.280757505000565],[36.33857174300016,40.28081326200015]]],"type":"Polygon"}},{"type":"Feature","properties":{"area_id":"TR-60-006-70925","name_tr":"Sinanpaşa","area_level":"neighbourhood","parent_id":"TR-60-006","endeksa_id":70925},"geometry":{"coordinates":[[[36.27301462607403,40.29825113408526],[36.27295846200008,40.29766568300067],[36.26689301300013,40.29754650700005],[36.26314324100002,40.30043706100014],[36.24744467800008,40.29827007400013],[36.24670760300012,40.29856813400011],[36.246182385,40.298515648000034],[36.245660522000094,40.29536619600003],[36.243518677000054,40.29534852500029],[36.245958896000104,40.28684753400006],[36.25079892400015,40.284810158000596],[36.25119807100003,40.2811921010001],[36.25497834800012,40.280169848000526],[36.25835018300012,40.27317744999999],[36.26046677599999,40.273593763000065],[36.26050840800008,40.273528193000175],[36.27262351899998,40.27597309000021],[36.278033317000165,40.27567375900003],[36.28345207500013,40.27630765100008],[36.28153137300001,40.27917967400049],[36.28141714600008,40.279734115999986],[36.27701669900006,40.28593045700012],[36.2799369870001,40.287007588000336],[36.27998844799998,40.28717003500003],[36.28060173800014,40.28755468500003],[36.28139523400006,40.29161085300012],[36.28302104200009,40.29237442300007],[36.28294020100009,40.29217523000034],[36.28305936400005,40.29227540900018],[36.28301620800005,40.29243310999999],[36.281632769000055,40.29277357500001],[36.28161962900003,40.29373972400015],[36.28152130600017,40.29382945000043],[36.27346256000004,40.29396949000011],[36.2735778710001,40.29821772800011],[36.27348477528585,40.298310417269136],[36.273125416131506,40.29833159006989],[36.27301462607403,40.29825113408526]]],"type":"Polygon"}},{"type":"Feature","properties":{"area_id":"TR-60-006-2030460","name_tr":"Ovayurt Köyü","area_level":"neighbourhood","parent_id":"TR-60-006","endeksa_id":2030460},"geometry":{"coordinates":[[[36.147978058285844,40.31232914014305],[36.14770528100013,40.31229520300036],[36.14769662700013,40.312363016000006],[36.142315760000145,40.313356606000184],[36.14676283700015,40.30803993300003],[36.15762430300015,40.300104034000185],[36.16480912800017,40.29864487200007],[36.16456201200015,40.296693001000165],[36.167464119000044,40.29667568900015],[36.167314182000155,40.29234522900009],[36.16984153400017,40.289231955000105],[36.17626916800015,40.289387347000684],[36.17632632100003,40.2893633570003],[36.17606415800009,40.28576696900012],[36.18559172500011,40.28582638300003],[36.185381721936665,40.28340998553],[36.18871804534888,40.283439260351145],[36.188871529179835,40.283573610655196],[36.188848638000024,40.283830944000044],[36.19525052300014,40.28557528400012],[36.195346154000106,40.28550017500004],[36.19608834100018,40.282655831000056],[36.196150568000064,40.28257715700016],[36.19784882100015,40.28224161000003],[36.20148625100006,40.28416726900025],[36.20408256000019,40.288298458000384],[36.20430908200012,40.28830472900046],[36.204268236000075,40.28843559400036],[36.20532492000012,40.290224759000694],[36.20912404900014,40.290136038000185],[36.20947912000014,40.28961437300046],[36.20960073200007,40.28957094800069],[36.21015894200008,40.290107995000085],[36.21083931800007,40.29008858999998],[36.21079326900008,40.290718274000085],[36.212711033999994,40.2926415460002],[36.21788102127175,40.28908746503146],[36.22121782100015,40.29638876900003],[36.21688885900011,40.29671316800011],[36.21885515400015,40.29970242700011],[36.21892099300004,40.2998663350005],[36.21886506100003,40.29994634600064],[36.21892590400017,40.301444337000135],[36.21808875900007,40.30219812299998],[36.21277042095227,40.303132067141746],[36.21258592511339,40.30304841981058],[36.21267164656285,40.30289384432285],[36.215470520000224,40.30188531800013],[36.2124752390003,40.29884641600057],[36.198823063211876,40.30059709772638],[36.198850000000164,40.30050000000011],[36.1986100000002,40.300310000000195],[36.19842000000011,40.300560000000075],[36.19806000000017,40.300470000000075],[36.194980000000044,40.3026900000001],[36.194390000000055,40.30296000000004],[36.19338000000016,40.3030200000004],[36.192470000000185,40.30286000000012],[36.18824000000012,40.30107000000038],[36.187020000000075,40.30104000000017],[36.185900000000174,40.30125000000032],[36.18443000000019,40.302110000000425],[36.18377000000015,40.30235000000039],[36.18235000000004,40.301710000000185],[36.18180000000018,40.301150000000575],[36.181280000000186,40.30043000000069],[36.18093000000016,40.30029000000047],[36.18063000000018,40.30060000000054],[36.17933000000011,40.30337000000026],[36.17894000000018,40.30444000000011],[36.17845000000011,40.30490000000037],[36.17768000000018,40.30500000000012],[36.17709000000025,40.304530000000284],[36.176390000000026,40.303690000000415],[36.17510000000004,40.30265000000037],[36.17343000000011,40.30185000000023],[36.17261000000008,40.30169000000035],[36.17189000000019,40.30182000000059],[36.171280000000195,40.30246000000028],[36.17101000000025,40.30311000000006],[36.17105000000015,40.30367000000018],[36.17147000000011,40.3049400000001],[36.171720000000164,40.30529000000013],[36.173230000000046,40.30637000000047],[36.173600000000135,40.30684000000031],[36.17341000000005,40.30735000000004],[36.17282000000006,40.307590000000516],[36.17135000000013,40.30733000000032],[36.171100000000195,40.30714000000023],[36.1697200000001,40.30675000000065],[36.16879000000006,40.30585000000008],[36.167320000000075,40.30393000000038],[36.16656000000012,40.30367000000018],[36.165620000000104,40.30348000000009],[36.16388000000023,40.30343000000022],[36.16135000000014,40.30370000000039],[36.160130000000095,40.30368000000033],[36.15859000000023,40.30389000000008],[36.157590000000084,40.30492000000004],[36.15673000000015,40.30607000000015],[36.15629000000018,40.306790000000035],[36.15660269160804,40.306823804498265],[36.15560082800016,40.30709920800041],[36.15545217700003,40.30706031600039],[36.15546067200012,40.30694157199997],[36.15518002100009,40.30719700100042],[36.15224566300009,40.307810647000565],[36.14852167400011,40.30904960000049],[36.148187982000024,40.30867880900013],[36.148060536000116,40.309881093000456],[36.148341032000076,40.30992180100009],[36.148281253000164,40.31018714300001],[36.14810235800002,40.31016695900013],[36.14811671400014,40.31091748500023],[36.147952638000106,40.31089897300012],[36.14787551000012,40.31162657100009],[36.14810607600015,40.311660032000475],[36.147978058285844,40.31232914014305]]],"type":"Polygon"}}]}