{"type":"FeatureCollection","source_id":"endeksa","retrieved_at":null,"features":[{"type":"Feature","properties":{"area_id":"TR-61-015-157123","name_tr":"Kuzuluk","area_level":"neighbourhood","parent_id":"TR-61-015","endeksa_id":157123},"geometry":{"coordinates":[[[39.20256774791369,40.82374507072478],[39.20114424157384,40.822863612091055],[39.195670875678616,40.824856324351856],[39.195589385235564,40.824783506443],[39.19426425179722,40.81954084053007],[39.1879966834328,40.82003650296383],[39.18749361800013,40.81461775600013],[39.19054627800011,40.81271031000006],[39.18860850889655,40.80782007080336],[39.17527727545155,40.79990009102579],[39.17014517424337,40.79879215081826],[39.168001632359676,40.794906182591774],[39.16711594438476,40.785256219935604],[39.16513515703622,40.78345310522707],[39.165181587241136,40.783356061560255],[39.16876072650189,40.7814493262951],[39.16894005448222,40.78003480012177],[39.171301099574805,40.77975636417938],[39.17148713523835,40.77982470598624],[39.173529450210765,40.78252704348313],[39.173691343729615,40.782560087551246],[39.176162422000175,40.77811630100007],[39.17635492143006,40.778071201119644],[39.18047201841358,40.779148512858626],[39.18071362267693,40.782545759188565],[39.18288385520981,40.783627505709546],[39.18012391197601,40.78886280049977],[39.180162355400284,40.78896889519439],[39.18116648898757,40.78954271281947],[39.18132488691134,40.78953162640022],[39.18528235709027,40.78623908188729],[39.18803560995775,40.78607027005273],[39.19943377960482,40.7888570506089],[39.19956602324379,40.788824007296625],[39.20032975816605,40.78798152490185],[39.198951431804176,40.786301610355565],[39.18702391519355,40.7838473861832],[39.187009041000124,40.78371778100012],[39.18975952162987,40.78224927930063],[39.18962621243986,40.78213707869361],[39.18612808671048,40.78256624909329],[39.185960012000066,40.78252225300014],[39.18699900007891,40.77873226581556],[39.176418430907574,40.775991538245705],[39.17639134954976,40.775861570198],[39.17886499301977,40.77201712250093],[39.175958960605385,40.76838496927206],[39.18395524800013,40.762848680000104],[39.18893503291963,40.761867373108316],[39.19290655811727,40.763564585100994],[39.195602233000045,40.766660916000376],[39.194950798927096,40.76826946568849],[39.194996187942536,40.76836322225046],[39.199014478702395,40.76729965130875],[39.199088497632545,40.76723830450413],[39.19905258067462,40.76714755904004],[39.1954162817824,40.764631645065606],[39.199647264000134,40.7561173150001],[39.1995823629174,40.75614225444616],[39.199696109228455,40.756061768695304],[39.19966471600014,40.756235115000095],[39.199753457000156,40.75619766400007],[39.20180637912165,40.758547387218414],[39.20671501589038,40.757514158854576],[39.20683977294499,40.75754476408241],[39.20866558306534,40.75929500837452],[39.21095236946593,40.76352571507624],[39.221216519611744,40.77269776291109],[39.220379711675776,40.777679922730044],[39.21590064922202,40.78119003413423],[39.21733457064062,40.789343011371216],[39.21355421818964,40.79748357822433],[39.21403306249141,40.80191675535906],[39.208361694316864,40.80614259382577],[39.20942624459201,40.8099258772462],[39.20636789182947,40.81446140963425],[39.20943296491356,40.81667644181505],[39.20913890848243,40.81781743486778],[39.20281529298899,40.82372605986541],[39.20256774791369,40.82374507072478]]],"type":"Polygon"}},{"type":"Feature","properties":{"area_id":"TR-61-015-157131","name_tr":"Sinlice","area_level":"neighbourhood","parent_id":"TR-61-015","endeksa_id":157131},"geometry":{"coordinates":[[[39.21891610799997,40.83049569000008],[39.218830930000024,40.8305790500001],[39.21869214600014,40.83055444800016],[39.218313950000095,40.82982294400006],[39.213039804000175,40.833226679000006],[39.20909887300013,40.832734404000405],[39.2014864840001,40.82771447900063],[39.200721193000106,40.826871564999976],[39.20263521593688,40.82388156976316],[39.20256774791369,40.82374507072478],[39.20281529298899,40.82372605986541],[39.20913890848243,40.81781743486778],[39.20943296491356,40.81667644181505],[39.20636789182947,40.81446140963425],[39.20942624459201,40.8099258772462],[39.208361694316864,40.80614259382577],[39.21403306249141,40.80191675535906],[39.21355421818964,40.79748357822433],[39.21733457064062,40.789343011371216],[39.21590064922202,40.78119003413423],[39.220379711675776,40.777679922730044],[39.221216519611744,40.77269776291109],[39.21095236946593,40.76352571507624],[39.20866558306534,40.75929500837452],[39.20683977294499,40.75754476408241],[39.20671501589038,40.757514158854576],[39.20180637912165,40.758547387218414],[39.199753457000156,40.75619766400007],[39.19966471600014,40.756235115000095],[39.199696109228455,40.756061768695304],[39.20536439599567,40.74967087514813],[39.20900102000013,40.74941717700011],[39.209193917000164,40.74945125600004],[39.216939244,40.757256615000074],[39.22166659800018,40.75944323400006],[39.22303312500003,40.76185827300014],[39.22369110700009,40.76239676199998],[39.226503769000146,40.766513035000116],[39.230913129999976,40.76921784300009],[39.23138267000013,40.77679256600004],[39.23410632700018,40.78545546700019],[39.241229006000026,40.78915794500011],[39.24131367899997,40.79235576800011],[39.235692523000125,40.79582385900005],[39.240505493000114,40.8020446440006],[39.248703256000056,40.80496421200007],[39.25278555200015,40.80937559500012],[39.251588495000135,40.81071761300029],[39.248978463000185,40.81279591400039],[39.2490319100001,40.813426673000265],[39.24490541600005,40.81779986600003],[39.24592594100005,40.82051321100005],[39.244619390000025,40.82322728100007],[39.23863382600001,40.82914915500032],[39.22816922400017,40.82797682800003],[39.223583599999984,40.83196018900003],[39.21905629100013,40.82941582200027],[39.21891610799997,40.83049569000008]]],"type":"Polygon"}},{"type":"Feature","properties":{"area_id":"TR-61-015-157111","name_tr":"Gökçeköy","area_level":"neighbourhood","parent_id":"TR-61-015","endeksa_id":157111},"geometry":{"coordinates":[[[39.19000387300008,40.84533618400036],[39.18979254499999,40.845320658000674],[39.18943640500004,40.84440685800001],[39.184348248000106,40.845359879000455],[39.175697141000114,40.8520088950001],[39.17885219300001,40.853092855000114],[39.180197896000095,40.85455576099997],[39.16772951800016,40.86125953200019],[39.16771011600014,40.861408434000225],[39.167227165961606,40.86127349200132],[39.162830000000156,40.85936000000038],[39.16168000000022,40.85865000000007],[39.16084000000018,40.8569100000002],[39.15948000000009,40.85635000000019],[39.15843000000007,40.855720000000474],[39.15668000000005,40.854480000000194],[39.156610000000114,40.85436000000021],[39.155870000000164,40.85412000000025],[39.153230000000235,40.85419000000036],[39.15214000000009,40.854510000000175],[39.15126000000009,40.85495000000071],[39.1496800000001,40.855410000000404],[39.14826000000005,40.85597000000041],[39.1474300000001,40.85648000000015],[39.145210000000134,40.85690000000005],[39.145156016831265,40.85783570826277],[39.143638574000136,40.85497410200003],[39.148012524000194,40.8483670530004],[39.14666468500013,40.8430359530002],[39.141185450000194,40.840566582000065],[39.1355778090001,40.84107634700024],[39.12960699900009,40.83942693800009],[39.12903674200004,40.83589593900007],[39.12897286600008,40.83589090700036],[39.128938580000124,40.83570090100045],[39.126428512000075,40.83553830700032],[39.126215992000084,40.835174727000435],[39.12398093900015,40.82896701600026],[39.12279155100015,40.82373857600038],[39.12251630600019,40.82376655400003],[39.122518248000176,40.82322007400029],[39.12245241900018,40.82323506100005],[39.12228194200003,40.821816811000076],[39.122185726000055,40.82183871600057],[39.12206866700001,40.82115606900015],[39.121942032000106,40.82116566600013],[39.12164623200016,40.81870386500009],[39.12550628600013,40.814467460000174],[39.135391787000174,40.81013026900018],[39.13822764100013,40.80204990700008],[39.13915668999999,40.80092166300017],[39.13652047500011,40.789639329000295],[39.13369522500011,40.78764839300004],[39.13606289799998,40.782101640000064],[39.13490734800013,40.774256776000016],[39.144117526000116,40.76824765200007],[39.14629359200006,40.7644749370001],[39.146630764000065,40.759040754000125],[39.14680242800006,40.75902968800028],[39.15116766700004,40.76157636200014],[39.15140351499997,40.761494353000046],[39.16140837500018,40.75105188200047],[39.16373178600014,40.74539825300013],[39.165490744399506,40.74375652237063],[39.165697409949416,40.74374277065908],[39.16575772776986,40.743897177930194],[39.164760000000115,40.74567000000036],[39.163800000000094,40.74679000000009],[39.163330000000144,40.749130000000434],[39.16239000000013,40.7521500000002],[39.16145000000017,40.754180000000474],[39.16056000000009,40.75571000000059],[39.160110000000145,40.75695000000019],[39.16223000000025,40.75662000000057],[39.16455000000019,40.75694000000004],[39.1671300000001,40.757060000000195],[39.16887000000003,40.7574000000003],[39.17194000000018,40.75897000000032],[39.174860000000194,40.7613400000003],[39.17682000000019,40.762540000000115],[39.17778000000004,40.76349000000005],[39.17917448828365,40.763094034191795],[39.179069207665634,40.76323402920491],[39.17922887943246,40.76333814751814],[39.18185089900015,40.76318199200011],[39.199647264000134,40.7561173150001],[39.1954162817824,40.764631645065606],[39.19905258067462,40.76714755904004],[39.199088497632545,40.76723830450413],[39.199014478702395,40.76729965130875],[39.194996187942536,40.76836322225046],[39.194950798927096,40.76826946568849],[39.195602233000045,40.766660916000376],[39.19290655811727,40.763564585100994],[39.18893503291963,40.761867373108316],[39.18395524800013,40.762848680000104],[39.175958960605385,40.76838496927206],[39.17886499301977,40.77201712250093],[39.17639134954976,40.775861570198],[39.176418430907574,40.775991538245705],[39.18699900007891,40.77873226581556],[39.185960012000066,40.78252225300014],[39.18612808671048,40.78256624909329],[39.18962621243986,40.78213707869361],[39.18975952162987,40.78224927930063],[39.187009041000124,40.78371778100012],[39.18702391519355,40.7838473861832],[39.198951431804176,40.786301610355565],[39.20032975816605,40.78798152490185],[39.19956602324379,40.788824007296625],[39.19943377960482,40.7888570506089],[39.18803560995775,40.78607027005273],[39.18528235709027,40.78623908188729],[39.18132488691134,40.78953162640022],[39.18116648898757,40.78954271281947],[39.180162355400284,40.78896889519439],[39.18012391197601,40.78886280049977],[39.18288385520981,40.783627505709546],[39.18071362267693,40.782545759188565],[39.18047201841358,40.779148512858626],[39.17635492143006,40.778071201119644],[39.176162422000175,40.77811630100007],[39.173691343729615,40.782560087551246],[39.173529450210765,40.78252704348313],[39.17148713523835,40.77982470598624],[39.171301099574805,40.77975636417938],[39.16894005448222,40.78003480012177],[39.16876072650189,40.7814493262951],[39.165181587241136,40.783356061560255],[39.16513515703622,40.78345310522707],[39.16711594438476,40.785256219935604],[39.168001632359676,40.794906182591774],[39.17014517424337,40.79879215081826],[39.17527727545155,40.79990009102579],[39.18860850889655,40.80782007080336],[39.19054627800011,40.81271031000006],[39.18749361800013,40.81461775600013],[39.1879966834328,40.82003650296383],[39.19426425179722,40.81954084053007],[39.195589385235564,40.824783506443],[39.195670875678616,40.824856324351856],[39.20114424157384,40.822863612091055],[39.20256774791369,40.82374507072478],[39.20263521593688,40.82388156976316],[39.200721193000106,40.826871564999976],[39.2014864840001,40.82771447900063],[39.20909887300013,40.832734404000405],[39.20517812600019,40.83551673900013],[39.199306403000094,40.837223976000075],[39.19000387300008,40.84533618400036]]],"type":"Polygon"}},{"type":"Feature","properties":{"area_id":"TR-61-015-157133","name_tr":"Sütpınar","area_level":"neighbourhood","parent_id":"TR-61-015","endeksa_id":157133},"geometry":{"coordinates":[[[39.20870437200006,40.86227640300018],[39.20845860999998,40.862365246000024],[39.20818013100012,40.8622717720001],[39.197975164000184,40.85535520500008],[39.19536299500015,40.85317208000015],[39.192506316000106,40.85157188300036],[39.190690757000084,40.84766056900003],[39.189847308000026,40.845472714000095],[39.199306403000094,40.837223976000075],[39.20517812600019,40.83551673900013],[39.20909887300013,40.832734404000405],[39.213039804000175,40.833226679000006],[39.218313950000095,40.82982294400006],[39.21869214600014,40.83055444800016],[39.218830930000024,40.8305790500001],[39.21891610799997,40.83049569000008],[39.21864336000016,40.83254546200004],[39.2161951220001,40.83634596200011],[39.216020939000146,40.836389604000146],[39.216081508000116,40.8365223860003],[39.21245662500013,40.84214915900054],[39.21324752600009,40.846937959000286],[39.21518588200007,40.848070426000106],[39.21179674900009,40.85270965900003],[39.21415238500009,40.85846764600012],[39.21361559100012,40.85868389100011],[39.21198204100011,40.86109152200015],[39.20870437200006,40.86227640300018]]],"type":"Polygon"}},{"type":"Feature","properties":{"area_id":"TR-61-015-157127","name_tr":"Sayvançatak","area_level":"neighbourhood","parent_id":"TR-61-015","endeksa_id":157127},"geometry":{"coordinates":[[[39.237696333059716,40.86314267253522],[39.236503262000156,40.86387717700012],[39.23609179800019,40.86374283000009],[39.23530424000006,40.86409911100054],[39.23072704700013,40.86199061800011],[39.227974141999994,40.867339607000076],[39.221853165000084,40.86842700100016],[39.21519279400013,40.86831153000014],[39.21019673300003,40.867997906000085],[39.210085604400206,40.86787068140018],[39.21052666200006,40.866766493000114],[39.20808058800014,40.865770564],[39.20863153800008,40.86235076900016],[39.20870437200006,40.86227640300018],[39.21198204100011,40.86109152200015],[39.21361559100012,40.85868389100011],[39.21415238500009,40.85846764600012],[39.21179674900009,40.85270965900003],[39.21518588200007,40.848070426000106],[39.21324752600009,40.846937959000286],[39.21245662500013,40.84214915900054],[39.216081508000116,40.8365223860003],[39.216020939000146,40.836389604000146],[39.2161951220001,40.83634596200011],[39.21864336000016,40.83254546200004],[39.21905629100013,40.82941582200027],[39.223583599999984,40.83196018900003],[39.22816922400017,40.82797682800003],[39.23863382600001,40.82914915500032],[39.244619390000025,40.82322728100007],[39.24455736700014,40.82335537700038],[39.247396978000154,40.82343309100008],[39.24715158600014,40.82368526800008],[39.24731779300009,40.823525100000154],[39.24725403600007,40.823599182000066],[39.24734640900016,40.82370931899999],[39.25080722300015,40.824156434000315],[39.251096920000066,40.82599291300011],[39.25033054600004,40.830960201000096],[39.247782367000184,40.83595110500005],[39.247010807000095,40.83930697000011],[39.24711586300009,40.839893922000044],[39.24828055300003,40.84193356200001],[39.24865699200018,40.84995478700017],[39.24854373200003,40.85054557100017],[39.25136718100015,40.85681768500007],[39.251240636000034,40.8600539900001],[39.250953866000145,40.86139411200014],[39.247046194999996,40.86603263100011],[39.246977094000044,40.86619912600048],[39.24654404700004,40.866531350000116],[39.24555883900007,40.86023063200014],[39.23844343200011,40.862682661000406],[39.237696333059716,40.86314267253522]]],"type":"Polygon"}},{"type":"Feature","properties":{"area_id":"TR-61-015-157129","name_tr":"Simenli","area_level":"neighbourhood","parent_id":"TR-61-015","endeksa_id":157129},"geometry":{"coordinates":[[[39.20662210581929,40.87654155610784],[39.205580000000225,40.87646000000041],[39.205390000000136,40.876690000000394],[39.20513000000011,40.87680000000029],[39.205050000000256,40.8770200000007],[39.204350000000034,40.87724000000043],[39.20370000000008,40.87776000000014],[39.20389000000017,40.87714000000017],[39.20426000000003,40.87658000000016],[39.2035800000001,40.877180000000294],[39.202850000000126,40.87759000000028],[39.202770000000044,40.87639000000007],[39.20288000000011,40.876060000000166],[39.20266000000021,40.87592000000063],[39.2025900000001,40.87577000000033],[39.20240000000018,40.87601000000029],[39.2024100000001,40.87592000000063],[39.201800000000105,40.87534000000028],[39.19990000000007,40.874920000000316],[39.195790000000216,40.87578000000042],[39.193750000000136,40.87601000000029],[39.193060000000116,40.87631000000022],[39.192050000000165,40.87655000000018],[39.167227165961606,40.86127349200132],[39.16771011600014,40.861408434000225],[39.16772951800016,40.86125953200019],[39.180197896000095,40.85455576099997],[39.17885219300001,40.853092855000114],[39.175697141000114,40.8520088950001],[39.184348248000106,40.845359879000455],[39.18943640500004,40.84440685800001],[39.18979254499999,40.845320658000674],[39.19000387300008,40.84533618400036],[39.189847308000026,40.845472714000095],[39.190690757000084,40.84766056900003],[39.192506316000106,40.85157188300036],[39.19536299500015,40.85317208000015],[39.197975164000184,40.85535520500008],[39.20818013100012,40.8622717720001],[39.20845860999998,40.862365246000024],[39.20870437200006,40.86227640300018],[39.20863153800008,40.86235076900016],[39.20808058800014,40.865770564],[39.21052666200006,40.866766493000114],[39.20662210581929,40.87654155610784]]],"type":"Polygon"}},{"type":"Feature","properties":{"area_id":"TR-61-015-157097","name_tr":"Çamlıca","area_level":"neighbourhood","parent_id":"TR-61-015","endeksa_id":157097},"geometry":{"coordinates":[[[39.237918456491855,40.86986828368998],[39.23692559500017,40.86995555699997],[39.230419144000166,40.87274434400007],[39.21717020200015,40.87693242400002],[39.20797234800011,40.874580133000165],[39.20702499854485,40.87654590452706],[39.20687610708035,40.87661617378751],[39.2067299870626,40.87655004447322],[39.20662210581929,40.87654155610784],[39.210085604400206,40.86787068140018],[39.21019673300003,40.867997906000085],[39.21519279400013,40.86831153000014],[39.221853165000084,40.86842700100016],[39.227974141999994,40.867339607000076],[39.23072704700013,40.86199061800011],[39.23530424000006,40.86409911100054],[39.23609179800019,40.86374283000009],[39.236503262000156,40.86387717700012],[39.237696333059716,40.86314267253522],[39.23809225908235,40.869738104006444],[39.237918456491855,40.86986828368998]]],"type":"Polygon"}},{"type":"Feature","properties":{"area_id":"TR-61-015-157091","name_tr":"Geyikli","area_level":"neighbourhood","parent_id":"TR-61-015","endeksa_id":157091},"geometry":{"coordinates":[[[39.18406825523408,40.90631966273014],[39.183410000000094,40.90654000000035],[39.18340000000018,40.906640000000095],[39.18314000000015,40.90678000000031],[39.1824000000002,40.906610000000455],[39.18221000000011,40.90638000000007],[39.181980000000124,40.90540000000016],[39.181790000000035,40.90495000000027],[39.18122000000011,40.90421000000015],[39.177920000000086,40.90290000000044],[39.17607000000015,40.90205000000009],[39.1754200000002,40.901590000000056],[39.174450000000036,40.899700000000166],[39.17449000000016,40.89901000000032],[39.16386000000011,40.888610000000426],[39.15191000000004,40.87978000000027],[39.150814064000144,40.87744598800009],[39.15041314461553,40.87697921941111],[39.14885000000021,40.87714000000017],[39.1477000000001,40.87862000000024],[39.14476000000019,40.872570000000565],[39.14470000000017,40.87190000000055],[39.144400000000076,40.87109000000032],[39.144100000000094,40.870860000000334],[39.14355000000006,40.870830000000126],[39.14333000000016,40.87100000000015],[39.142050000000154,40.87119000000007],[39.14105000000018,40.870930000000044],[39.14089000000007,40.87081000000006],[39.14060000000006,40.870800000000486],[39.139880000000176,40.870460000000094],[39.13986000000011,40.87025000000045],[39.13938000000019,40.86977000000053],[39.139450000000124,40.869350000000054],[39.13931000000008,40.86895000000021],[39.13890000000009,40.86892000000017],[39.13884000000007,40.868790000000445],[39.13863000000015,40.8686900000007],[39.137340000000165,40.86837000000037],[39.136910000000114,40.867950000000064],[39.136910000000114,40.867860000000235],[39.13709000000006,40.86776000000049],[39.13705000000016,40.867330000000436],[39.1369200000002,40.86713000000026],[39.13730000000004,40.86687000000006],[39.13686000000007,40.86636000000033],[39.13683000000026,40.86607000000009],[39.1362400000001,40.86569000000031],[39.136110000000144,40.86543000000029],[39.1362400000001,40.864820000000236],[39.1363300000001,40.86472000000049],[39.1361500000001,40.864510000000166],[39.1361500000001,40.864390000000185],[39.13628000000023,40.864270000000204],[39.1358400000002,40.86413000000016],[39.13595000000009,40.86409000000026],[39.13618000000008,40.863740000000405],[39.13662000000011,40.86368000000027],[39.13715000000008,40.863310000000354],[39.13721000000004,40.863240000000246],[39.13701000000003,40.86320000000035],[39.137470000000064,40.862370000000055],[39.13773000000009,40.86210000000028],[39.13822000000016,40.86182000000019],[39.13842000000017,40.8614900000004],[39.13921000000016,40.86130000000031],[39.13964000000004,40.86105000000026],[39.14002000000005,40.86099000000024],[39.14002000000005,40.86072000000013],[39.14009000000016,40.86065000000053],[39.14091000000013,40.860480000000166],[39.140970000000095,40.86032000000023],[39.14164000000011,40.85989000000018],[39.1421400000001,40.85981000000015],[39.143230000000074,40.85895000000005],[39.14415000000014,40.85855000000015],[39.144320000000164,40.85836000000006],[39.144519240551176,40.85830139983818],[39.145155443206875,40.85784565108531],[39.145210000000134,40.85690000000005],[39.1474300000001,40.85648000000015],[39.14826000000005,40.85597000000041],[39.1496800000001,40.855410000000404],[39.15126000000009,40.85495000000071],[39.15214000000009,40.854510000000175],[39.153230000000235,40.85419000000036],[39.155870000000164,40.85412000000025],[39.156610000000114,40.85436000000021],[39.15668000000005,40.854480000000194],[39.15843000000007,40.855720000000474],[39.15948000000009,40.85635000000019],[39.16084000000018,40.8569100000002],[39.16168000000022,40.85865000000007],[39.162830000000156,40.85936000000038],[39.167227165961606,40.86127349200132],[39.192050000000165,40.87655000000018],[39.193060000000116,40.87631000000022],[39.193750000000136,40.87601000000029],[39.195790000000216,40.87578000000042],[39.19990000000007,40.874920000000316],[39.201800000000105,40.87534000000028],[39.2024100000001,40.87592000000063],[39.20240000000018,40.87601000000029],[39.2025900000001,40.87577000000033],[39.20266000000021,40.87592000000063],[39.20288000000011,40.876060000000166],[39.202770000000044,40.87639000000007],[39.202850000000126,40.87759000000028],[39.2035800000001,40.877180000000294],[39.20426000000003,40.87658000000016],[39.20389000000017,40.87714000000017],[39.20370000000008,40.87776000000014],[39.204350000000034,40.87724000000043],[39.205050000000256,40.8770200000007],[39.20513000000011,40.87680000000029],[39.205390000000136,40.876690000000394],[39.205580000000225,40.87646000000041],[39.2067299870626,40.87655004447322],[39.206570000000056,40.87710000000021],[39.205338098719494,40.87841280142334],[39.20436301748987,40.87972938468744],[39.203990879048035,40.88142655618179],[39.20393248908158,40.882260045008366],[39.20406974908883,40.88238419730112],[39.204254626153784,40.882303272906825],[39.204101671246576,40.88267462635366],[39.2046299817697,40.8836197748692],[39.20444484015178,40.883545700821685],[39.20431121015491,40.88367206587981],[39.204530000000034,40.88429000000042],[39.20474440513368,40.88573745638803],[39.20536742567032,40.88635117903942],[39.20583149964409,40.886412049677006],[39.205716883785044,40.88657724082276],[39.20625000000024,40.886970000000076],[39.206660000000056,40.88816000000014],[39.20635000000016,40.888640000000066],[39.20575000000008,40.888830000000155],[39.202980000000196,40.89215000000058],[39.202860000000044,40.892300000000205],[39.202890000000195,40.89276000000007],[39.20271000000008,40.89296000000013],[39.201650000000086,40.893220000000326],[39.20161000000019,40.89392000000066],[39.198270000000036,40.89686000000023],[39.19662000000011,40.8993500000002],[39.195700000000045,40.90120000000047],[39.19553000000019,40.90223000000043],[39.19557000000009,40.90324000000015],[39.194830000000195,40.90435000000036],[39.19467000000009,40.904750000000035],[39.194830000000195,40.90523000000013],[39.19476000000009,40.905520000000536],[39.19449000000009,40.90566000000018],[39.18744000000015,40.905370000000175],[39.18519000000015,40.904190000000085],[39.18494000000004,40.90437000000003],[39.18528000000015,40.90600000000029],[39.18406825523408,40.90631966273014]]],"type":"Polygon"}},{"type":"Feature","properties":{"area_id":"TR-61-015-157103","name_tr":"Doğancı","area_level":"neighbourhood","parent_id":"TR-61-015","endeksa_id":157103},"geometry":{"coordinates":[[[39.229737497843416,40.90199587863191],[39.22957043522723,40.90206534749262],[39.229313392000165,40.90189330600009],[39.212294583000016,40.90057627700014],[39.2009472845063,40.89450334836903],[39.20161000000019,40.89392000000066],[39.201650000000086,40.893220000000326],[39.20271000000008,40.89296000000013],[39.202890000000195,40.89276000000007],[39.202860000000044,40.892300000000205],[39.202980000000196,40.89215000000058],[39.20575000000008,40.888830000000155],[39.20635000000016,40.888640000000066],[39.206660000000056,40.88816000000014],[39.20625000000024,40.886970000000076],[39.205716883785044,40.88657724082276],[39.20583149964409,40.886412049677006],[39.20536742567032,40.88635117903942],[39.20474440513368,40.88573745638803],[39.204530000000034,40.88429000000042],[39.20431121015491,40.88367206587981],[39.20444484015178,40.883545700821685],[39.2046299817697,40.8836197748692],[39.204101671246576,40.88267462635366],[39.204254626153784,40.882303272906825],[39.20406974908883,40.88238419730112],[39.20393248908158,40.882260045008366],[39.203990879048035,40.88142655618179],[39.20436301748987,40.87972938468744],[39.205338098719494,40.87841280142334],[39.206570000000056,40.87710000000021],[39.2067299870626,40.87655004447322],[39.20687610708035,40.87661617378751],[39.20702499854485,40.87654590452706],[39.20797234800011,40.874580133000165],[39.21717020200015,40.87693242400002],[39.230419144000166,40.87274434400007],[39.23692559500017,40.86995555699997],[39.237918456491855,40.86986828368998],[39.240537972139464,40.878101882712656],[39.24038024700019,40.87871398400017],[39.2405089400001,40.87883660900013],[39.23825327200018,40.88549476300051],[39.23245333600005,40.88841956500039],[39.233057973000086,40.89623146700069],[39.23298660300003,40.89634506200008],[39.233026739000024,40.89694157600002],[39.229737497843416,40.90199587863191]]],"type":"Polygon"}},{"type":"Feature","properties":{"area_id":"TR-61-015-157105","name_tr":"Dorukkiriş","area_level":"neighbourhood","parent_id":"TR-61-015","endeksa_id":157105},"geometry":{"coordinates":[[[39.22367672807502,40.90982645882383],[39.21659892000014,40.907102011000575],[39.216529148000006,40.90701217700007],[39.21660699600005,40.906923692000476],[39.216302129000155,40.90702565900011],[39.21621675800009,40.90713319000008],[39.208761632000005,40.909019379000085],[39.20293996600009,40.91230218100043],[39.19959477400005,40.911422493000146],[39.198696942000026,40.91180396000033],[39.198427624000146,40.91107287600005],[39.196088365000094,40.90926504400022],[39.19494446400006,40.90707306400003],[39.194938300272725,40.90564616758411],[39.19484102243911,40.90555001296542],[39.19468036077723,40.90556129441234],[39.19476000000009,40.905520000000536],[39.194830000000195,40.90523000000013],[39.19467000000009,40.904750000000035],[39.194830000000195,40.90435000000036],[39.19557000000009,40.90324000000015],[39.19553000000019,40.90223000000043],[39.195700000000045,40.90120000000047],[39.19662000000011,40.8993500000002],[39.198270000000036,40.89686000000023],[39.2009472845063,40.89450334836903],[39.212294583000016,40.90057627700014],[39.229313392000165,40.90189330600009],[39.22957043522723,40.90206534749262],[39.229737497843416,40.90199587863191],[39.22535678332446,40.90873108642734],[39.22385000000003,40.909240000000636],[39.22367672807502,40.90982645882383]]],"type":"Polygon"}},{"type":"Feature","properties":{"area_id":"TR-61-015-157125","name_tr":"Pelitçik","area_level":"neighbourhood","parent_id":"TR-61-015","endeksa_id":157125},"geometry":{"coordinates":[[[39.18406825523408,40.90631966273014],[39.18459013200004,40.90758180500012],[39.18247156100017,40.908862264000106],[39.180344919000106,40.90780340200007],[39.17891906000017,40.90970321300017],[39.172762490000025,40.908823834000486],[39.17270450500013,40.908908333000284],[39.17276972299999,40.908991958],[39.17675026500001,40.91056297100005],[39.176553073000036,40.913788502000216],[39.167036564,40.91484086900016],[39.16396175214777,40.91413931537625],[39.163854772180514,40.914064271885366],[39.163642226000036,40.91354422500052],[39.15841505000009,40.911237825000114],[39.1563898390001,40.90654634599997],[39.155557062000184,40.91149289600003],[39.14402526800012,40.904707580000434],[39.14389270800018,40.90469522700039],[39.143815059000076,40.90477912700004],[39.143843193000066,40.90431384200036],[39.14396247200011,40.90422587900014],[39.143950885000095,40.9036747520006],[39.14753112000011,40.90099398700039],[39.14800722900003,40.90043723200006],[39.14873024100012,40.90023457600017],[39.15052320300015,40.89603861300054],[39.15086851100011,40.88906620400019],[39.14811524900006,40.8876998150007],[39.14631215573604,40.88181432051391],[39.146448197684606,40.881719707348964],[39.14661854366369,40.88178292648075],[39.15131575700019,40.88893249600011],[39.1514635800001,40.888984487000414],[39.151562743,40.88889548500015],[39.152241751000076,40.88181486500014],[39.152312023000036,40.88074422700038],[39.152253533000135,40.88039608200012],[39.152338597000096,40.88031378400001],[39.152471927000136,40.88033420200014],[39.15217764700009,40.88011561400015],[39.15206455528596,40.87989420277643],[39.16386000000011,40.888610000000426],[39.17449000000016,40.89901000000032],[39.174450000000036,40.899700000000166],[39.1754200000002,40.901590000000056],[39.17607000000015,40.90205000000009],[39.177920000000086,40.90290000000044],[39.18122000000011,40.90421000000015],[39.181790000000035,40.90495000000027],[39.181980000000124,40.90540000000016],[39.18221000000011,40.90638000000007],[39.1824000000002,40.906610000000455],[39.18314000000015,40.90678000000031],[39.18340000000018,40.906640000000095],[39.183410000000094,40.90654000000035],[39.18406825523408,40.90631966273014]]],"type":"Polygon"}},{"type":"Feature","properties":{"area_id":"TR-61-015-157121","name_tr":"Kasımağzı","area_level":"neighbourhood","parent_id":"TR-61-015","endeksa_id":157121},"geometry":{"coordinates":[[[39.22135676043462,40.91363926497712],[39.22126699147333,40.913502649160534],[39.221073822185076,40.91352826994938],[39.21763477900009,40.91660793200026],[39.20866479000017,40.92174634500009],[39.19918692300013,40.917307796000614],[39.198623385000076,40.91571598400003],[39.19809756300009,40.91466557700022],[39.198696942000026,40.91180396000033],[39.19959477400005,40.911422493000146],[39.20293996600009,40.91230218100043],[39.208761632000005,40.909019379000085],[39.21621675800009,40.90713319000008],[39.216302129000155,40.90702565900011],[39.21660699600005,40.906923692000476],[39.216529148000006,40.90701217700007],[39.21659892000014,40.907102011000575],[39.22367672807502,40.90982645882383],[39.2234600000001,40.91056000000043],[39.22375000000011,40.911130000000185],[39.22357000000011,40.91153000000003],[39.223090539190025,40.91215442543],[39.22291000000024,40.91223000000008],[39.22190000000012,40.913120000000504],[39.22162000000009,40.91321000000016],[39.22135676043462,40.91363926497712]]],"type":"Polygon"}},{"type":"Feature","properties":{"area_id":"TR-61-015-157115","name_tr":"Güdün","area_level":"neighbourhood","parent_id":"TR-61-015","endeksa_id":157115},"geometry":{"coordinates":[[[39.17646401700017,40.92200008700013],[39.176255495000134,40.92200645700012],[39.16711255500019,40.9185594030007],[39.16697382399997,40.918573391999985],[39.16693121500009,40.91867370600011],[39.16683316100017,40.91845706500004],[39.16614717800013,40.91818510200005],[39.165574556000024,40.91738719600011],[39.16542788200013,40.91730089300012],[39.16525903600001,40.91694567500008],[39.16322396100014,40.91409782200026],[39.163253787000144,40.91397778500016],[39.167036564,40.91484086900016],[39.176553073000036,40.913788502000216],[39.17675026500001,40.91056297100005],[39.17276972299999,40.908991958],[39.17270450500013,40.908908333000284],[39.172762490000025,40.908823834000486],[39.17891906000017,40.90970321300017],[39.180344919000106,40.90780340200007],[39.18247156100017,40.908862264000106],[39.18459013200004,40.90758180500012],[39.18406825523408,40.90631966273014],[39.18528000000015,40.90600000000029],[39.18494000000004,40.90437000000003],[39.18519000000015,40.904190000000085],[39.18744000000015,40.905370000000175],[39.19449000000009,40.90566000000018],[39.19468036077723,40.90556129441234],[39.19484102243911,40.90555001296542],[39.194938300272725,40.90564616758411],[39.19494446400006,40.90707306400003],[39.196088365000094,40.90926504400022],[39.198427624000146,40.91107287600005],[39.198696942000026,40.91180396000033],[39.19809756300009,40.91466557700022],[39.19801305200008,40.9144967540002],[39.19729900100009,40.91625884100006],[39.19707286400012,40.91676490900005],[39.19696540699999,40.916827456000306],[39.1876983730001,40.91453121900065],[39.18701470200011,40.91551834600017],[39.19141883900011,40.91693634700016],[39.19148955800017,40.91704931300012],[39.18918244300016,40.917885868000155],[39.18439825100006,40.91436011700017],[39.182043838000084,40.917001209000205],[39.18155249299997,40.91705233300053],[39.17642381300004,40.92185044700051],[39.17646401700017,40.92200008700013]]],"type":"Polygon"}},{"type":"Feature","properties":{"area_id":"TR-61-015-157135","name_tr":"Tepeağzı","area_level":"neighbourhood","parent_id":"TR-61-015","endeksa_id":157135},"geometry":{"coordinates":[[[39.19729900100009,40.91625884100006],[39.19684065500019,40.91889411200009],[39.19654253300018,40.918864554000095],[39.1964994600001,40.91906718900026],[39.192762599000105,40.9184985],[39.19259917800014,40.91889498000012],[39.19278199100012,40.92086998100007],[39.18954495700012,40.92452077900015],[39.189681090000136,40.92267378300005],[39.18960840700004,40.922580320000236],[39.17729067400006,40.922333127000115],[39.17646401700017,40.92200008700013],[39.17642381300004,40.92185044700051],[39.18155249299997,40.91705233300053],[39.182043838000084,40.917001209000205],[39.18439825100006,40.91436011700017],[39.18918244300016,40.917885868000155],[39.19148955800017,40.91704931300012],[39.19141883900011,40.91693634700016],[39.18701470200011,40.91551834600017],[39.1876983730001,40.91453121900065],[39.19696540699999,40.916827456000306],[39.19707286400012,40.91676490900005],[39.19729900100009,40.91625884100006]]],"type":"Polygon"}},{"type":"Feature","properties":{"area_id":"TR-61-015-157107","name_tr":"Düzköy","area_level":"neighbourhood","parent_id":"TR-61-015","endeksa_id":157107},"geometry":{"coordinates":[[[39.227240004937585,40.92635734441507],[39.22755910800015,40.93073359100009],[39.215343350000126,40.926002940000274],[39.211746882000114,40.928334565],[39.20486434700007,40.92973252800016],[39.20334966000007,40.92933394300013],[39.200153221000164,40.92925344200046],[39.19987796600003,40.92842008000025],[39.19957278800018,40.92833975500008],[39.199319640000056,40.92696999200035],[39.198318295000036,40.92436929200011],[39.19860988700003,40.923129576000065],[39.19856044400012,40.92286204300018],[39.198664959000155,40.922895434000054],[39.19966295200004,40.9186524250004],[39.19918692300013,40.917307796000614],[39.20866479000017,40.92174634500009],[39.21763477900009,40.91660793200026],[39.221073822185076,40.91352826994938],[39.22126699147333,40.913502649160534],[39.22135676043462,40.91363926497712],[39.22130000000004,40.91386000000011],[39.221010000000035,40.91419000000025],[39.22102000000018,40.9146200000003],[39.222280000000126,40.91510000000022],[39.22397000000018,40.916090000000395],[39.224790000000155,40.91685000000007],[39.22538000000014,40.9180800000002],[39.22573000000011,40.91904000000005],[39.22617000000014,40.92350000000033],[39.22669000000019,40.92466000000036],[39.227240004937585,40.92635734441507]]],"type":"Polygon"}},{"type":"Feature","properties":{"area_id":"TR-61-015-157109","name_tr":"Fidanbaşı","area_level":"neighbourhood","parent_id":"TR-61-015","endeksa_id":157109},"geometry":{"coordinates":[[[39.161835650000114,40.93481465700006],[39.155314050000186,40.93634044700019],[39.14335008000006,40.93929761700008],[39.14326027600009,40.93938459100036],[39.14331108900012,40.93850052500022],[39.146055634000106,40.930914077000125],[39.149225324000156,40.924186931000065],[39.149488427000165,40.92153060900051],[39.14950579300017,40.91953611499997],[39.143794577000165,40.909518335000485],[39.14363817100019,40.90774527100018],[39.143815059000076,40.90477912700004],[39.14389270800018,40.90469522700039],[39.14402526800012,40.904707580000434],[39.155557062000184,40.91149289600003],[39.155054270000164,40.91447939400018],[39.15594719500007,40.91919216800056],[39.15889885500002,40.926522522000084],[39.16062844600003,40.92673926800012],[39.16058216700003,40.93118491400003],[39.16170703500006,40.931600931000446],[39.16057424000019,40.93194642100008],[39.16055094100011,40.93418454900052],[39.161835650000114,40.93481465700006]]],"type":"Polygon"}},{"type":"Feature","properties":{"area_id":"TR-61-015-157117","name_tr":"Kabasakal","area_level":"neighbourhood","parent_id":"TR-61-015","endeksa_id":157117},"geometry":{"coordinates":[[[39.18954495700012,40.92452077900015],[39.189489897000044,40.9249901980005],[39.19101957600003,40.92689116100013],[39.19210674200008,40.927711777000354],[39.19176493500015,40.93448372600017],[39.19056132500003,40.93665009000017],[39.18717757400009,40.93572936800035],[39.1852517320001,40.939081919000046],[39.18503969900007,40.939106898000034],[39.184973237000065,40.9392118990001],[39.17861829038452,40.93986338805411],[39.17428207400019,40.93583800900001],[39.17028419800016,40.92662168700008],[39.16855878500013,40.925973068000644],[39.168493307000006,40.92332915500015],[39.16693121500009,40.91867370600011],[39.16697382399997,40.918573391999985],[39.16711255500019,40.9185594030007],[39.176255495000134,40.92200645700012],[39.17646401700017,40.92200008700013],[39.17729067400006,40.922333127000115],[39.18960840700004,40.922580320000236],[39.189681090000136,40.92267378300005],[39.18954495700012,40.92452077900015]]],"type":"Polygon"}},{"type":"Feature","properties":{"area_id":"TR-61-015-80144","name_tr":"Dereköy","area_level":"neighbourhood","parent_id":"TR-61-015","endeksa_id":80144},"geometry":{"coordinates":[[[39.18752240100014,40.94181008600009],[39.183540943000025,40.94207240500003],[39.182230578686415,40.942409477671106],[39.182349959007865,40.942274578218814],[39.182195603505306,40.94216253318456],[39.17997129500009,40.94230759100009],[39.17861829038452,40.93986338805411],[39.184973237000065,40.9392118990001],[39.18503969900007,40.939106898000034],[39.1852517320001,40.939081919000046],[39.18717757400009,40.93572936800035],[39.19056132500003,40.93665009000017],[39.19176493500015,40.93448372600017],[39.19210674200008,40.927711777000354],[39.19101957600003,40.92689116100013],[39.189489897000044,40.9249901980005],[39.18954495700012,40.92452077900015],[39.19278199100012,40.92086998100007],[39.19259917800014,40.91889498000012],[39.192762599000105,40.9184985],[39.1964994600001,40.91906718900026],[39.19654253300018,40.918864554000095],[39.19684065500019,40.91889411200009],[39.19729900100009,40.91625884100006],[39.19801305200008,40.9144967540002],[39.198623385000076,40.91571598400003],[39.19966295200004,40.9186524250004],[39.198664959000155,40.922895434000054],[39.19856044400012,40.92286204300018],[39.19860988700003,40.923129576000065],[39.198318295000036,40.92436929200011],[39.199319640000056,40.92696999200035],[39.19957278800018,40.92833975500008],[39.19987796600003,40.92842008000025],[39.200153221000164,40.92925344200046],[39.20104166521719,40.92927581710222],[39.20093011767642,40.92932775917029],[39.20100741675503,40.9294528794299],[39.200328715000126,40.92931699500048],[39.19806458000011,40.93421586599999],[39.19781975400008,40.93439781800049],[39.196008690000156,40.93832938600036],[39.19538414600004,40.938184089000174],[39.194186977000186,40.9404259260001],[39.19594215300009,40.94125535000052],[39.194129012000076,40.94137481000013],[39.18769520500001,40.941230964000454],[39.18752240100014,40.94181008600009]]],"type":"Polygon"}},{"type":"Feature","properties":{"area_id":"TR-61-015-80147","name_tr":"Turalıuşağı","area_level":"neighbourhood","parent_id":"TR-61-015","endeksa_id":80147},"geometry":{"coordinates":[[[39.20029172700009,40.94295641400004],[39.200290783000185,40.94276589000009],[39.200168031000146,40.94270071600056],[39.19706673300004,40.942772386000115],[39.19611021800006,40.942949494000175],[39.19554257500005,40.943374247000065],[39.195727338000154,40.94141054500011],[39.194129012000076,40.94137481000013],[39.19594215300009,40.94125535000052],[39.194186977000186,40.9404259260001],[39.19538414600004,40.938184089000174],[39.196008690000156,40.93832938600036],[39.19781975400008,40.93439781800049],[39.19806458000011,40.93421586599999],[39.200328715000126,40.92931699500048],[39.20100741675503,40.9294528794299],[39.20093011767642,40.92932775917029],[39.20104166521719,40.92927581710222],[39.20334966000007,40.92933394300013],[39.20486434700007,40.92973252800016],[39.211746882000114,40.928334565],[39.215343350000126,40.926002940000274],[39.227554055000155,40.930732642000635],[39.22427189300004,40.93363252600005],[39.224331678000055,40.939917564000496],[39.22273515000012,40.93970306799997],[39.22188129500012,40.94316001100009],[39.22168514100002,40.943226439000114],[39.221486442000014,40.943024106000166],[39.22017537500017,40.942353976000106],[39.212325969000176,40.93859107800034],[39.21123768300015,40.9384361310004],[39.207840592000025,40.93858970300016],[39.204280519000065,40.93952351900049],[39.20078863400005,40.94121008200068],[39.20029172700009,40.94295641400004]]],"type":"Polygon"}},{"type":"Feature","properties":{"area_id":"TR-61-015-157093","name_tr":"Ağırtaş","area_level":"neighbourhood","parent_id":"TR-61-015","endeksa_id":157093},"geometry":{"coordinates":[[[39.182230578686415,40.942409477671106],[39.17653362211098,40.94363532124885],[39.170220280472336,40.94258379269826],[39.16246545900009,40.938564820000124],[39.16128206800016,40.938724601000104],[39.15958292800008,40.93807045100016],[39.16267092700019,40.93522433400017],[39.16055094100011,40.93418454900052],[39.16057424000019,40.93194642100008],[39.16170703500006,40.931600931000446],[39.16058216700003,40.93118491400003],[39.16062844600003,40.92673926800012],[39.15889885500002,40.926522522000084],[39.15594719500007,40.91919216800056],[39.155054270000164,40.91447939400018],[39.1563898390001,40.90654634599997],[39.15841505000009,40.911237825000114],[39.163642226000036,40.91354422500052],[39.163854772180514,40.914064271885366],[39.16396175214777,40.91413931537625],[39.163253787000144,40.91397778500016],[39.16322396100014,40.91409782200026],[39.16525903600001,40.91694567500008],[39.16542788200013,40.91730089300012],[39.165574556000024,40.91738719600011],[39.16614717800013,40.91818510200005],[39.16683316100017,40.91845706500004],[39.16693121500009,40.91867370600011],[39.168493307000006,40.92332915500015],[39.16855878500013,40.925973068000644],[39.17028419800016,40.92662168700008],[39.17428207400019,40.93583800900001],[39.17861829038452,40.93986338805411],[39.17997129500009,40.94230759100009],[39.182195603505306,40.94216253318456],[39.182349959007865,40.942274578218814],[39.182230578686415,40.942409477671106]]],"type":"Polygon"}},{"type":"Feature","properties":{"area_id":"TR-61-015-80142","name_tr":"Çamkiriş","area_level":"neighbourhood","parent_id":"TR-61-015","endeksa_id":80142},"geometry":{"coordinates":[[[39.22357088394335,40.94484066295797],[39.223520000000065,40.94466000000034],[39.22298000000018,40.94484000000028],[39.22227000000004,40.94481000000064],[39.22050000000013,40.94512000000003],[39.219710000000134,40.94535000000042],[39.21876000000003,40.94516000000033],[39.217500000000086,40.94510000000048],[39.21706000000006,40.94550000000021],[39.21657000000005,40.945670000000064],[39.21600000000012,40.945640000000424],[39.21577000000008,40.94575000000026],[39.21524000000011,40.94565000000051],[39.2145500000002,40.94511000000006],[39.213520000000074,40.94503000000037],[39.21274000000005,40.94484000000028],[39.21165000000008,40.9449800000005],[39.21123000000017,40.94515000000035],[39.21025000000009,40.944990000000075],[39.20987000000008,40.94529000000057],[39.20969000000008,40.945330000000354],[39.20925000000011,40.945170000000076],[39.20913000000013,40.9452500000001],[39.20915000000019,40.94535000000042],[39.20882000000006,40.945570000000316],[39.208280000000116,40.94554000000011],[39.20795000000021,40.94572000000062],[39.207190000000026,40.94586000000015],[39.2065300000001,40.946230000000185],[39.205060000000174,40.94642000000027],[39.20458000000008,40.946600000000274],[39.20441000000005,40.94652000000019],[39.203940000000046,40.946540000000255],[39.203540000000146,40.94671000000011],[39.20284000000015,40.9465100000001],[39.20217000000014,40.94662000000011],[39.200470000000166,40.946530000000166],[39.20012949403508,40.94658238553359],[39.20029172700009,40.94295641400004],[39.20078863400005,40.94121008200068],[39.204280519000065,40.93952351900049],[39.207840592000025,40.93858970300016],[39.21123768300015,40.9384361310004],[39.212325969000176,40.93859107800034],[39.22017537500017,40.942353976000106],[39.221486442000014,40.943024106000166],[39.22168514100002,40.943226439000114],[39.22188129500012,40.94316001100009],[39.22273515000012,40.93970306799997],[39.22342417900006,40.93979564000017],[39.22303422300013,40.942602267000495],[39.22357088394335,40.94484066295797]]],"type":"Polygon"}},{"type":"Feature","properties":{"area_id":"TR-61-015-80143","name_tr":"Kalecik","area_level":"neighbourhood","parent_id":"TR-61-015","endeksa_id":80143},"geometry":{"coordinates":[[[39.1971309981634,40.95344263585622],[39.19640000000004,40.95362000000057],[39.19607000000008,40.95330000000041],[39.19593000000003,40.953040000000215],[39.196010000000115,40.95283000000006],[39.1963300000001,40.952510000000416],[39.19677000000013,40.95185000000049],[39.19670000000019,40.95161000000053],[39.19625000000008,40.95110000000028],[39.19619000000006,40.950750000000426],[39.196290000000204,40.950530000000185],[39.19674000000009,40.95018000000016],[39.19770000000011,40.94993000000011],[39.19797000000011,40.94967000000008],[39.19854000000021,40.94958000000025],[39.19856000000004,40.94947000000042],[39.198430000000144,40.94922000000031],[39.19848000000019,40.948920000000385],[39.198240000000055,40.94859000000008],[39.197870000000194,40.94823000000014],[39.1969900000002,40.94774000000007],[39.19718000000012,40.94775000000021],[39.197710000000086,40.94755000000015],[39.19780000000026,40.94698000000028],[39.19853000000006,40.946750000000065],[39.19874000000004,40.94680000000045],[39.200470000000166,40.946530000000166],[39.20217000000014,40.94662000000011],[39.20284000000015,40.9465100000001],[39.203540000000146,40.94671000000011],[39.203940000000046,40.946540000000255],[39.20441000000005,40.94652000000019],[39.20458000000008,40.946600000000274],[39.205060000000174,40.94642000000027],[39.2065300000001,40.946230000000185],[39.207190000000026,40.94586000000015],[39.20795000000021,40.94572000000062],[39.208280000000116,40.94554000000011],[39.20882000000006,40.945570000000316],[39.20915000000019,40.94535000000042],[39.20913000000013,40.9452500000001],[39.20925000000011,40.945170000000076],[39.20969000000008,40.945330000000354],[39.20987000000008,40.94529000000057],[39.21025000000009,40.944990000000075],[39.21123000000017,40.94515000000035],[39.21165000000008,40.9449800000005],[39.21274000000005,40.94484000000028],[39.213520000000074,40.94503000000037],[39.2145500000002,40.94511000000006],[39.21524000000011,40.94565000000051],[39.21577000000008,40.94575000000026],[39.21600000000012,40.945640000000424],[39.21657000000005,40.945670000000064],[39.21706000000006,40.94550000000021],[39.217500000000086,40.94510000000048],[39.21876000000003,40.94516000000033],[39.219710000000134,40.94535000000042],[39.22050000000013,40.94512000000003],[39.22227000000004,40.94481000000064],[39.22298000000018,40.94484000000028],[39.223520000000065,40.94466000000034],[39.22357088394335,40.94484066295797],[39.22399000000007,40.945330000000354],[39.22335000000004,40.94617000000022],[39.22285000000005,40.946540000000255],[39.22289000000018,40.94706000000065],[39.22279000000026,40.948180000000264],[39.22297000000003,40.94900000000007],[39.22238999680627,40.9489500000405],[39.220480000000066,40.94932000000006],[39.21945000000011,40.949700000000234],[39.21910000000008,40.95011000000005],[39.21873000000005,40.950350000000185],[39.2179900000001,40.95037000000025],[39.21784000000014,40.950470000000166],[39.216670000000136,40.95046000000059],[39.21554000000009,40.95026000000041],[39.21529000000015,40.95042000000012],[39.21501000000012,40.95046000000059],[39.21449000000007,40.95021000000014],[39.21399000000008,40.9503400000001],[39.21322000000015,40.95040000000006],[39.21296000000012,40.950620000000356],[39.212210000000255,40.95065000000068],[39.21195000000006,40.950840000000085],[39.21115000000009,40.95079000000021],[39.21039000000013,40.95091000000019],[39.209210000000155,40.95130000000046],[39.20870000000008,40.951370000000566],[39.2084900000001,40.95145000000008],[39.2084500000002,40.95160000000004],[39.20798000000019,40.95179000000013],[39.20542000000012,40.9524500000004],[39.20408000000009,40.95260000000019],[39.20389000000017,40.95271000000059],[39.203390000000184,40.9526300000004],[39.202550000000144,40.952670000000126],[39.201900000000194,40.95281000000034],[39.201500000000124,40.952770000000044],[39.20121000000012,40.95287000000036],[39.19987000000009,40.95283000000006],[39.199140000000114,40.95307000000054],[39.19776000000013,40.953200000000095],[39.1971309981634,40.95344263585622]]],"type":"Polygon"}},{"type":"Feature","properties":{"area_id":"TR-61-015-157101","name_tr":"Çetrik","area_level":"neighbourhood","parent_id":"TR-61-015","endeksa_id":157101},"geometry":{"coordinates":[[[39.14991757815994,40.95293285440289],[39.149694506504375,40.95297908881088],[39.14960430000008,40.95109480000053],[39.14801760000006,40.9510097000001],[39.147365629000035,40.95112049100044],[39.14690293900014,40.95045051900007],[39.14724351200016,40.9503911420004],[39.1486245210001,40.95045149900051],[39.14737777600004,40.9480518420001],[39.145170706000044,40.94568719300048],[39.14554831400005,40.94555153100009],[39.143050541000036,40.94165152200026],[39.14326027600009,40.93938459100036],[39.14335008000006,40.93929761700008],[39.155314050000186,40.93634044700019],[39.161835650000114,40.93481465700006],[39.16267092700019,40.93522433400017],[39.15958292800008,40.93807045100016],[39.16128206800016,40.938724601000104],[39.16246545900009,40.938564820000124],[39.170220280472336,40.94258379269826],[39.170248759409446,40.94271167248996],[39.16710552700016,40.94594285000005],[39.167142985000055,40.94708599300003],[39.16679903500017,40.94754740400015],[39.16496338700017,40.948131554000156],[39.16408056300014,40.949036845000194],[39.14991757815994,40.95293285440289]]],"type":"Polygon"}},{"type":"Feature","properties":{"area_id":"TR-61-015-80145","name_tr":"Kireç","area_level":"neighbourhood","parent_id":"TR-61-015","endeksa_id":80145},"geometry":{"coordinates":[[[39.19766361496505,40.95407487179591],[39.1974929273872,40.95405091832117],[39.19733951795945,40.954136851658575],[39.19713027029724,40.954286907756966],[39.197133972692086,40.95442363492077],[39.19782951598938,40.95524381178359],[39.19684706601731,40.95662632331886],[39.19674305057521,40.956672892193126],[39.19444985400014,40.95543613600006],[39.174303799000086,40.95447066700052],[39.17800959100015,40.952775601999974],[39.17790032000005,40.95080560800005],[39.183022501000096,40.94964997599999],[39.187457033000044,40.94629501800006],[39.18642671600014,40.94544075400006],[39.18769520500001,40.941230964000454],[39.195727338000154,40.94141054500011],[39.19554257500005,40.943374247000065],[39.19611021800006,40.942949494000175],[39.19706673300004,40.942772386000115],[39.200168031000146,40.94270071600056],[39.200290783000185,40.94276589000009],[39.20029172700009,40.94295641400004],[39.20012949403508,40.94658238553359],[39.19874000000004,40.94680000000045],[39.19853000000006,40.946750000000065],[39.19780000000026,40.94698000000028],[39.197710000000086,40.94755000000015],[39.19718000000012,40.94775000000021],[39.1969900000002,40.94774000000007],[39.197870000000194,40.94823000000014],[39.198240000000055,40.94859000000008],[39.19848000000019,40.948920000000385],[39.198430000000144,40.94922000000031],[39.19856000000004,40.94947000000042],[39.19854000000021,40.94958000000025],[39.19797000000011,40.94967000000008],[39.19770000000011,40.94993000000011],[39.19674000000009,40.95018000000016],[39.196290000000204,40.950530000000185],[39.19619000000006,40.950750000000426],[39.19625000000008,40.95110000000028],[39.19670000000019,40.95161000000053],[39.19677000000013,40.95185000000049],[39.1963300000001,40.952510000000416],[39.196010000000115,40.95283000000006],[39.19593000000003,40.953040000000215],[39.19607000000008,40.95330000000041],[39.19640000000004,40.95362000000057],[39.1971309981634,40.95344263585622],[39.19766361496505,40.95407487179591]]],"type":"Polygon"}},{"type":"Feature","properties":{"area_id":"TR-61-015-80146","name_tr":"Sugören","area_level":"neighbourhood","parent_id":"TR-61-015","endeksa_id":80146},"geometry":{"coordinates":[[[39.174303799000086,40.95447066700052],[39.172615114999985,40.95482546900007],[39.17021910300019,40.9591859770004],[39.169064269000046,40.96029523800007],[39.16241663000005,40.959077982999986],[39.155591879000156,40.96000572500037],[39.15434327500003,40.95911220900018],[39.14991757815994,40.95293285440289],[39.16408056300014,40.949036845000194],[39.16496338700017,40.948131554000156],[39.16679903500017,40.94754740400015],[39.167142985000055,40.94708599300003],[39.16710552700016,40.94594285000005],[39.170248759409446,40.94271167248996],[39.170220280472336,40.94258379269826],[39.17653362211098,40.94363532124885],[39.182230578686415,40.942409477671106],[39.183540943000025,40.94207240500003],[39.18752240100014,40.94181008600009],[39.18642671600014,40.94544075400006],[39.187457033000044,40.94629501800006],[39.183022501000096,40.94964997599999],[39.17790032000005,40.95080560800005],[39.17800959100015,40.952775601999974],[39.174303799000086,40.95447066700052]]],"type":"Polygon"}},{"type":"Feature","properties":{"area_id":"TR-61-015-157119","name_tr":"Karakaya","area_level":"neighbourhood","parent_id":"TR-61-015","endeksa_id":157119},"geometry":{"coordinates":[[[39.222202324000136,40.957038022000404],[39.21246940000003,40.95742912300017],[39.2043622810001,40.95962047500029],[39.20406121100007,40.95945409400065],[39.19669330872915,40.9614475521862],[39.19653758497793,40.961342674995706],[39.19843600049518,40.95504348712575],[39.1977656184157,40.95419595940325],[39.1971309981634,40.95344263585622],[39.19776000000013,40.953200000000095],[39.199140000000114,40.95307000000054],[39.19987000000009,40.95283000000006],[39.20121000000012,40.95287000000036],[39.201500000000124,40.952770000000044],[39.201900000000194,40.95281000000034],[39.202550000000144,40.952670000000126],[39.203390000000184,40.9526300000004],[39.20389000000017,40.95271000000059],[39.20408000000009,40.95260000000019],[39.20542000000012,40.9524500000004],[39.20798000000019,40.95179000000013],[39.2084500000002,40.95160000000004],[39.2084900000001,40.95145000000008],[39.20870000000008,40.951370000000566],[39.209210000000155,40.95130000000046],[39.21039000000013,40.95091000000019],[39.21115000000009,40.95079000000021],[39.21195000000006,40.950840000000085],[39.212210000000255,40.95065000000068],[39.21296000000012,40.950620000000356],[39.21322000000015,40.95040000000006],[39.21399000000008,40.9503400000001],[39.21449000000007,40.95021000000014],[39.21501000000012,40.95046000000059],[39.21529000000015,40.95042000000012],[39.21554000000009,40.95026000000041],[39.216670000000136,40.95046000000059],[39.21784000000014,40.950470000000166],[39.2179900000001,40.95037000000025],[39.21873000000005,40.950350000000185],[39.21910000000008,40.95011000000005],[39.21945000000011,40.949700000000234],[39.220480000000066,40.94932000000006],[39.22238999680627,40.9489500000405],[39.222491189000095,40.957026414000154],[39.222202324000136,40.957038022000404]]],"type":"Polygon"}},{"type":"Feature","properties":{"area_id":"TR-61-015-157113","name_tr":"Gölkiriş","area_level":"neighbourhood","parent_id":"TR-61-015","endeksa_id":157113},"geometry":{"coordinates":[[[39.22230270100016,40.96150076800035],[39.21861322500007,40.96461384500009],[39.21520819300008,40.96422916500023],[39.21340857000013,40.96433797400044],[39.205385110000066,40.96827310200007],[39.20524109000007,40.96826782500011],[39.20515973300019,40.96809510400027],[39.205014933000086,40.96806569600017],[39.20378083600019,40.96869728700062],[39.1976952280001,40.96857196600047],[39.19652140383886,40.96154023525895],[39.19669330872915,40.9614475521862],[39.20406121100007,40.95945409400065],[39.2043622810001,40.95962047500029],[39.21246940000003,40.95742912300017],[39.222202324000136,40.957038022000404],[39.22229796600004,40.95710410600054],[39.222476448000066,40.961347986000135],[39.22230270100016,40.96150076800035]]],"type":"Polygon"}},{"type":"Feature","properties":{"area_id":"TR-61-015-157099","name_tr":"Çarlaklı","area_level":"neighbourhood","parent_id":"TR-61-015","endeksa_id":157099},"geometry":{"coordinates":[[[39.219438287000116,40.973185320000084],[39.21917435200004,40.975793169000156],[39.21716800100006,40.97646116800041],[39.217154927000024,40.979736300000184],[39.217096125000126,40.97972453700015],[39.217094035000116,40.97981941500018],[39.216999944000065,40.97970360900001],[39.200212360000194,40.9760434250004],[39.198996719000036,40.97657262400003],[39.198409114000185,40.97664235700006],[39.19830206400002,40.976875023000105],[39.19765682600013,40.97715591100007],[39.197985436000124,40.970117339000524],[39.19729198931054,40.967589895860954],[39.1974082984849,40.967661606826994],[39.197526154695765,40.96756024322451],[39.1976952280001,40.96857196600047],[39.20378083600019,40.96869728700062],[39.205014933000086,40.96806569600017],[39.20515973300019,40.96809510400027],[39.20524109000007,40.96826782500011],[39.205385110000066,40.96827310200007],[39.21340857000013,40.96433797400044],[39.21520819300008,40.96422916500023],[39.21861322500007,40.96461384500009],[39.22240359400007,40.9614184400001],[39.22266285100011,40.96561974100018],[39.21942552900015,40.970467846000304],[39.219302465000055,40.97304743300049],[39.219438287000116,40.973185320000084]]],"type":"Polygon"}},{"type":"Feature","properties":{"area_id":"TR-61-015-157095","name_tr":"Akçiriş","area_level":"neighbourhood","parent_id":"TR-61-015","endeksa_id":157095},"geometry":{"coordinates":[[[39.212591788000054,40.98542311000011],[39.20954096400004,40.987172066000085],[39.20787026400018,40.983819112000276],[39.206326144000116,40.983343329000434],[39.19815300300007,40.981242036000026],[39.19709074999997,40.98104898700012],[39.19684448400005,40.98130265300034],[39.19765682600013,40.97715591100007],[39.19830206400002,40.976875023000105],[39.198409114000185,40.97664235700006],[39.198996719000036,40.97657262400003],[39.200212360000194,40.9760434250004],[39.216999944000065,40.97970360900001],[39.217094035000116,40.97981941500018],[39.21702422400011,40.982703889000106],[39.21488993000008,40.98481751700001],[39.213565126000105,40.98486512100004],[39.212591788000054,40.98542311000011]]],"type":"Polygon"}},{"type":"Feature","properties":{"area_id":"TR-61-015-157137","name_tr":"Üzümözü","area_level":"neighbourhood","parent_id":"TR-61-015","endeksa_id":157137},"geometry":{"coordinates":[[[39.19450905315563,40.989251324779616],[39.19408308274393,40.98940527675842],[39.19404668640061,40.989508200822],[39.19412559355072,40.989594708450795],[39.19384515400003,40.989468544000204],[39.1909828310001,40.99040508700011],[39.18947780399998,40.986831080000115],[39.18810570200014,40.98692655500008],[39.188633088000074,40.99214845500012],[39.18057324800009,40.983592719000285],[39.17712031100007,40.96939267400052],[39.17407312500001,40.96432831700008],[39.168990296000004,40.96036629200012],[39.17021910300019,40.9591859770004],[39.172615114999985,40.95482546900007],[39.174303799000086,40.95447066700052],[39.19444985400014,40.95543613600006],[39.19674305057521,40.956672892193126],[39.19684706601731,40.95662632331886],[39.19782951598938,40.95524381178359],[39.197133972692086,40.95442363492077],[39.19713027029724,40.954286907756966],[39.19733951795945,40.954136851658575],[39.1974929273872,40.95405091832117],[39.19766361496505,40.95407487179591],[39.19843600049518,40.95504348712575],[39.19653758497793,40.961342674995706],[39.19669330872915,40.9614475521862],[39.19652140383886,40.96154023525895],[39.197526154695765,40.96756024322451],[39.1974082984849,40.967661606826994],[39.19729198931054,40.967589895860954],[39.197985436000124,40.970117339000524],[39.19765682600013,40.97715591100007],[39.196806292000076,40.98149760800004],[39.194596531000116,40.983450967000636],[39.19477225000003,40.98916520100039],[39.19450905315563,40.989251324779616]]],"type":"Polygon"}}]}