{"type":"FeatureCollection","source_id":"endeksa","retrieved_at":null,"features":[{"type":"Feature","properties":{"area_id":"TR-60-008-2030559","name_tr":"Bayazıt Köyü","area_level":"neighbourhood","parent_id":"TR-60-008","endeksa_id":2030559},"geometry":{"coordinates":[[[36.12150233337724,39.92410083344288],[36.12108000000012,39.9240300000003],[36.120860000000164,39.923640000000034],[36.12074000000018,39.923580000000186],[36.118590000000154,39.92396000000019],[36.1167700000002,39.92391000000032],[36.11587000000014,39.92400000000066],[36.115550000000155,39.92415000000028],[36.11531000000019,39.923990000000174],[36.11180000000019,39.92368000000033],[36.11163000000016,39.92329000000018],[36.1084400000002,39.92314000000056],[36.10653000000008,39.92266000000063],[36.106100000000026,39.922410000000184],[36.10552000000018,39.922500000000184],[36.10509000000013,39.92271000000051],[36.101340000000164,39.92220000000026],[36.099350000000186,39.92411000000038],[36.09048000000007,39.92655000000008],[36.08985560040014,39.92689079720088],[36.08985000000018,39.92651000000018],[36.08967000000018,39.926310000000115],[36.090340000000026,39.925570000000164],[36.09086000000008,39.925380000000075],[36.091050000000166,39.92520000000047],[36.09109000000012,39.92486000000008],[36.089910000000145,39.92384000000021],[36.08951000000013,39.923640000000034],[36.089160000000106,39.92359000000016],[36.089260000000195,39.92276000000038],[36.08903000000021,39.92220000000026],[36.08934000000011,39.921790000000044],[36.089380000000176,39.921440000000075],[36.08871000000016,39.920260000000326],[36.08832000000007,39.91994000000011],[36.08846000000011,39.91971000000029],[36.088790000000245,39.91953000000029],[36.08797000000004,39.91886000000028],[36.087460000000135,39.91897000000017],[36.087340000000154,39.91888000000051],[36.087330000000236,39.91871000000015],[36.08692000000025,39.918560000000355],[36.087020000000166,39.91832000000039],[36.08652000000018,39.91804000000013],[36.08642000000009,39.9178400000003],[36.08670000000012,39.917600000000334],[36.08661000000018,39.916090000000054],[36.08593000000019,39.91598000000005],[36.085320000000195,39.91626000000031],[36.085140000000195,39.91603000000009],[36.0848400000001,39.91518000000008],[36.08510000000007,39.91505000000052],[36.08543000000003,39.91508000000016],[36.0856500000001,39.91495000000009],[36.08511000000004,39.914380000000506],[36.085170000000176,39.9142300000002],[36.08561000000003,39.9140100000003],[36.085540000000094,39.91381000000024],[36.084890000000144,39.91343000000006],[36.08446000000009,39.91343000000006],[36.08440000000007,39.91331000000008],[36.08385000000004,39.91353000000038],[36.084050000000104,39.9131900000001],[36.08445000000012,39.912990000000605],[36.08463000000012,39.91279000000003],[36.08462000000014,39.9120200000001],[36.08429000000024,39.91171000000003],[36.08230000000026,39.91102000000035],[36.08190000000019,39.911250000000166],[36.0814900000002,39.911120000000096],[36.08103000000011,39.91133000000042],[36.08022000000011,39.91089000000022],[36.07438000000025,39.911960000000136],[36.07708000000014,39.908590000000345],[36.07751000000019,39.90820000000008],[36.07963000000012,39.903660000000286],[36.07945000000012,39.90135000000032],[36.07927000000018,39.900570000000414],[36.0773200000001,39.89483000000013],[36.07884000000013,39.89309000000043],[36.07940000000008,39.8926900000007],[36.079740000000186,39.892080000000135],[36.089660000000094,39.885600000000295],[36.09475000000009,39.8817700000003],[36.09890000000007,39.8778700000002],[36.10559000000006,39.87230000000045],[36.10785000000021,39.870580000000416],[36.11374000000029,39.86636000000084],[36.12207000000029,39.864540000000716],[36.126490000000274,39.86465000000021],[36.12729000000036,39.865410000000395],[36.127890000000264,39.865690000000825],[36.12827000000027,39.86620000000039],[36.12931000000037,39.866950000000486],[36.12933000000021,39.867080000000726],[36.131660000000295,39.868110000000684],[36.132930000000385,39.869280000000856],[36.13342000000023,39.870090000000914],[36.13434000000035,39.87066000000033],[36.135170000000244,39.87190000000021],[36.13571000000036,39.8724200000006],[36.1371700000002,39.87319000000036],[36.13840000000033,39.874010000000396],[36.1388900000004,39.874240000000555],[36.1389800000004,39.874360000000536],[36.13870000000031,39.87465000000037],[36.13914000000028,39.87494000000021],[36.13957000000033,39.8754000000003],[36.140300000000366,39.87565000000069],[36.14053000000035,39.875970000000336],[36.14090000000027,39.87619000000046],[36.14162000000033,39.8768900000008],[36.14160000000027,39.87728000000055],[36.142810000000395,39.87812000000042],[36.14290000000034,39.87855000000047],[36.14326000000028,39.87887000000052],[36.14363000000037,39.87961000000024],[36.14395000000036,39.87999000000025],[36.14407000000034,39.8806000000003],[36.14436000000035,39.8812800000004],[36.14565000000033,39.88313000000056],[36.145790000000204,39.883870000000286],[36.145910000000356,39.88404000000054],[36.146220000000255,39.88419000000033],[36.14676000000037,39.88429000000059],[36.14748000000026,39.88457000000051],[36.14797000000027,39.88487000000043],[36.14868000000041,39.885070000000326],[36.149970000000394,39.88602000000037],[36.15033000000034,39.88651000000095],[36.150990000000206,39.8866800000003],[36.15194000000031,39.88662000000028],[36.15212000000008,39.88704000000007],[36.15228000000019,39.88716000000005],[36.15303000000006,39.88739000000004],[36.15358000000009,39.8874100000001],[36.1539200000002,39.887770000000046],[36.15436000000017,39.88807000000003],[36.15485000000018,39.8882000000001],[36.15566000000007,39.88819000000069],[36.15637000000021,39.88837000000012],[36.15683000000007,39.88887000000011],[36.156910000000096,39.88912000000022],[36.15736000000004,39.889410000000055],[36.15785000000011,39.890120000000366],[36.15809000000007,39.89026000000018],[36.15891000000005,39.89032000000003],[36.159070000000156,39.89040000000023],[36.159070000000156,39.890650000000335],[36.159820000000195,39.89085000000051],[36.16046000000006,39.89128000000005],[36.16101000000009,39.89145000000042],[36.16114000000016,39.8915700000004],[36.16172000000017,39.891520000000526],[36.161800000000085,39.891650000000084],[36.16176000000013,39.89199000000036],[36.161960000000136,39.892140000000154],[36.16302000000013,39.89250000000061],[36.16393000000011,39.89262000000008],[36.164160000000095,39.89275000000015],[36.164310000000114,39.893000000000086],[36.16436000000016,39.893540000000144],[36.16554000000008,39.8943500000002],[36.166110000000174,39.89417000000026],[36.1664100000001,39.894370000000436],[36.166570000000036,39.89436000000035],[36.16725000000014,39.89403000000004],[36.16751000000016,39.89407000000011],[36.16800000000006,39.894400000000076],[36.16830000000016,39.894500000000164],[36.169210000000135,39.89449000000042],[36.170140000000174,39.8946100000004],[36.17065000000008,39.89516000000043],[36.171000000000106,39.89528000000041],[36.17186000000004,39.895210000000304],[36.17210000000017,39.89534000000043],[36.1724500000002,39.89526000000018],[36.173020000000065,39.89559000000048],[36.173200000000065,39.89558000000039],[36.17343000000011,39.89543000000003],[36.173510000000135,39.89546000000041],[36.17349000000007,39.89591000000013],[36.17359000000016,39.895980000000066],[36.17445000000009,39.89594000000034],[36.17463000000009,39.896140000000514],[36.1749200000001,39.896170000000154],[36.17520000000019,39.89640000000003],[36.17546000000016,39.896480000000224],[36.17590000000018,39.8963300000006],[36.17617000000013,39.89637000000039],[36.17631000000017,39.89646000000016],[36.17650000000009,39.896820000000105],[36.17683000000022,39.89708000000013],[36.1772600000001,39.897250000000156],[36.17745000000019,39.89751000000018],[36.177820000000054,39.89764000000031],[36.17784000000012,39.89785000000006],[36.178560000000175,39.89848000000018],[36.178680000000156,39.89850000000041],[36.17860000000013,39.899110000000405],[36.17929000000015,39.90039000000007],[36.17919000000006,39.900820000000124],[36.17950000000013,39.901060000000086],[36.17932000000019,39.90142000000043],[36.17936000000009,39.90189000000021],[36.17914000000019,39.90252000000032],[36.17815000000019,39.90299000000027],[36.17755000000011,39.904900000000566],[36.17258307999998,39.90683243400008],[36.172554446299614,39.90703355780977],[36.17248848578379,39.90691815644948],[36.17232740304996,39.906903878812955],[36.16603000000009,39.909080000000415],[36.16248000000019,39.91076000000015],[36.15936000000016,39.91186000000022],[36.158330000000035,39.912090000000035],[36.150770000000136,39.91255000000007],[36.15023000000019,39.91313000000014],[36.14988000000005,39.91313000000014],[36.14974000000018,39.91334000000029],[36.14872000000014,39.913010000000156],[36.136460000000056,39.914900000000216],[36.13564000000008,39.914780000000235],[36.13545000000016,39.91501000000005],[36.135040000000174,39.91514000000018],[36.1341700000001,39.914940000000115],[36.13350000000008,39.91501000000005],[36.13322000000005,39.91514000000018],[36.13277000000011,39.9157000000003],[36.13174000000015,39.91554000000042],[36.13119000000012,39.915650000000426],[36.13082000000003,39.915620000000104],[36.13045000000017,39.916180000000224],[36.1295300000001,39.91634000000067],[36.128750000000025,39.91681000000011],[36.128410000000144,39.91691000000026],[36.128130000000056,39.916890000000194],[36.1280500000002,39.91697000000022],[36.1280500000002,39.91720000000009],[36.12786000000011,39.91743000000008],[36.12774000000013,39.91818000000018],[36.12764000000021,39.91830000000016],[36.12681000000009,39.9187400000003],[36.125930000000096,39.91904000000028],[36.12575000000015,39.91942000000029],[36.12469000000016,39.92036000000007],[36.12461000000013,39.92059000000006],[36.124190000000226,39.92096000000015],[36.124070000000245,39.92134000000016],[36.123890000000074,39.92159000000021],[36.12354000000005,39.92183000000017],[36.123710000000074,39.922310000000095],[36.12335000000013,39.92279000000019],[36.12331000000006,39.923210000000154],[36.12279000000018,39.92323000000022],[36.12143000000009,39.923920000000294],[36.12150233337724,39.92410083344288]]],"type":"Polygon"}},{"type":"Feature","properties":{"area_id":"TR-60-008-2030567","name_tr":"Belpınar Köyü","area_level":"neighbourhood","parent_id":"TR-60-008","endeksa_id":2030567},"geometry":{"coordinates":[[[36.08985560040014,39.92689079720088],[36.089788683000165,39.92700429700028],[36.085290008000186,39.9288744510003],[36.08317984800004,39.93123465000008],[36.08030585100016,39.931685141000685],[36.07860785500003,39.93482906100007],[36.074340925000115,39.93629037699998],[36.06938854400005,39.934989818000645],[36.06386224300013,39.940232866000315],[36.05866228000019,39.942487319000065],[36.053614890000006,39.94867591600007],[36.04549275700009,39.952122759000076],[36.045355668000184,39.95202607900006],[36.045470985000065,39.95159366900003],[36.045380766486176,39.951692997101645],[36.04539091242236,39.95160333544135],[36.04521790822008,39.95156752859566],[36.04578189200032,39.95126478300034],[36.046237825000276,39.94714225100063],[36.0503340640002,39.94040360400027],[36.04862144300034,39.93403596900032],[36.05043473700027,39.929443656000046],[36.05488105100028,39.92906874000033],[36.055070630000216,39.92664047500023],[36.05123142700029,39.92628407700022],[36.05057676900026,39.91728546900032],[36.05125977600022,39.916402354000354],[36.05160394100034,39.91565632800041],[36.05275852500034,39.913825106000274],[36.053117977000056,39.91378709900039],[36.05407535000012,39.91303837700008],[36.054010909,39.913492020000035],[36.05996011700006,39.91187403500055],[36.07437739900013,39.91195682500012],[36.07459455918081,39.91169812358589],[36.07438000000025,39.911960000000136],[36.08022000000011,39.91089000000022],[36.08103000000011,39.91133000000042],[36.0814900000002,39.911120000000096],[36.08190000000019,39.911250000000166],[36.08230000000026,39.91102000000035],[36.08429000000024,39.91171000000003],[36.08462000000014,39.9120200000001],[36.08463000000012,39.91279000000003],[36.08445000000012,39.912990000000605],[36.084050000000104,39.9131900000001],[36.08385000000004,39.91353000000038],[36.08440000000007,39.91331000000008],[36.08446000000009,39.91343000000006],[36.084890000000144,39.91343000000006],[36.085540000000094,39.91381000000024],[36.08561000000003,39.9140100000003],[36.085170000000176,39.9142300000002],[36.08511000000004,39.914380000000506],[36.0856500000001,39.91495000000009],[36.08543000000003,39.91508000000016],[36.08510000000007,39.91505000000052],[36.0848400000001,39.91518000000008],[36.085140000000195,39.91603000000009],[36.085320000000195,39.91626000000031],[36.08593000000019,39.91598000000005],[36.08661000000018,39.916090000000054],[36.08670000000012,39.917600000000334],[36.08642000000009,39.9178400000003],[36.08652000000018,39.91804000000013],[36.087020000000166,39.91832000000039],[36.08692000000025,39.918560000000355],[36.087330000000236,39.91871000000015],[36.087340000000154,39.91888000000051],[36.087460000000135,39.91897000000017],[36.08797000000004,39.91886000000028],[36.088790000000245,39.91953000000029],[36.08846000000011,39.91971000000029],[36.08832000000007,39.91994000000011],[36.08871000000016,39.920260000000326],[36.089380000000176,39.921440000000075],[36.08934000000011,39.921790000000044],[36.08903000000021,39.92220000000026],[36.089260000000195,39.92276000000038],[36.089160000000106,39.92359000000016],[36.08951000000013,39.923640000000034],[36.089910000000145,39.92384000000021],[36.09109000000012,39.92486000000008],[36.091050000000166,39.92520000000047],[36.09086000000008,39.925380000000075],[36.090340000000026,39.925570000000164],[36.08967000000018,39.926310000000115],[36.08985000000018,39.92651000000018],[36.08985560040014,39.92689079720088]]],"type":"Polygon"}},{"type":"Feature","properties":{"area_id":"TR-60-008-2037716","name_tr":"Sarıyaprak Köyü","area_level":"neighbourhood","parent_id":"TR-60-008","endeksa_id":2037716},"geometry":{"coordinates":[[[36.0321020960003,39.94947949500039],[36.031885902,39.94937535400004],[36.03179327100008,39.94944295500039],[36.031339179000156,39.95068435800016],[36.029018848000135,39.955297014999985],[36.024783036000144,39.95447918299999],[36.02187311200004,39.95568027700011],[36.02140732200007,39.954899197000145],[36.021273484000176,39.954851168000175],[36.02116790300005,39.954937950000215],[36.02120179900004,39.955470988000116],[36.02013968200015,39.9553623270001],[36.019194368000115,39.9565844400002],[36.01525734300003,39.957675272000074],[36.01282054300003,39.95637110700022],[36.010837528000025,39.95813998000011],[36.01069591999999,39.95808648100058],[36.010847657000056,39.95799620500003],[36.01159252900004,39.94974138500004],[36.000896238999985,39.94187574000017],[35.99332414899999,39.93744623000032],[35.99038902100017,39.93726818000033],[35.98850577800005,39.93378410300045],[35.987193648000186,39.93287141500025],[35.98594852000019,39.93271964700011],[35.981476611999994,39.93444269800017],[35.98114542800016,39.9364045640001],[35.978420868000114,39.93852267300048],[35.97833545400016,39.938462173999994],[35.977786873000184,39.93887608700004],[35.97773850200019,39.938814753000486],[35.97715833800015,39.939308864000054],[35.9771922540001,39.9393588100001],[35.97673160315941,39.939672307475234],[35.97655236700018,39.93952976400004],[35.97637509300006,39.939517817000024],[35.97438030300003,39.93502293800054],[35.97960307800008,39.931852463000496],[35.9815959120001,39.925461935000385],[35.98640186500029,39.920642554000324],[35.98618234700024,39.92347810100023],[35.99024229700029,39.92472254200004],[35.99564900200028,39.92290266300023],[35.99698159100029,39.925398384000005],[36.00116098500024,39.92145426800016],[36.00844926900021,39.91926341600043],[36.02973495100031,39.92624608500029],[36.03656842200036,39.93154849600012],[36.039906952000194,39.93131280500029],[36.031497512000215,39.94132355400035],[36.03115667900033,39.94826654900004],[36.0321020960003,39.94947949500039]]],"type":"Polygon"}},{"type":"Feature","properties":{"area_id":"TR-60-008-2030564","name_tr":"Selimiye Köyü","area_level":"neighbourhood","parent_id":"TR-60-008","endeksa_id":2030564},"geometry":{"coordinates":[[[35.986665755000104,39.96645488400014],[35.98664235600006,39.96656574200023],[35.986494403000165,39.966586839000286],[35.97772876100015,39.96340197500001],[35.97767224100011,39.963262859000054],[35.97868813500014,39.96215686600016],[35.98395698600007,39.95783229299997],[35.98415791500008,39.953870148000135],[35.98408527300012,39.95377823700045],[35.976682809000124,39.95102783300007],[35.975138946000186,39.946951744000046],[35.975210812000114,39.946833659000504],[35.97776875599999,39.94609849900007],[35.97535601200002,39.94093973900027],[35.976820353000164,39.93978490200004],[35.97673160315941,39.939672307475234],[35.9771922540001,39.9393588100001],[35.97715833800015,39.939308864000054],[35.97773850200019,39.938814753000486],[35.977786873000184,39.93887608700004],[35.97833545400016,39.938462173999994],[35.978420868000114,39.93852267300048],[35.98114542800016,39.9364045640001],[35.981476611999994,39.93444269800017],[35.98594852000019,39.93271964700011],[35.987193648000186,39.93287141500025],[35.98850577800005,39.93378410300045],[35.99038902100017,39.93726818000033],[35.99332414899999,39.93744623000032],[36.000896238999985,39.94187574000017],[36.01159252900004,39.94974138500004],[36.010847657000056,39.95799620500003],[36.01069591999999,39.95808648100058],[36.00835209100018,39.95773546100031],[36.005924570000104,39.95467279500002],[36.001395393999985,39.954758060000074],[36.00028776500011,39.95713393800037],[35.99822469000003,39.95748540600016],[35.99003330900001,39.95258556400012],[35.98990242400015,39.95257308300006],[35.98734814700009,39.95375896100063],[35.98378439700008,39.96208472400019],[35.98775974100005,39.96487620000005],[35.98774292500008,39.964983686000096],[35.98646789500009,39.96603733400002],[35.986665755000104,39.96645488400014]]],"type":"Polygon"}},{"type":"Feature","properties":{"area_id":"TR-60-008-2030561","name_tr":"Çime Köyü","area_level":"neighbourhood","parent_id":"TR-60-008","endeksa_id":2030561},"geometry":{"coordinates":[[[36.14224700700004,39.96748207000019],[36.141565126000046,39.96756085600032],[36.13602288600015,39.969630994],[36.12928644900006,39.9743134470001],[36.12173285400013,39.97644134700016],[36.111317220000046,39.982171248000554],[36.104498067000065,39.9891084140001],[36.09466309489653,39.992364730687825],[36.09433000000013,39.991690000000176],[36.095450000000085,39.99116000000038],[36.09627000000006,39.99063000000018],[36.09633000000025,39.98996000000017],[36.09606000000008,39.988850000000355],[36.0959000000002,39.988750000000095],[36.095760000000155,39.98844000000054],[36.09695000000022,39.98489000000029],[36.09701000000018,39.984170000000404],[36.09695000000022,39.98374000000035],[36.09713000000016,39.98247000000026],[36.097900000000095,39.98146000000014],[36.09857000000011,39.981130000000405],[36.09975000000003,39.98018000000013],[36.10082000000011,39.97892000000013],[36.10191000000009,39.978220000000476],[36.10314000000005,39.97703000000007],[36.10087000000016,39.97706000000028],[36.08784000000014,39.9778400000003],[36.087590000000034,39.97580000000062],[36.085040000000106,39.97536000000008],[36.083370000000116,39.97518000000048],[36.082810000000165,39.97545000000008],[36.08244000000008,39.974840000000086],[36.081660000000056,39.97487000000041],[36.08165000000008,39.974630000000445],[36.0806300000001,39.97496000000007],[36.07958000000008,39.9747600000004],[36.077860000000044,39.97431000000029],[36.07718000000011,39.97400000000022],[36.07685000000015,39.97395000000034],[36.07685000000015,39.97372000000047],[36.07655000000017,39.97351000000015],[36.075970000000154,39.97384000000045],[36.07590000000005,39.97414000000043],[36.07611000000003,39.97442000000012],[36.07664000000017,39.974450000000104],[36.07664000000017,39.97504000000026],[36.075000000000216,39.975460000000226],[36.07531000000006,39.97585000000049],[36.07255000000015,39.975810000000195],[36.072500000000105,39.97561000000053],[36.07171000000011,39.97592000000009],[36.069710000000214,39.97616000000005],[36.06954000000013,39.97598000000005],[36.07000000000022,39.975590000000295],[36.06997000000018,39.975500000000125],[36.06958000000009,39.97504000000026],[36.06905000000012,39.97499000000039],[36.06896000000012,39.97458000000006],[36.06839000000019,39.97468000000032],[36.068280000000186,39.974840000000086],[36.067970000000116,39.97502000000003],[36.067480000000046,39.97520000000003],[36.066390000000126,39.97537000000057],[36.06523000000004,39.97526000000016],[36.06542000000013,39.974850000000174],[36.065310000000125,39.97460000000012],[36.06524000000019,39.97452000000004],[36.06463100428107,39.97443020085649],[36.065667245999975,39.974463756000546],[36.065812453000035,39.97433200200015],[36.07161443000018,39.96518173400011],[36.069531274000155,39.962277405000236],[36.06721526500007,39.96280194500014],[36.06690662800003,39.96255516800039],[36.06576360971383,39.962681979469835],[36.06560325932503,39.96259121081499],[36.06566366574589,39.96245427783697],[36.066599832000065,39.962046157000145],[36.06643789200018,39.96166832500029],[36.06669885600007,39.96132016100012],[36.06985700900003,39.96067156800018],[36.06914046000014,39.958279609000215],[36.062658436000106,39.95719039900018],[36.05812711400017,39.950640865000025],[36.058016307000116,39.95058840100012],[36.05309466600016,39.95201302800018],[36.04737710300003,39.956614695000155],[36.04311099600011,39.957309720000524],[36.042923535000114,39.957508625],[36.04288835300008,39.95737893500012],[36.04268414600011,39.957378401000256],[36.04461630782248,39.95284276265534],[36.04465457105687,39.9524925182846],[36.045470985000065,39.95159366900003],[36.045355668000184,39.95202607900006],[36.04549275700009,39.952122759000076],[36.053614890000006,39.94867591600007],[36.05866228000019,39.942487319000065],[36.06386224300013,39.940232866000315],[36.06938854400005,39.934989818000645],[36.074340925000115,39.93629037699998],[36.07860785500003,39.93482906100007],[36.08030585100016,39.931685141000685],[36.08317984800004,39.93123465000008],[36.085290008000186,39.9288744510003],[36.089788683000165,39.92700429700028],[36.08985560040014,39.92689079720088],[36.09048000000007,39.92655000000008],[36.099350000000186,39.92411000000038],[36.101340000000164,39.92220000000026],[36.10509000000013,39.92271000000051],[36.10552000000018,39.922500000000184],[36.106100000000026,39.922410000000184],[36.10653000000008,39.92266000000063],[36.1084400000002,39.92314000000056],[36.11163000000016,39.92329000000018],[36.11180000000019,39.92368000000033],[36.11531000000019,39.923990000000174],[36.115550000000155,39.92415000000028],[36.11587000000014,39.92400000000066],[36.1167700000002,39.92391000000032],[36.118590000000154,39.92396000000019],[36.12074000000018,39.923580000000186],[36.120860000000164,39.923640000000034],[36.12108000000012,39.9240300000003],[36.12150233337724,39.92410083344288],[36.12348555800003,39.93684047200014],[36.123548008,39.94194908500015],[36.1222321410001,39.94290814200019],[36.12210595300019,39.942960646000415],[36.12195906700009,39.942900409000174],[36.121952723000106,39.943113553000046],[36.12330660600014,39.958518361000074],[36.136577241000055,39.96372538300017],[36.14586664800015,39.961101392000046],[36.1486020590001,39.9625427360001],[36.15074034200018,39.95971485800004],[36.15375420100003,39.96105955400009],[36.15325629100005,39.96354878700009],[36.15473748300002,39.965762016000156],[36.153340897000135,39.96610096500041],[36.14996728500006,39.966590069000006],[36.14224700700004,39.96748207000019]]],"type":"Polygon"}},{"type":"Feature","properties":{"area_id":"TR-60-008-70998","name_tr":"Fatih","area_level":"neighbourhood","parent_id":"TR-60-008","endeksa_id":70998},"geometry":{"coordinates":[[[36.08364000000006,39.9958000000002],[36.082810000000165,39.994890000000055],[36.08183000000008,39.99487000000039],[36.08156000000014,39.99496000000016],[36.08128000000005,39.99519000000055],[36.08075000000008,39.994730000000175],[36.08003000000019,39.99534000000017],[36.07958000000008,39.995910000000436],[36.07910000000015,39.99677000000054],[36.07862000000006,39.99671000000018],[36.07840000000016,39.99646000000047],[36.078160000000196,39.99637000000013],[36.07796000000013,39.99617000000012],[36.076500000000124,39.99568000000005],[36.0748500000002,39.99565000000024],[36.07300000000009,39.99598000000054],[36.0714200000001,39.9960700000002],[36.07055000000025,39.99595000000022],[36.06657000000007,39.99707000000035],[36.06425000000013,39.99796000000026],[36.06053000000003,39.99903000000012],[36.055640000000096,39.999600000000214],[36.05580000000015,39.9975400000003],[36.056180000000154,39.99699000000027],[36.05690000000004,39.995480000000384],[36.05696000000006,39.993280000000254],[36.05483000000004,39.99255000000028],[36.05638000000022,39.99143000000015],[36.05697000000015,39.990860000000396],[36.05779000000018,39.989810000000205],[36.05812000000009,39.988840000000266],[36.057940000000144,39.9861700000003],[36.05759000000012,39.984880000000146],[36.05725000000007,39.98434000000026],[36.056890000000124,39.98342000000014],[36.05677000000014,39.982650000000376],[36.05677000000014,39.98250000000007],[36.05702000000019,39.98276000000027],[36.05707000000007,39.982340000000306],[36.0574900000002,39.98229000000043],[36.05759000000012,39.981790000000274],[36.0578900000001,39.98130000000026],[36.05760000000009,39.98096000000015],[36.05647000000016,39.980490000000714],[36.056790000000035,39.97995000000009],[36.05680000000012,39.97942000000029],[36.05734000000007,39.979280000000074],[36.057880000000125,39.97901000000047],[36.058340000000214,39.979060000000345],[36.05919000000017,39.97963000000061],[36.059650000000204,39.97966000000025],[36.06007000000017,39.97950000000037],[36.060790000000054,39.97869000000031],[36.06128000000007,39.97848000000067],[36.06167000000022,39.97771000000023],[36.062060000000145,39.9773100000005],[36.06205000000023,39.97697000000011],[36.062490000000196,39.97664000000049],[36.062800000000095,39.976030000000094],[36.06423000000012,39.975250000000074],[36.06452000000013,39.97452000000004],[36.06463100428107,39.97443020085649],[36.06524000000019,39.97452000000004],[36.065310000000125,39.97460000000012],[36.06542000000013,39.974850000000174],[36.06523000000004,39.97526000000016],[36.066390000000126,39.97537000000057],[36.067480000000046,39.97520000000003],[36.067970000000116,39.97502000000003],[36.068280000000186,39.974840000000086],[36.06839000000019,39.97468000000032],[36.06896000000012,39.97458000000006],[36.06905000000012,39.97499000000039],[36.06958000000009,39.97504000000026],[36.06997000000018,39.975500000000125],[36.07000000000022,39.975590000000295],[36.06954000000013,39.97598000000005],[36.069710000000214,39.97616000000005],[36.07171000000011,39.97592000000009],[36.072500000000105,39.97561000000053],[36.07255000000015,39.975810000000195],[36.07531000000006,39.97585000000049],[36.075000000000216,39.975460000000226],[36.07664000000017,39.97504000000026],[36.07664000000017,39.974450000000104],[36.07611000000003,39.97442000000012],[36.07590000000005,39.97414000000043],[36.075970000000154,39.97384000000045],[36.07655000000017,39.97351000000015],[36.07685000000015,39.97372000000047],[36.07685000000015,39.97395000000034],[36.07718000000011,39.97400000000022],[36.077860000000044,39.97431000000029],[36.07958000000008,39.9747600000004],[36.0806300000001,39.97496000000007],[36.08165000000008,39.974630000000445],[36.081660000000056,39.97487000000041],[36.08244000000008,39.974840000000086],[36.082810000000165,39.97545000000008],[36.083370000000116,39.97518000000048],[36.085040000000106,39.97536000000008],[36.087590000000034,39.97580000000062],[36.08784000000014,39.9778400000003],[36.10087000000016,39.97706000000028],[36.10314000000005,39.97703000000007],[36.10191000000009,39.978220000000476],[36.10082000000011,39.97892000000013],[36.09975000000003,39.98018000000013],[36.09857000000011,39.981130000000405],[36.097900000000095,39.98146000000014],[36.09713000000016,39.98247000000026],[36.09695000000022,39.98374000000035],[36.09701000000018,39.984170000000404],[36.09695000000022,39.98489000000029],[36.095760000000155,39.98844000000054],[36.0959000000002,39.988750000000095],[36.09606000000008,39.988850000000355],[36.09633000000025,39.98996000000017],[36.09627000000006,39.99063000000018],[36.095450000000085,39.99116000000038],[36.09433000000013,39.991690000000176],[36.09472000000005,39.99248000000017],[36.09364000000005,39.99276000000003],[36.09367000000003,39.99330000000049],[36.09374000000014,39.993370000000596],[36.09266000000014,39.993280000000254],[36.092390000000194,39.9935500000002],[36.091760000000136,39.993590000000324],[36.09129000000013,39.99318000000051],[36.089010000000144,39.99398000000008],[36.08796000000012,39.994240000000104],[36.08836000000019,39.995200000000125],[36.08763000000016,39.99583000000024],[36.086100000000044,39.99553000000026],[36.08555000000018,39.99527000000006],[36.08496000000025,39.99488000000048],[36.084390000000155,39.99426000000034],[36.08364000000006,39.9958000000002]]],"type":"Polygon"}},{"type":"Feature","properties":{"area_id":"TR-60-008-2030554","name_tr":"Alanyurt Köyü","area_level":"neighbourhood","parent_id":"TR-60-008","endeksa_id":2030554},"geometry":{"coordinates":[[[36.02634708954173,40.00075780931462],[36.02446500400009,39.999872494000556],[36.022910634000084,40.001593484000125],[36.02111998900017,39.99918488000014],[36.01532595800012,40.00182702000012],[36.01385993800017,39.99919457400006],[36.01023616200018,40.00363428300068],[36.007259888000135,39.99917796400047],[36.00360195000013,40.00023634600046],[36.00311438500006,40.00011709100028],[35.9995737320001,39.99857730200017],[35.998746802000085,39.99478438400001],[35.99879304200016,39.99437166900043],[35.99578904700019,39.9937630470007],[35.995571705000145,39.99169112300018],[35.9956954270001,39.99163206000014],[35.99977230500008,39.991798741000025],[35.99836750500003,39.9893028860007],[36.00197523100013,39.98889918200018],[36.00205844700008,39.98879102400008],[36.001888002999976,39.988419306000424],[36.00258832900005,39.988253446000044],[36.001188753000065,39.986938290000126],[36.000787991000095,39.98677506200045],[35.999913782000135,39.98605718900029],[36.000003704000164,39.986455627000396],[35.99956349600012,39.98627633300066],[35.99944829399999,39.9864028770001],[36.000351565000074,39.98815248200037],[36.00032920000007,39.98825004600013],[35.99727290600015,39.98846071000014],[35.99455095600018,39.98163715200042],[35.99468353800012,39.981540334000044],[35.99651170800007,39.98170974400006],[35.9866719530001,39.976192088000005],[35.98622368500014,39.97610284699999],[35.98623261400007,39.9759934380001],[35.989706179000166,39.972439302000055],[35.98674865500004,39.969474536000064],[35.98780032600013,39.96832242100004],[35.986665755000104,39.96645488400014],[35.98646789500009,39.96603733400002],[35.98774292500008,39.964983686000096],[35.98775974100005,39.96487620000005],[35.98378439700008,39.96208472400019],[35.98734814700009,39.95375896100063],[35.98990242400015,39.95257308300006],[35.99003330900001,39.95258556400012],[35.99822469000003,39.95748540600016],[36.00028776500011,39.95713393800037],[36.001395393999985,39.954758060000074],[36.005924570000104,39.95467279500002],[36.00835209100018,39.95773546100031],[36.01069591999999,39.95808648100058],[36.010837528000025,39.95813998000011],[36.01282054300003,39.95637110700022],[36.01525734300003,39.957675272000074],[36.019194368000115,39.9565844400002],[36.02013968200015,39.9553623270001],[36.02120179900004,39.955470988000116],[36.02116790300005,39.954937950000215],[36.021273484000176,39.954851168000175],[36.02140732200007,39.954899197000145],[36.02187311200004,39.95568027700011],[36.024783036000144,39.95447918299999],[36.029018848000135,39.955297014999985],[36.031339179000156,39.95068435800016],[36.03179327100008,39.94944295500039],[36.031885902,39.94937535400004],[36.0321020960003,39.94947949500039],[36.03377514800036,39.95085789300026],[36.03626198800026,39.95024417800033],[36.03808099300022,39.95153640800049],[36.03758557100025,39.95272528900023],[36.03757933200035,39.952958989000365],[36.042749352000214,39.95337050900031],[36.04283110400024,39.95345595900028],[36.042842282000265,39.95420617900032],[36.04294348700034,39.954276033999975],[36.04307134300029,39.95423523400035],[36.043917259377224,39.95330401295536],[36.043986038801165,39.95307905421748],[36.04421103092244,39.952981158788475],[36.04438146159987,39.952793622980096],[36.04451530601432,39.95272498701917],[36.04461630782248,39.95284276265534],[36.04268414600011,39.957378401000256],[36.04288835300008,39.95737893500012],[36.042923535000114,39.957508625],[36.032460244000106,39.97126973900015],[36.03253451000006,39.97136608600022],[36.03682042200012,39.97288241100017],[36.04027307600012,39.97082244000018],[36.04504132300002,39.97401594500053],[36.04371426099999,39.975088340000354],[36.04221378200015,39.97783443500009],[36.035804726000094,39.978378466000265],[36.034057926000116,39.980118592],[36.0341272870001,39.98022213200022],[36.03639711400007,39.98105991000011],[36.03710017200012,39.98343783800004],[36.041166571000076,39.98446950500005],[36.04119458200017,39.9845718790005],[36.040644304000125,39.98563309800011],[36.04523549100014,39.98657379400049],[36.042981978000114,39.98899473500052],[36.04308810200018,39.98909877600033],[36.0457590690001,39.98937909100016],[36.04314103500019,39.992577269000094],[36.04426912700012,39.99619434600015],[36.0441454920001,39.9962657050001],[36.04189333500017,39.99616834600067],[36.040535550000186,40.00023149300068],[36.04014926200017,40.00008994100034],[36.04000574300011,40.00015384500011],[36.03973320900013,40.00073857400008],[36.040233405134984,40.001073991918076],[36.04009650498381,40.00112282841292],[36.040133447382686,40.001233550825134],[36.039630000000045,40.00095000000039],[36.039730000000134,40.000860000000046],[36.038450000000125,40.000090000000284],[36.03745000000015,39.998940000000346],[36.03690000000012,39.999260000000504],[36.03624000000019,39.99980000000028],[36.034990000000164,40.0016200000004],[36.033560000000136,40.00106000000022],[36.032970000000205,39.9999700000003],[36.032010000000184,40.00030000000021],[36.031300000000044,40.00007000000005],[36.03095000000019,40.000340000000335],[36.02957000000009,40.00082000000026],[36.029070000000104,40.00016000000039],[36.02841000000018,40.0005000000001],[36.02853000000016,40.001270000000545],[36.0278100000001,40.00145000000015],[36.0277200000001,40.00112000000024],[36.027640000000076,40.00106000000022],[36.02744000000024,40.00113000000033],[36.02683000000019,40.00051000000019],[36.02634708954173,40.00075780931462]]],"type":"Polygon"}},{"type":"Feature","properties":{"area_id":"TR-60-008-2030563","name_tr":"Ilıcak Köyü","area_level":"neighbourhood","parent_id":"TR-60-008","endeksa_id":2030563},"geometry":{"coordinates":[[[36.055640000000096,39.999600000000214],[36.05559000000022,39.99973000000034],[36.05198000000013,40.00284000000005],[36.051130000000114,40.00316000000009],[36.05010000000016,40.003250000000264],[36.0492900000001,40.00370000000015],[36.04919000000018,40.003590000000145],[36.049850000000106,40.002940000000194],[36.04842000000008,40.00191000000024],[36.04529000000008,40.00027000000023],[36.04509000000007,40.00045000000023],[36.0444700000001,40.00004000000041],[36.04325000000006,39.99943000000036],[36.042700000000195,39.999260000000504],[36.04138000000006,40.00131000000033],[36.040698069125256,40.001033274427925],[36.04057695770712,40.00113702637077],[36.040233405134984,40.001073991918076],[36.03973320900013,40.00073857400008],[36.04000574300011,40.00015384500011],[36.04014926200017,40.00008994100034],[36.040535550000186,40.00023149300068],[36.04189333500017,39.99616834600067],[36.0441454920001,39.9962657050001],[36.04426912700012,39.99619434600015],[36.04314103500019,39.992577269000094],[36.0457590690001,39.98937909100016],[36.04308810200018,39.98909877600033],[36.042981978000114,39.98899473500052],[36.04523549100014,39.98657379400049],[36.040644304000125,39.98563309800011],[36.04119458200017,39.9845718790005],[36.041166571000076,39.98446950500005],[36.03710017200012,39.98343783800004],[36.03639711400007,39.98105991000011],[36.0341272870001,39.98022213200022],[36.034057926000116,39.980118592],[36.035804726000094,39.978378466000265],[36.04221378200015,39.97783443500009],[36.04371426099999,39.975088340000354],[36.04504132300002,39.97401594500053],[36.04027307600012,39.97082244000018],[36.03682042200012,39.97288241100017],[36.03253451000006,39.97136608600022],[36.032460244000106,39.97126973900015],[36.042923535000114,39.957508625],[36.04311099600011,39.957309720000524],[36.04737710300003,39.956614695000155],[36.05309466600016,39.95201302800018],[36.058016307000116,39.95058840100012],[36.05812711400017,39.950640865000025],[36.062658436000106,39.95719039900018],[36.06914046000014,39.958279609000215],[36.06985700900003,39.96067156800018],[36.06669885600007,39.96132016100012],[36.06643789200018,39.96166832500029],[36.066599832000065,39.962046157000145],[36.06566366574589,39.96245427783697],[36.06560325932503,39.96259121081499],[36.06576360971383,39.962681979469835],[36.06690662800003,39.96255516800039],[36.06721526500007,39.96280194500014],[36.069531274000155,39.962277405000236],[36.07161443000018,39.96518173400011],[36.065812453000035,39.97433200200015],[36.065667245999975,39.974463756000546],[36.06463100428107,39.97443020085649],[36.06452000000013,39.97452000000004],[36.06423000000012,39.975250000000074],[36.062800000000095,39.976030000000094],[36.062490000000196,39.97664000000049],[36.06205000000023,39.97697000000011],[36.062060000000145,39.9773100000005],[36.06167000000022,39.97771000000023],[36.06128000000007,39.97848000000067],[36.060790000000054,39.97869000000031],[36.06007000000017,39.97950000000037],[36.059650000000204,39.97966000000025],[36.05919000000017,39.97963000000061],[36.058340000000214,39.979060000000345],[36.057880000000125,39.97901000000047],[36.05734000000007,39.979280000000074],[36.05680000000012,39.97942000000029],[36.056790000000035,39.97995000000009],[36.05647000000016,39.980490000000714],[36.05760000000009,39.98096000000015],[36.0578900000001,39.98130000000026],[36.05759000000012,39.981790000000274],[36.0574900000002,39.98229000000043],[36.05707000000007,39.982340000000306],[36.05702000000019,39.98276000000027],[36.05677000000014,39.98250000000007],[36.05677000000014,39.982650000000376],[36.056890000000124,39.98342000000014],[36.05725000000007,39.98434000000026],[36.05759000000012,39.984880000000146],[36.057940000000144,39.9861700000003],[36.05812000000009,39.988840000000266],[36.05779000000018,39.989810000000205],[36.05697000000015,39.990860000000396],[36.05638000000022,39.99143000000015],[36.05483000000004,39.99255000000028],[36.05696000000006,39.993280000000254],[36.05690000000004,39.995480000000384],[36.056180000000154,39.99699000000027],[36.05580000000015,39.9975400000003],[36.055640000000096,39.999600000000214]]],"type":"Polygon"}},{"type":"Feature","properties":{"area_id":"TR-60-008-2030566","name_tr":"Uylubağı Köyü","area_level":"neighbourhood","parent_id":"TR-60-008","endeksa_id":2030566},"geometry":{"coordinates":[[[35.98310422500015,40.00517729000018],[35.98283817600003,40.005223441],[35.982874343000105,40.00486619200001],[35.98270888400003,40.00494227900003],[35.981880453000144,40.003140753000025],[35.97639830100002,39.99707681000052],[35.976259596000034,39.99706563500007],[35.97345710400015,39.998143971000445],[35.97301153600006,39.99785530800045],[35.9721806770001,39.998081120000165],[35.9724667160001,39.997502344000054],[35.97201176200008,39.99720760100024],[35.97165369039482,39.9977682955888],[35.97167191508487,39.99760603924108],[35.971537301815715,39.997474039463555],[35.97132136048691,39.997450378941096],[35.97115044933355,39.99754062461284],[35.97365301500008,39.99476830900005],[35.97363479000006,39.99464196200017],[35.97163040700008,39.99474219100017],[35.970732815000076,39.992757003000236],[35.96520745300012,39.99172402200065],[35.96313444500004,39.99203484800012],[35.96194543000013,39.99111301400001],[35.96251538500013,39.988750534000474],[35.9624450660001,39.988646638000034],[35.96214757053997,39.98868259453525],[35.96224249094416,39.98861693380826],[35.962174287069445,39.98851044461054],[35.96258000000006,39.98864000000003],[35.963460000000055,39.98772000000065],[35.96212000000037,39.987260000000276],[35.962530000000186,39.98694000000023],[35.96162000000021,39.986710000000244],[35.96204000000034,39.9859100000001],[35.962540000000274,39.98593000000034],[35.96264000000025,39.985470000000646],[35.96392000000043,39.98524000000009],[35.96407000000022,39.98502000000036],[35.96448000000021,39.98483000000044],[35.96608000000009,39.9831300000003],[35.96512000000007,39.98202000000083],[35.96195000000017,39.97520000000003],[35.9630200000002,39.97464000000019],[35.96563854667414,39.97352341217356],[35.96544298900005,39.97363138700018],[35.965524807000065,39.97376636400003],[35.967313009000065,39.973930009000526],[35.96947502800015,39.97116772200013],[35.977527026000075,39.963412314000436],[35.97772876100015,39.96340197500001],[35.986494403000165,39.966586839000286],[35.98664235600006,39.96656574200023],[35.986665755000104,39.96645488400014],[35.98780032600013,39.96832242100004],[35.98674865500004,39.969474536000064],[35.989706179000166,39.972439302000055],[35.98623261400007,39.9759934380001],[35.98622368500014,39.97610284699999],[35.9866719530001,39.976192088000005],[35.99651170800007,39.98170974400006],[35.99468353800012,39.981540334000044],[35.99455095600018,39.98163715200042],[35.99727290600015,39.98846071000014],[36.00032920000007,39.98825004600013],[36.000351565000074,39.98815248200037],[35.99944829399999,39.9864028770001],[35.99956349600012,39.98627633300066],[36.000003704000164,39.986455627000396],[35.999913782000135,39.98605718900029],[36.000787991000095,39.98677506200045],[36.001188753000065,39.986938290000126],[36.00258832900005,39.988253446000044],[36.001888002999976,39.988419306000424],[36.00205844700008,39.98879102400008],[36.00197523100013,39.98889918200018],[35.99836750500003,39.9893028860007],[35.99977230500008,39.991798741000025],[35.9956954270001,39.99163206000014],[35.995571705000145,39.99169112300018],[35.99578904700019,39.9937630470007],[35.99879304200016,39.99437166900043],[35.998746802000085,39.99478438400001],[35.99860689800005,39.99487403300043],[35.99671122100011,39.99466136600017],[35.99454396100003,40.00122384300005],[35.991674884000076,40.000069768000174],[35.99123075600011,40.00319069000011],[35.98949863300004,40.0015874610001],[35.98751481300019,40.00465732300006],[35.983085727,40.0041403730001],[35.98319102400012,40.00474693900037],[35.98294484900009,40.004847434000055],[35.98310422500015,40.00517729000018]]],"type":"Polygon"}},{"type":"Feature","properties":{"area_id":"TR-60-008-71000","name_tr":"Menderes","area_level":"neighbourhood","parent_id":"TR-60-008","endeksa_id":71000},"geometry":{"coordinates":[[[36.05546663198271,40.0304540935324],[36.05548535464504,40.03034372945683],[36.05538950967593,40.03026676366187],[36.05387000000019,40.0299600000003],[36.05272000000008,40.03064000000006],[36.052050000000065,40.031380000000695],[36.050780000000145,40.03245000000027],[36.04981000000015,40.032740000000274],[36.04727000000014,40.031530000000316],[36.045830000000194,40.03126000000003],[36.04509000000007,40.03092000000032],[36.04416000000003,40.030200000000264],[36.043230000000165,40.02925000000016],[36.0432600000002,40.02883000000003],[36.04274000000015,40.02833000000004],[36.04264000000023,40.0274000000004],[36.04173000000026,40.0271800000001],[36.03878000000003,40.02597000000071],[36.038450000000125,40.0257500000003],[36.03798000000012,40.024630000000684],[36.037740000000156,40.02455000000032],[36.037520000000086,40.024630000000684],[36.03659000000005,40.025620000000174],[36.03462000000013,40.026670000000365],[36.033310000000085,40.02677000000011],[36.03194000000025,40.0266900000006],[36.029500000000155,40.025960000000055],[36.02911000000017,40.02508000000029],[36.02882000000017,40.02464000000009],[36.028390000000115,40.02420000000063],[36.028230000000235,40.023730000000114],[36.027770000000146,40.02355000000017],[36.02723000000009,40.02205000000038],[36.026500000000055,40.020690000000116],[36.02590000000015,40.018980000000056],[36.02587000000017,40.01796000000019],[36.0254700000001,40.01664000000039],[36.02500000000015,40.01546000000013],[36.02490000000023,40.01467000000014],[36.02483000000012,40.01337000000018],[36.025230000000136,40.01182000000023],[36.02460000000008,40.01026000000007],[36.02463000000006,40.007990000000234],[36.02493000000004,40.00619000000012],[36.02505000000019,40.00441000000029],[36.025630000000035,40.00281000000007],[36.026070000000175,40.00090000000034],[36.02683000000019,40.00051000000019],[36.02744000000024,40.00113000000033],[36.027640000000076,40.00106000000022],[36.0277200000001,40.00112000000024],[36.0278100000001,40.00145000000015],[36.02853000000016,40.001270000000545],[36.02841000000018,40.0005000000001],[36.029070000000104,40.00016000000039],[36.02957000000009,40.00082000000026],[36.03095000000019,40.000340000000335],[36.031300000000044,40.00007000000005],[36.032010000000184,40.00030000000021],[36.032970000000205,39.9999700000003],[36.033560000000136,40.00106000000022],[36.034990000000164,40.0016200000004],[36.03624000000019,39.99980000000028],[36.03690000000012,39.999260000000504],[36.03745000000015,39.998940000000346],[36.038450000000125,40.000090000000284],[36.039730000000134,40.000860000000046],[36.039630000000045,40.00095000000039],[36.040133447382686,40.001233550825134],[36.04009650498381,40.00112282841292],[36.040233405134984,40.001073991918076],[36.04057695770712,40.00113702637077],[36.040698069125256,40.001033274427925],[36.04138000000006,40.00131000000033],[36.042700000000195,39.999260000000504],[36.04325000000006,39.99943000000036],[36.0444700000001,40.00004000000041],[36.04509000000007,40.00045000000023],[36.04529000000008,40.00027000000023],[36.04842000000008,40.00191000000024],[36.049850000000106,40.002940000000194],[36.04919000000018,40.003590000000145],[36.0492900000001,40.00370000000015],[36.05010000000016,40.003250000000264],[36.051130000000114,40.00316000000009],[36.05198000000013,40.00284000000005],[36.05559000000022,39.99973000000034],[36.055640000000096,39.999600000000214],[36.06053000000003,39.99903000000012],[36.06425000000013,39.99796000000026],[36.06657000000007,39.99707000000035],[36.07055000000025,39.99595000000022],[36.0714200000001,39.9960700000002],[36.07300000000009,39.99598000000054],[36.0748500000002,39.99565000000024],[36.076500000000124,39.99568000000005],[36.07796000000013,39.99617000000012],[36.078160000000196,39.99637000000013],[36.07840000000016,39.99646000000047],[36.07862000000006,39.99671000000018],[36.07910000000015,39.99677000000054],[36.07958000000008,39.995910000000436],[36.08003000000019,39.99534000000017],[36.08075000000008,39.994730000000175],[36.08128000000005,39.99519000000055],[36.08156000000014,39.99496000000016],[36.08183000000008,39.99487000000039],[36.082810000000165,39.994890000000055],[36.08364000000006,39.9958000000002],[36.08380000000017,39.99599000000012],[36.084020000000066,39.9966800000002],[36.08398000000017,39.99698000000018],[36.0835800000001,39.99784000000028],[36.083370000000116,39.99855000000019],[36.083060000000216,39.998790000000156],[36.08254000000022,39.99892000000011],[36.08203000000009,39.99974000000043],[36.08193000000017,40.00008000000014],[36.08193000000017,40.00082000000026],[36.0818000000001,40.00147000000004],[36.081880000000126,40.002170000000035],[36.08214000000015,40.00231000000008],[36.08379000000008,40.003840000000025],[36.085320000000195,40.00479000000047],[36.08609000000013,40.005420000000186],[36.08608000000015,40.0064000000001],[36.08673000000016,40.007060000000706],[36.086940000000084,40.0074400000002],[36.0867800000002,40.007810000000234],[36.08658000000014,40.0086500000001],[36.08652000000018,40.00934000000035],[36.08616000000006,40.01057000000037],[36.08584000000019,40.012790000000166],[36.08580000000012,40.013630000000205],[36.085050000000194,40.01528000000013],[36.08491000000021,40.015800000000525],[36.08510000000007,40.016570000000286],[36.08529000000016,40.01817000000051],[36.08393000000012,40.02048000000036],[36.08383000000015,40.020880000000204],[36.08398000000017,40.021470000000704],[36.08419000000009,40.02188000000052],[36.08348000000018,40.02371000000005],[36.08360000000016,40.026330000000144],[36.08370000000008,40.0268700000002],[36.08425000000011,40.02748000000008],[36.08441000000022,40.02798000000007],[36.08111485127796,40.02771719873715],[36.081228026700046,40.02780333557047],[36.081189052669856,40.027925779281134],[36.08080307800003,40.027976966000324],[36.076145776823466,40.0279368769049],[36.074300000000164,40.02833000000004],[36.07288000000011,40.028500000000065],[36.06493000000012,40.02819000000039],[36.06238000000013,40.027790000000664],[36.061620000000175,40.027790000000664],[36.05975000000012,40.02798000000007],[36.0595400000002,40.02838000000031],[36.06025000000011,40.028500000000065],[36.06010000000015,40.02919000000014],[36.05950000000007,40.0294700000004],[36.05901000000023,40.029920000000175],[36.058821351044344,40.02995731318788],[36.058664985141945,40.0299120440082],[36.0586427782718,40.02978237380103],[36.05932000000007,40.029090000000224],[36.05908000000011,40.02891000000028],[36.05922000000015,40.028620000000274],[36.057760000000144,40.02860000000021],[36.05756000000014,40.02838000000031],[36.05706000000015,40.0286100000003],[36.056580000000054,40.029430000000104],[36.05628631286055,40.02949560463617],[36.05546663198271,40.0304540935324]]],"type":"Polygon"}},{"type":"Feature","properties":{"area_id":"TR-60-008-70999","name_tr":"Gaziosmanpaşa","area_level":"neighbourhood","parent_id":"TR-60-008","endeksa_id":70999},"geometry":{"coordinates":[[[36.10118379080012,40.02132570240019],[36.08550981700017,40.02801434900016],[36.08452735310021,40.02800270801794],[36.08438682971479,40.02790759285824],[36.08425000000011,40.02748000000008],[36.08370000000008,40.0268700000002],[36.08360000000016,40.026330000000144],[36.08348000000018,40.02371000000005],[36.08419000000009,40.02188000000052],[36.08398000000017,40.021470000000704],[36.08383000000015,40.020880000000204],[36.08393000000012,40.02048000000036],[36.08529000000016,40.01817000000051],[36.08510000000007,40.016570000000286],[36.08491000000021,40.015800000000525],[36.085050000000194,40.01528000000013],[36.08580000000012,40.013630000000205],[36.08584000000019,40.012790000000166],[36.08616000000006,40.01057000000037],[36.08652000000018,40.00934000000035],[36.08658000000014,40.0086500000001],[36.0867800000002,40.007810000000234],[36.086940000000084,40.0074400000002],[36.08673000000016,40.007060000000706],[36.08608000000015,40.0064000000001],[36.08609000000013,40.005420000000186],[36.085320000000195,40.00479000000047],[36.08379000000008,40.003840000000025],[36.08214000000015,40.00231000000008],[36.081880000000126,40.002170000000035],[36.0818000000001,40.00147000000004],[36.08193000000017,40.00082000000026],[36.08193000000017,40.00008000000014],[36.08203000000009,39.99974000000043],[36.08254000000022,39.99892000000011],[36.083060000000216,39.998790000000156],[36.083370000000116,39.99855000000019],[36.0835800000001,39.99784000000028],[36.08398000000017,39.99698000000018],[36.084020000000066,39.9966800000002],[36.08380000000017,39.99599000000012],[36.08364000000006,39.9958000000002],[36.084390000000155,39.99426000000034],[36.08496000000025,39.99488000000048],[36.08555000000018,39.99527000000006],[36.086100000000044,39.99553000000026],[36.08763000000016,39.99583000000024],[36.08836000000019,39.995200000000125],[36.08796000000012,39.994240000000104],[36.089010000000144,39.99398000000008],[36.09129000000013,39.99318000000051],[36.091760000000136,39.993590000000324],[36.092390000000194,39.9935500000002],[36.09266000000014,39.993280000000254],[36.09374000000014,39.993370000000596],[36.09367000000003,39.99330000000049],[36.09364000000005,39.99276000000003],[36.09472000000005,39.99248000000017],[36.09466309489653,39.992364730687825],[36.104498067000065,39.9891084140001],[36.111317220000046,39.982171248000554],[36.12173285400013,39.97644134700016],[36.12928644900006,39.9743134470001],[36.13602288600015,39.969630994],[36.141565126000046,39.96756085600032],[36.14224700700004,39.96748207000019],[36.14216658400005,39.967721010000105],[36.14189284800017,39.96776069599997],[36.14198255000014,39.96826777800004],[36.14091499600005,39.97143949499997],[36.13973539000017,39.97247850200006],[36.139834573000144,39.97464944700005],[36.13718213300001,39.98235248100036],[36.13823485500012,39.983882118],[36.134074304000194,39.9860936140002],[36.13013815100004,39.99224906900031],[36.13058688000012,39.99417762800027],[36.12728458900017,39.993960613000525],[36.12496262800016,39.99769026700005],[36.1220143000001,39.9977078710001],[36.12053378600018,40.00087456000051],[36.12353593500018,40.0011869060001],[36.12024909400009,40.00584211600011],[36.116023966000114,40.00662283200006],[36.11605640700003,40.006695234000006],[36.11544038000011,40.00895279200029],[36.112339158000054,40.008966030000124],[36.11323808200018,40.01315217100006],[36.11319592500013,40.013329856999974],[36.109464133000074,40.01144250400023],[36.10954438400006,40.01473261200067],[36.11312598500001,40.01829930800005],[36.10979830100001,40.018629059000034],[36.11286413700003,40.02067589000001],[36.10895410800009,40.0240290560007],[36.104477896000105,40.02051918300009],[36.10118379080012,40.02132570240019]]],"type":"Polygon"}},{"type":"Feature","properties":{"area_id":"TR-60-008-2030557","name_tr":"Balıkhisar Köyü","area_level":"neighbourhood","parent_id":"TR-60-008","endeksa_id":2030557},"geometry":{"coordinates":[[[35.95039141718661,40.044633672700115],[35.94966360500007,40.04503246700045],[35.9464369910001,40.04437449800014],[35.94372991559163,40.04496323121339],[35.94427000000013,40.04462000000052],[35.94136000000026,40.04434000000009],[35.9389400000004,40.04356000000024],[35.93600000000032,40.04283000000021],[35.93315000000024,40.04065000000031],[35.934500000000355,40.03781000000038],[35.935060000000306,40.0363000000001],[35.935030000000154,40.03607000000079],[35.93563000000023,40.03561000000059],[35.93562000000031,40.035250000000076],[35.93536000000012,40.03489000000036],[35.93534000000005,40.03474000000017],[35.93647000000027,40.03419000000014],[35.937750000000335,40.0339000000003],[35.93825000000015,40.0336300000007],[35.93867000000023,40.03267000000017],[35.9388100000001,40.031910000000494],[35.93916000000013,40.031500000000676],[35.939450000000306,40.03077000000013],[35.93979000000019,40.03038000000055],[35.94035000000031,40.0302200000001],[35.94016000000005,40.02976000000024],[35.93965000000014,40.029830000000516],[35.93979000000019,40.029430000000104],[35.939490000000035,40.02855000000034],[35.937560000000246,40.02888000000007],[35.93870000000021,40.02795000000026],[35.938710000000185,40.02786000000009],[35.938580424735335,40.027714182220905],[35.93840426085188,40.02771713725798],[35.93749000000014,40.02851000000055],[35.93709000000024,40.02810000000005],[35.9376400000001,40.02713000000006],[35.93748000000039,40.02660000000026],[35.93697000000026,40.02618000000035],[35.93703000000028,40.02607000000046],[35.93687000000034,40.02594000000056],[35.93646476100031,40.024582754000676],[35.934913040184256,40.02374134357632],[35.934775001000105,40.02359929200031],[35.93955193400001,40.01374909600065],[35.939878671000145,40.01171697600006],[35.93980885100024,40.01162892700046],[35.937088914000185,40.010592199000484],[35.937026026000126,40.01049134100049],[35.94085478700043,40.00506206600005],[35.940809921000096,40.00491640000013],[35.93961167599997,40.00357880200062],[35.94197207700017,39.99939694500006],[35.94193980300014,39.99929075900047],[35.94202560800022,39.99930824500035],[35.94275852994133,39.99802359931556],[35.94286000000034,39.99799000000007],[35.943790000000206,39.99620000000044],[35.94430000000011,39.996120000000076],[35.94437000000005,39.99628000000013],[35.9447100000001,39.99629000000061],[35.94490000000019,39.99676000000005],[35.94598000000025,39.99649000000011],[35.94606000000027,39.99627000000038],[35.94603000000029,39.99606000000006],[35.94700000000023,39.99657000000036],[35.947170000000256,39.99627000000055],[35.95023000000032,39.99660000000017],[35.950020000000166,39.99593000000067],[35.94938000000036,39.99487000000056],[35.94913000000008,39.99428000000057],[35.94911000000019,39.99392000000012],[35.94952000000018,39.99344000000019],[35.95000000000033,39.99333000000013],[35.95050000000009,39.9930300000002],[35.95111000000031,39.99218000000019],[35.95173000000011,39.99155000000064],[35.951870000000156,39.99102000000016],[35.95220000000006,39.99112000000059],[35.95317000000006,39.99038000000047],[35.952750000000094,39.990110000000186],[35.95295000000016,39.98970000000054],[35.95298000000014,39.98929000000015],[35.95403000000033,39.9907800000002],[35.956030000000226,39.990800000000434],[35.95593000000031,39.990150000000085],[35.956220000000314,39.98945000000026],[35.96067000000028,39.98906000000068],[35.9609982011977,39.98873215375488],[35.961274891360915,39.988787440983174],[35.9624450660001,39.988646638000034],[35.96251538500013,39.988750534000474],[35.96194543000013,39.99111301400001],[35.96313444500004,39.99203484800012],[35.96520745300012,39.99172402200065],[35.970732815000076,39.992757003000236],[35.97163040700008,39.99474219100017],[35.97363479000006,39.99464196200017],[35.97365301500008,39.99476830900005],[35.97115044933355,39.99754062461284],[35.97132136048691,39.997450378941096],[35.971537301815715,39.997474039463555],[35.97167191508487,39.99760603924108],[35.97165369039482,39.9977682955888],[35.971157299000026,39.99860285800031],[35.97215164900001,40.00170087000049],[35.96910863800002,40.002274249000095],[35.969091494000054,40.00236679000017],[35.970169824000095,40.004598595000175],[35.966881280000166,40.00710343900016],[35.967449399000145,40.00880614300013],[35.96734480800012,40.00925709500018],[35.967039143000136,40.009409825000034],[35.96725964300009,40.01195982100012],[35.96670462499998,40.012195802000065],[35.96661522100004,40.01248177499997],[35.96614759300007,40.01292257200015],[35.96643699700007,40.013230251000266],[35.96641340300005,40.01351360799998],[35.96721083500012,40.01478907300009],[35.96576876099999,40.01846411400015],[35.96723722600012,40.021673323000016],[35.96246083300008,40.029442992000156],[35.96005809200011,40.029906641000025],[35.96012123600019,40.03476791999998],[35.955886046000046,40.04046538300008],[35.95709858600003,40.041696259000105],[35.95709487400006,40.041813637000075],[35.955421817000115,40.04346331000056],[35.953710000000115,40.043430000000114],[35.95359000000013,40.04353000000003],[35.95351000000011,40.043830000000526],[35.95298000000014,40.04391000000004],[35.952220000000125,40.04425000000009],[35.95013000000006,40.0442100000007],[35.95039141718661,40.044633672700115]]],"type":"Polygon"}},{"type":"Feature","properties":{"area_id":"TR-60-008-2030558","name_tr":"Ballıkaya Köyü","area_level":"neighbourhood","parent_id":"TR-60-008","endeksa_id":2030558},"geometry":{"coordinates":[[[35.98987723300007,40.04803116900041],[35.98982297500004,40.04801825100009],[35.98978483600018,40.04853422500014],[35.98964437500018,40.048541613],[35.981977643000164,40.04840586600005],[35.98023682600012,40.04589845900034],[35.97763543100007,40.04516867699999],[35.9783548690001,40.046099821000155],[35.97834945800008,40.04619501000013],[35.97708045500019,40.04629500600038],[35.96916485200006,40.04233282900037],[35.95740631723379,40.041726545686686],[35.95728894600012,40.04167102000008],[35.95709487400006,40.041813637000075],[35.95709858600003,40.041696259000105],[35.955886046000046,40.04046538300008],[35.96012123600019,40.03476791999998],[35.96005809200011,40.029906641000025],[35.96246083300008,40.029442992000156],[35.96723722600012,40.021673323000016],[35.96576876099999,40.01846411400015],[35.96721083500012,40.01478907300009],[35.96641340300005,40.01351360799998],[35.96643699700007,40.013230251000266],[35.96614759300007,40.01292257200015],[35.96661522100004,40.01248177499997],[35.96670462499998,40.012195802000065],[35.96725964300009,40.01195982100012],[35.967039143000136,40.009409825000034],[35.96734480800012,40.00925709500018],[35.967449399000145,40.00880614300013],[35.966881280000166,40.00710343900016],[35.970169824000095,40.004598595000175],[35.969091494000054,40.00236679000017],[35.96910863800002,40.002274249000095],[35.97215164900001,40.00170087000049],[35.971157299000026,39.99860285800031],[35.97165369039482,39.9977682955888],[35.97201176200008,39.99720760100024],[35.9724667160001,39.997502344000054],[35.9721806770001,39.998081120000165],[35.97301153600006,39.99785530800045],[35.97345710400015,39.998143971000445],[35.976259596000034,39.99706563500007],[35.97639830100002,39.99707681000052],[35.981880453000144,40.003140753000025],[35.98270888400003,40.00494227900003],[35.982874343000105,40.00486619200001],[35.98283817600003,40.005223441],[35.98310422500015,40.00517729000018],[35.98335422900004,40.005694715999994],[35.98322495300016,40.00571960200011],[35.98335630000014,40.00569900200003],[35.98356113800003,40.00687897500006],[35.98813754800011,40.007292699000686],[35.9881277770001,40.009527666000054],[35.99018726200006,40.00970583900033],[35.99262150800007,40.012902751000524],[35.98659042000003,40.01861757500018],[35.98848741400013,40.01905786300034],[35.98857139900002,40.01914017900003],[35.98740851600019,40.019954704000384],[35.98654883300003,40.02782434100004],[35.99123481900017,40.041856912000185],[35.99050590500008,40.04602189999997],[35.99037891600011,40.046003251000116],[35.9901779810001,40.04685929800053],[35.990095123000174,40.0468448620004],[35.99000387300009,40.04734167300006],[35.990061534000176,40.04735540100012],[35.98987723300007,40.04803116900041]]],"type":"Polygon"}},{"type":"Feature","properties":{"area_id":"TR-60-008-2030555","name_tr":"Alpudere Köyü","area_level":"neighbourhood","parent_id":"TR-60-008","endeksa_id":2030555},"geometry":{"coordinates":[[[36.11720702700018,40.07156178100013],[36.117040170000166,40.07150237100018],[36.1017029250001,40.07621761800016],[36.088726812000175,40.07287230600008],[36.08857742600003,40.07295266600016],[36.08843504599997,40.07431828000017],[36.08827373500003,40.07438982000008],[36.07680616000005,40.07075753300035],[36.076738939999984,40.07079798900014],[36.07676026800016,40.07071520400012],[36.07666958900006,40.07081351800008],[36.076261429,40.0702747900001],[36.07607922900007,40.070346305999976],[36.07504350100015,40.06913669600044],[36.0749014430001,40.06923910200021],[36.07433801400015,40.06867229700015],[36.074282590000166,40.068716401000074],[36.07433160300002,40.06866584800002],[36.07316177300004,40.06748900700012],[36.07308894300007,40.06756797000014],[36.072535451000135,40.06703544400017],[36.07246108900017,40.06711214200044],[36.072237033000135,40.06674832900012],[36.07191919000019,40.06644252600046],[36.07180341200001,40.066503170000146],[36.070930479000026,40.06566431300064],[36.07007245800014,40.06454620200009],[36.06228535800011,40.05736184799997],[36.06214661200005,40.0573311660001],[36.06223091800007,40.05731012400014],[36.06518051500012,40.050102699000035],[36.063284278000026,40.045487288000515],[36.06410433000019,40.044127546000084],[36.061990459000185,40.04431642600008],[36.06562073400005,40.043332854000425],[36.057342188000064,40.04046465400006],[36.05808204300007,40.039687705000176],[36.05498384800012,40.04055910500034],[36.05225531400015,40.03930665700045],[36.057051553000065,40.03742629800007],[36.05516294500012,40.03080496200005],[36.05628631286055,40.02949560463617],[36.056580000000054,40.029430000000104],[36.05706000000015,40.0286100000003],[36.05756000000014,40.02838000000031],[36.057760000000144,40.02860000000021],[36.05922000000015,40.028620000000274],[36.05908000000011,40.02891000000028],[36.05932000000007,40.029090000000224],[36.0586427782718,40.02978237380103],[36.058664985141945,40.0299120440082],[36.058821351044344,40.02995731318788],[36.05901000000023,40.029920000000175],[36.05950000000007,40.0294700000004],[36.06010000000015,40.02919000000014],[36.06025000000011,40.028500000000065],[36.0595400000002,40.02838000000031],[36.05975000000012,40.02798000000007],[36.061620000000175,40.027790000000664],[36.06238000000013,40.027790000000664],[36.06493000000012,40.02819000000039],[36.07288000000011,40.028500000000065],[36.074300000000164,40.02833000000004],[36.076145776823466,40.0279368769049],[36.08080307800003,40.027976966000324],[36.081189052669856,40.027925779281134],[36.081228026700046,40.02780333557047],[36.08111485127796,40.02771719873715],[36.08441000000022,40.02798000000007],[36.08438682971479,40.02790759285824],[36.08452735310021,40.02800270801794],[36.08550981700017,40.02801434900016],[36.10118379080012,40.02132570240019],[36.10413355400004,40.02496984700065],[36.10349125000016,40.02700132899997],[36.10596360699998,40.034552772000666],[36.10831556500011,40.034798329000466],[36.107120132000034,40.04113442300019],[36.10987048800007,40.04015541100051],[36.11118391200017,40.043909167000095],[36.10628831600013,40.04808891000016],[36.1042635980001,40.05264829600043],[36.117870276000076,40.07124635700029],[36.11717604100011,40.07146180400008],[36.11720702700018,40.07156178100013]]],"type":"Polygon"}},{"type":"Feature","properties":{"area_id":"TR-60-008-2030565","name_tr":"Tekkeyeni Köyü","area_level":"neighbourhood","parent_id":"TR-60-008","endeksa_id":2030565},"geometry":{"coordinates":[[[35.990555728000174,40.08781925700055],[35.99015920800008,40.08776296800005],[35.98162168200014,40.090821213000595],[35.971867614000075,40.08735276400023],[35.96251061198279,40.087209155619576],[35.96725000000009,40.08067000000045],[35.967580000000055,40.08045000000004],[35.96784000000008,40.08012000000042],[35.967830000000106,40.07996000000014],[35.96717000000007,40.07926000000032],[35.96667000000008,40.07909000000046],[35.966310000000135,40.07886000000008],[35.96624000000003,40.07486000000006],[35.96660000000014,40.074030000000334],[35.96667000000008,40.07309000000015],[35.966560000000186,40.07224000000019],[35.96636000000018,40.07192000000015],[35.965160000000026,40.07150000000058],[35.9642800000002,40.069600000000435],[35.96474000000006,40.069630000000075],[35.96422000000024,40.0687200000001],[35.96396000000021,40.06882000000053],[35.96316000000007,40.06745000000018],[35.962960000000066,40.066940000000045],[35.96271000000013,40.06588000000028],[35.962750000000085,40.06509000000028],[35.9624300000001,40.064310000000035],[35.96279000000004,40.06398000000013],[35.96332000000018,40.06386000000015],[35.96334000000007,40.06379000000004],[35.96310000000011,40.06336000000067],[35.96289000000013,40.063350000000185],[35.96215000000018,40.06269000000066],[35.96198000000015,40.06221000000005],[35.962010000000134,40.061580000000106],[35.961820000000046,40.06144000000029],[35.96202000000011,40.06031000000041],[35.962540000000104,40.0593300000001],[35.96238000000022,40.05909000000014],[35.96181000000013,40.05890000000005],[35.96162000000004,40.058390000000145],[35.96162000000004,40.056960000000345],[35.96106000000003,40.05595000000005],[35.961170000000095,40.05550000000011],[35.96116000000018,40.055110000000184],[35.96098000000018,40.054700000000366],[35.96097000000009,40.05407000000014],[35.960080000000175,40.05286000000018],[35.960210000000075,40.052070000000185],[35.96014000000014,40.051950000000204],[35.96016000000003,40.05165000000028],[35.959900000000175,40.05136000000027],[35.959810000000175,40.05095000000006],[35.95995000000005,40.05084000000005],[35.959960000000194,40.05069000000043],[35.959770000000105,40.05051000000043],[35.95948000000004,40.04985000000016],[35.958750000000066,40.04980000000012],[35.95855000000023,40.04990000000004],[35.958190000000116,40.04989000000029],[35.958190000000116,40.04936000000049],[35.95806000000016,40.04904000000033],[35.9583100000001,40.04883000000018],[35.95839000000012,40.04856000000041],[35.958380000000204,40.04809000000057],[35.95825000000008,40.047950000000355],[35.9582200000001,40.047700000000304],[35.958100000000115,40.047520000000304],[35.95815000000016,40.04741000000007],[35.958040000000096,40.04680000000042],[35.95847000000015,40.04633000000007],[35.95803000000018,40.0440600000004],[35.956870000000094,40.04329000000007],[35.95716200586065,40.0418044257903],[35.95740631723379,40.041726545686686],[35.96916485200006,40.04233282900037],[35.97708045500019,40.04629500600038],[35.97834945800008,40.04619501000013],[35.9783548690001,40.046099821000155],[35.97763543100007,40.04516867699999],[35.98023682600012,40.04589845900034],[35.981977643000164,40.04840586600005],[35.98964437500018,40.048541613],[35.98978483600018,40.04853422500014],[35.98982297500004,40.04801825100009],[35.9900275010001,40.048066944000084],[35.989855625000075,40.0485465590001],[35.99005355400004,40.04860635100022],[35.98993398400006,40.04928950000016],[35.9911426860001,40.05350538200014],[35.99415876900014,40.054829658000074],[35.99419441900005,40.054970696000055],[35.99514480339633,40.05550430567047],[35.99505136365468,40.05558988387702],[35.995085010661796,40.05570089182561],[35.99577825200009,40.05609211699999],[35.99406227500015,40.06071901600029],[35.985969088000104,40.074081147000186],[35.983410391000064,40.07809879700011],[35.9835023120001,40.0781538760001],[35.98339605550018,40.078329315500184],[35.9892904620001,40.08162212100012],[35.990846708000106,40.08751669700001],[35.990467477000095,40.087672307000105],[35.990555728000174,40.08781925700055]]],"type":"Polygon"}},{"type":"Feature","properties":{"area_id":"TR-60-008-2030560","name_tr":"Buğdaylı Köyü","area_level":"neighbourhood","parent_id":"TR-60-008","endeksa_id":2030560},"geometry":{"coordinates":[[[35.99514480339633,40.05550430567047],[35.99523389300009,40.05530203200044],[36.00270541800006,40.058581089000086],[36.001969424000094,40.063038866000056],[36.005329642000106,40.06527759599999],[36.01118527000017,40.06729308600012],[36.0124120860001,40.06690391000012],[36.01196290100012,40.06406151300018],[36.013196633000064,40.06730782800014],[36.01730581900006,40.068912812000065],[36.016154128000096,40.07074239499997],[36.02018054500007,40.071104726000385],[36.01971132300014,40.069045377000066],[36.02103361100012,40.07121172600017],[36.02643871300006,40.073377430000164],[36.02993174300008,40.07918706900006],[36.02961153600012,40.08279513300016],[36.032075369000154,40.08625604000008],[36.03341327600009,40.08929628300018],[36.030099249000045,40.09474856000003],[36.015637324000124,40.09186344400041],[36.00948415700003,40.09244913300029],[36.00793613100018,40.089725509000175],[36.007809491000046,40.08966631100043],[36.00080125700015,40.090713124000445],[36.00072394000006,40.090590030000385],[36.0007641090001,40.09040927600017],[35.99909880300015,40.090586056000234],[35.99913623100002,40.090300958000626],[35.998627285000055,40.09029613800004],[35.99860032800018,40.09019161000009],[35.999298257000135,40.089060321000204],[35.990555728000174,40.08781925700055],[35.990467477000095,40.087672307000105],[35.990846708000106,40.08751669700001],[35.9892904620001,40.08162212100012],[35.98339605550018,40.078329315500184],[35.9835023120001,40.0781538760001],[35.983410391000064,40.07809879700011],[35.985969088000104,40.074081147000186],[35.99406227500015,40.06071901600029],[35.99577825200009,40.05609211699999],[35.995085010661796,40.05570089182561],[35.99505136365468,40.05558988387702],[35.99514480339633,40.05550430567047]]],"type":"Polygon"}},{"type":"Feature","properties":{"area_id":"TR-60-008-183830","name_tr":"Malum Seyit Tekke","area_level":"neighbourhood","parent_id":"TR-60-008","endeksa_id":183830},"geometry":{"coordinates":[[[36.03960819399998,40.09501044800038],[36.03958620900005,40.09514544700045],[36.030099249000045,40.09474856000003],[36.03341327600009,40.08929628300018],[36.032075369000154,40.08625604000008],[36.02961153600012,40.08279513300016],[36.02993174300008,40.07918706900006],[36.02643871300006,40.073377430000164],[36.02103361100012,40.07121172600017],[36.01971132300014,40.069045377000066],[36.02018054500007,40.071104726000385],[36.016154128000096,40.07074239499997],[36.01730581900006,40.068912812000065],[36.013196633000064,40.06730782800014],[36.01196290100012,40.06406151300018],[36.0124120860001,40.06690391000012],[36.01118527000017,40.06729308600012],[36.005329642000106,40.06527759599999],[36.001969424000094,40.063038866000056],[36.00270541800006,40.058581089000086],[35.99523389300009,40.05530203200044],[35.99514480339633,40.05550430567047],[35.99419441900005,40.054970696000055],[35.99415876900014,40.054829658000074],[35.9911426860001,40.05350538200014],[35.98993398400006,40.04928950000016],[35.99005355400004,40.04860635100022],[35.989855625000075,40.0485465590001],[35.9900275010001,40.048066944000084],[35.98987723300007,40.04803116900041],[35.990061534000176,40.04735540100012],[35.99000387300009,40.04734167300006],[35.990095123000174,40.0468448620004],[35.9901779810001,40.04685929800053],[35.99037891600011,40.046003251000116],[35.99050590500008,40.04602189999997],[35.99123481900017,40.041856912000185],[35.98654883300003,40.02782434100004],[35.98740851600019,40.019954704000384],[35.98857139900002,40.01914017900003],[35.98848741400013,40.01905786300034],[35.98659042000003,40.01861757500018],[35.99262150800007,40.012902751000524],[35.99018726200006,40.00970583900033],[35.9881277770001,40.009527666000054],[35.98813754800011,40.007292699000686],[35.98356113800003,40.00687897500006],[35.98335630000014,40.00569900200003],[35.98322495300016,40.00571960200011],[35.98335422900004,40.005694715999994],[35.98294484900009,40.004847434000055],[35.98319102400012,40.00474693900037],[35.983085727,40.0041403730001],[35.98751481300019,40.00465732300006],[35.98949863300004,40.0015874610001],[35.99123075600011,40.00319069000011],[35.991674884000076,40.000069768000174],[35.99454396100003,40.00122384300005],[35.99671122100011,39.99466136600017],[35.99860689800005,39.99487403300043],[35.998746802000085,39.99478438400001],[35.9995737320001,39.99857730200017],[36.00311438500006,40.00011709100028],[36.00360195000013,40.00023634600046],[36.007259888000135,39.99917796400047],[36.01023616200018,40.00363428300068],[36.01385993800017,39.99919457400006],[36.01532595800012,40.00182702000012],[36.02111998900017,39.99918488000014],[36.022910634000084,40.001593484000125],[36.02446500400009,39.999872494000556],[36.02634708954173,40.00075780931462],[36.026070000000175,40.00090000000034],[36.025630000000035,40.00281000000007],[36.02505000000019,40.00441000000029],[36.02493000000004,40.00619000000012],[36.02463000000006,40.007990000000234],[36.02460000000008,40.01026000000007],[36.025230000000136,40.01182000000023],[36.02483000000012,40.01337000000018],[36.02490000000023,40.01467000000014],[36.02500000000015,40.01546000000013],[36.0254700000001,40.01664000000039],[36.02587000000017,40.01796000000019],[36.02590000000015,40.018980000000056],[36.026500000000055,40.020690000000116],[36.02723000000009,40.02205000000038],[36.027770000000146,40.02355000000017],[36.028230000000235,40.023730000000114],[36.028390000000115,40.02420000000063],[36.02882000000017,40.02464000000009],[36.02911000000017,40.02508000000029],[36.029500000000155,40.025960000000055],[36.03194000000025,40.0266900000006],[36.033310000000085,40.02677000000011],[36.03462000000013,40.026670000000365],[36.03659000000005,40.025620000000174],[36.037520000000086,40.024630000000684],[36.037740000000156,40.02455000000032],[36.03798000000012,40.024630000000684],[36.038450000000125,40.0257500000003],[36.03878000000003,40.02597000000071],[36.04173000000026,40.0271800000001],[36.04264000000023,40.0274000000004],[36.04274000000015,40.02833000000004],[36.0432600000002,40.02883000000003],[36.043230000000165,40.02925000000016],[36.04416000000003,40.030200000000264],[36.04509000000007,40.03092000000032],[36.045830000000194,40.03126000000003],[36.04727000000014,40.031530000000316],[36.04981000000015,40.032740000000274],[36.050780000000145,40.03245000000027],[36.052050000000065,40.031380000000695],[36.05272000000008,40.03064000000006],[36.05387000000019,40.0299600000003],[36.05538950967593,40.03026676366187],[36.05548535464504,40.03034372945683],[36.05546663198271,40.0304540935324],[36.05516294500012,40.03080496200005],[36.057051553000065,40.03742629800007],[36.05225531400015,40.03930665700045],[36.05498384800012,40.04055910500034],[36.05808204300007,40.039687705000176],[36.057342188000064,40.04046465400006],[36.06562073400005,40.043332854000425],[36.061990459000185,40.04431642600008],[36.06410433000019,40.044127546000084],[36.063284278000026,40.045487288000515],[36.06518051500012,40.050102699000035],[36.06223091800007,40.05731012400014],[36.055118671,40.05908303600029],[36.04179254400009,40.05890382500047],[36.034435481,40.06423520600043],[36.03535019900005,40.06657926400004],[36.03105462400015,40.06967335700017],[36.0309991850001,40.07415011100056],[36.0296554950001,40.075006393000535],[36.02961624500006,40.075107339],[36.03043884800019,40.07738026800007],[36.036944749000156,40.08099950000036],[36.04005746800004,40.09222105100042],[36.03960819399998,40.09501044800038]]],"type":"Polygon"}},{"type":"Feature","properties":{"area_id":"TR-60-008-2030556","name_tr":"Arpacıkaraçay Köyü","area_level":"neighbourhood","parent_id":"TR-60-008","endeksa_id":2030556},"geometry":{"coordinates":[[[36.05072742400006,40.0986623070001],[36.05067103600015,40.09875672200019],[36.05035297000012,40.09886011300017],[36.04435887800014,40.09333010100016],[36.03979002200015,40.09511275600016],[36.039659940000035,40.0951026190001],[36.03960819399998,40.09501044800038],[36.04005746800004,40.09222105100042],[36.036944749000156,40.08099950000036],[36.03043884800019,40.07738026800007],[36.02961624500006,40.075107339],[36.0296554950001,40.075006393000535],[36.0309991850001,40.07415011100056],[36.03105462400015,40.06967335700017],[36.03535019900005,40.06657926400004],[36.034435481,40.06423520600043],[36.04179254400009,40.05890382500047],[36.055118671,40.05908303600029],[36.06214661200005,40.0573311660001],[36.06228535800011,40.05736184799997],[36.07007245800014,40.06454620200009],[36.070930479000026,40.06566431300064],[36.07180341200001,40.066503170000146],[36.07191919000019,40.06644252600046],[36.072237033000135,40.06674832900012],[36.07246108900017,40.06711214200044],[36.072535451000135,40.06703544400017],[36.07308894300007,40.06756797000014],[36.07316177300004,40.06748900700012],[36.07433160300002,40.06866584800002],[36.074282590000166,40.068716401000074],[36.07433801400015,40.06867229700015],[36.0749014430001,40.06923910200021],[36.07504350100015,40.06913669600044],[36.07607922900007,40.070346305999976],[36.07612189700001,40.070426073000135],[36.07605016800005,40.070503841000175],[36.07655880900012,40.070906400000126],[36.07645520400018,40.071013260000086],[36.07764641800014,40.072168189000536],[36.072459960000174,40.08076321100026],[36.06817544300014,40.08350578400007],[36.06807875000004,40.08985324800017],[36.06930016000001,40.09098582000013],[36.069159641000056,40.0910649600001],[36.06786954100005,40.09077750099999],[36.0677250280001,40.0908432330001],[36.066620483000065,40.097157789000505],[36.06646878200007,40.09720018900009],[36.06470590600003,40.09669042100006],[36.06456784400018,40.09674417100007],[36.064593128000126,40.09685867100012],[36.06249667800006,40.09529738700007],[36.05285815600013,40.09455689100042],[36.05050873000005,40.097196428000416],[36.05072742400006,40.0986623070001]]],"type":"Polygon"}}]}