{"type":"FeatureCollection","source_id":"endeksa","retrieved_at":null,"features":[{"type":"Feature","properties":{"area_id":"TR-61-004-156589","name_tr":"Duygulu","area_level":"neighbourhood","parent_id":"TR-61-004","endeksa_id":156589},"geometry":{"coordinates":[[[39.25175581100012,40.9811584080004],[39.251683875000026,40.982296398000585],[39.24887914400006,40.982109774000094],[39.24875990700008,40.98226228200025],[39.24857465300016,40.98229406700011],[39.246109641000146,40.98104121800014],[39.24008289400001,40.97766596800011],[39.242774312000165,40.97693901400015],[39.243125187000146,40.97465173000012],[39.24106336800014,40.973159592000115],[39.24171130600013,40.97148496099999],[39.2385520790001,40.97006940600005],[39.23901834300017,40.969245719000526],[39.238786376000064,40.96913875700005],[39.23878183500011,40.9690342130001],[39.23964238000019,40.96814331500008],[39.23786627400011,40.967891548000125],[39.23899137800015,40.9647729190001],[39.23602197700001,40.96313816300005],[39.2360806050001,40.96301556400027],[39.23766863200012,40.96254808400067],[39.23452062000007,40.959586882999986],[39.23521938200014,40.95791847400005],[39.23455328200009,40.956437627000014],[39.23333044500009,40.95659499200019],[39.2341465990001,40.95594844000016],[39.23403107400003,40.95506157000011],[39.23575117200011,40.954677276000155],[39.23623491700005,40.951362441000015],[39.238247677000174,40.951575716000036],[39.23902238200003,40.953987400000415],[39.23914189100009,40.954015031000154],[39.243160788000125,40.95184263400006],[39.248104759,40.959329697000214],[39.24916379200016,40.96451894300009],[39.250998235025406,40.96473459412812],[39.25088637673247,40.96484025054258],[39.25096850404026,40.964963147830474],[39.252330034000124,40.96530327400001],[39.251585145000035,40.968667815000174],[39.24986300500018,40.96977495599998],[39.24997044500003,40.97031405100046],[39.24873155800009,40.971290804000034],[39.25018825400019,40.973922813000115],[39.250126791000184,40.974194340999986],[39.25195547200002,40.97799990100009],[39.25175581100012,40.9811584080004]]],"type":"Polygon"}},{"type":"Feature","properties":{"area_id":"TR-61-004-156583","name_tr":"Dağlıca","area_level":"neighbourhood","parent_id":"TR-61-004","endeksa_id":156583},"geometry":{"coordinates":[[[39.24025046388351,40.97775981468891],[39.24029642469202,40.97792466076493],[39.24007881278038,40.977974665794704],[39.238118129999975,40.97697951200013],[39.234697039000025,40.97705896900004],[39.23257718500008,40.98141709500004],[39.229954646000124,40.98308284700005],[39.2297469116001,40.98300905560018],[39.22972942900003,40.98279343400014],[39.22827720300012,40.98043901700015],[39.221699471000136,40.978806086000134],[39.221012995000194,40.978371463000144],[39.22356041200004,40.97629452900003],[39.2233140620001,40.976104598000575],[39.221995695000146,40.97633338800017],[39.219438287000116,40.973185320000084],[39.219302465000055,40.97304743300049],[39.21942552900015,40.970467846000304],[39.22266285100011,40.96561974100018],[39.22240359400007,40.9614184400001],[39.22230270100016,40.96150076800035],[39.222476448000066,40.961347986000135],[39.22229796600004,40.95710410600054],[39.222202324000136,40.957038022000404],[39.222491189000095,40.957026414000154],[39.22245819600016,40.954393247000155],[39.233035148000056,40.95664210399997],[39.23333044500009,40.95659499200019],[39.23455328200009,40.956437627000014],[39.23521938200014,40.95791847400005],[39.23452062000007,40.959586882999986],[39.23766863200012,40.96254808400067],[39.2360806050001,40.96301556400027],[39.23602197700001,40.96313816300005],[39.23899137800015,40.9647729190001],[39.23786627400011,40.967891548000125],[39.23964238000019,40.96814331500008],[39.23878183500011,40.9690342130001],[39.238786376000064,40.96913875700005],[39.23901834300017,40.969245719000526],[39.2385520790001,40.97006940600005],[39.24171130600013,40.97148496099999],[39.24106336800014,40.973159592000115],[39.243125187000146,40.97465173000012],[39.242774312000165,40.97693901400015],[39.24008289400001,40.97766596800011],[39.24025046388351,40.97775981468891]]],"type":"Polygon"}},{"type":"Feature","properties":{"area_id":"TR-61-004-156611","name_tr":"Yenicami","area_level":"neighbourhood","parent_id":"TR-61-004","endeksa_id":156611},"geometry":{"coordinates":[[[39.17106561196124,40.98663180137572],[39.170957585260226,40.98671365682827],[39.17083239258568,40.98664728053342],[39.169852922740404,40.984301360337895],[39.16951907026669,40.98414267055978],[39.16933895800008,40.98135516200051],[39.1662863520001,40.977960633000066],[39.165341040000044,40.97380968100032],[39.154869144000145,40.96501417400026],[39.15419487500003,40.96242885800007],[39.15556368021447,40.96006624478582],[39.155686595789234,40.95999284940342],[39.16241663000005,40.959077982999986],[39.169064269000046,40.96029523800007],[39.168990296000004,40.96036629200012],[39.17407312500001,40.96432831700008],[39.17712031100007,40.96939267400052],[39.17927764000018,40.9782645890005],[39.17864647800013,40.978504380000174],[39.17894597500015,40.97982109700018],[39.171746355000096,40.98128460700008],[39.17106561196124,40.98663180137572]]],"type":"Polygon"}},{"type":"Feature","properties":{"area_id":"TR-61-004-156615","name_tr":"Çıtlaklı","area_level":"neighbourhood","parent_id":"TR-61-004","endeksa_id":156615},"geometry":{"coordinates":[[[39.20954096400004,40.987172066000085],[39.20618991500015,40.98902913000023],[39.20683957200015,40.99052198100003],[39.20698229500016,40.99058597900017],[39.20845613900008,40.98876205199997],[39.20865058800007,40.98874306500028],[39.20903923000009,40.990830248000066],[39.20899360900012,40.99091881100003],[39.206180757000084,40.991999551000106],[39.20567837700008,40.991404149000005],[39.20532676600004,40.99124585400068],[39.20530309300011,40.99095937600009],[39.20362698200006,40.98897291200001],[39.200438132000045,40.98961341900019],[39.20062109900016,40.98705597000003],[39.20053540099997,40.9869693710001],[39.195583964000036,40.98727661500027],[39.19491572194937,40.98950758258644],[39.19481679666217,40.98928586790015],[39.19450905315563,40.989251324779616],[39.19477225000003,40.98916520100039],[39.194596531000116,40.983450967000636],[39.196806292000076,40.98149760800004],[39.19684448400005,40.98130265300034],[39.19709074999997,40.98104898700012],[39.19815300300007,40.981242036000026],[39.206326144000116,40.983343329000434],[39.20787026400018,40.983819112000276],[39.20954096400004,40.987172066000085]]],"type":"Polygon"}},{"type":"Feature","properties":{"area_id":"TR-61-004-156595","name_tr":"Kalegüney","area_level":"neighbourhood","parent_id":"TR-61-004","endeksa_id":156595},"geometry":{"coordinates":[[[39.19491572194937,40.98950758258644],[39.19489897377974,40.989563766768356],[39.19654704100003,40.99081067800006],[39.19521690900012,41.00088746700004],[39.19244105700011,40.99929011200015],[39.18319211000005,40.998994522000544],[39.17978488800003,40.99572352299998],[39.17897119500009,40.99592578100021],[39.17887452500008,40.99580670500012],[39.178619140000194,40.994471658000066],[39.170986941101546,40.98719678840337],[39.17097404682977,40.98710536690368],[39.17101104934193,40.9870603974112],[39.171746355000096,40.98128460700008],[39.17894597500015,40.97982109700018],[39.17864647800013,40.978504380000174],[39.17927764000018,40.9782645890005],[39.18057324800009,40.983592719000285],[39.188633088000074,40.99214845500012],[39.18810570200014,40.98692655500008],[39.18947780399998,40.986831080000115],[39.1909828310001,40.99040508700011],[39.19384515400003,40.989468544000204],[39.19412559355072,40.989594708450795],[39.19404668640061,40.989508200822],[39.19408308274393,40.98940527675842],[39.19450905315563,40.989251324779616],[39.19481679666217,40.98928586790015],[39.19491572194937,40.98950758258644]]],"type":"Polygon"}},{"type":"Feature","properties":{"area_id":"TR-61-004-156581","name_tr":"Çakırlı","area_level":"neighbourhood","parent_id":"TR-61-004","endeksa_id":156581},"geometry":{"coordinates":[[[39.15163432012116,40.95950721645801],[39.14971297200003,40.96299971900015],[39.14942311300007,40.96919787100012],[39.15085984500013,40.97174532300022],[39.15978470500016,40.9804782380001],[39.162358201000075,40.98271575100006],[39.164078289000145,40.99058678500006],[39.167541756000105,40.99254569000004],[39.16860714000012,40.99498894700014],[39.16931597101461,41.00207087957068],[39.16905356829784,41.00209265083032],[39.16896554700003,41.00178667600011],[39.16871976100009,41.00171184800013],[39.1680666470001,40.998293073000184],[39.16395065000012,40.995351432000064],[39.15986764900009,40.9946412060001],[39.159406528000034,40.99164322700011],[39.15225893999997,40.98315250600018],[39.14172745300016,40.983693127000095],[39.14111673100007,40.98328962500011],[39.14120214000013,40.98266686400018],[39.141094832000135,40.982754166999996],[39.14095252600009,40.98269650800012],[39.140577317000066,40.981649845000106],[39.141324400000144,40.97861780000051],[39.14143850000016,40.97754580000009],[39.143300099999976,40.97127430000006],[39.1431573000001,40.96864330000051],[39.144354700000065,40.967313600000125],[39.14453080000004,40.966090301000065],[39.14579870000017,40.964654200000496],[39.145746200000076,40.96378010000029],[39.14631490000005,40.962512000000174],[39.14884300000017,40.9624675000004],[39.150173100000075,40.96110940000011],[39.15121320000014,40.95957410000045],[39.15117790500017,40.95945502000001],[39.15150612603611,40.95933412556582],[39.15162485177666,40.959395661553856],[39.15163432012116,40.95950721645801]]],"type":"Polygon"}},{"type":"Feature","properties":{"area_id":"TR-61-004-156593","name_tr":"Hünerli","area_level":"neighbourhood","parent_id":"TR-61-004","endeksa_id":156593},"geometry":{"coordinates":[[[39.24249492106878,41.00728281309989],[39.240120000000104,41.00730000000033],[39.239970000000085,41.00760000000042],[39.239310000000046,41.00800000000015],[39.238910000000146,41.00798000000009],[39.23798000000011,41.00820000000033],[39.23754000000014,41.007380000000694],[39.23744000000022,41.00472000000019],[39.23736000000014,41.004120000000285],[39.23716000000013,41.00376000000034],[39.23706000000004,41.00365000000045],[39.23632000000009,41.003600000000574],[39.235970000000066,41.00366000000042],[39.23578000000015,41.00348000000008],[39.235630000000185,41.00351000000023],[39.23552000000012,41.00342000000006],[39.23555000000016,41.00333000000029],[39.23514000000017,41.00336000000061],[39.23485000000011,41.003470000000334],[39.2348300000001,41.00356000000011],[39.234450000000095,41.003630000000214],[39.23392168758153,41.0036226623277],[39.231076580000035,40.99523798700068],[39.230732666000165,40.99534766000011],[39.23040250300011,40.99496876400019],[39.23034052200006,40.99481988300005],[39.2306772550001,40.99448367500008],[39.2297469116001,40.98300905560018],[39.229954646000124,40.98308284700005],[39.23257718500008,40.98141709500004],[39.234697039000025,40.97705896900004],[39.238118129999975,40.97697951200013],[39.24007881278038,40.977974665794704],[39.24029642469202,40.97792466076493],[39.24025046388351,40.97775981468891],[39.246109641000146,40.98104121800014],[39.24857465300016,40.98229406700011],[39.24875990700008,40.98226228200025],[39.24877873899999,40.982396772000186],[39.24988364600006,40.98295936500028],[39.247112658000106,40.98859298800005],[39.24430863900017,40.99373956800042],[39.244936307000046,40.99913429800006],[39.24244859600003,41.004949699000065],[39.24221144300003,41.00498915500032],[39.2422072600001,41.00512065800012],[39.242085615000065,41.00517735300008],[39.242233765000094,41.00526467100019],[39.24249492106878,41.00728281309989]]],"type":"Polygon"}},{"type":"Feature","properties":{"area_id":"TR-61-004-156579","name_tr":"Bozlu","area_level":"neighbourhood","parent_id":"TR-61-004","endeksa_id":156579},"geometry":{"coordinates":[[[39.221645625280644,41.004194636055104],[39.219576855000014,41.005686145000254],[39.217853726000044,41.00218331200006],[39.2159807860001,41.00194965500003],[39.21597823200011,41.00155484700019],[39.215817142000105,41.001502071999994],[39.21582867700005,40.99818074800004],[39.21484195800002,40.99807790300014],[39.215834516000086,40.9964994350006],[39.215839546000154,40.99505116200004],[39.212867553000194,40.99286137200005],[39.21107790000019,40.98865720800001],[39.21403381800013,40.98566728000043],[39.212591788000054,40.98542311000011],[39.213565126000105,40.98486512100004],[39.21488993000008,40.98481751700001],[39.21702422400011,40.982703889000106],[39.217096125000126,40.97972453700015],[39.217154927000024,40.979736300000184],[39.21716800100006,40.97646116800041],[39.21917435200004,40.975793169000156],[39.219438287000116,40.973185320000084],[39.221995695000146,40.97633338800017],[39.2233140620001,40.976104598000575],[39.22356041200004,40.97629452900003],[39.221012995000194,40.978371463000144],[39.221699471000136,40.978806086000134],[39.22827720300012,40.98043901700015],[39.22972942900003,40.98279343400014],[39.2306772550001,40.99448367500008],[39.23034052200006,40.99481988300005],[39.23040250300011,40.99496876400019],[39.23019407800018,40.994956825000145],[39.22820701600011,40.99690091400015],[39.22615411800007,40.99508224400017],[39.22171625700014,40.99504239600003],[39.224253482000165,40.99781870099997],[39.22304823100001,40.998351781000565],[39.223019045000115,40.99847718500064],[39.22528264900018,40.99965542800015],[39.22319216800014,41.00106773700003],[39.22572059100014,41.003409518000126],[39.22445739900007,41.00494213900015],[39.221645625280644,41.004194636055104]]],"type":"Polygon"}},{"type":"Feature","properties":{"area_id":"TR-61-004-156591","name_tr":"Gürgenli","area_level":"neighbourhood","parent_id":"TR-61-004","endeksa_id":156591},"geometry":{"coordinates":[[[39.23392168758153,41.0036226623277],[39.23373000000021,41.003620000000126],[39.2334800000001,41.00432000000046],[39.23320000000024,41.005730000000085],[39.233340000000055,41.00652000000059],[39.233030000000156,41.00701000000009],[39.23279000000019,41.00716000000028],[39.23285000000004,41.00781000000006],[39.23270838341455,41.00840694561123],[39.23221177200014,41.00864974600006],[39.23201139299999,41.00912190500031],[39.231436245000054,41.00899835400048],[39.227681546000156,41.00716006400012],[39.22422349900012,41.00841623900004],[39.224075158000176,41.008372536000024],[39.221645625280644,41.004194636055104],[39.22445739900007,41.00494213900015],[39.22572059100014,41.003409518000126],[39.22319216800014,41.00106773700003],[39.22528264900018,40.99965542800015],[39.223019045000115,40.99847718500064],[39.22304823100001,40.998351781000565],[39.224253482000165,40.99781870099997],[39.22171625700014,40.99504239600003],[39.22615411800007,40.99508224400017],[39.22820701600011,40.99690091400015],[39.23019407800018,40.994956825000145],[39.23040250300011,40.99496876400019],[39.230732666000165,40.99534766000011],[39.231076580000035,40.99523798700068],[39.23392168758153,41.0036226623277]]],"type":"Polygon"}},{"type":"Feature","properties":{"area_id":"TR-61-004-156575","name_tr":"Ardıçatak","area_level":"neighbourhood","parent_id":"TR-61-004","endeksa_id":156575},"geometry":{"coordinates":[[[39.17887452500008,40.99580670500012],[39.1763207460001,40.99658467500001],[39.17391689900006,40.99855730899998],[39.17762825000011,41.00172084300061],[39.17686787800005,41.00429919100043],[39.178285264000124,41.00453896700037],[39.178348168000184,41.0046882310001],[39.17399501700015,41.00916404400016],[39.16993305900013,41.00576627300012],[39.16970897200014,41.00584815300016],[39.16896554700003,41.00178667600011],[39.16905356829784,41.00209265083032],[39.16931597101461,41.00207087957068],[39.16860714000012,40.99498894700014],[39.167541756000105,40.99254569000004],[39.164078289000145,40.99058678500006],[39.162358201000075,40.98271575100006],[39.15978470500016,40.9804782380001],[39.15085984500013,40.97174532300022],[39.14942311300007,40.96919787100012],[39.14971297200003,40.96299971900015],[39.15163432012116,40.95950721645801],[39.15182064579818,40.95914610974444],[39.1530556190001,40.95821317800011],[39.153667689630026,40.95863473103702],[39.1538529442459,40.95860036580285],[39.15387408714099,40.95845710809067],[39.15434327500003,40.95911220900018],[39.155591879000156,40.96000572500037],[39.155686595789234,40.95999284940342],[39.15556368021447,40.96006624478582],[39.15419487500003,40.96242885800007],[39.154869144000145,40.96501417400026],[39.165341040000044,40.97380968100032],[39.1662863520001,40.977960633000066],[39.16933895800008,40.98135516200051],[39.16951907026669,40.98414267055978],[39.169852922740404,40.984301360337895],[39.17083239258568,40.98664728053342],[39.170957585260226,40.98671365682827],[39.17106561196124,40.98663180137572],[39.17101104934193,40.9870603974112],[39.17097404682977,40.98710536690368],[39.170986941101546,40.98719678840337],[39.178619140000194,40.994471658000066],[39.17887452500008,40.99580670500012]]],"type":"Polygon"}},{"type":"Feature","properties":{"area_id":"TR-61-004-156587","name_tr":"Dolanlı","area_level":"neighbourhood","parent_id":"TR-61-004","endeksa_id":156587},"geometry":{"coordinates":[[[39.16871976100009,41.00171184800013],[39.1681538360001,41.00185677700017],[39.16595315100017,41.002133746000084],[39.165994307000005,41.00245951700009],[39.164574383000115,41.00285545700052],[39.16355626100011,41.00591566400033],[39.162920936000035,41.00608148800001],[39.163140683000165,41.007169323000085],[39.16190136300014,41.01089831200011],[39.16038594900016,41.01324224600012],[39.15991991700014,41.00896733100012],[39.15844466700014,41.007982397000035],[39.15447021800014,41.01031485100043],[39.15479740700016,41.004874029000064],[39.14619167700005,40.996220717000085],[39.141605277,40.98894961300016],[39.1406490330001,40.98384283200011],[39.1407486440001,40.98374489900044],[39.140972380000164,40.983731919000434],[39.14111673100007,40.98328962500011],[39.14172745300016,40.983693127000095],[39.15225893999997,40.98315250600018],[39.159406528000034,40.99164322700011],[39.15986764900009,40.9946412060001],[39.16395065000012,40.995351432000064],[39.1680666470001,40.998293073000184],[39.16871976100009,41.00171184800013]]],"type":"Polygon"}},{"type":"Feature","properties":{"area_id":"TR-61-004-156565","name_tr":"Yeşilköy","area_level":"neighbourhood","parent_id":"TR-61-004","endeksa_id":156565},"geometry":{"coordinates":[[[39.20305537100012,41.01414745400001],[39.201229508000154,41.014532507000524],[39.20109043399998,41.01448496200004],[39.201838828999996,41.013331384000026],[39.19945028900008,41.00979710000013],[39.198249090000104,41.00939080000012],[39.198126831000025,41.00927300500001],[39.196864455000025,41.00879500000053],[39.19679138700019,41.00884018600004],[39.19613415900017,41.006034925000336],[39.194512011000086,41.00290515600028],[39.19521690900012,41.00088746700004],[39.19654704100003,40.99081067800006],[39.19489897377974,40.989563766768356],[39.195583964000036,40.98727661500027],[39.20053540099997,40.9869693710001],[39.20062109900016,40.98705597000003],[39.200438132000045,40.98961341900019],[39.20362698200006,40.98897291200001],[39.20530309300011,40.99095937600009],[39.20551547000019,40.99352939000062],[39.20790004300005,40.99309449800052],[39.20744181000009,40.9948469710003],[39.20802027400015,40.99563603100057],[39.210608065000145,40.998623534000046],[39.21472408200009,41.00032709100003],[39.21546005500011,41.00260085300005],[39.211767218000034,41.008999111000094],[39.209507156000086,41.009069083000384],[39.2099593530001,41.00940262900008],[39.209242096834714,41.009616122772115],[39.2093519243482,41.00978023906316],[39.210487817000114,41.00979243100005],[39.21071724400019,41.0099616600001],[39.20878405900004,41.01123639000002],[39.21063718200014,41.01123636700015],[39.21072511500006,41.012156166000636],[39.210623164000026,41.013184513],[39.21028487900003,41.013063490000036],[39.20625836700009,41.01077921900048],[39.20584725500004,41.011082791000376],[39.205757137000035,41.01144367300003],[39.20548862200013,41.011347611000076],[39.20535017500009,41.01144984400014],[39.20297910200014,41.0136833440007],[39.20305537100012,41.01414745400001]]],"type":"Polygon"}},{"type":"Feature","properties":{"area_id":"TR-61-004-156607","name_tr":"Şahmelik","area_level":"neighbourhood","parent_id":"TR-61-004","endeksa_id":156607},"geometry":{"coordinates":[[[39.18831679800002,41.02124429200012],[39.18811106600009,41.02120475000004],[39.188057389000164,41.02141212000015],[39.18111179400006,41.01717271000007],[39.17553720000012,41.01750091500014],[39.17537531600004,41.012192696000284],[39.174847779000174,41.011652601000094],[39.1745002240001,41.01021355900008],[39.1731753680001,41.00900645600012],[39.173372405382565,41.0087954970781],[39.17358207714875,41.00881862559555],[39.17399501700015,41.00916404400016],[39.178348168000184,41.0046882310001],[39.178285264000124,41.00453896700037],[39.17686787800005,41.00429919100043],[39.17762825000011,41.00172084300061],[39.17391689900006,40.99855730899998],[39.1763207460001,40.99658467500001],[39.17887452500008,40.99580670500012],[39.17897119500009,40.99592578100021],[39.17978488800003,40.99572352299998],[39.18319211000005,40.998994522000544],[39.19244105700011,40.99929011200015],[39.19521690900012,41.00088746700004],[39.194512011000086,41.00290515600028],[39.19613415900017,41.006034925000336],[39.19679138700019,41.00884018600004],[39.196785468000144,41.00893630000013],[39.18830540200014,41.01408807299998],[39.18831679800002,41.02124429200012]]],"type":"Polygon"}},{"type":"Feature","properties":{"area_id":"TR-61-004-156567","name_tr":"Ağaçlı","area_level":"neighbourhood","parent_id":"TR-61-004","endeksa_id":156567},"geometry":{"coordinates":[[[39.21583487200013,41.026936265000074],[39.21565686100007,41.027303640000184],[39.21396509800013,41.02687296600044],[39.214598892000026,41.02617023800002],[39.206949001000055,41.02147191200015],[39.20689134500009,41.021277188],[39.20497457000005,41.0211786120002],[39.20466277100007,41.0211921340001],[39.20395682200018,41.02053078800009],[39.20331292300011,41.020215355000346],[39.203450147000126,41.02016126000058],[39.20372660400017,41.01957499700012],[39.20395530800005,41.01865914600046],[39.20237301300017,41.0188931940001],[39.20359778100004,41.01744805900017],[39.20297910200014,41.0136833440007],[39.20535017500009,41.01144984400014],[39.20548862200013,41.011347611000076],[39.205757137000035,41.01144367300003],[39.20584725500004,41.011082791000376],[39.20625836700009,41.01077921900048],[39.21028487900003,41.013063490000036],[39.210623164000026,41.013184513],[39.21072511500006,41.012156166000636],[39.21063718200014,41.01123636700015],[39.20878405900004,41.01123639000002],[39.21071724400019,41.0099616600001],[39.210487817000114,41.00979243100005],[39.2093519243482,41.00978023906316],[39.209242096834714,41.009616122772115],[39.2099593530001,41.00940262900008],[39.209507156000086,41.009069083000384],[39.211767218000034,41.008999111000094],[39.21546005500011,41.00260085300005],[39.21472408200009,41.00032709100003],[39.210608065000145,40.998623534000046],[39.20802027400015,40.99563603100057],[39.20744181000009,40.9948469710003],[39.20790004300005,40.99309449800052],[39.20551547000019,40.99352939000062],[39.20532676600004,40.99124585400068],[39.20567837700008,40.991404149000005],[39.206180757000084,40.991999551000106],[39.20899360900012,40.99091881100003],[39.20903923000009,40.990830248000066],[39.20865058800007,40.98874306500028],[39.20845613900008,40.98876205199997],[39.20698229500016,40.99058597900017],[39.20683957200015,40.99052198100003],[39.20618991500015,40.98902913000023],[39.20954096400004,40.987172066000085],[39.212591788000054,40.98542311000011],[39.21403381800013,40.98566728000043],[39.21107790000019,40.98865720800001],[39.212867553000194,40.99286137200005],[39.215839546000154,40.99505116200004],[39.215834516000086,40.9964994350006],[39.21484195800002,40.99807790300014],[39.21582867700005,40.99818074800004],[39.215817142000105,41.001502071999994],[39.21597823200011,41.00155484700019],[39.2159807860001,41.00194965500003],[39.217853726000044,41.00218331200006],[39.219576855000014,41.005686145000254],[39.221645625280644,41.004194636055104],[39.224075158000176,41.008372536000024],[39.22422349900012,41.00841623900004],[39.227681546000156,41.00716006400012],[39.231436245000054,41.00899835400048],[39.23192647647164,41.009100949513936],[39.232040000000154,41.009290000000306],[39.231910000000084,41.009420000000375],[39.23174000000023,41.01002000000028],[39.23115000000007,41.01074000000017],[39.23042000000004,41.011180000000365],[39.23039000000006,41.011800000000335],[39.23016000000024,41.01240000000041],[39.22917000000018,41.01271000000031],[39.228790000000174,41.01296000000053],[39.22842000000014,41.013350000000116],[39.228160000000116,41.01396000000017],[39.227860000000135,41.01415000000026],[39.22766000000013,41.014600000000144],[39.22693000000015,41.015620000000354],[39.22684000000015,41.016050000000405],[39.226860000000215,41.01662000000067],[39.22704000000016,41.016970000000356],[39.22701000000018,41.01716000000005],[39.22669000000019,41.017350000000135],[39.226340000000164,41.01739000000043],[39.226060000000075,41.0175900000001],[39.22600000000011,41.017970000000105],[39.22579000000013,41.018270000000086],[39.225750000000176,41.01875000000018],[39.22545000000008,41.0189800000004],[39.22537000000017,41.019550000000095],[39.22551432805727,41.01988149208614],[39.21915942100014,41.02028314500012],[39.21877565500017,41.02389987500038],[39.21737315300015,41.02376158900012],[39.21583487200013,41.026936265000074]]],"type":"Polygon"}},{"type":"Feature","properties":{"area_id":"TR-61-004-156601","name_tr":"Resullü","area_level":"neighbourhood","parent_id":"TR-61-004","endeksa_id":156601},"geometry":{"coordinates":[[[39.17663258300007,41.017434077000075],[39.17674851900006,41.01747424500002],[39.17676493400006,41.01756872900006],[39.17417533200006,41.022326610000505],[39.17401997200017,41.0240321160004],[39.17277742700014,41.02488733000064],[39.17063232800018,41.028889021],[39.16955393800015,41.028555590000394],[39.154644682000026,41.022215599000106],[39.15617035900004,41.0180005520005],[39.15425054200011,41.01396783100034],[39.15447021800014,41.01031485100043],[39.15844466700014,41.007982397000035],[39.15991991700014,41.00896733100012],[39.16038594900016,41.01324224600012],[39.16190136300014,41.01089831200011],[39.163140683000165,41.007169323000085],[39.162920936000035,41.00608148800001],[39.16355626100011,41.00591566400033],[39.164574383000115,41.00285545700052],[39.165994307000005,41.00245951700009],[39.16595315100017,41.002133746000084],[39.1681538360001,41.00185677700017],[39.16871976100009,41.00171184800013],[39.16896554700003,41.00178667600011],[39.16970897200014,41.00584815300016],[39.16993305900013,41.00576627300012],[39.17358207714875,41.00881862559555],[39.173372405382565,41.0087954970781],[39.1731753680001,41.00900645600012],[39.1745002240001,41.01021355900008],[39.174847779000174,41.011652601000094],[39.17537531600004,41.012192696000284],[39.17553720000012,41.01750091500014],[39.17663258300007,41.017434077000075]]],"type":"Polygon"}},{"type":"Feature","properties":{"area_id":"TR-61-004-156577","name_tr":"Bayırköy","area_level":"neighbourhood","parent_id":"TR-61-004","endeksa_id":156577},"geometry":{"coordinates":[[[39.229623397000125,41.02564395300027],[39.22855569800015,41.03172487600011],[39.228468074000034,41.031805619000124],[39.224249219000114,41.03008486400063],[39.22304496200019,41.029069413],[39.220233710000116,41.02810846800003],[39.217811061000134,41.02817884700022],[39.217736348000074,41.027908687000604],[39.217627751000066,41.02794181900015],[39.21762591800018,41.0282263750006],[39.21750911500004,41.02825652900043],[39.2169777470001,41.029376696000156],[39.216889473000094,41.02758987800007],[39.21583487200013,41.026936265000074],[39.21737315300015,41.02376158900012],[39.21877565500017,41.02389987500038],[39.21915942100014,41.02028314500012],[39.22551432805727,41.01988149208614],[39.22591000000011,41.0208100000001],[39.2265000000001,41.02117000000055],[39.226890000000196,41.021530000000496],[39.227550000000065,41.021780000000206],[39.2278800000002,41.022180000000276],[39.227920000000154,41.02242000000024],[39.22845000000012,41.023010000000056],[39.22893000000005,41.02317000000011],[39.229180000000156,41.02335000000045],[39.22929000000016,41.02356000000009],[39.229484931269894,41.02331554811127],[39.22935851300008,41.02527417000067],[39.229623397000125,41.02564395300027]]],"type":"Polygon"}},{"type":"Feature","properties":{"area_id":"TR-61-004-156613","name_tr":"Zemberek","area_level":"neighbourhood","parent_id":"TR-61-004","endeksa_id":156613},"geometry":{"coordinates":[[[39.229484931269894,41.02331554811127],[39.22929000000016,41.02356000000009],[39.229180000000156,41.02335000000045],[39.22893000000005,41.02317000000011],[39.22845000000012,41.023010000000056],[39.227920000000154,41.02242000000024],[39.2278800000002,41.022180000000276],[39.227550000000065,41.021780000000206],[39.226890000000196,41.021530000000496],[39.2265000000001,41.02117000000055],[39.22591000000011,41.0208100000001],[39.22537000000017,41.019550000000095],[39.22545000000008,41.0189800000004],[39.225750000000176,41.01875000000018],[39.22579000000013,41.018270000000086],[39.22600000000011,41.017970000000105],[39.226060000000075,41.0175900000001],[39.226340000000164,41.01739000000043],[39.22669000000019,41.017350000000135],[39.22701000000018,41.01716000000005],[39.22704000000016,41.016970000000356],[39.226860000000215,41.01662000000067],[39.22684000000015,41.016050000000405],[39.22693000000015,41.015620000000354],[39.22766000000013,41.014600000000144],[39.227860000000135,41.01415000000026],[39.228160000000116,41.01396000000017],[39.22842000000014,41.013350000000116],[39.228790000000174,41.01296000000053],[39.22917000000018,41.01271000000031],[39.23016000000024,41.01240000000041],[39.23039000000006,41.011800000000335],[39.23042000000004,41.011180000000365],[39.23115000000007,41.01074000000017],[39.23174000000023,41.01002000000028],[39.231910000000084,41.009420000000375],[39.232040000000154,41.009290000000306],[39.23192647647164,41.009100949513936],[39.23201139299999,41.00912190500031],[39.23221177200014,41.00864974600006],[39.23270838341455,41.00840694561123],[39.23285000000004,41.00781000000006],[39.23279000000019,41.00716000000028],[39.233030000000156,41.00701000000009],[39.233340000000055,41.00652000000059],[39.23320000000024,41.005730000000085],[39.2334800000001,41.00432000000046],[39.23373000000021,41.003620000000126],[39.234450000000095,41.003630000000214],[39.2348300000001,41.00356000000011],[39.23485000000011,41.003470000000334],[39.23514000000017,41.00336000000061],[39.23555000000016,41.00333000000029],[39.23552000000012,41.00342000000006],[39.235630000000185,41.00351000000023],[39.23578000000015,41.00348000000008],[39.235970000000066,41.00366000000042],[39.23632000000009,41.003600000000574],[39.23706000000004,41.00365000000045],[39.23716000000013,41.00376000000034],[39.23736000000014,41.004120000000285],[39.23744000000022,41.00472000000019],[39.23754000000014,41.007380000000694],[39.23798000000011,41.00820000000033],[39.238910000000146,41.00798000000009],[39.239310000000046,41.00800000000015],[39.239970000000085,41.00760000000042],[39.240120000000104,41.00730000000033],[39.243400000000236,41.007280000000264],[39.2435500000002,41.007400000000246],[39.24349000000018,41.00786000000062],[39.24380000000008,41.008210000000304],[39.24385000000012,41.00890000000015],[39.24378482416313,41.009061341896654],[39.2445449285824,41.01056063782386],[39.244812999039254,41.01057651264091],[39.24474485897019,41.01068610042523],[39.2447600000001,41.01072349756697],[39.24469000000022,41.011190000000454],[39.24475000000018,41.01138000000054],[39.24504000000019,41.01161000000042],[39.245134563051806,41.011893689155045],[39.24507000000017,41.0125900000001],[39.24574000000018,41.01368000000042],[39.24376000000018,41.01476000000025],[39.242320000000234,41.0151500000004],[39.24210000000011,41.015300000000195],[39.241330000000175,41.015180000000214],[39.24032000000011,41.01575000000008],[39.23987000000017,41.01589000000013],[39.239530000000116,41.015830000000165],[39.23917000000017,41.016080000000045],[39.23856000000012,41.016260000000045],[39.23802000000006,41.016580000000204],[39.23818000000017,41.016880000000185],[39.238660000000095,41.0172800000002],[39.239280000000235,41.01736000000011],[39.2394700000001,41.01804000000021],[39.23980000000006,41.01801000000057],[39.239940000000104,41.01832000000013],[39.23948000000007,41.01888000000008],[39.23916000000003,41.01884000000035],[39.23912000000013,41.01875000000018],[39.23883000000012,41.01863000000071],[39.238570000000095,41.018650000000264],[39.23682000000008,41.01938000000024],[39.23626000000007,41.01999000000029],[39.235850000000084,41.01991000000004],[39.23568000000006,41.02055000000041],[39.23497000000009,41.020450000000665],[39.234800000000064,41.02064000000007],[39.23442000000006,41.02052000000009],[39.23407000000009,41.020540000000324],[39.2334400000002,41.02073000000041],[39.23308000000003,41.020510000000115],[39.23187000000013,41.020470000000216],[39.2312100000002,41.02010000000013],[39.23106000000007,41.02024000000034],[39.230950000000234,41.021500000000174],[39.23056000000008,41.02226000000013],[39.230580000000145,41.02261000000033],[39.230270000000075,41.02270000000067],[39.22982000000013,41.02316000000036],[39.229484931269894,41.02331554811127]]],"type":"Polygon"}},{"type":"Feature","properties":{"area_id":"TR-61-004-156599","name_tr":"Kutluca","area_level":"neighbourhood","parent_id":"TR-61-004","endeksa_id":156599},"geometry":{"coordinates":[[[39.1872105810001,41.03694348100015],[39.18657177300014,41.03717578099997],[39.18537960000003,41.037782031000404],[39.18533779800009,41.037679868000055],[39.183507465000105,41.0368888950004],[39.18377836800005,41.032520007000585],[39.17939137200017,41.0325138900007],[39.179348578000145,41.03241402100019],[39.18003984100005,41.03050832800017],[39.17865274300004,41.02929904400008],[39.17530201400018,41.031002469999976],[39.1711690410001,41.03022026900055],[39.17104022100011,41.030043910000074],[39.17063232800018,41.028889021],[39.17277742700014,41.02488733000064],[39.17401997200017,41.0240321160004],[39.17417533200006,41.022326610000505],[39.17676493400006,41.01756872900006],[39.17674851900006,41.01747424500002],[39.17663258300007,41.017434077000075],[39.18111179400006,41.01717271000007],[39.188057389000164,41.02141212000015],[39.18811106600009,41.02120475000004],[39.18831679800002,41.02124429200012],[39.19062661000004,41.025717004],[39.1872105810001,41.03694348100015]]],"type":"Polygon"}},{"type":"Feature","properties":{"area_id":"TR-61-004-156597","name_tr":"Korkuthan","area_level":"neighbourhood","parent_id":"TR-61-004","endeksa_id":156597},"geometry":{"coordinates":[[[39.20275149600013,41.038096713000186],[39.19812883900016,41.03984832200007],[39.19690101100019,41.039524886000095],[39.196773328000006,41.03915106699998],[39.19534451800013,41.03785000099998],[39.19506940000008,41.039042401000415],[39.194291588000056,41.03883750900019],[39.194731755000134,41.03699963500014],[39.18862869700018,41.03608680800005],[39.18779615000011,41.037126474000104],[39.1872105810001,41.03694348100015],[39.19062661000004,41.025717004],[39.18831679800002,41.02124429200012],[39.18830540200014,41.01408807299998],[39.196785468000144,41.00893630000013],[39.19679138700019,41.00884018600004],[39.196864455000025,41.00879500000053],[39.198126831000025,41.00927300500001],[39.198249090000104,41.00939080000012],[39.19945028900008,41.00979710000013],[39.201838828999996,41.013331384000026],[39.20109043399998,41.01448496200004],[39.201229508000154,41.014532507000524],[39.20305537100012,41.01414745400001],[39.20359778100004,41.01744805900017],[39.20237301300017,41.0188931940001],[39.20395530800005,41.01865914600046],[39.20372660400017,41.01957499700012],[39.203450147000126,41.02016126000058],[39.20331292300011,41.020215355000346],[39.20395682200018,41.02053078800009],[39.20466277100007,41.0211921340001],[39.20497457000005,41.0211786120002],[39.20483339400005,41.02126766700019],[39.20275149600013,41.038096713000186]]],"type":"Polygon"}},{"type":"Feature","properties":{"area_id":"TR-61-004-156609","name_tr":"Takazlı","area_level":"neighbourhood","parent_id":"TR-61-004","endeksa_id":156609},"geometry":{"coordinates":[[[39.2169777470001,41.029376696000156],[39.21676061900007,41.03072024800008],[39.214367212000184,41.032740378000256],[39.20909629500011,41.032322057000044],[39.20895806500005,41.03238868300019],[39.21064779205358,41.038777359523465],[39.2105989323,41.03889029277252],[39.21045216142653,41.03892299140034],[39.20348381600013,41.03781922400037],[39.20275149600013,41.038096713000186],[39.20483339400005,41.02126766700019],[39.20497457000005,41.0211786120002],[39.20689134500009,41.021277188],[39.206949001000055,41.02147191200015],[39.214598892000026,41.02617023800002],[39.21396509800013,41.02687296600044],[39.21565686100007,41.027303640000184],[39.21583487200013,41.026936265000074],[39.216889473000094,41.02758987800007],[39.2169777470001,41.029376696000156]]],"type":"Polygon"}},{"type":"Feature","properties":{"area_id":"TR-61-004-156563","name_tr":"Oğuz","area_level":"neighbourhood","parent_id":"TR-61-004","endeksa_id":156563},"geometry":{"coordinates":[[[39.17104022100011,41.030043910000074],[39.17091386100009,41.03016855200008],[39.16995162300009,41.029988531000015],[39.16980881400008,41.03005252800011],[39.16798143800003,41.036389658000076],[39.16415425299999,41.03795148100039],[39.165570922000086,41.04074014000014],[39.16388812500003,41.04315254500017],[39.16366135100009,41.04315231500016],[39.16271818600012,41.04190060500014],[39.16250308899998,41.0418978190001],[39.162432403000025,41.04021535700048],[39.161616164000066,41.03948670700004],[39.16131655500004,41.03944261500067],[39.1612082960001,41.03930824300005],[39.157355424000116,41.032983881000064],[39.15436267400014,41.032866695000166],[39.154483953000124,41.03121748100028],[39.155032622000135,41.03036975600003],[39.1546361770001,41.02914747199998],[39.15465192099998,41.02893337200021],[39.15481035100015,41.028806227000075],[39.15279877500018,41.02491896100014],[39.15062325200017,41.02070657500013],[39.15066126100004,41.02059516100019],[39.15080937100004,41.02058467699999],[39.154644682000026,41.022215599000106],[39.16955393800015,41.028555590000394],[39.17063232800018,41.028889021],[39.17104022100011,41.030043910000074]]],"type":"Polygon"}},{"type":"Feature","properties":{"area_id":"TR-61-004-79965","name_tr":"Beşikdağ","area_level":"neighbourhood","parent_id":"TR-61-004","endeksa_id":79965},"geometry":{"coordinates":[[[39.23705028800026,41.04567361300036],[39.23653250200027,41.045472241000255],[39.234383258000264,41.04712821700031],[39.23436580100031,41.04722064700064],[39.23472808800034,41.04785397700033],[39.23469700400028,41.04795015700029],[39.232357648000345,41.04934574900079],[39.23159689300036,41.04943865200022],[39.23116365900023,41.05019154600052],[39.230106427000294,41.049890023000216],[39.22831699300025,41.05039801400022],[39.227152156000216,41.05029027600034],[39.22533527500025,41.049620485000275],[39.224246686000356,41.05009620600009],[39.222783027000105,41.047882890000096],[39.220097429000134,41.04686357400033],[39.21559919900011,41.044399036000186],[39.21301857700007,41.04250488800011],[39.211333745000104,41.04158254800018],[39.21054929200017,41.03893683300021],[39.21045216142653,41.03892299140034],[39.2105989323,41.03889029277252],[39.21064779205358,41.038777359523465],[39.20895806500005,41.03238868300019],[39.20909629500011,41.032322057000044],[39.214367212000184,41.032740378000256],[39.21676061900007,41.03072024800008],[39.2169777470001,41.029376696000156],[39.21750911500004,41.02825652900043],[39.21762591800018,41.0282263750006],[39.217627751000066,41.02794181900015],[39.217736348000074,41.027908687000604],[39.217811061000134,41.02817884700022],[39.220233710000116,41.02810846800003],[39.22304496200019,41.029069413],[39.224249219000114,41.03008486400063],[39.228468074000034,41.031805619000124],[39.22855569800015,41.03172487600011],[39.229643962000125,41.02552682900017],[39.23152952600003,41.02469090900013],[39.23159427100012,41.024786565000056],[39.23120830800008,41.02772412900043],[39.23302123500008,41.029766885000186],[39.23178313100016,41.03264362200042],[39.23267143200019,41.03412649400019],[39.233005701000025,41.03434015900001],[39.233052029000135,41.03476183800018],[39.233716395000044,41.03587088800009],[39.233822123000095,41.03591619500003],[39.23476845400012,41.03571530600004],[39.234713033000105,41.03583155800004],[39.23501266500017,41.036234674000184],[39.23520116900016,41.03672750200013],[39.235511192000104,41.038644392000435],[39.23646891400017,41.040051571000106],[39.23662004800002,41.04067912500011],[39.23547685300002,41.04170112600008],[39.23550458800014,41.04231002400019],[39.236608115000024,41.04302340200002],[39.23772395000009,41.04411420400004],[39.23775137200005,41.044774337000035],[39.23766736300007,41.04468487300045],[39.23705028800026,41.04567361300036]]],"type":"Polygon"}},{"type":"Feature","properties":{"area_id":"TR-61-004-79970","name_tr":"Vardallı","area_level":"neighbourhood","parent_id":"TR-61-004","endeksa_id":79970},"geometry":{"coordinates":[[[39.24074223400004,41.05112139800019],[39.238098011000034,41.05181832900007],[39.237204510000254,41.05112699400047],[39.23665716900035,41.04994944500032],[39.236777193000364,41.0493353720002],[39.23672412400032,41.049232062000215],[39.238003015000345,41.047372711000435],[39.2380607690003,41.047184149000316],[39.23817134700022,41.04712797700029],[39.23903774200022,41.04586834400004],[39.23693763700027,41.04585411400046],[39.23766736300007,41.04468487300045],[39.23775137200005,41.044774337000035],[39.23772395000009,41.04411420400004],[39.236608115000024,41.04302340200002],[39.23550458800014,41.04231002400019],[39.23547685300002,41.04170112600008],[39.23662004800002,41.04067912500011],[39.23646891400017,41.040051571000106],[39.235511192000104,41.038644392000435],[39.23520116900016,41.03672750200013],[39.23501266500017,41.036234674000184],[39.234713033000105,41.03583155800004],[39.23476845400012,41.03571530600004],[39.233822123000095,41.03591619500003],[39.233716395000044,41.03587088800009],[39.233052029000135,41.03476183800018],[39.233005701000025,41.03434015900001],[39.23267143200019,41.03412649400019],[39.23178313100016,41.03264362200042],[39.23302123500008,41.029766885000186],[39.23120830800008,41.02772412900043],[39.23159427100012,41.024786565000056],[39.23152952600003,41.02469090900013],[39.229643962000125,41.02552682900017],[39.229623397000125,41.02564395300027],[39.22935851300008,41.02527417000067],[39.229484931269894,41.02331554811127],[39.22982000000013,41.02316000000036],[39.230270000000075,41.02270000000067],[39.230580000000145,41.02261000000033],[39.23056000000008,41.02226000000013],[39.230950000000234,41.021500000000174],[39.23106000000007,41.02024000000034],[39.2312100000002,41.02010000000013],[39.23187000000013,41.020470000000216],[39.23308000000003,41.020510000000115],[39.2334400000002,41.02073000000041],[39.23407000000009,41.020540000000324],[39.23442000000006,41.02052000000009],[39.234800000000064,41.02064000000007],[39.23497000000009,41.020450000000665],[39.23568000000006,41.02055000000041],[39.235850000000084,41.01991000000004],[39.23626000000007,41.01999000000029],[39.23682000000008,41.01938000000024],[39.238570000000095,41.018650000000264],[39.23883000000012,41.01863000000071],[39.23912000000013,41.01875000000018],[39.23916000000003,41.01884000000035],[39.23948000000007,41.01888000000008],[39.239940000000104,41.01832000000013],[39.23980000000006,41.01801000000057],[39.2394700000001,41.01804000000021],[39.239280000000235,41.01736000000011],[39.238660000000095,41.0172800000002],[39.23818000000017,41.016880000000185],[39.23802000000006,41.016580000000204],[39.23856000000012,41.016260000000045],[39.23917000000017,41.016080000000045],[39.239530000000116,41.015830000000165],[39.23987000000017,41.01589000000013],[39.24032000000011,41.01575000000008],[39.241330000000175,41.015180000000214],[39.24210000000011,41.015300000000195],[39.242320000000234,41.0151500000004],[39.24376000000018,41.01476000000025],[39.24574000000018,41.01368000000042],[39.24507000000017,41.0125900000001],[39.245134563051806,41.011893689155045],[39.24876488000018,41.01438154300047],[39.25032301400017,41.0188614700005],[39.25081789500018,41.02273550000041],[39.250931539000135,41.02279848800015],[39.25092103600008,41.02296071200021],[39.25062457300015,41.02310196100012],[39.249149221000096,41.02546166100046],[39.248309662,41.028512668000076],[39.24650033300014,41.030944153000405],[39.246338885000114,41.03105837300012],[39.2451880270001,41.031023096000126],[39.24351178200004,41.035977664000086],[39.2436056090001,41.036280405000184],[39.24693523500008,41.03929798800016],[39.24575284400004,41.041431444000466],[39.248763775000214,41.04239634200036],[39.249790162000295,41.046247174000655],[39.250803645000246,41.04815725100036],[39.25106140300022,41.04821503800025],[39.251061764000326,41.04830276000024],[39.25139271200021,41.0482834240002],[39.25139321800026,41.048406474000615],[39.251629268000045,41.04839579200012],[39.25026869800013,41.0488268310005],[39.2476567810001,41.04913671300005],[39.247128146000136,41.04952808800016],[39.244162514000095,41.049997409000184],[39.24316106900005,41.0503603300001],[39.24219419400009,41.05115438299998],[39.24172232500007,41.05089538400017],[39.24115303400009,41.05085742300014],[39.24074223400004,41.05112139800019]]],"type":"Polygon"}},{"type":"Feature","properties":{"area_id":"TR-61-004-79969","name_tr":"Nefsişarlı","area_level":"neighbourhood","parent_id":"TR-61-004","endeksa_id":79969},"geometry":{"coordinates":[[[39.22413590400021,41.05153687000063],[39.22065064400033,41.04923616200034],[39.21532328400025,41.048107354000024],[39.2150782410003,41.050357682000765],[39.214046643000245,41.051377549000506],[39.21242718900015,41.052088783000556],[39.20996452800023,41.052816130999986],[39.2097557869497,41.052734693478556],[39.20955893097033,41.0526473071173],[39.20941166364349,41.052757873016844],[39.20944599800015,41.052536801000144],[39.20678907200005,41.051754575000075],[39.20657239300016,41.05122259400002],[39.20632654800016,41.05112152900011],[39.20537103000015,41.04850892400003],[39.2053578120001,41.04824060700031],[39.20404817800011,41.044891944000085],[39.197064952000176,41.045534062000456],[39.19722229400003,41.043539477000536],[39.19453902400005,41.04134111900004],[39.19534451800013,41.03785000099998],[39.196773328000006,41.03915106699998],[39.19690101100019,41.039524886000095],[39.19812883900016,41.03984832200007],[39.20348381600013,41.03781922400037],[39.21054929200017,41.03893683300021],[39.211333745000104,41.04158254800018],[39.21301857700007,41.04250488800011],[39.21559919900011,41.044399036000186],[39.220097429000134,41.04686357400033],[39.222783027000105,41.047882890000096],[39.224095089000286,41.04986696400084],[39.224017778000245,41.050031756000294],[39.224701211000195,41.050986582000576],[39.22413590400021,41.05153687000063]]],"type":"Polygon"}},{"type":"Feature","properties":{"area_id":"TR-61-004-79966","name_tr":"Cumhuriyet","area_level":"neighbourhood","parent_id":"TR-61-004","endeksa_id":79966},"geometry":{"coordinates":[[[39.23497781246152,41.05657592540331],[39.23451381756536,41.056825768809006],[39.23397843883913,41.05600485476202],[39.23283629755622,41.05596916284679],[39.2301237120098,41.05664730923371],[39.22975422900032,41.05559641800079],[39.22959847600032,41.055529482000225],[39.22887225400024,41.05406043600021],[39.226086005000354,41.051850025000874],[39.22559271200032,41.051969206000535],[39.22413590400021,41.05153687000063],[39.224701211000195,41.050986582000576],[39.224017778000245,41.050031756000294],[39.224095089000286,41.04986696400084],[39.224246686000356,41.05009620600009],[39.22533527500025,41.049620485000275],[39.227152156000216,41.05029027600034],[39.22831699300025,41.05039801400022],[39.230106427000294,41.049890023000216],[39.23116365900023,41.05019154600052],[39.23159689300036,41.04943865200022],[39.232357648000345,41.04934574900079],[39.23469700400028,41.04795015700029],[39.23472808800034,41.04785397700033],[39.23436580100031,41.04722064700064],[39.234383258000264,41.04712821700031],[39.23653250200027,41.045472241000255],[39.23705028800026,41.04567361300036],[39.23693763700027,41.04585411400046],[39.23903774200022,41.04586834400004],[39.23817134700022,41.04712797700029],[39.2380607690003,41.047184149000316],[39.238003015000345,41.047372711000435],[39.23672412400032,41.049232062000215],[39.236777193000364,41.0493353720002],[39.23665716900035,41.04994944500032],[39.237204510000254,41.05112699400047],[39.23782876310406,41.05161000187559],[39.238225776734566,41.052078744102346],[39.23801162524387,41.052685506658804],[39.237440554602586,41.053327961130265],[39.236405489064964,41.05397041560212],[39.235156272037045,41.054077491347186],[39.23417543900035,41.05407898300024],[39.233950790000335,41.05495261300018],[39.23583441842351,41.05457717815858],[39.23661964055549,41.05475563773388],[39.23683379204596,41.05514824880004],[39.23554888310281,41.05564793561109],[39.23462089331059,41.05593347093196],[39.23497781246152,41.05657592540331]]],"type":"Polygon"}},{"type":"Feature","properties":{"area_id":"TR-61-004-156573","name_tr":"Anbarlı","area_level":"neighbourhood","parent_id":"TR-61-004","endeksa_id":156573},"geometry":{"coordinates":[[[39.184967243000074,41.05534709700015],[39.17992096800009,41.048144562999994],[39.17763844100017,41.04793517000053],[39.17505760600005,41.050339230000134],[39.175437975000136,41.052076225000235],[39.175217714000155,41.05567943400001],[39.17429730900011,41.05602112000008],[39.17412082600015,41.05597359300015],[39.17154391800011,41.0517355130001],[39.16707319900013,41.0469259190001],[39.16193938599997,41.04602796400013],[39.161935713000105,41.04593005200036],[39.16374795400009,41.043351744000006],[39.16366135100009,41.04315231500016],[39.16388812500003,41.04315254500017],[39.165570922000086,41.04074014000014],[39.16415425299999,41.03795148100039],[39.16798143800003,41.036389658000076],[39.16980881400008,41.03005252800011],[39.16995162300009,41.029988531000015],[39.17091386100009,41.03016855200008],[39.17104022100011,41.030043910000074],[39.1711690410001,41.03022026900055],[39.17530201400018,41.031002469999976],[39.17865274300004,41.02929904400008],[39.18003984100005,41.03050832800017],[39.179348578000145,41.03241402100019],[39.17939137200017,41.0325138900007],[39.18377836800005,41.032520007000585],[39.183507465000105,41.0368888950004],[39.18533779800009,41.037679868000055],[39.18537960000003,41.037782031000404],[39.18530318800009,41.038748645000624],[39.18396044500008,41.03901621600011],[39.18320746200004,41.04154575900009],[39.18311204100007,41.04305420100053],[39.183425152000154,41.044071627000335],[39.18769072700019,41.05195709100013],[39.18751226400008,41.05226624550022],[39.18512415900011,41.05540248400001],[39.184967243000074,41.05534709700015]]],"type":"Polygon"}},{"type":"Feature","properties":{"area_id":"TR-61-004-79968","name_tr":"Fatih","area_level":"neighbourhood","parent_id":"TR-61-004","endeksa_id":79968},"geometry":{"coordinates":[[[39.222878253246904,41.05921712711984],[39.222788720000324,41.058519048000846],[39.22170756800023,41.05894639999997],[39.21864442300034,41.05775345100034],[39.21660220700028,41.0577201330002],[39.21274518100017,41.05749157700012],[39.21016513000035,41.056468393000216],[39.20948894700024,41.055594395000355],[39.2097557869497,41.052734693478556],[39.20996452800023,41.052816130999986],[39.21242718900015,41.052088783000556],[39.214046643000245,41.051377549000506],[39.2150782410003,41.050357682000765],[39.21532328400025,41.048107354000024],[39.22065064400033,41.04923616200034],[39.22413590400021,41.05153687000063],[39.22559271200032,41.051969206000535],[39.226086005000354,41.051850025000874],[39.22887225400024,41.05406043600021],[39.22958349122064,41.05549916987695],[39.22975422900032,41.05559641800079],[39.2301237120098,41.05664730923371],[39.226625904330945,41.05796791009186],[39.2251982277275,41.058467596902915],[39.222878253246904,41.05921712711984]]],"type":"Polygon"}},{"type":"Feature","properties":{"area_id":"TR-61-004-156569","name_tr":"Akkese","area_level":"neighbourhood","parent_id":"TR-61-004","endeksa_id":156569},"geometry":{"coordinates":[[[39.20941166364349,41.052757873016844],[39.20885922800011,41.05631489500047],[39.20876649900015,41.05637031800035],[39.207220759000165,41.05618469400008],[39.207279125000184,41.05725930900013],[39.20575033900019,41.05817305100038],[39.20333576800016,41.059166097000116],[39.201936338000166,41.05874593200008],[39.193985786000155,41.05340191100032],[39.19344215299998,41.053317647000085],[39.19164525600007,41.05185452300054],[39.18781753900004,41.05151589400015],[39.18760713140006,41.051802338800144],[39.183425152000154,41.044071627000335],[39.18311204100007,41.04305420100053],[39.18320746200004,41.04154575900009],[39.18396044500008,41.03901621600011],[39.18530318800009,41.038748645000624],[39.18537960000003,41.037782031000404],[39.18657177300014,41.03717578099997],[39.1872105810001,41.03694348100015],[39.18779615000011,41.037126474000104],[39.18862869700018,41.03608680800005],[39.194731755000134,41.03699963500014],[39.194291588000056,41.03883750900019],[39.19506940000008,41.039042401000415],[39.19453902400005,41.04134111900004],[39.19722229400003,41.043539477000536],[39.197064952000176,41.045534062000456],[39.20404817800011,41.044891944000085],[39.2053578120001,41.04824060700031],[39.20537103000015,41.04850892400003],[39.20632654800016,41.05112152900011],[39.20657239300016,41.05122259400002],[39.20678907200005,41.051754575000075],[39.20944599800015,41.052536801000144],[39.20941166364349,41.052757873016844]]],"type":"Polygon"}},{"type":"Feature","properties":{"area_id":"TR-61-004-156571","name_tr":"Aksaklı","area_level":"neighbourhood","parent_id":"TR-61-004","endeksa_id":156571},"geometry":{"coordinates":[[[39.201936338000166,41.05874593200008],[39.2027509720001,41.059333735000166],[39.19964446800009,41.06156365800052],[39.19967739400016,41.06204655300024],[39.19926976000016,41.062406340999985],[39.19973732500006,41.062925500000404],[39.199859985000046,41.063755805000085],[39.19699199399997,41.060965077000105],[39.190056358000106,41.062127630000646],[39.18465004300015,41.059052998000084],[39.18403574200005,41.05818841600018],[39.18489700600003,41.058254040000065],[39.184987412000055,41.0571612760001],[39.18422354400013,41.05640868100005],[39.184967243000074,41.05534709700015],[39.18512415900011,41.05540248400001],[39.18751226400008,41.05226624550022],[39.18769072700019,41.05195709100013],[39.18760713140006,41.051802338800144],[39.18781753900004,41.05151589400015],[39.19164525600007,41.05185452300054],[39.19344215299998,41.053317647000085],[39.193985786000155,41.05340191100032],[39.201936338000166,41.05874593200008]]],"type":"Polygon"}},{"type":"Feature","properties":{"area_id":"TR-61-004-79967","name_tr":"Çeşmeönü","area_level":"neighbourhood","parent_id":"TR-61-004","endeksa_id":79967},"geometry":{"coordinates":[[[39.21609126000004,41.06589294000008],[39.21060908600009,41.06390248500014],[39.20989934500011,41.064439306000054],[39.2070429800001,41.065831581000054],[39.20434800800007,41.06612857600004],[39.20317683500008,41.06659089300018],[39.202036860000135,41.06677591000016],[39.20134199500012,41.06708783800036],[39.20092299300006,41.06791232100028],[39.20055395400004,41.06818267800003],[39.20044599900007,41.068128551000086],[39.20023576300008,41.064728446000004],[39.199957731000154,41.06385091800041],[39.199859985000046,41.063755805000085],[39.19973732500006,41.062925500000404],[39.19926976000016,41.062406340999985],[39.19967739400016,41.06204655300024],[39.19964446800009,41.06156365800052],[39.2027509720001,41.059333735000166],[39.201936338000166,41.05874593200008],[39.20333576800016,41.059166097000116],[39.20575033900019,41.05817305100038],[39.207279125000184,41.05725930900013],[39.207220759000165,41.05618469400008],[39.20876649900015,41.05637031800035],[39.20885922800011,41.05631489500047],[39.20941166364349,41.052757873016844],[39.20955893097033,41.0526473071173],[39.2097557869497,41.052734693478556],[39.20948894700024,41.055594395000355],[39.21016513000035,41.056468393000216],[39.21274518100017,41.05749157700012],[39.21660220700028,41.0577201330002],[39.21864442300034,41.05775345100034],[39.22170756800023,41.05894639999997],[39.222788720000324,41.058519048000846],[39.2227688860001,41.059031742000286],[39.22187034799998,41.059944532000316],[39.21796550600004,41.06317613400017],[39.219102177000025,41.064663884000026],[39.21917670600004,41.065158935],[39.219048468000096,41.06519792300003],[39.218780018000075,41.06510967200029],[39.21781277100007,41.06413824900011],[39.217115300000046,41.06429532600009],[39.216715242000134,41.06466966200014],[39.21609126000004,41.06589294000008]]],"type":"Polygon"}},{"type":"Feature","properties":{"area_id":"TR-61-004-156605","name_tr":"Seyitahmet","area_level":"neighbourhood","parent_id":"TR-61-004","endeksa_id":156605},"geometry":{"coordinates":[[[39.18534749100013,41.06672937800005],[39.18367558900013,41.06711491600015],[39.182753259453705,41.06771681207567],[39.182561992372996,41.06767287591731],[39.18256256365913,41.067523190238205],[39.18292098900008,41.067157923000025],[39.179777250000086,41.06542087700001],[39.17862538000003,41.06193978400006],[39.1768252600001,41.061737328000504],[39.17674895599998,41.06139691200008],[39.17585098075938,41.06114147677755],[39.17574441225349,41.06103729869113],[39.175823553214116,41.06091583030752],[39.176484679000055,41.06087728400007],[39.17660918600018,41.0607848170003],[39.176523482000164,41.06039476500035],[39.17422192900011,41.05614877200031],[39.17429730900011,41.05602112000008],[39.175217714000155,41.05567943400001],[39.175437975000136,41.052076225000235],[39.17505760600005,41.050339230000134],[39.17763844100017,41.04793517000053],[39.17992096800009,41.048144562999994],[39.184967243000074,41.05534709700015],[39.18422354400013,41.05640868100005],[39.184987412000055,41.0571612760001],[39.18489700600003,41.058254040000065],[39.18403574200005,41.05818841600018],[39.18465004300015,41.059052998000084],[39.183125789000144,41.05818613800017],[39.18462302900019,41.064508371000045],[39.186089723000066,41.06478641300009],[39.18534749100013,41.06672937800005]]],"type":"Polygon"}},{"type":"Feature","properties":{"area_id":"TR-61-004-156603","name_tr":"Sayvancık","area_level":"neighbourhood","parent_id":"TR-61-004","endeksa_id":156603},"geometry":{"coordinates":[[[39.20055395400004,41.06818267800003],[39.1999537480001,41.06922410000004],[39.199802409000085,41.069283586000495],[39.19550481600004,41.067345529000136],[39.194374691000064,41.06816219100017],[39.19458262000012,41.06828279300038],[39.19434744800003,41.068479435000484],[39.191023005000034,41.067832992000376],[39.19061842000002,41.06760664500007],[39.190306764000184,41.067693718000044],[39.18534749100013,41.06672937800005],[39.186089723000066,41.06478641300009],[39.18462302900019,41.064508371000045],[39.183125789000144,41.05818613800017],[39.190056358000106,41.062127630000646],[39.19699199399997,41.060965077000105],[39.199957731000154,41.06385091800041],[39.20023576300008,41.064728446000004],[39.20044599900007,41.068128551000086],[39.20055395400004,41.06818267800003]]],"type":"Polygon"}},{"type":"Feature","properties":{"area_id":"TR-61-004-156585","name_tr":"Denizli","area_level":"neighbourhood","parent_id":"TR-61-004","endeksa_id":156585},"geometry":{"coordinates":[[[39.199299854000174,41.07307379500048],[39.19838983900013,41.073446527000044],[39.18987022800013,41.073756882000055],[39.188216129000125,41.074351352000406],[39.18635273300015,41.07439998799998],[39.18391259500004,41.073782705000156],[39.18072176800007,41.07378253900015],[39.180735789000096,41.073193668000044],[39.18096504800013,41.07316598600005],[39.18102909200013,41.06908593700007],[39.18256256365913,41.067523190238205],[39.182561992372996,41.06767287591731],[39.182753259453705,41.06771681207567],[39.18367558900013,41.06711491600015],[39.18534749100013,41.06672937800005],[39.190306764000184,41.067693718000044],[39.19061842000002,41.06760664500007],[39.191023005000034,41.067832992000376],[39.19434744800003,41.068479435000484],[39.19458262000012,41.06828279300038],[39.194374691000064,41.06816219100017],[39.19550481600004,41.067345529000136],[39.199802409000085,41.069283586000495],[39.19987836200005,41.069373256999995],[39.19909654200006,41.070876173000045],[39.19923907900005,41.07251145200007],[39.199507109000194,41.07280454100004],[39.199276192000184,41.07293722700001],[39.199299854000174,41.07307379500048]]],"type":"Polygon"}},{"type":"Feature","properties":{"area_id":"TR-61-004-79964","name_tr":"Adacık","area_level":"neighbourhood","parent_id":"TR-61-004","endeksa_id":79964},"geometry":{"coordinates":[[[39.21609126000004,41.06589294000008],[39.21598658800008,41.06609814300009],[39.21670951700014,41.067463564000036],[39.216989130690195,41.06758000000008],[39.21714000000031,41.06758000000008],[39.21740000000011,41.067560000000356],[39.217600000000175,41.067530000000204],[39.21839000000017,41.067380000000185],[39.218650000000196,41.06743000000006],[39.21891000000039,41.06745000000029],[39.21910000000008,41.06742000000031],[39.21944000000019,41.0672600000002],[39.22001000000006,41.066940000000216],[39.22043000000019,41.06668000000019],[39.220670000000155,41.06655000000012],[39.22091000000012,41.06644000000023],[39.221040000000244,41.06630000000035],[39.22114000000016,41.06621000000024],[39.22127000000006,41.066200000000265],[39.221540000000175,41.066200000000265],[39.22193000000016,41.066070000000195],[39.2222000000001,41.066010000000176],[39.222430000000145,41.065890000000365],[39.22263000000015,41.065800000000195],[39.222900000000095,41.06582000000009],[39.22294000000005,41.0659600000003],[39.22283000000016,41.06609000000026],[39.22239000000019,41.06622000000033],[39.22201000000018,41.066320000000246],[39.22171000000026,41.066410000000246],[39.221190000000036,41.06658000000027],[39.22044000000011,41.06702000000024],[39.21982000000037,41.06740000000008],[39.21923000000021,41.06771000000032],[39.21873000000005,41.067780000000255],[39.21823000000006,41.0678400000001],[39.217260000000124,41.06793000000022],[39.21663844467713,41.06805737664848],[39.2156467050001,41.068439972000135],[39.215278082000054,41.06874006300001],[39.214975748000086,41.06961138000008],[39.213854059000084,41.070176385000025],[39.212205789000166,41.07043543600008],[39.21057649699998,41.07150003600003],[39.20825425700008,41.07189514100048],[39.20674509800017,41.072549841000296],[39.206621820000066,41.073396017000164],[39.20584927700003,41.073330687000066],[39.20525140100011,41.073735847000194],[39.205119666000144,41.0743729940001],[39.20474414400013,41.07469817000015],[39.204226729000084,41.07469767000009],[39.20381108000004,41.07429499100027],[39.20329507800017,41.07446083300067],[39.20263148200013,41.07406699300009],[39.20166969500008,41.07405406500004],[39.201588774000186,41.07398109200017],[39.20154245000009,41.07357999999999],[39.20112178900018,41.07337273600007],[39.19990452400009,41.073128204000454],[39.19955190900015,41.073344343000485],[39.199299854000174,41.07307379500048],[39.199276192000184,41.07293722700001],[39.199507109000194,41.07280454100004],[39.19923907900005,41.07251145200007],[39.19909654200006,41.070876173000045],[39.19987836200005,41.069373256999995],[39.199802409000085,41.069283586000495],[39.1999537480001,41.06922410000004],[39.20055395400004,41.06818267800003],[39.20092299300006,41.06791232100028],[39.20134199500012,41.06708783800036],[39.202036860000135,41.06677591000016],[39.20317683500008,41.06659089300018],[39.20434800800007,41.06612857600004],[39.2070429800001,41.065831581000054],[39.20989934500011,41.064439306000054],[39.21060908600009,41.06390248500014],[39.21609126000004,41.06589294000008]]],"type":"Polygon"}}]}