{"type":"FeatureCollection","source_id":"endeksa","retrieved_at":null,"features":[{"type":"Feature","properties":{"area_id":"TR-68-007-2034911","name_tr":"Sipahiler Köyü","area_level":"neighbourhood","parent_id":"TR-68-007","endeksa_id":2034911},"geometry":{"coordinates":[[[33.8527435778002,38.926290844000334],[33.85264153500003,38.926391171000375],[33.8517662970001,38.92644879000011],[33.84819799800016,38.93049211300058],[33.851330810000036,38.93839660900005],[33.84969192300002,38.93988230800011],[33.84950528800016,38.93988469900057],[33.84891442448452,38.939400604041964],[33.847970000000146,38.937390000000335],[33.84800000000013,38.936370000000466],[33.84742000000011,38.9338400000002],[33.847360000000094,38.93295000000029],[33.846550000000036,38.93175000000048],[33.84571000000017,38.93233000000015],[33.84495000000021,38.933150000000126],[33.844160000000215,38.93376000000052],[33.84363000000019,38.93402000000003],[33.84247000000016,38.93307000000027],[33.84199000000007,38.93331000000023],[33.84151000000014,38.932870000000094],[33.83887000000021,38.93366000000009],[33.83803000000012,38.93381000000039],[33.83640000000008,38.93390000000005],[33.83527000000004,38.932340000000295],[33.83468000000005,38.93170000000009],[33.83409000000012,38.931910000000244],[33.83404000000007,38.9320800000001],[33.83395000000007,38.93211000000042],[33.83325069523397,38.93454719799797],[33.83133586900004,38.93363637400006],[33.83381228100012,38.93114331100014],[33.83158745400016,38.930254909000496],[33.83031627600013,38.93323288400006],[33.82835292200008,38.93293778400016],[33.82901541399997,38.93146896400032],[33.82855596100006,38.931169942999986],[33.82861075300019,38.93073070200052],[33.82578697100013,38.92936786200005],[33.8274363860001,38.92809862100006],[33.8237740240001,38.920507920000034],[33.82168868700012,38.91926884500015],[33.81795693100008,38.91985526800005],[33.81219752800007,38.91554799599999],[33.811206760000175,38.91503304400038],[33.8008687520001,38.91054554000016],[33.79044944200007,38.90883161000011],[33.789104329000054,38.90729733400019],[33.788956119000034,38.90727035100019],[33.78888219600009,38.90737780700016],[33.78878387899999,38.906930784000394],[33.788173380000046,38.906234052000116],[33.791110358000026,38.89806962700004],[33.79097423500008,38.89775984900018],[33.79112230900006,38.89803640800005],[33.79590085699999,38.89377704300051],[33.79974899700011,38.889169184000195],[33.79966715600017,38.88904781300005],[33.79973852900014,38.889002113000174],[33.79940847100016,38.88846176300001],[33.79955664329435,38.88832236819678],[33.79974752942843,38.88837774941868],[33.80030800600008,38.8891213440005],[33.80455962100007,38.888757490000046],[33.806243644000006,38.88630773400007],[33.80629151700015,38.88639519300011],[33.813360792000026,38.884341791],[33.821722834000184,38.87768449300006],[33.82219284700011,38.87841876700003],[33.822338603000105,38.878430051000066],[33.822488477000036,38.87829688400052],[33.822432454000136,38.878407289000506],[33.82297534100019,38.87968794799997],[33.829390684000145,38.889938923000045],[33.83584047199997,38.889929642000084],[33.83820435900009,38.894226328000116],[33.84257329200017,38.89492915500011],[33.839899072000094,38.89772327100053],[33.846107748000065,38.900795159000324],[33.84420668200016,38.903531479000094],[33.84422206600016,38.90364082100041],[33.84715823400012,38.90348579700037],[33.84975451400015,38.90790548200022],[33.84991218900018,38.90786843600017],[33.85243321200011,38.90468385300005],[33.85447015400007,38.90705884300024],[33.85057332100013,38.90846179900018],[33.85546903300019,38.91093953500052],[33.85264736800008,38.923892385000215],[33.8527435778002,38.926290844000334]]],"type":"Polygon"}},{"type":"Feature","properties":{"area_id":"TR-68-007-199699","name_tr":"15 Temmuz","area_level":"neighbourhood","parent_id":"TR-68-007","endeksa_id":199699},"geometry":{"coordinates":[[[33.84592000000015,38.98208000000034],[33.84383000000008,38.98244000000028],[33.84318000000013,38.980290000000196],[33.84489000000019,38.98015000000049],[33.848010000000045,38.97961000000004],[33.850920000000144,38.979460000000245],[33.85236000000009,38.979270000000156],[33.85313000000019,38.97903000000019],[33.85461000000009,38.97798000000017],[33.85449000000011,38.978500000000395],[33.85394000000008,38.9798100000001],[33.85288000000014,38.980730000000165],[33.85251000000005,38.98087000000038],[33.85015000000004,38.98120000000017],[33.847980000000064,38.98177000000027],[33.84592000000015,38.98208000000034]]],"type":"Polygon"}},{"type":"Feature","properties":{"area_id":"TR-68-007-2034912","name_tr":"Yaylak Köyü","area_level":"neighbourhood","parent_id":"TR-68-007","endeksa_id":2034912},"geometry":{"coordinates":[[[33.791766000218786,38.95434397026304],[33.79162207199835,38.95446857602997],[33.79144863621224,38.95437612399638],[33.79011483900018,38.95003542000018],[33.78498559700017,38.94430924800014],[33.78337047600019,38.94372879300016],[33.78256781500011,38.9416100900001],[33.78147833000014,38.94294121200011],[33.77661013700015,38.9425355300001],[33.77584009899999,38.93939570400016],[33.77826568000006,38.939194532000045],[33.77364746000006,38.937038874000564],[33.772670396000024,38.93434513300019],[33.772531543000184,38.93435127200041],[33.77010295700012,38.93575364000009],[33.77034876500005,38.93282519100018],[33.766456278000135,38.93149191300017],[33.762286569000025,38.92747994700022],[33.762413793000064,38.92734631400009],[33.76232743800011,38.92724142600014],[33.76251815800009,38.92729053600027],[33.77045177700006,38.920801796000205],[33.77047209800003,38.920595927000136],[33.770452241999976,38.92080141600053],[33.773472194000135,38.91833060500011],[33.780652863000114,38.916937012000176],[33.784954199000026,38.915176487999986],[33.78568856900006,38.914457244000346],[33.78554173500015,38.91114562700017],[33.78943973400004,38.909912817000304],[33.78888219600009,38.90737780700016],[33.788956119000034,38.90727035100019],[33.789104329000054,38.90729733400019],[33.79044944200007,38.90883161000011],[33.8008687520001,38.91054554000016],[33.811206760000175,38.91503304400038],[33.81219752800007,38.91554799599999],[33.81795693100008,38.91985526800005],[33.82168868700012,38.91926884500015],[33.8237740240001,38.920507920000034],[33.8274363860001,38.92809862100006],[33.82578697100013,38.92936786200005],[33.82861075300019,38.93073070200052],[33.82855596100006,38.931169942999986],[33.82901541399997,38.93146896400032],[33.82835292200008,38.93293778400016],[33.83031627600013,38.93323288400006],[33.83158745400016,38.930254909000496],[33.83381228100012,38.93114331100014],[33.83133586900004,38.93363637400006],[33.83325069523397,38.93454719799797],[33.83253000000019,38.93607000000014],[33.83251000000013,38.93634000000014],[33.83105000000012,38.93710000000033],[33.83039000000019,38.936370000000466],[33.829730000000154,38.936710000000176],[33.829540000000065,38.9366600000003],[33.82947000000013,38.93674000000016],[33.828800000000115,38.936370000000466],[33.828710000000115,38.93647000000021],[33.82859000000013,38.93641000000025],[33.828310000000045,38.93683000000016],[33.8279100000002,38.93714000000023],[33.82772000000011,38.93750000000017],[33.8282200000001,38.938160000000096],[33.827690000000075,38.93934000000036],[33.827430000000106,38.939740000000086],[33.82697000000019,38.93994000000026],[33.82708000000008,38.940180000000225],[33.82675000000012,38.94043000000033],[33.8267800000001,38.940670000000296],[33.82668000000018,38.940860000000384],[33.82557000000003,38.94134000000031],[33.825210000000084,38.94201000000032],[33.8250000000001,38.94217000000003],[33.82486000000006,38.94333000000012],[33.8249100000001,38.94376000000017],[33.825670000000116,38.94548000000037],[33.82557000000003,38.945660000000316],[33.8259700000001,38.94613000000015],[33.82583000000005,38.946190000000115],[33.82587000000012,38.94630000000018],[33.823850000000164,38.9475000000005],[33.823540000000094,38.94723000000022],[33.82360000000011,38.947210000000155],[33.82338000000016,38.94671000000051],[33.82303000000019,38.94675000000029],[33.82202000000012,38.94733000000065],[33.821650000000034,38.94773000000038],[33.82129000000009,38.947960000000194],[33.819850000000145,38.94807000000009],[33.8196200000001,38.94832000000014],[33.81943000000018,38.94818000000009],[33.819320000000175,38.947800000000086],[33.81885000000017,38.94788000000017],[33.81885000000017,38.94809000000032],[33.81866000000008,38.948140000000194],[33.81866000000008,38.948350000000346],[33.818890000000124,38.948890000000404],[33.8187200000001,38.94905000000017],[33.81900000000013,38.949140000000114],[33.81921000000011,38.95008000000013],[33.818580000000054,38.950340000000324],[33.817030000000045,38.95045000000016],[33.81699000000009,38.94999000000047],[33.81557000000004,38.95020000000011],[33.815230000000156,38.950190000000134],[33.815200000000175,38.95007000000015],[33.81503000000015,38.95007000000015],[33.813660000000084,38.9502100000002],[33.81377000000015,38.950280000000305],[33.81358000000006,38.950310000000115],[33.814060000000154,38.95083000000034],[33.812470000000246,38.95122000000009],[33.81234000000012,38.95132000000041],[33.81233000000003,38.95148000000012],[33.81214000000011,38.95162000000033],[33.81196000000011,38.95165000000014],[33.81184000000013,38.95120000000003],[33.811120000000074,38.95144000000039],[33.81140000000016,38.95181000000042],[33.81179000000009,38.95197000000019],[33.81157000000019,38.952260000000706],[33.81144000000012,38.9526800000001],[33.81118000000009,38.952730000000145],[33.81105000000014,38.952910000000486],[33.81056000000012,38.952810000000056],[33.809130000000096,38.95295000000027],[33.808820000000026,38.952230000000384],[33.8085200000001,38.95222000000024],[33.80738000000008,38.95237000000003],[33.807340000000124,38.95252000000022],[33.8053900000001,38.953310000000215],[33.80477000000013,38.953120000000126],[33.80443000000008,38.95231000000058],[33.8041300000001,38.952380000000176],[33.802720000000136,38.952350000000365],[33.80215000000004,38.95134000000007],[33.80075000000005,38.95073000000059],[33.7997000000002,38.950090000000216],[33.79945000000015,38.949350000000095],[33.799830000000156,38.949190000000385],[33.799500000000194,38.947490000000414],[33.79870000000005,38.94760000000025],[33.798820000000035,38.9480300000003],[33.79779000000008,38.94833000000028],[33.796900000000164,38.94891000000064],[33.79549000000003,38.95135000000005],[33.792150000000106,38.95432000000062],[33.7917700000001,38.95380000000023],[33.791766000218786,38.95434397026304]]],"type":"Polygon"}},{"type":"Feature","properties":{"area_id":"TR-68-007-90120","name_tr":"Özal","area_level":"neighbourhood","parent_id":"TR-68-007","endeksa_id":90120},"geometry":{"coordinates":[[[33.84291000000013,38.979490000000055],[33.84290000000004,38.979580000000226],[33.84198000000009,38.97988000000021],[33.838410000000124,38.98140000000018],[33.83591000000007,38.98163000000005],[33.8353800000001,38.98154000000039],[33.83424000000008,38.98117000000036],[33.82513000000023,38.98076000000037],[33.80332000000004,38.98111000000034],[33.7971500000001,38.982150000000274],[33.79549000000003,38.981960000000356],[33.78789000000006,38.9793200000002],[33.78792000000004,38.97909000000021],[33.78885000000008,38.97860000000014],[33.78910000000013,38.97830000000022],[33.78894000000025,38.977350000000456],[33.790890000000104,38.97575000000023],[33.7926300000002,38.970790000000534],[33.7928500000001,38.96598000000046],[33.79359000000005,38.96613000000008],[33.79418000000021,38.96327000000008],[33.79391000000004,38.961680000000115],[33.79375000000016,38.95935000000043],[33.792770000000246,38.959230000000446],[33.79257000000018,38.95769000000024],[33.791750000000036,38.95652000000007],[33.7917700000001,38.95380000000023],[33.792150000000106,38.95432000000062],[33.79549000000003,38.95135000000005],[33.796900000000164,38.94891000000064],[33.79779000000008,38.94833000000028],[33.798820000000035,38.9480300000003],[33.79870000000005,38.94760000000025],[33.799500000000194,38.947490000000414],[33.799830000000156,38.949190000000385],[33.79945000000015,38.949350000000095],[33.7997000000002,38.950090000000216],[33.80075000000005,38.95073000000059],[33.80215000000004,38.95134000000007],[33.802720000000136,38.952350000000365],[33.8041300000001,38.952380000000176],[33.80443000000008,38.95231000000058],[33.80477000000013,38.953120000000126],[33.8053900000001,38.953310000000215],[33.807340000000124,38.95252000000022],[33.80738000000008,38.95237000000003],[33.8085200000001,38.95222000000024],[33.808820000000026,38.952230000000384],[33.809130000000096,38.95295000000027],[33.81056000000012,38.952810000000056],[33.81105000000014,38.952910000000486],[33.81118000000009,38.952730000000145],[33.81144000000012,38.9526800000001],[33.81157000000019,38.952260000000706],[33.81179000000009,38.95197000000019],[33.81140000000016,38.95181000000042],[33.811120000000074,38.95144000000039],[33.81184000000013,38.95120000000003],[33.81196000000011,38.95165000000014],[33.81214000000011,38.95162000000033],[33.81233000000003,38.95148000000012],[33.81234000000012,38.95132000000041],[33.812470000000246,38.95122000000009],[33.814060000000154,38.95083000000034],[33.81358000000006,38.950310000000115],[33.81377000000015,38.950280000000305],[33.813660000000084,38.9502100000002],[33.81503000000015,38.95007000000015],[33.815200000000175,38.95007000000015],[33.815230000000156,38.950190000000134],[33.81557000000004,38.95020000000011],[33.81699000000009,38.94999000000047],[33.817030000000045,38.95045000000016],[33.818580000000054,38.950340000000324],[33.81921000000011,38.95008000000013],[33.81900000000013,38.949140000000114],[33.8187200000001,38.94905000000017],[33.818890000000124,38.948890000000404],[33.81866000000008,38.948350000000346],[33.81866000000008,38.948140000000194],[33.81885000000017,38.94809000000032],[33.81885000000017,38.94788000000017],[33.819320000000175,38.947800000000086],[33.81943000000018,38.94818000000009],[33.8196200000001,38.94832000000014],[33.819850000000145,38.94807000000009],[33.82129000000009,38.947960000000194],[33.821650000000034,38.94773000000038],[33.82202000000012,38.94733000000065],[33.82303000000019,38.94675000000029],[33.82338000000016,38.94671000000051],[33.82360000000011,38.947210000000155],[33.823540000000094,38.94723000000022],[33.823850000000164,38.9475000000005],[33.82587000000012,38.94630000000018],[33.82583000000005,38.946190000000115],[33.8259700000001,38.94613000000015],[33.82557000000003,38.945660000000316],[33.825670000000116,38.94548000000037],[33.8249100000001,38.94376000000017],[33.82486000000006,38.94333000000012],[33.8250000000001,38.94217000000003],[33.825210000000084,38.94201000000032],[33.82557000000003,38.94134000000031],[33.82668000000018,38.940860000000384],[33.8267800000001,38.940670000000296],[33.82675000000012,38.94043000000033],[33.82708000000008,38.940180000000225],[33.82697000000019,38.93994000000026],[33.827430000000106,38.939740000000086],[33.827690000000075,38.93934000000036],[33.8282200000001,38.938160000000096],[33.82772000000011,38.93750000000017],[33.8279100000002,38.93714000000023],[33.828310000000045,38.93683000000016],[33.82859000000013,38.93641000000025],[33.828710000000115,38.93647000000021],[33.828800000000115,38.936370000000466],[33.82947000000013,38.93674000000016],[33.829540000000065,38.9366600000003],[33.829730000000154,38.936710000000176],[33.83039000000019,38.936370000000466],[33.83105000000012,38.93710000000033],[33.83251000000013,38.93634000000014],[33.83309000000014,38.938350000000185],[33.837790000000155,38.94629000000003],[33.83882000000011,38.94852000000037],[33.838990000000194,38.94949000000031],[33.83894000000009,38.95005000000009],[33.837630000000104,38.95784000000003],[33.83755000000019,38.95937000000015],[33.83827000000008,38.96287000000035],[33.84191000000021,38.976180000000284],[33.84291000000013,38.979490000000055]]],"type":"Polygon"}},{"type":"Feature","properties":{"area_id":"TR-68-007-90116","name_tr":"Fatih","area_level":"neighbourhood","parent_id":"TR-68-007","endeksa_id":90116},"geometry":{"coordinates":[[[33.85461000000009,38.97798000000017],[33.85313000000019,38.97903000000019],[33.85236000000009,38.979270000000156],[33.850920000000144,38.979460000000245],[33.848010000000045,38.97961000000004],[33.84489000000019,38.98015000000049],[33.84318000000013,38.980290000000196],[33.84291000000013,38.979490000000055],[33.84191000000021,38.976180000000284],[33.83827000000008,38.96287000000035],[33.83755000000019,38.95937000000015],[33.837630000000104,38.95784000000003],[33.83894000000009,38.95005000000009],[33.838990000000194,38.94949000000031],[33.83882000000011,38.94852000000037],[33.837790000000155,38.94629000000003],[33.83309000000014,38.938350000000185],[33.83251000000013,38.93634000000014],[33.83253000000019,38.93607000000014],[33.83325069523397,38.93454719799797],[33.83395000000007,38.93211000000042],[33.83404000000007,38.9320800000001],[33.83409000000012,38.931910000000244],[33.83468000000005,38.93170000000009],[33.83527000000004,38.932340000000295],[33.83640000000008,38.93390000000005],[33.83803000000012,38.93381000000039],[33.83887000000021,38.93366000000009],[33.84151000000014,38.932870000000094],[33.84199000000007,38.93331000000023],[33.84247000000016,38.93307000000027],[33.84363000000019,38.93402000000003],[33.844160000000215,38.93376000000052],[33.84495000000021,38.933150000000126],[33.84571000000017,38.93233000000015],[33.846550000000036,38.93175000000048],[33.847360000000094,38.93295000000029],[33.84742000000011,38.9338400000002],[33.84800000000013,38.936370000000466],[33.847970000000146,38.937390000000335],[33.85084000000012,38.943500000000654],[33.85278000000022,38.94527000000005],[33.85361000000012,38.945410000000265],[33.85515000000021,38.946070000000134],[33.855100000000164,38.94648000000012],[33.855220000000145,38.94778000000025],[33.855870000000095,38.949040000000025],[33.858510000000194,38.94877000000042],[33.859030000000075,38.95024000000018],[33.859530000000234,38.95083000000034],[33.85961000000009,38.95110000000011],[33.859040000000164,38.95131000000026],[33.85908000000012,38.95156000000037],[33.85900000000004,38.95201000000009],[33.85942000000017,38.954240000000425],[33.860080000000096,38.9549700000004],[33.859590000000196,38.95492000000053],[33.8592900000001,38.955110000000104],[33.85915000000006,38.95475000000067],[33.85909000000004,38.95534000000032],[33.859280000000126,38.95540000000045],[33.85992000000016,38.9565800000002],[33.86194000000012,38.95605000000023],[33.86274000000009,38.95708000000019],[33.86347000000006,38.957400000000405],[33.86363000000017,38.95777000000044],[33.86634000000004,38.95759000000032],[33.86663000000004,38.958020000000374],[33.866000000000156,38.95831000000038],[33.86586000000011,38.95875000000052],[33.86538000000019,38.95907000000017],[33.86530000000016,38.95956000000007],[33.864300000000185,38.95959000000039],[33.86456000000004,38.961000000000524],[33.865170000000035,38.961770000000286],[33.86541000000017,38.96194000000014],[33.86545000000012,38.96220000000034],[33.86616000000009,38.96215000000046],[33.86657000000008,38.9619100000005],[33.86698000000007,38.96234000000004],[33.865260000000035,38.96328000000017],[33.86634000000004,38.96358000000015],[33.86670000000015,38.96381000000014],[33.86655000000019,38.96439000000038],[33.86643000000004,38.96444000000025],[33.86723000000012,38.96518000000037],[33.86720000000014,38.965580000000045],[33.86813000000018,38.96534000000008],[33.8690000000002,38.9648700000003],[33.869720000000086,38.96547000000021],[33.86998000000011,38.96594000000016],[33.86982000000023,38.966570000000274],[33.87020000000018,38.96804000000037],[33.869290000000035,38.968400000000315],[33.86883000000017,38.96868000000006],[33.86837000000014,38.96913000000035],[33.86700000000013,38.97002000000009],[33.86664000000019,38.970320000000186],[33.8662300000002,38.97087000000005],[33.865751832820706,38.97124503308214],[33.86465000000021,38.97176000000036],[33.86352000000011,38.97213000000056],[33.85979000000003,38.97308000000032],[33.85942000000017,38.97334000000035],[33.857480000000066,38.97550000000018],[33.85461000000009,38.97798000000017]]],"type":"Polygon"}},{"type":"Feature","properties":{"area_id":"TR-68-007-2034910","name_tr":"Demirciobası Köyü","area_level":"neighbourhood","parent_id":"TR-68-007","endeksa_id":2034910},"geometry":{"coordinates":[[[33.78789000000006,38.9793200000002],[33.786150000000134,38.9793200000002],[33.78445000000016,38.98163000000005],[33.784070000000156,38.98192000000006],[33.783700000000124,38.98246000000012],[33.783330000000035,38.983110000000295],[33.78316000000018,38.9839300000001],[33.78285000000011,38.98455000000007],[33.7825600000001,38.98480000000012],[33.78201000000007,38.98502000000042],[33.781590000000165,38.98507000000029],[33.78156000000013,38.98501000000044],[33.78145000000012,38.98523000000017],[33.781500000000165,38.98580000000044],[33.781410000000164,38.98629000000011],[33.780600000000106,38.98619000000019],[33.78028000000012,38.98650000000009],[33.779520000000105,38.98687000000018],[33.77949000000012,38.987050000000124],[33.77771000000007,38.98687000000018],[33.77758000000017,38.986920000000055],[33.77771000000007,38.987350000000106],[33.7771400000002,38.987540000000195],[33.76305000000019,38.99056000000064],[33.75906000000009,38.98874000000069],[33.75747072478629,38.98800376932195],[33.756576207066814,38.9874028638078],[33.75647672809225,38.987256064896314],[33.756528988923094,38.987100407627736],[33.75670721016229,38.987010740157984],[33.75690693009676,38.987036161144374],[33.75604950400009,38.986653755000134],[33.755860916000074,38.983551474000194],[33.75238739299999,38.983276502000365],[33.74715477600006,38.97703417800011],[33.74908405100007,38.974038615000154],[33.75178259600017,38.97408231400027],[33.75271876199997,38.970110149000504],[33.74697185400004,38.96843931300009],[33.74761447000009,38.965549465000095],[33.74755004499997,38.96544777200012],[33.739637719000086,38.96463735800006],[33.73986529419466,38.96021359284566],[33.73990674000004,38.959553677000315],[33.73903506000005,38.9584058170002],[33.73786202000014,38.95757748000017],[33.73731527000001,38.956141133000074],[33.736425452000105,38.95496938700012],[33.73649698800017,38.953991453000526],[33.73588589000008,38.95238606000015],[33.747031958000036,38.940201238000384],[33.74689255000004,38.93803411000016],[33.74490237400005,38.93615929800012],[33.7453554650001,38.93591947800013],[33.7405934790001,38.93144611400038],[33.742475607000245,38.92841751300034],[33.74521724141272,38.92787868360466],[33.745685403222296,38.92537110792637],[33.74868887400015,38.92433498100024],[33.748616795000146,38.92411622100008],[33.748893609000106,38.92415428100003],[33.74884737700006,38.92428324400049],[33.75494308400016,38.9257245460002],[33.75498343400017,38.92557752200014],[33.75551253800006,38.9258604000006],[33.75558318300011,38.925588714000185],[33.75825689900017,38.926193252000076],[33.75818463300004,38.926497880000056],[33.75981543800009,38.926821296000526],[33.760130775000164,38.92667685800012],[33.76232743800011,38.92724142600014],[33.762413793000064,38.92734631400009],[33.762286569000025,38.92747994700022],[33.766456278000135,38.93149191300017],[33.77034876500005,38.93282519100018],[33.77010295700012,38.93575364000009],[33.772531543000184,38.93435127200041],[33.772670396000024,38.93434513300019],[33.77364746000006,38.937038874000564],[33.77826568000006,38.939194532000045],[33.77584009899999,38.93939570400016],[33.77661013700015,38.9425355300001],[33.78147833000014,38.94294121200011],[33.78256781500011,38.9416100900001],[33.78337047600019,38.94372879300016],[33.78498559700017,38.94430924800014],[33.79011483900018,38.95003542000018],[33.79144863621224,38.95437612399638],[33.79162207199835,38.95446857602997],[33.791766000218786,38.95434397026304],[33.791750000000036,38.95652000000007],[33.79257000000018,38.95769000000024],[33.792770000000246,38.959230000000446],[33.79375000000016,38.95935000000043],[33.79391000000004,38.961680000000115],[33.79418000000021,38.96327000000008],[33.79359000000005,38.96613000000008],[33.7928500000001,38.96598000000046],[33.7926300000002,38.970790000000534],[33.790890000000104,38.97575000000023],[33.78894000000025,38.977350000000456],[33.78910000000013,38.97830000000022],[33.78885000000008,38.97860000000014],[33.78792000000004,38.97909000000021],[33.78789000000006,38.9793200000002]]],"type":"Polygon"}},{"type":"Feature","properties":{"area_id":"TR-68-007-90121","name_tr":"Şafaktepe","area_level":"neighbourhood","parent_id":"TR-68-007","endeksa_id":90121},"geometry":{"coordinates":[[[33.84413000000018,38.98343000000045],[33.84308000000016,38.98369000000014],[33.8423600000001,38.984010000000126],[33.840850000000046,38.984420000000114],[33.8369400000002,38.98351000000014],[33.82148000000018,38.98392000000035],[33.80894000000018,38.98570000000018],[33.7971500000001,38.982150000000274],[33.80332000000004,38.98111000000034],[33.82513000000023,38.98076000000037],[33.83424000000008,38.98117000000036],[33.8353800000001,38.98154000000039],[33.83591000000007,38.98163000000005],[33.838410000000124,38.98140000000018],[33.84198000000009,38.97988000000021],[33.84290000000004,38.979580000000226],[33.84291000000013,38.979490000000055],[33.84318000000013,38.980290000000196],[33.84413000000018,38.98343000000045]]],"type":"Polygon"}},{"type":"Feature","properties":{"area_id":"TR-68-007-2034913","name_tr":"Yenitorunobası Köyü","area_level":"neighbourhood","parent_id":"TR-68-007","endeksa_id":2034913},"geometry":{"coordinates":[[[33.756576207066814,38.9874028638078],[33.7553200000001,38.98641000000032],[33.75355000000019,38.986520000000326],[33.75302000000005,38.986310000000174],[33.75259000000017,38.98636000000005],[33.751920000000155,38.98695000000038],[33.75007000000005,38.98725000000036],[33.750060000000076,38.98786000000035],[33.750400000000184,38.98884000000044],[33.75014000000016,38.98887000000008],[33.74935000000016,38.98864000000026],[33.74891000000014,38.98839000000015],[33.74847000000017,38.98826000000008],[33.74738000000019,38.98873000000003],[33.74694000000005,38.98907000000031],[33.74707000000012,38.98921000000013],[33.7468600000002,38.98914000000042],[33.74633000000023,38.989560000000324],[33.74524000000008,38.98978000000005],[33.744360000000086,38.99076000000014],[33.7438600000001,38.99076000000014],[33.74372000000005,38.990950000000225],[33.74238000000025,38.99141000000009],[33.74001000000004,38.99161000000015],[33.738230000000044,38.99214000000063],[33.73741000000007,38.99258000000009],[33.73680000000019,38.99200000000042],[33.736770000000035,38.99105000000014],[33.7365700000002,38.99056000000064],[33.736640000000136,38.99029000000036],[33.73651000000018,38.99027000000012],[33.7364800000002,38.990120000000104],[33.7363900000002,38.99013000000059],[33.73613000000017,38.98976000000039],[33.735870000000205,38.98978000000005],[33.735500000000116,38.98936000000015],[33.73444000000018,38.98948000000013],[33.733890000000144,38.989740000000324],[33.73317000000009,38.9898300000001],[33.732520000000136,38.99009000000012],[33.73195000000004,38.99053000000032],[33.73161000000016,38.990300000000445],[33.73176000000012,38.99009000000012],[33.731810000000166,38.98952000000003],[33.73134000000016,38.98905000000008],[33.73118000000011,38.98861000000005],[33.731070000000045,38.988620000000026],[33.730850000000146,38.98784000000012],[33.72843000000012,38.98774000000037],[33.7277600000001,38.98786000000035],[33.72769501990217,38.987755830017136],[33.727488558000175,38.987572982000074],[33.72638305800018,38.98520614200015],[33.72624567700012,38.98513118400052],[33.72629462200018,38.98396312000051],[33.726145768000094,38.983947845000046],[33.72433505600003,38.98476448100047],[33.72416463800016,38.98470769900007],[33.72370866200009,38.982269908000035],[33.72855820800004,38.98076177800016],[33.72905818100014,38.980078252000055],[33.72929121400011,38.98003697100029],[33.72927515900011,38.979946336000694],[33.729391314000054,38.97985312100053],[33.729299517000186,38.97985075200006],[33.729267204999985,38.97975191800009],[33.732099878000156,38.97560282500058],[33.729622683000116,38.97568236500041],[33.729644534000045,38.97555285200008],[33.731171723000045,38.97457650500007],[33.73050532000002,38.972341244999996],[33.72807853800015,38.97198464899998],[33.72738545700008,38.969738587000165],[33.72596102600011,38.96834999800012],[33.72578337500005,38.968339849000074],[33.725809974000015,38.96820323100064],[33.72423564600018,38.96660467100003],[33.72591364900018,38.96439191900009],[33.7279113510001,38.964679632000184],[33.728046797000104,38.96462161600033],[33.7281896880001,38.96389527900004],[33.72729540200004,38.96286392900015],[33.72856446000003,38.961983859000156],[33.72958790200016,38.95665495500009],[33.729888544000175,38.95587695200015],[33.73016234500017,38.95576629400006],[33.73030228800013,38.95576654200005],[33.739623203277574,38.96031663027509],[33.73978163735802,38.960317953493245],[33.73986529419466,38.96021359284566],[33.739637719000086,38.96463735800006],[33.74755004499997,38.96544777200012],[33.74761447000009,38.965549465000095],[33.74697185400004,38.96843931300009],[33.75271876199997,38.970110149000504],[33.75178259600017,38.97408231400027],[33.74908405100007,38.974038615000154],[33.74715477600006,38.97703417800011],[33.75238739299999,38.983276502000365],[33.755860916000074,38.983551474000194],[33.75604950400009,38.986653755000134],[33.75690693009676,38.987036161144374],[33.75670721016229,38.987010740157984],[33.756528988923094,38.987100407627736],[33.75647672809225,38.987256064896314],[33.756576207066814,38.9874028638078]]],"type":"Polygon"}},{"type":"Feature","properties":{"area_id":"TR-68-007-90122","name_tr":"Yenidoğan","area_level":"neighbourhood","parent_id":"TR-68-007","endeksa_id":90122},"geometry":{"coordinates":[[[33.816810000000146,38.99239000000017],[33.816040000000044,38.992870000000096],[33.8156800000001,38.992680000000405],[33.8153700000002,38.992840000000285],[33.815240000000074,38.99255000000045],[33.81552000000016,38.99232000000006],[33.814770000000124,38.99058000000019],[33.81437000000005,38.99010000000027],[33.81389000000013,38.98978000000005],[33.81346000000008,38.98917000000006],[33.81351000000012,38.98910000000012],[33.81333000000018,38.98864000000026],[33.81361000000004,38.98848000000049],[33.81320000000005,38.98786000000035],[33.81283000000019,38.98795000000018],[33.81281000000013,38.987850000000265],[33.812600000000145,38.98783000000071],[33.81272000000013,38.98744000000005],[33.81183000000004,38.9865700000002],[33.80894000000018,38.98570000000018],[33.82148000000018,38.98392000000035],[33.8369400000002,38.98351000000014],[33.840850000000046,38.984420000000114],[33.8423600000001,38.984010000000126],[33.84308000000016,38.98369000000014],[33.84413000000018,38.98343000000045],[33.84443000000016,38.9845700000003],[33.84447000000006,38.98588000000012],[33.84366000000023,38.985740000000305],[33.842520000000036,38.98573000000033],[33.84114000000005,38.986000000000104],[33.839860000000044,38.98651000000024],[33.83956000000006,38.986550000000136],[33.83934000000016,38.986700000000326],[33.83846000000017,38.9867900000001],[33.83719000000008,38.98744000000005],[33.83498000000003,38.98834000000028],[33.83275000000009,38.98911000000004],[33.83011000000016,38.9895700000003],[33.823260000000175,38.99112000000008],[33.816810000000146,38.99239000000017]]],"type":"Polygon"}},{"type":"Feature","properties":{"area_id":"TR-68-007-90118","name_tr":"Kızılırmak","area_level":"neighbourhood","parent_id":"TR-68-007","endeksa_id":90118},"geometry":{"coordinates":[[[33.84447000000006,38.98588000000012],[33.844410000000096,38.98820000000006],[33.844040000000234,38.99084000000039],[33.84382000000011,38.99134000000038],[33.8434900000002,38.99161000000015],[33.84192000000013,38.992190000000505],[33.84123000000005,38.99279000000041],[33.841250000000116,38.99354000000011],[33.84160000000014,38.994910000000345],[33.84194000000019,38.997060000000204],[33.842060000000174,39.00240000000031],[33.841970000000174,39.00299000000024],[33.84173000000004,39.0038200000007],[33.84078000000011,39.00626000000011],[33.84019000000018,39.00729000000007],[33.83971000000008,39.00788000000017],[33.83724000000012,39.01266000000027],[33.835860000000196,39.01252000000005],[33.835030000000074,39.01230000000032],[33.834780000000194,39.012070000000335],[33.83448000000004,39.01141000000007],[33.83300000000014,39.01203000000004],[33.83197000000018,39.010620000000586],[33.83092000000016,39.010870000000125],[33.83067000000011,39.01066000000037],[33.83055000000013,39.01067000000046],[33.830100000000186,39.010190000000534],[33.83045000000004,39.01005000000032],[33.8298200000001,39.00905000000017],[33.829360000000065,39.00778000000008],[33.82953000000009,39.00748000000016],[33.832310000000064,39.00747000000018],[33.832640000000026,39.003890000000126],[33.83246000000008,39.00245000000035],[33.831220000000144,39.001610000000085],[33.82708000000008,39.0011600000002],[33.821370000000115,38.998850000000175],[33.819880000000126,38.99596000000014],[33.81952000000018,38.99566000000004],[33.81862000000018,38.995230000000504],[33.81831000000011,38.994850000000326],[33.8177500000001,38.99453000000017],[33.81671000000006,38.99419000000006],[33.81684000000013,38.994110000000205],[33.81677000000019,38.993960000000584],[33.81695000000019,38.99394000000035],[33.817560000000185,38.99360000000013],[33.81750000000005,38.9929800000005],[33.816810000000146,38.99239000000017],[33.823260000000175,38.99112000000008],[33.83011000000016,38.9895700000003],[33.83275000000009,38.98911000000004],[33.83498000000003,38.98834000000028],[33.83719000000008,38.98744000000005],[33.83846000000017,38.9867900000001],[33.83934000000016,38.986700000000326],[33.83956000000006,38.986550000000136],[33.839860000000044,38.98651000000024],[33.84114000000005,38.986000000000104],[33.842520000000036,38.98573000000033],[33.84366000000023,38.985740000000305],[33.84447000000006,38.98588000000012]]],"type":"Polygon"}},{"type":"Feature","properties":{"area_id":"TR-68-007-90117","name_tr":"Karşıyaka","area_level":"neighbourhood","parent_id":"TR-68-007","endeksa_id":90117},"geometry":{"coordinates":[[[33.865751832820706,38.97124503308214],[33.873165002000064,38.97455747800018],[33.87392366500018,38.97515999400008],[33.88294645100012,38.98414970000067],[33.88681987299998,38.99129992900049],[33.88606218900003,38.99961427500011],[33.885913877926725,38.99995350222133],[33.88133000000005,38.99732000000006],[33.87371000000019,38.99406000000033],[33.87067000000019,38.99317000000008],[33.864120000000185,38.99063000000007],[33.860800000000154,38.99038000000013],[33.855160000000126,38.989770000000135],[33.85413000000017,38.98951000000045],[33.85192000000012,38.988590000000386],[33.85099000000008,38.98815000000019],[33.84992000000017,38.98738000000043],[33.848900000000185,38.98688000000027],[33.84865000000008,38.98668000000009],[33.847790000000145,38.985310000000425],[33.84694000000019,38.984420000000114],[33.846310000000074,38.98400000000004],[33.84594000000004,38.9835300000002],[33.84592000000015,38.98208000000034],[33.847980000000064,38.98177000000027],[33.85015000000004,38.98120000000017],[33.85251000000005,38.98087000000038],[33.85288000000014,38.980730000000165],[33.85394000000008,38.9798100000001],[33.85449000000011,38.978500000000395],[33.85461000000009,38.97798000000017],[33.857480000000066,38.97550000000018],[33.85942000000017,38.97334000000035],[33.85979000000003,38.97308000000032],[33.86352000000011,38.97213000000056],[33.86465000000021,38.97176000000036],[33.865751832820706,38.97124503308214]]],"type":"Polygon"}},{"type":"Feature","properties":{"area_id":"TR-68-007-90119","name_tr":"Kurtuluş","area_level":"neighbourhood","parent_id":"TR-68-007","endeksa_id":90119},"geometry":{"coordinates":[[[33.838160915320486,39.06322663951664],[33.83682044632479,39.063375580516265],[33.828869933001556,39.0521114600017],[33.83525776200133,39.04338081400141],[33.84541276200133,39.02954433100132],[33.84740379916775,39.02888216161591],[33.84546000000029,39.02647000000053],[33.84545000000037,39.02636000000035],[33.8439700000003,39.02514000000048],[33.84523000000024,39.02459000000027],[33.84475000000032,39.02408000000031],[33.84391000000028,39.02276000000052],[33.841260000000204,39.01937000000038],[33.84251000000029,39.01872000000037],[33.8420500000002,39.01789000000048],[33.84074000000038,39.017990000000225],[33.84050000000042,39.01674000000054],[33.840140000000304,39.015950000000544],[33.83982000000026,39.0148800000008],[33.83922000000035,39.01420000000036],[33.83891000000028,39.01364000000052],[33.83724000000035,39.01266000000044],[33.83971000000025,39.0078800000004],[33.84019000000035,39.00729000000024],[33.84078000000028,39.00626000000028],[33.84173000000021,39.00382000000087],[33.841970000000344,39.00299000000041],[33.842060000000345,39.00240000000048],[33.84194000000036,38.99706000000043],[33.84160000000031,38.994910000000516],[33.84125000000029,38.99354000000028],[33.84123000000022,38.99279000000058],[33.8419200000003,38.992190000000676],[33.84349000000037,38.99161000000032],[33.84382000000028,38.99134000000055],[33.844040000000405,38.99084000000056],[33.844410000000266,38.988200000000234],[33.844470000000285,38.98588000000029],[33.84443000000033,38.984570000000474],[33.84413000000035,38.983430000000624],[33.84383000000025,38.98244000000045],[33.84592000000032,38.98208000000051],[33.84594000000021,38.98353000000037],[33.846310000000244,38.98400000000021],[33.84694000000036,38.984420000000284],[33.847790000000316,38.985310000000595],[33.84865000000025,38.98668000000026],[33.848900000000356,38.98688000000044],[33.84992000000034,38.9873800000006],[33.85099000000025,38.98815000000036],[33.85192000000029,38.988590000000556],[33.85413000000034,38.98951000000062],[33.855160000000296,38.989770000000306],[33.860800000000324,38.9903800000003],[33.86412000000041,38.99063000000024],[33.87067000000036,38.99317000000025],[33.87371000000036,38.9940600000005],[33.88133000000022,38.99732000000023],[33.885913877926896,38.9999535022215],[33.88886000000031,39.001360000000545],[33.88999000000035,39.0017100000004],[33.897200000000225,39.00290000000024],[33.90331000000043,39.00412000000051],[33.903180000000475,39.00417000000073],[33.903270000000475,39.00445000000059],[33.90313000000043,39.00710000000066],[33.90152000000046,39.009410000000514],[33.900956727234814,39.01111946734915],[33.89919955100095,39.01200000300099],[33.89859955100104,39.01260000200119],[33.897899551001046,39.01370000300153],[33.89569955100109,39.01660000200104],[33.89568260101282,39.01664661446995],[33.896844465489096,39.01886471937911],[33.896725492438804,39.022076991737094],[33.89743933074055,39.02636002154753],[33.896895927216065,39.02786237246835],[33.894524397896134,39.028427022306346],[33.88634500068855,39.03273979537943],[33.88084249711261,39.03779615001679],[33.87177080202787,39.03972946208404],[33.864781135323256,39.040473043648376],[33.86374012113316,39.03511925638526],[33.85972478068584,39.038985880519704],[33.860765794875874,39.042852504654206],[33.85957606437296,39.0483550082302],[33.858088901244344,39.05281649761611],[33.85689917074143,39.05757541962777],[33.85719660336713,39.060995894823634],[33.85199153241689,39.06203690901373],[33.847530043030986,39.060103596946476],[33.84217625576787,39.05876515013068],[33.838160915320486,39.06322663951664]]],"type":"Polygon"}},{"type":"Feature","properties":{"area_id":"TR-68-007-2034909","name_tr":"Boğazköy Köyü","area_level":"neighbourhood","parent_id":"TR-68-007","endeksa_id":2034909},"geometry":{"coordinates":[[[33.93101393000029,38.96215960900031],[33.93115131200028,38.96227681400029],[33.93032910500034,38.96487907100021],[33.92699394500028,38.964410295000334],[33.92634919500023,38.9704170090003],[33.932122861000266,38.97242751000033],[33.933777260000284,38.97466878400047],[33.9319385940002,38.97687034200055],[33.934031939000306,38.97817863000046],[33.934060277000356,38.9783040760002],[33.93028946800035,38.980278162000445],[33.92891585900031,38.97921163600029],[33.92873701500025,38.97922384800023],[33.92200471900031,38.98684827900024],[33.91940010800033,38.99246103300027],[33.91314316200027,38.993148669000504],[33.91190023800027,38.990722924000295],[33.91176252700035,38.990666164000174],[33.90943752900034,38.99251787000031],[33.907162251000216,38.99211065500077],[33.906033218000346,38.994113515000265],[33.90590992200026,38.994170438000424],[33.903121876000284,38.99181705600023],[33.90146963100028,38.993417189000695],[33.90315348700034,38.999517332000494],[33.90186800400028,39.000490919000356],[33.90232225300031,39.00323019600074],[33.901783018842536,39.00381510359904],[33.897200000000055,39.00290000000007],[33.88999000000018,39.00171000000023],[33.888860000000136,39.001360000000375],[33.885913877926725,38.99995350222133],[33.88606218900003,38.99961427500011],[33.88681987299998,38.99129992900049],[33.88294645100012,38.98414970000067],[33.87392366500018,38.97515999400008],[33.873165002000064,38.97455747800018],[33.865751832820706,38.97124503308214],[33.8662300000002,38.97087000000005],[33.86664000000019,38.970320000000186],[33.86700000000013,38.97002000000009],[33.86837000000014,38.96913000000035],[33.86883000000017,38.96868000000006],[33.869290000000035,38.968400000000315],[33.87020000000018,38.96804000000037],[33.86982000000023,38.966570000000274],[33.86998000000011,38.96594000000016],[33.869720000000086,38.96547000000021],[33.8690000000002,38.9648700000003],[33.86813000000018,38.96534000000008],[33.86720000000014,38.965580000000045],[33.86723000000012,38.96518000000037],[33.86643000000004,38.96444000000025],[33.86655000000019,38.96439000000038],[33.86670000000015,38.96381000000014],[33.86634000000004,38.96358000000015],[33.865260000000035,38.96328000000017],[33.86698000000007,38.96234000000004],[33.86657000000008,38.9619100000005],[33.86616000000009,38.96215000000046],[33.86545000000012,38.96220000000034],[33.86541000000017,38.96194000000014],[33.865170000000035,38.961770000000286],[33.86456000000004,38.961000000000524],[33.864300000000185,38.95959000000039],[33.86530000000016,38.95956000000007],[33.86538000000019,38.95907000000017],[33.86586000000011,38.95875000000052],[33.866000000000156,38.95831000000038],[33.86663000000004,38.958020000000374],[33.86634000000004,38.95759000000032],[33.86363000000017,38.95777000000044],[33.86347000000006,38.957400000000405],[33.86274000000009,38.95708000000019],[33.86194000000012,38.95605000000023],[33.85992000000016,38.9565800000002],[33.859280000000126,38.95540000000045],[33.85909000000004,38.95534000000032],[33.85915000000006,38.95475000000067],[33.8592900000001,38.955110000000104],[33.859590000000196,38.95492000000053],[33.860080000000096,38.9549700000004],[33.85942000000017,38.954240000000425],[33.85900000000004,38.95201000000009],[33.85908000000012,38.95156000000037],[33.859040000000164,38.95131000000026],[33.85961000000009,38.95110000000011],[33.859530000000234,38.95083000000034],[33.859030000000075,38.95024000000018],[33.858510000000194,38.94877000000042],[33.855870000000095,38.949040000000025],[33.855220000000145,38.94778000000025],[33.855100000000164,38.94648000000012],[33.85515000000021,38.946070000000134],[33.85361000000012,38.945410000000265],[33.85278000000022,38.94527000000005],[33.85084000000012,38.943500000000654],[33.84891442448452,38.939400604041964],[33.84950528800016,38.93988469900057],[33.84969192300002,38.93988230800011],[33.851330810000036,38.93839660900005],[33.84819799800016,38.93049211300058],[33.8517662970001,38.92644879000011],[33.85264153500003,38.926391171000375],[33.8527435778002,38.926290844000334],[33.85287467700016,38.92638624700032],[33.865924499000016,38.926008470000056],[33.86653423600012,38.92277009999998],[33.86927731900016,38.921238316000085],[33.87028198000007,38.91577268300006],[33.87519141400003,38.913017412000045],[33.87519950300009,38.91014008600018],[33.87423365100011,38.91019625300066],[33.874115898000184,38.910086617000104],[33.875808667,38.90768918200007],[33.881501091000075,38.90898467300025],[33.881561647000126,38.90907760900012],[33.881497815177795,38.90963498434053],[33.88157891516818,38.90949758924057],[33.88175352663603,38.90943124805665],[33.88205572730163,38.90957799440719],[33.882702140000276,38.910964821000334],[33.88284118500013,38.911111292999976],[33.8853845750001,38.911258681000106],[33.88820147000018,38.91369856200009],[33.89160444600003,38.91131104499999],[33.896011753000096,38.911325991000524],[33.896160466000026,38.911205024000196],[33.896206697000025,38.91134063500067],[33.89669632300007,38.91136401600056],[33.89677212300012,38.91149101800005],[33.89427677300006,38.914695615000085],[33.89423479700014,38.91544724500028],[33.894141441000045,38.91560389300008],[33.89654303400005,38.921282948000226],[33.90838689300011,38.92696454100002],[33.909507100000155,38.92961125600044],[33.909402573000136,38.92970236200034],[33.908169852000185,38.92978064200042],[33.90807990800005,38.92990870800054],[33.91203687400002,38.935566971000185],[33.91520454100004,38.93910041099997],[33.919005839000135,38.94029142000056],[33.918610916000034,38.94301599100015],[33.92273633800016,38.95138693200005],[33.92869969000009,38.95385004100001],[33.930355045,38.96165210800012],[33.93075686100002,38.962144915000124],[33.93101393000029,38.96215960900031]]],"type":"Polygon"}},{"type":"Feature","properties":{"area_id":"TR-68-007-2034908","name_tr":"Bekdik Köyü","area_level":"neighbourhood","parent_id":"TR-68-007","endeksa_id":2034908},"geometry":{"coordinates":[[[33.957133965612,39.03987817839692],[33.958174979802095,39.04761142666587],[33.95490322091905,39.04924730610736],[33.94464179533139,39.04939602242024],[33.94196490169986,39.045826830911494],[33.93482651868237,39.04196020677699],[33.93229834136366,39.0403243273355],[33.923970227843256,39.03705256845251],[33.91668312851289,39.03749871739109],[33.909544745495396,39.03735000107821],[33.90523197242237,39.033780809569464],[33.90255507879078,39.031252632250755],[33.897647440466244,39.02768344074201],[33.896895927216065,39.02786237246835],[33.89743933074055,39.02636002154753],[33.896725492438804,39.022076991737094],[33.896844465489096,39.01886471937911],[33.89568260101299,39.01664661446995],[33.89569955100143,39.01660000200138],[33.89789955100139,39.01370000300187],[33.89859955100138,39.012600002001534],[33.89919955100129,39.01200000300133],[33.900956727234984,39.01111946734932],[33.90152000000046,39.009410000000514],[33.90313000000043,39.00710000000066],[33.903270000000475,39.00445000000059],[33.903180000000475,39.00417000000073],[33.90331000000043,39.00412000000051],[33.90178301884271,39.00381510359921],[33.90232225300048,39.003230196000914],[33.901868004000505,39.000490919000526],[33.90315348700051,38.999517332000664],[33.90146963100045,38.993417189000866],[33.90312187600051,38.9918170560004],[33.90590992200043,38.994170438000594],[33.906033218000516,38.994113515000436],[33.907162251000386,38.99211065500094],[33.90943752900051,38.99251787000048],[33.91176252700052,38.9906661640004],[33.91190023800044,38.990722924000465],[33.91314316200044,38.993148669000675],[33.9194001080005,38.992461033000495],[33.92200471900048,38.98684827900041],[33.92873701500042,38.97922384800046],[33.92891585900048,38.979211636000514],[33.930289468000524,38.980278162000616],[33.934060277000526,38.97830407600037],[33.93403193900048,38.97817863000063],[33.93193859400037,38.97687034200072],[33.933777260000454,38.97466878400064],[33.93212286100044,38.9724275100005],[33.9263491950004,38.97041700900053],[33.92699394500045,38.964410295000505],[33.93032910500051,38.96487907100044],[33.93115131200045,38.96227681400046],[33.93101393000046,38.96215960900048],[33.93121382600049,38.962076556000454],[33.93346589800046,38.961931941000614],[33.933696036611536,38.96197175049747],[33.9337664371439,38.962093376134874],[33.93434494800039,38.962078481000674],[33.9337646230004,38.962114521000444],[33.933773219000386,38.96229832600051],[33.933497226000384,38.96240445300049],[33.93252334600044,38.965355961000455],[33.93262319000053,38.965425828000775],[33.93628638300049,38.96592703500045],[33.93788511600053,38.96867256300038],[33.94091655443839,38.968832796384504],[33.94115398515527,38.96882088948996],[33.941190000000404,38.96904000000069],[33.94240000000053,38.968980000000556],[33.942330000000425,38.97049000000044],[33.946630000000596,38.972390000000416],[33.947810000000516,38.97322000000054],[33.94783000000058,38.973410000000456],[33.94916000000046,38.974720000000616],[33.94977000000051,38.974660000000824],[33.951990000000535,38.97538000000071],[33.953290000000436,38.97486000000083],[33.95467000000059,38.97582000000068],[33.95473000000038,38.97612000000066],[33.953600000000506,38.976820000001],[33.95393000000047,38.977510000000564],[33.95493000000039,38.977190000000576],[33.95512000000048,38.977540000000886],[33.95583000000045,38.97684000000055],[33.957850000000406,38.97611000000052],[33.961630000000525,38.976700000000676],[33.96297000000038,38.97704000000073],[33.96465000000046,38.977760000000615],[33.9639300000004,38.978410000000395],[33.96412000000049,38.97854000000069],[33.96391000000057,38.97867000000059],[33.96427000000051,38.979330000000516],[33.965750000000526,38.978720000000465],[33.967330000000516,38.97820000000047],[33.968750000000455,38.97750000000042],[33.96833000000049,38.97705000000053],[33.96852000000041,38.976920000000746],[33.96842000000049,38.976580000001036],[33.96895000000046,38.97633000000047],[33.969280000000595,38.97631000000075],[33.96932000000055,38.97644000000082],[33.9710900000004,38.97611000000052],[33.97294000000056,38.975340000000756],[33.974330000000464,38.9750200000006],[33.97481000000056,38.9757900000007],[33.976560000000404,38.97492000000068],[33.97709000000037,38.97541000000086],[33.9783400000004,38.974690000000635],[33.9782100000005,38.97446000000042],[33.979220000000396,38.97396000000049],[33.97877000000045,38.973330000000715],[33.97869000000043,38.97318000000058],[33.97874000000047,38.97312000000039],[33.980150000000435,38.972520000000486],[33.98156000000057,38.972140000000536],[33.983250000000396,38.97420000000045],[33.98361000000057,38.97406000000075],[33.98404000000039,38.974660000000824],[33.98473000000047,38.97436000000067],[33.985230000000456,38.97485000000091],[33.98623000000043,38.974250000000666],[33.98757000000046,38.97581000000076],[33.988790000000506,38.97526000000056],[33.98900000000049,38.97535000000073],[33.990070000000514,38.97613000000075],[33.991520000000435,38.97789000000074],[33.994340000000534,38.980910000000506],[33.99656000000056,38.98158000000052],[34.00002000000046,38.98204000000089],[34.00426000000044,38.9819600000007],[34.006820000000516,38.98167000000069],[34.00938000000042,38.98117000000087],[34.00957000000051,38.980730000000506],[34.00996000000043,38.98064000000056],[34.011516365233945,38.98133220776754],[34.01299014700061,38.983761920000575],[34.01342686000061,38.98868817000067],[34.013216858000646,38.98918491800072],[34.012133400000664,38.98981480500055],[34.01103624100057,38.99377337900103],[34.00579376100063,38.9960488600006],[34.00572599200058,38.99639304800064],[34.00635675100068,38.996538561000705],[34.006432539000684,38.996627068000976],[34.00600870400075,39.00330610100053],[34.009629067000674,39.005823624000584],[34.01073414800055,39.01066739300069],[34.016355311000666,39.01770830500095],[34.0186750750006,39.024461293000854],[34.018819158000554,39.024598430000594],[34.01890898900058,39.02494310200069],[34.018977379000546,39.0248348310007],[34.01912827500064,39.02485765800054],[34.02872398500074,39.03323423500058],[34.028710633000685,39.033687265000594],[34.02854309600059,39.0337183860006],[34.0286128700007,39.03403529500059],[34.028695077000634,39.03402446200067],[34.02868042300065,39.034342115000584],[34.02892658100063,39.0343218670007],[34.029195412001116,39.035769084001345],[34.029729584930976,39.03545748288184],[34.033253088875426,39.04016737361707],[34.03279955100112,39.04030000200123],[34.028199551001194,39.04150000300132],[34.02569955100114,39.0420000020012],[34.02349955100118,39.04230000300123],[34.02049955200118,39.04250000200119],[34.01709955100114,39.04260000200111],[34.011899551001136,39.04230000300123],[34.00719955100112,39.04230000300123],[34.005499552001254,39.04260000200111],[34.00419955100125,39.04310000300137],[34.00159955100122,39.043600002001256],[34.000199551001174,39.043700002001174],[33.996999551001124,39.04340000200159],[33.9945995510011,39.043800003001195],[33.99019955100124,39.04480000200124],[33.986899551001216,39.04510000200156],[33.98399955200114,39.045000002001245],[33.98279955100105,39.04480000200124],[33.982199551001145,39.04440000200134],[33.98189955100122,39.044000002001496],[33.98089955100107,39.0416000020013],[33.980499551001174,39.04120000200146],[33.978399552001065,39.040100002001395],[33.97609955100114,39.039300002001255],[33.97499955100125,39.03880000200127],[33.97389955100118,39.03800000200118],[33.97319955100113,39.03760000300122],[33.97149955100116,39.03730000200136],[33.97099955100123,39.037100002001296],[33.96989955100116,39.03630000200121],[33.96928595111342,39.03612468774776],[33.967758420895734,39.03233492028545],[33.96683050100103,39.033133665001344],[33.96257650900094,39.03272436800114],[33.96248471500098,39.03258033300102],[33.96583541500098,39.02763055500111],[33.965804735001086,39.02750838700149],[33.96236471980711,39.02674379602587],[33.95981085924359,39.028427022306346],[33.95772883086346,39.033334660630885],[33.957133965612,39.03987817839692]]],"type":"Polygon"}}]}