{"type":"FeatureCollection","source_id":"endeksa","retrieved_at":null,"features":[{"type":"Feature","properties":{"area_id":"TR-61-014-157041","name_tr":"Oylum","area_level":"neighbourhood","parent_id":"TR-61-014","endeksa_id":157041},"geometry":{"coordinates":[[[40.042158342087816,40.78311307837805],[40.04090000000025,40.78347000000031],[40.04004000000015,40.78386000000057],[40.03603000000015,40.78343000000052],[40.03565547272166,40.78347758545186],[40.03507000000013,40.782950000000596],[40.035060000000215,40.78276000000051],[40.03490000000011,40.78264000000053],[40.034130000000175,40.78234000000003],[40.03362000000004,40.78200000000015],[40.032900000000154,40.78101000000015],[40.03293000000019,40.78082000000006],[40.03248000000008,40.7798300000004],[40.03233000000006,40.77919000000003],[40.032460000000185,40.77892000000003],[40.032710000000066,40.77881000000053],[40.032900000000154,40.77857000000006],[40.03284000000019,40.77829000000014],[40.03252000000015,40.77805000000018],[40.032400000000166,40.77806000000032],[40.03199000000018,40.77771000000047],[40.031750000000045,40.77730000000065],[40.03142000000008,40.77702000000022],[40.03142000000008,40.776730000000384],[40.03124000000014,40.776200000000586],[40.031320000000164,40.7761900000001],[40.03123000000022,40.77569000000034],[40.030970000000195,40.77553000000057],[40.030880000000195,40.775610000000086],[40.030660000000125,40.775180000000034],[40.03080000000017,40.774840000000324],[40.030660000000125,40.77461000000011],[40.03042000000016,40.77455000000049],[40.03033000000016,40.774210000000096],[40.03033000000016,40.77382000000034],[40.030450000000144,40.773600000000044],[40.0304900000001,40.77322000000021],[40.03033000000016,40.77296000000041],[40.02985000000007,40.77258000000023],[40.02997000000005,40.7718500000002],[40.029830000000175,40.77166000000011],[40.02954000000017,40.7715000000004],[40.02942000000019,40.77123000000006],[40.02942000000019,40.77076000000028],[40.02963000000017,40.7701100000001],[40.02951000000019,40.76986000000039],[40.02935000000008,40.7689900000002],[40.02832000000012,40.76832000000019],[40.04229000000015,40.7604800000002],[40.042930000000126,40.75893000000042],[40.04331000000013,40.754910000000336],[40.04255000000012,40.750310000000184],[40.04255000000012,40.7454300000004],[40.04179000000016,40.73940000000027],[40.04179000000016,40.73279000000008],[40.04103000000015,40.72274000000027],[40.03913000000017,40.7198700000003],[40.04114000000021,40.708360000000084],[40.04223000000013,40.70360000000005],[40.04223000000013,40.69864000000018],[40.041690000000244,40.69491000000062],[40.041690000000244,40.688910000000135],[40.040050000000065,40.683950000000436],[40.04551000000009,40.6880900000005],[40.05042000000009,40.69057000000038],[40.05424000000016,40.695530000000076],[40.05533000000008,40.69884000000036],[40.05779000000007,40.70153000000039],[40.06024000000008,40.70484000000016],[40.06379000000004,40.70422000000019],[40.067060000000026,40.69905000000017],[40.07198000000017,40.697400000000584],[40.07470000000018,40.7027700000001],[40.076070000000186,40.70795000000027],[40.077160000000106,40.71891000000028],[40.07771000000014,40.72635000000014],[40.07811000000004,40.726760000000354],[40.076540000000136,40.74476000000038],[40.06814000000003,40.76098000000036],[40.06727000000018,40.7629500000001],[40.0667600000001,40.770710000000406],[40.06159000000008,40.77091000000007],[40.06101000000024,40.76417000000015],[40.05946000000006,40.76404000000059],[40.05719000000016,40.76783000000012],[40.056530000000066,40.769660000000215],[40.05424000000016,40.771280000000104],[40.0531400000001,40.774000000000456],[40.04889000000014,40.77921000000026],[40.0486200000002,40.783670000000484],[40.042158342087816,40.78311307837805]]],"type":"Polygon"}},{"type":"Feature","properties":{"area_id":"TR-61-014-157085","name_tr":"Yazıoba","area_level":"neighbourhood","parent_id":"TR-61-014","endeksa_id":157085},"geometry":{"coordinates":[[[40.082790000000216,40.78233000000046],[40.08204000000012,40.78299000000038],[40.081220000000144,40.78389000000021],[40.07966000000005,40.784040000000175],[40.07650000000007,40.78399000000013],[40.07559000000009,40.78427000000039],[40.07621000000023,40.78470000000044],[40.07738000000023,40.78531000000032],[40.077650000000176,40.78564000000006],[40.078310000000045,40.78610000000009],[40.07885000000016,40.786700000000394],[40.0792100000001,40.78692000000012],[40.079420000000084,40.78719000000041],[40.07957000000005,40.788090000000295],[40.07999000000018,40.7887300000001],[40.07980000000009,40.78915000000006],[40.079790000000116,40.78997000000021],[40.07854000000009,40.790950000000294],[40.07807000000008,40.7912000000004],[40.07779000000022,40.79154000000011],[40.07757104174851,40.791997821799384],[40.058910000000026,40.78846000000033],[40.0486200000002,40.783670000000484],[40.04889000000014,40.77921000000026],[40.0531400000001,40.774000000000456],[40.05424000000016,40.771280000000104],[40.056530000000066,40.769660000000215],[40.05719000000016,40.76783000000012],[40.05946000000006,40.76404000000059],[40.06101000000024,40.76417000000015],[40.06159000000008,40.77091000000007],[40.0667600000001,40.770710000000406],[40.06727000000018,40.7629500000001],[40.06814000000003,40.76098000000036],[40.076540000000136,40.74476000000038],[40.07811000000004,40.726760000000354],[40.07771000000014,40.72635000000014],[40.077160000000106,40.71891000000028],[40.076070000000186,40.70795000000027],[40.07470000000018,40.7027700000001],[40.07198000000017,40.697400000000584],[40.067060000000026,40.69905000000017],[40.06379000000004,40.70422000000019],[40.06024000000008,40.70484000000016],[40.05779000000007,40.70153000000039],[40.05533000000008,40.69884000000036],[40.05424000000016,40.695530000000076],[40.05042000000009,40.69057000000038],[40.04551000000009,40.6880900000005],[40.040050000000065,40.683950000000436],[40.03923000000009,40.68146000000047],[40.03950000000003,40.679400000000555],[40.04360000000014,40.67670000000027],[40.04687000000018,40.67008000000038],[40.06761000000006,40.672770000000526],[40.07063000000022,40.670750000000396],[40.07329000000021,40.673910000000376],[40.07405000000017,40.678220000000294],[40.07519000000019,40.683390000000315],[40.07633000000021,40.68712000000039],[40.080010000000186,40.69277000000034],[40.08079000000009,40.69562000000042],[40.08017000000012,40.699660000000165],[40.080320000000086,40.70168000000018],[40.082360000000165,40.7038100000002],[40.086920000000134,40.70547000000039],[40.08848000000006,40.70894000000044],[40.08962000000008,40.7138300000002],[40.090380000000096,40.718710000000215],[40.09190000000007,40.7244500000005],[40.09417000000013,40.730480000000625],[40.09493000000015,40.73508000000038],[40.095310000000154,40.73967000000005],[40.09532000000007,40.74484000000007],[40.094940000000065,40.75202000000013],[40.091810000000066,40.75940000000037],[40.09114000000005,40.76351000000011],[40.08773000000019,40.769570000000044],[40.08569000000017,40.772950000000264],[40.08393000000018,40.775580000000446],[40.082790000000216,40.78017000000011],[40.082790000000216,40.78233000000046]]],"type":"Polygon"}},{"type":"Feature","properties":{"area_id":"TR-61-014-157087","name_tr":"Yeşilköy","area_level":"neighbourhood","parent_id":"TR-61-014","endeksa_id":157087},"geometry":{"coordinates":[[[40.04296016100005,40.803062571],[40.042735371000106,40.80307501400006],[40.04189692000011,40.802379562000056],[40.04115098600005,40.799126481000144],[40.04201439800005,40.793264046000445],[40.040528407000124,40.79059788000029],[40.04227102600015,40.783228794000024],[40.042158342087816,40.78311307837805],[40.0486200000002,40.783670000000484],[40.05847642435157,40.788258170325435],[40.05873765900003,40.7886061880007],[40.05408910500017,40.79729032000051],[40.05240813900019,40.79021047500015],[40.050244540000165,40.78897133000004],[40.047917192000114,40.790015351000136],[40.047893249000026,40.79016269000016],[40.04950667300011,40.79137221100018],[40.04827720600008,40.795295624000175],[40.05003555400009,40.79670627800033],[40.050495255000044,40.800699724000026],[40.04296016100005,40.803062571]]],"type":"Polygon"}},{"type":"Feature","properties":{"area_id":"TR-61-014-157081","name_tr":"Güneyköy","area_level":"neighbourhood","parent_id":"TR-61-014","endeksa_id":157081},"geometry":{"coordinates":[[[40.0732321050001,40.803835636000144],[40.07303653800017,40.803747295000164],[40.062328125000136,40.808459430000084],[40.06218831800004,40.80845249700013],[40.06213742600005,40.8083536690001],[40.062487835000184,40.80686133199998],[40.05450532800006,40.79907469300008],[40.05408910500017,40.79729032000051],[40.05873765900003,40.7886061880007],[40.05847642435157,40.788258170325435],[40.058910000000026,40.78846000000033],[40.07757104174851,40.791997821799384],[40.0778639240001,40.79199794600049],[40.077629249000154,40.79262396700051],[40.07529442600014,40.79636756000019],[40.07423061000003,40.79921775600047],[40.07432466400019,40.799764082000024],[40.075955834000126,40.800550566000084],[40.07600984400017,40.80065708900014],[40.07617243800013,40.80067430300011],[40.073260337000136,40.80363695800037],[40.0732321050001,40.803835636000144]]],"type":"Polygon"}},{"type":"Feature","properties":{"area_id":"TR-61-014-157089","name_tr":"Yukarıovalı","area_level":"neighbourhood","parent_id":"TR-61-014","endeksa_id":157089},"geometry":{"coordinates":[[[40.06972624000019,40.82401099600054],[40.06947902600018,40.82411778400012],[40.069444665000105,40.823600750000026],[40.069274110000094,40.82368071300016],[40.0684788530001,40.82198448400004],[40.07320963000012,40.80442983000006],[40.0732321050001,40.803835636000144],[40.073260337000136,40.80363695800037],[40.07617243800013,40.80067430300011],[40.077539283000135,40.800702184000045],[40.08018893200011,40.80025749900011],[40.08695727000003,40.80088878600003],[40.08754464100002,40.80145569700028],[40.08980888200006,40.80489345500018],[40.09114610500012,40.80789815300005],[40.09111756000016,40.80806281200046],[40.083150765000084,40.81211393600063],[40.07802797900007,40.81942689200014],[40.06966219700013,40.82349869100034],[40.06960348700011,40.82353650900012],[40.069831230000034,40.82396564400034],[40.06972624000019,40.82401099600054]]],"type":"Polygon"}},{"type":"Feature","properties":{"area_id":"TR-61-014-157079","name_tr":"Fındıcak","area_level":"neighbourhood","parent_id":"TR-61-014","endeksa_id":157079},"geometry":{"coordinates":[[[40.06004940200012,40.825458892000256],[40.05999223200001,40.82556577400004],[40.05100897200015,40.829874351000285],[40.05085883900006,40.829867317000094],[40.050816038000164,40.82976037300011],[40.052018736000036,40.82686800700009],[40.055493511000066,40.82448491100058],[40.05549812200013,40.82437311800015],[40.05570001700005,40.824228726000115],[40.04904179400012,40.82598728300019],[40.04788036300005,40.82496500100069],[40.045881258000065,40.8196058770003],[40.045920531000036,40.8190224760001],[40.04549758800016,40.818539921000024],[40.04533682500005,40.81847399800017],[40.04383588200011,40.8170636430001],[40.04391343200018,40.8151137800005],[40.04464260100019,40.81424870300009],[40.04416306700011,40.808882760000074],[40.04606038500009,40.805792933000134],[40.042784893000146,40.80311658600016],[40.04296016100005,40.803062571],[40.050495255000044,40.800699724000026],[40.05003555400009,40.79670627800033],[40.04827720600008,40.795295624000175],[40.04950667300011,40.79137221100018],[40.047893249000026,40.79016269000016],[40.047917192000114,40.790015351000136],[40.050244540000165,40.78897133000004],[40.05240813900019,40.79021047500015],[40.05408910500017,40.79729032000051],[40.05450532800006,40.79907469300008],[40.062487835000184,40.80686133199998],[40.06213742600005,40.8083536690001],[40.06177009000004,40.8097848000001],[40.059170180000024,40.81166124000015],[40.05886458900005,40.81403556500004],[40.05338912899998,40.81758914100004],[40.05344065200012,40.820437764000474],[40.05351321200004,40.820580043000064],[40.05700857000005,40.81888464700012],[40.05840789400003,40.819156141000065],[40.05966614100015,40.824246022000125],[40.06004940200012,40.825458892000256]]],"type":"Polygon"}},{"type":"Feature","properties":{"area_id":"TR-61-014-157069","name_tr":"Küçükdere","area_level":"neighbourhood","parent_id":"TR-61-014","endeksa_id":157069},"geometry":{"coordinates":[[[40.072058841689625,40.83301173632657],[40.0718955057539,40.83284662872023],[40.067889313000194,40.83307041900008],[40.067208802000096,40.832660158000124],[40.067331129000024,40.83261379100014],[40.066630473000146,40.83220706600014],[40.066360327000154,40.83214863700016],[40.062001395000095,40.829519928000536],[40.06088523200003,40.827951670999994],[40.06092768700006,40.82782246000005],[40.0632308000001,40.82680928600007],[40.063307169000154,40.82621161200018],[40.0601432200001,40.8255426500001],[40.06004940200012,40.825458892000256],[40.05966614100015,40.824246022000125],[40.05840789400003,40.819156141000065],[40.05700857000005,40.81888464700012],[40.05351321200004,40.820580043000064],[40.05344065200012,40.820437764000474],[40.05338912899998,40.81758914100004],[40.05886458900005,40.81403556500004],[40.059170180000024,40.81166124000015],[40.06177009000004,40.8097848000001],[40.06213742600005,40.8083536690001],[40.06218831800004,40.80845249700013],[40.062328125000136,40.808459430000084],[40.07303653800017,40.803747295000164],[40.0732321050001,40.803835636000144],[40.07320963000012,40.80442983000006],[40.0684788530001,40.82198448400004],[40.069274110000094,40.82368071300016],[40.069444665000105,40.823600750000026],[40.06947902600018,40.82411778400012],[40.06972624000019,40.82401099600054],[40.07027440700017,40.82513050400007],[40.070166218,40.825181227000144],[40.070264642000154,40.82543390100005],[40.070391554000025,40.8253790800004],[40.07064472000019,40.82591627099998],[40.07055425600015,40.8259586840004],[40.07061813500019,40.826108942000076],[40.070715667000115,40.826066812000136],[40.071015034000084,40.82670203800012],[40.070894335000105,40.826758626000185],[40.07126005500004,40.82761888700054],[40.071180334000076,40.82774574300038],[40.073488152000095,40.83265480300048],[40.07338119200011,40.832763131000206],[40.07214913071135,40.8328345770621],[40.07205548166678,40.83287934023798],[40.072058841689625,40.83301173632657]]],"type":"Polygon"}},{"type":"Feature","properties":{"area_id":"TR-61-014-157073","name_tr":"Aşağıovalı","area_level":"neighbourhood","parent_id":"TR-61-014","endeksa_id":157073},"geometry":{"coordinates":[[[40.091892646162535,40.80766932165881],[40.094625406350644,40.81442203337821],[40.09288348000007,40.81710595600049],[40.09470823700019,40.82731091200037],[40.09403725900006,40.83296924600012],[40.090328033000105,40.836555783000165],[40.09050910400009,40.838324883000155],[40.08957026900015,40.838179801000024],[40.084609067000144,40.836935173000256],[40.07757790900013,40.83818154099998],[40.07747745800009,40.83827782200024],[40.07687376100017,40.83760616400008],[40.07598009500009,40.8377100190001],[40.07514055100012,40.83590288500011],[40.072058841689625,40.83301173632657],[40.07205548166678,40.83287934023798],[40.07214913071135,40.8328345770621],[40.07338119200011,40.832763131000206],[40.073488152000095,40.83265480300048],[40.071180334000076,40.82774574300038],[40.07126005500004,40.82761888700054],[40.070894335000105,40.826758626000185],[40.071015034000084,40.82670203800012],[40.070715667000115,40.826066812000136],[40.07061813500019,40.826108942000076],[40.07055425600015,40.8259586840004],[40.07064472000019,40.82591627099998],[40.070391554000025,40.8253790800004],[40.070264642000154,40.82543390100005],[40.070166218,40.825181227000144],[40.07027440700017,40.82513050400007],[40.06972624000019,40.82401099600054],[40.069831230000034,40.82396564400034],[40.06960348700011,40.82353650900012],[40.06966219700013,40.82349869100034],[40.07802797900007,40.81942689200014],[40.083150765000084,40.81211393600063],[40.09111756000016,40.80806281200046],[40.09114610500012,40.80789815300005],[40.091292244000044,40.80796398900054],[40.091892646162535,40.80766932165881]]],"type":"Polygon"}},{"type":"Feature","properties":{"area_id":"TR-61-014-157071","name_tr":"Armutlu","area_level":"neighbourhood","parent_id":"TR-61-014","endeksa_id":157071},"geometry":{"coordinates":[[[40.0672579940001,40.83268981500004],[40.061712085000124,40.83532537000019],[40.05611047000019,40.835238839000056],[40.05405747700007,40.83918860400013],[40.05334829600008,40.83911480700016],[40.05154771200017,40.835703034000176],[40.05165593100014,40.83487327300054],[40.05113394,40.83482817100003],[40.05010000500016,40.83209603400019],[40.04998929300007,40.831758906000516],[40.050816038000164,40.82976037300011],[40.05085883900006,40.829867317000094],[40.05100897200015,40.829874351000285],[40.05999223200001,40.82556577400004],[40.06004940200012,40.825458892000256],[40.0601432200001,40.8255426500001],[40.063307169000154,40.82621161200018],[40.0632308000001,40.82680928600007],[40.06092768700006,40.82782246000005],[40.06088523200003,40.827951670999994],[40.062001395000095,40.829519928000536],[40.066360327000154,40.83214863700016],[40.066630473000146,40.83220706600014],[40.067331129000024,40.83261379100014],[40.067208802000096,40.832660158000124],[40.0672579940001,40.83268981500004]]],"type":"Polygon"}},{"type":"Feature","properties":{"area_id":"TR-61-014-157055","name_tr":"Koyuncular","area_level":"neighbourhood","parent_id":"TR-61-014","endeksa_id":157055},"geometry":{"coordinates":[[[40.15425701415501,40.8356225911748],[40.1538000000001,40.83549000000016],[40.1537100000001,40.83563000000021],[40.152900000000045,40.83553000000029],[40.15072000000015,40.83594000000028],[40.150330000000054,40.836200000000304],[40.15028000000018,40.83655000000027],[40.15013000000005,40.836760000000595],[40.1501600000002,40.83687000000032],[40.14976000000013,40.83726000000007],[40.14943000000022,40.83730000000037],[40.14895000000007,40.837590000000375],[40.1485100000001,40.83770000000021],[40.14820000000003,40.83783000000034],[40.148130000000094,40.837940000000174],[40.14737000000008,40.83823000000018],[40.14694000000003,40.83810000000062],[40.14619000000016,40.83831000000026],[40.145620000000065,40.83861000000019],[40.144960000000026,40.83912000000032],[40.14455000000021,40.83969000000019],[40.14420000000018,40.84071000000006],[40.14155000000011,40.84024000000005],[40.13956000000013,40.84020000000032],[40.13742000000019,40.83999000000017],[40.13542000000007,40.839450000000056],[40.13367000000005,40.839450000000056],[40.13272000000012,40.83971000000025],[40.131550000000175,40.84065000000004],[40.13135000000011,40.841250000000116],[40.130660000000205,40.84198000000049],[40.13058000000018,40.84220000000022],[40.13072000000005,40.84263000000027],[40.1305900000001,40.84309000000013],[40.130220000000065,40.84368000000046],[40.129780000000096,40.8439700000003],[40.12971000000016,40.84411000000051],[40.12964000000005,40.844070000000045],[40.12934000000007,40.84423000000049],[40.129040000000145,40.84427000000028],[40.1288100000001,40.84455000000014],[40.12727000000007,40.84539000000041],[40.12709000000007,40.845370000000344],[40.12744000000009,40.84448000000003],[40.12709000000007,40.84181000000012],[40.126540000000034,40.840760000000444],[40.12627000000009,40.84049000000016],[40.12544000000014,40.84000000000009],[40.12380000000019,40.83978000000036],[40.12320000000011,40.83981000000017],[40.12050000000016,40.84052000000048],[40.11952000000008,40.84129000000024],[40.11511000000007,40.8414600000001],[40.11410000000018,40.841210000000046],[40.11212000000012,40.83715000000018],[40.1118400000002,40.836910000000216],[40.11214000000018,40.83644000000044],[40.112100000000055,40.836230000000114],[40.11221000000012,40.83619000000033],[40.11171000000013,40.83544000000012],[40.111660000000256,40.83513000000005],[40.11209000000014,40.83433000000008],[40.11153000000013,40.83368000000013],[40.111480000000086,40.83336000000065],[40.11156000000011,40.833110000000204],[40.1120200000002,40.83275000000009],[40.1123300000001,40.83280000000036],[40.11314303303351,40.83221926211928],[40.11426000000006,40.83135000000061],[40.11437000000012,40.83088000000009],[40.114080000000115,40.830340000000206],[40.11414000000008,40.830030000000136],[40.114510000000166,40.82971000000009],[40.1150600000002,40.829540000000065],[40.11568000000017,40.82917000000003],[40.11546000000004,40.82875000000007],[40.11583000000013,40.827800000000366],[40.11583000000013,40.82702000000046],[40.11664000000019,40.826540000000534],[40.11703000000011,40.82618000000059],[40.11708000000016,40.82586000000043],[40.11773000000011,40.82501000000042],[40.11760000000004,40.82436000000064],[40.11822000000018,40.82397000000037],[40.11888000000005,40.823690000000624],[40.11954000000014,40.82323000000025],[40.12055000000004,40.82274000000018],[40.120430000000056,40.82271000000054],[40.12173000000013,40.82233000000036],[40.12354000000016,40.82241000000005],[40.12389000000019,40.82249000000013],[40.124920000000145,40.82296000000008],[40.12708000000015,40.822290000000066],[40.127870000000144,40.822230000000104],[40.130000000000166,40.82230000000004],[40.13095000000004,40.82222000000036],[40.13228000000015,40.82181000000014],[40.13283000000018,40.82175000000018],[40.133160000000146,40.82109000000008],[40.13343000000009,40.820240000000126],[40.133780000000115,40.82014000000038],[40.135270000000105,40.82005000000004],[40.136640000000114,40.8197600000002],[40.138990000000035,40.81874000000033],[40.13972000000007,40.818660000000136],[40.141500000000065,40.81919000000062],[40.14303000000018,40.81937000000005],[40.144040000000075,40.81964000000022],[40.14498000000009,40.8195800000002],[40.14593097542718,40.819355208258],[40.14910000000009,40.81999000000019],[40.14932000000016,40.820310000000234],[40.149279598122575,40.82055241126585],[40.14934709955742,40.820482109997215],[40.14949690811943,40.82051502561876],[40.15057080271771,40.82178558429496],[40.15054198520738,40.82198251229988],[40.15091000000007,40.82218000000006],[40.15077000000025,40.822940000000415],[40.15050000000008,40.82332000000042],[40.149930000000154,40.82345000000066],[40.14947000000012,40.824060000000145],[40.14981000000017,40.82512000000031],[40.15035000000012,40.825270000000614],[40.15066000000019,40.82555000000036],[40.15216000000015,40.82586000000043],[40.152370000000076,40.82630000000006],[40.15167000000008,40.82664000000028],[40.1528100000001,40.82692000000003],[40.15233000000018,40.827500000000384],[40.152460000000076,40.82820000000021],[40.15238000000005,40.83029000000033],[40.15390000000019,40.83380000000011],[40.15425701415501,40.8356225911748]]],"type":"Polygon"}},{"type":"Feature","properties":{"area_id":"TR-61-014-157051","name_tr":"Kahraman","area_level":"neighbourhood","parent_id":"TR-61-014","endeksa_id":157051},"geometry":{"coordinates":[[[40.110300000000166,40.8478700000004],[40.10917000000012,40.847260000000404],[40.1081200000001,40.84685000000019],[40.10771000000011,40.84643000000062],[40.1059800000001,40.846020000000124],[40.105480000000114,40.84582000000006],[40.10447000000005,40.84678000000031],[40.102100000000064,40.8470800000004],[40.09814000000017,40.84903000000031],[40.09700000000015,40.8489100000001],[40.09654000000012,40.8492200000004],[40.09583000000015,40.8494400000003],[40.09557000000012,40.8489100000001],[40.09642000000014,40.8484000000002],[40.096550000000036,40.84781000000004],[40.09650000000016,40.84765000000016],[40.09617000000026,40.847290000000044],[40.09572000000014,40.84710000000064],[40.095650000000035,40.84716000000009],[40.09480000000019,40.846760000000245],[40.09449000000012,40.846800000000144],[40.09436000000005,40.84665000000035],[40.09386000000006,40.84660000000048],[40.09350561705571,40.84631426520963],[40.09330091900006,40.84321970500048],[40.09084848000009,40.8422711460006],[40.089920644000074,40.840604801000154],[40.08985799800007,40.84030532300039],[40.08900006500005,40.83860257200013],[40.08948856000001,40.83853923200019],[40.08957026900015,40.838179801000024],[40.09050910400009,40.838324883000155],[40.090328033000105,40.836555783000165],[40.09403725900006,40.83296924600012],[40.09470823700019,40.82731091200037],[40.09288348000007,40.81710595600049],[40.094625406350644,40.81442203337821],[40.091892646162535,40.80766932165881],[40.09609247200001,40.811384839000254],[40.09565932099997,40.81132641700003],[40.09767592500003,40.81396205200042],[40.100635058000194,40.82134386000013],[40.10090025300019,40.822572027000035],[40.10125437700003,40.822888806000094],[40.1014086940001,40.82327376100005],[40.10406429800008,40.82540239700029],[40.11132653200019,40.8318987670001],[40.11314303303351,40.83221926211928],[40.1123300000001,40.83280000000036],[40.1120200000002,40.83275000000009],[40.11156000000011,40.833110000000204],[40.111480000000086,40.83336000000065],[40.11153000000013,40.83368000000013],[40.11209000000014,40.83433000000008],[40.111660000000256,40.83513000000005],[40.11171000000013,40.83544000000012],[40.11221000000012,40.83619000000033],[40.112100000000055,40.836230000000114],[40.11214000000018,40.83644000000044],[40.1118400000002,40.836910000000216],[40.111570000000086,40.83751000000012],[40.11159000000015,40.83776000000023],[40.11189000000007,40.83836000000014],[40.1118400000002,40.83866000000006],[40.11078000000009,40.83956000000012],[40.11045000000013,40.84030000000007],[40.11045000000013,40.84046000000035],[40.110710000000154,40.84039000000041],[40.111050000000034,40.841500000000565],[40.11125000000004,40.841750000000104],[40.11156000000011,40.84188000000006],[40.11163000000005,40.84303000000068],[40.11006000000003,40.84375000000057],[40.11004000000014,40.84431000000018],[40.11079000000018,40.84584000000012],[40.111260000000186,40.84744000000035],[40.110300000000166,40.8478700000004]]],"type":"Polygon"}},{"type":"Feature","properties":{"area_id":"TR-61-014-157083","name_tr":"Konak","area_level":"neighbourhood","parent_id":"TR-61-014","endeksa_id":157083},"geometry":{"coordinates":[[[40.09350561705571,40.84631426520963],[40.09257497403388,40.846690819733],[40.09211000000005,40.846670000000586],[40.09176000000019,40.84724000000017],[40.091440000000034,40.84743000000026],[40.09149000000008,40.84780000000029],[40.090540000000146,40.84789000000012],[40.08971000000008,40.847760000000164],[40.08948000000004,40.84780000000029],[40.08913000000018,40.84814000000017],[40.08852000000019,40.84898000000004],[40.087790000000155,40.849420000000066],[40.08756482200005,40.85014173500036],[40.086894219000044,40.85096239500001],[40.08084856200014,40.84738421200035],[40.074592252000116,40.84609659000057],[40.07438669700008,40.84623208900018],[40.073552924000126,40.84608346900046],[40.07580164100011,40.83779385300011],[40.07598009500009,40.8377100190001],[40.07687376100017,40.83760616400008],[40.07747745800009,40.83827782200024],[40.07757790900013,40.83818154099998],[40.084609067000144,40.836935173000256],[40.08957026900015,40.838179801000024],[40.08948856000001,40.83853923200019],[40.08900006500005,40.83860257200013],[40.08985799800007,40.84030532300039],[40.089920644000074,40.840604801000154],[40.09084848000009,40.8422711460006],[40.09330091900006,40.84321970500048],[40.09350561705571,40.84631426520963]]],"type":"Polygon"}},{"type":"Feature","properties":{"area_id":"TR-61-014-157077","name_tr":"Çimenli","area_level":"neighbourhood","parent_id":"TR-61-014","endeksa_id":157077},"geometry":{"coordinates":[[[40.08607665648509,40.85592540894686],[40.085879879105505,40.85597608334365],[40.08577165591595,40.85584389663603],[40.08632692600008,40.85407514100018],[40.07469351300006,40.854251390000286],[40.06977910400013,40.852677681000046],[40.0703381350001,40.85065675800058],[40.0698669840001,40.85041346500026],[40.07013442400006,40.849035121999975],[40.07153257099998,40.848113485000056],[40.07379044600003,40.84612580700059],[40.07438669700008,40.84623208900018],[40.074592252000116,40.84609659000057],[40.08084856200014,40.84738421200035],[40.086748038127666,40.85087588873387],[40.08681075242009,40.850977379613425],[40.08674000000019,40.85108000000025],[40.086830000000134,40.85120000000023],[40.08720000000005,40.85142000000013],[40.08719000000008,40.85186000000016],[40.08699000000007,40.852310000000045],[40.086920000000134,40.85287000000005],[40.08721000000014,40.85310000000027],[40.08705000000003,40.853360000000066],[40.08709000000016,40.85366000000056],[40.086950000000115,40.85376000000031],[40.08705000000003,40.85403000000008],[40.08674000000019,40.85432000000009],[40.08635000000004,40.85518000000019],[40.08624290707354,40.85568193910399],[40.08607665648509,40.85592540894686]]],"type":"Polygon"}},{"type":"Feature","properties":{"area_id":"TR-61-014-157059","name_tr":"Ortaköy","area_level":"neighbourhood","parent_id":"TR-61-014","endeksa_id":157059},"geometry":{"coordinates":[[[40.11580468923239,40.8573391367384],[40.11564000000004,40.8575500000004],[40.115440000000206,40.8575500000004],[40.114700000000084,40.857240000000104],[40.114920000000154,40.856890000000135],[40.11363000000017,40.85632000000038],[40.11327000000006,40.854350000000125],[40.11300000000011,40.85431000000034],[40.112630000000195,40.85374000000007],[40.11256000000009,40.85292000000044],[40.111260000000186,40.85165000000052],[40.1110700000001,40.85148000000015],[40.108910000000094,40.8510500000001],[40.108910000000094,40.850360000000364],[40.108810000000176,40.85016000000019],[40.10910000000018,40.8497900000001],[40.11023000000006,40.849150000000066],[40.10991000000024,40.848500000000115],[40.10973000000007,40.84832000000017],[40.10972000000015,40.84814000000017],[40.110080000000096,40.848070000000064],[40.110300000000166,40.8478700000004],[40.111260000000186,40.84744000000035],[40.11079000000018,40.84584000000012],[40.11004000000014,40.84431000000018],[40.11006000000003,40.84375000000057],[40.11163000000005,40.84303000000068],[40.11156000000011,40.84188000000006],[40.11125000000004,40.841750000000104],[40.111050000000034,40.841500000000565],[40.110710000000154,40.84039000000041],[40.11045000000013,40.84046000000035],[40.11045000000013,40.84030000000007],[40.11078000000009,40.83956000000012],[40.1118400000002,40.83866000000006],[40.11189000000007,40.83836000000014],[40.11159000000015,40.83776000000023],[40.111570000000086,40.83751000000012],[40.1118400000002,40.836910000000216],[40.11212000000012,40.83715000000018],[40.11410000000018,40.841210000000046],[40.11511000000007,40.8414600000001],[40.11952000000008,40.84129000000024],[40.12050000000016,40.84052000000048],[40.12320000000011,40.83981000000017],[40.12380000000019,40.83978000000036],[40.12544000000014,40.84000000000009],[40.12627000000009,40.84049000000016],[40.126540000000034,40.840760000000444],[40.12709000000007,40.84181000000012],[40.12744000000009,40.84448000000003],[40.12709000000007,40.845370000000344],[40.12727000000007,40.84539000000041],[40.126840000000186,40.84573000000029],[40.12648000000007,40.84586000000036],[40.126190000000236,40.8464400000002],[40.12580000000008,40.846800000000144],[40.125170000000196,40.84724000000017],[40.1245600000002,40.847510000000455],[40.12425000000013,40.84818000000047],[40.1234300000001,40.848590000000286],[40.123410000000035,40.84871000000027],[40.12330000000003,40.84874000000008],[40.12336000000016,40.848870000000716],[40.123250000000155,40.84892000000059],[40.12308000000013,40.84936000000005],[40.12237000000016,40.850080000000105],[40.12205000000017,40.85032000000007],[40.11993000000007,40.851230000000044],[40.11899000000011,40.85173000000003],[40.11878000000013,40.85218000000032],[40.11880000000019,40.85232000000053],[40.118450000000166,40.85263000000009],[40.11844000000008,40.85280000000046],[40.118450000000166,40.85294000000067],[40.11888000000005,40.853390000000275],[40.11875000000015,40.85357000000022],[40.118950000000154,40.85366000000056],[40.11888000000005,40.85393000000016],[40.118670000000066,40.85415000000006],[40.118420000000185,40.85419000000036],[40.11761000000013,40.85495000000071],[40.11750000000012,40.85516000000035],[40.11738000000014,40.85521000000023],[40.11734000000018,40.85578000000032],[40.116530000000125,40.856450000000336],[40.116440000000125,40.85687000000041],[40.116280000000245,40.8571300000001],[40.11580468923239,40.8573391367384]]],"type":"Polygon"}},{"type":"Feature","properties":{"area_id":"TR-61-014-157075","name_tr":"Birlik","area_level":"neighbourhood","parent_id":"TR-61-014","endeksa_id":157075},"geometry":{"coordinates":[[[40.065252312988946,40.85977744710908],[40.0652023318911,40.859618860234605],[40.064984252119075,40.85963334595425],[40.06413439500017,40.86066886900005],[40.059919683000146,40.85861536100032],[40.052431760000104,40.84874890500038],[40.05233785600018,40.848748988000295],[40.052561200000184,40.848715581000135],[40.050191026000164,40.84595420199997],[40.05146878599999,40.837745189000486],[40.0518154240001,40.837938469000164],[40.05186704700003,40.83893058600006],[40.05334829600008,40.83911480700016],[40.05405747700007,40.83918860400013],[40.05611047000019,40.835238839000056],[40.061712085000124,40.83532537000019],[40.0672579940001,40.83268981500004],[40.067889313000194,40.83307041900008],[40.0718955057539,40.83284662872023],[40.072058841689625,40.83301173632657],[40.07514055100012,40.83590288500011],[40.07598009500009,40.8377100190001],[40.07580164100011,40.83779385300011],[40.073552924000126,40.84608346900046],[40.07379044600003,40.84612580700059],[40.07153257099998,40.848113485000056],[40.07013442400006,40.849035121999975],[40.06919819800004,40.8538602830007],[40.065252312988946,40.85977744710908]]],"type":"Polygon"}},{"type":"Feature","properties":{"area_id":"TR-61-014-157037","name_tr":"Ormanseven","area_level":"neighbourhood","parent_id":"TR-61-014","endeksa_id":157037},"geometry":{"coordinates":[[[40.148383347,40.8590384830002],[40.1486231740001,40.8539548680001],[40.1484852650001,40.8534001280005],[40.1517720030002,40.847674931],[40.1513393350003,40.846612953],[40.1543715685334,40.8413700448409],[40.1543171646895,40.8408654415569],[40.1541648337566,40.840901908385],[40.1540412220181,40.8408214096671],[40.1532900560002,40.838666206],[40.1546652420001,40.8358183160005],[40.1546658205307,40.8357081634302],[40.1543151109938,40.8357132713573],[40.154257014155,40.8356225911748],[40.1539000000002,40.8338000000003],[40.1523800000002,40.8302900000003],[40.1524600000001,40.8282000000002],[40.1523300000003,40.8275000000006],[40.1528100000003,40.82692],[40.1516700000001,40.8266400000005],[40.1523700000001,40.8263000000002],[40.1521600000002,40.8258600000006],[40.1506600000002,40.8255500000004],[40.1503500000003,40.8252700000008],[40.1498100000002,40.8251200000005],[40.1494700000003,40.8240600000001],[40.1499300000002,40.8234500000007],[40.1505000000001,40.8233200000006],[40.1507700000003,40.8229400000006],[40.1509100000001,40.8221800000001],[40.1505419852074,40.8219825122999],[40.1505708027177,40.8217855842951],[40.1493211620001,40.820307348],[40.152068522,40.8189755670002],[40.1544763660001,40.8198125120001],[40.1593185710001,40.8220172300008],[40.179777293,40.8191071740009],[40.179992105307,40.8189457879419],[40.1801453511926,40.8189609988769],[40.1832000000001,40.8215500000005],[40.1862600000003,40.8220400000007],[40.1883900000002,40.8244900000002],[40.1885600000001,40.82478],[40.18915,40.8250600000003],[40.1892100000002,40.8255400000004],[40.1899900000001,40.8258900000002],[40.1904600000003,40.82595],[40.1905894674861,40.8258483749843],[40.1964753090001,40.8310186670003],[40.1965256530002,40.8320790350004],[40.197355692,40.8328473420002],[40.1972145980001,40.8344205390002],[40.1964211560002,40.8371370870003],[40.1962087130003,40.8415938010003],[40.1965208120001,40.8421562690001],[40.1963299070002,40.8442848650001],[40.1957710550001,40.8470069550007],[40.1926496940002,40.850324162],[40.193829103,40.8518998540006],[40.1937938600002,40.852798069],[40.1945751550001,40.852896581],[40.196225864,40.8551019300002],[40.1962170620002,40.8567719720001],[40.1936327090001,40.8548544940004],[40.1783232420002,40.8609149680006],[40.1719124460004,40.8628574210001],[40.1610060790001,40.864289528],[40.1567413110002,40.8654718340003],[40.1547992450003,40.8632952210001],[40.1538383450002,40.8605084210001],[40.1535130660002,40.8600198380001],[40.1511815030003,40.8595737920003],[40.148921204,40.8593164580001],[40.1488139010001,40.8591208510004],[40.148383347,40.8590384830002]]],"type":"Polygon"}},{"type":"Feature","properties":{"area_id":"TR-61-014-157053","name_tr":"Karacakaya","area_level":"neighbourhood","parent_id":"TR-61-014","endeksa_id":157053},"geometry":{"coordinates":[[[40.102861357872655,40.86245302659398],[40.102840000000185,40.86272000000042],[40.1026500000001,40.86298000000005],[40.10260000000005,40.86322000000018],[40.102090000000146,40.863920000000405],[40.101910000000146,40.86440000000033],[40.10193000000021,40.86463000000015],[40.099960000000124,40.86498000000017],[40.0996100000001,40.86516000000012],[40.09949000000012,40.86542000000014],[40.09854000000024,40.865350000000205],[40.098290000000134,40.865570000000105],[40.0974300000002,40.86559000000017],[40.09711000000004,40.86552000000006],[40.09677000000016,40.86558000000059],[40.0965300000002,40.86485000000005],[40.094690000000185,40.864580000000274],[40.093420000000094,40.864760000000274],[40.09228000000007,40.865130000000306],[40.091410000000224,40.866060000000516],[40.09121000000016,40.865930000000276],[40.09132000000005,40.86580000000032],[40.09123690345331,40.86574806465842],[40.09102000000007,40.86565000000019],[40.091160000000116,40.86564000000004],[40.09140000000008,40.86545000000035],[40.09115000000003,40.865310000000306],[40.09131000000008,40.86530000000016],[40.09123000000005,40.865200000000414],[40.0913700000001,40.86509000000018],[40.0912800000001,40.865040000000135],[40.09142000000014,40.86483000000038],[40.09108000000009,40.86474000000004],[40.0912800000001,40.86465000000038],[40.09118000000018,40.86465000000038],[40.091220000000135,40.86456000000004],[40.090420000000165,40.864540000000375],[40.08971000000008,40.86436000000003],[40.089770000000044,40.86432000000008],[40.08960000000019,40.86428000000035],[40.089460000000145,40.86412000000007],[40.08961000000011,40.86372000000017],[40.089520000000164,40.86351000000019],[40.089550000000145,40.86325000000039],[40.08988000000011,40.862620000000106],[40.089670000000126,40.862030000000345],[40.08996000000013,40.861110000000224],[40.08992000000018,40.86096000000009],[40.08892000000026,40.86013000000014],[40.08847000000014,40.859930000000645],[40.088250000000244,40.85954000000038],[40.087940000000174,40.85941000000025],[40.0871600000001,40.85871000000009],[40.086910000000216,40.85823000000016],[40.08643000000012,40.858130000000244],[40.08603000000005,40.85766000000041],[40.08561000000009,40.8565300000007],[40.08607665648509,40.85592540894686],[40.08624290707354,40.85568193910399],[40.08635000000004,40.85518000000019],[40.08674000000019,40.85432000000009],[40.08705000000003,40.85403000000008],[40.086950000000115,40.85376000000031],[40.08709000000016,40.85366000000056],[40.08705000000003,40.853360000000066],[40.08721000000014,40.85310000000027],[40.086920000000134,40.85287000000005],[40.08699000000007,40.852310000000045],[40.08719000000008,40.85186000000016],[40.08720000000005,40.85142000000013],[40.086830000000134,40.85120000000023],[40.08674000000019,40.85108000000025],[40.08681075242009,40.850977379613425],[40.086748038127666,40.85087588873387],[40.086894219000044,40.85096239500001],[40.08756482200005,40.85014173500036],[40.087790000000155,40.849420000000066],[40.08852000000019,40.84898000000004],[40.08913000000018,40.84814000000017],[40.08948000000004,40.84780000000029],[40.08971000000008,40.847760000000164],[40.090540000000146,40.84789000000012],[40.09149000000008,40.84780000000029],[40.091440000000034,40.84743000000026],[40.09176000000019,40.84724000000017],[40.09211000000005,40.846670000000586],[40.09257497403388,40.846690819733],[40.09350561705571,40.84631426520963],[40.09386000000006,40.84660000000048],[40.09436000000005,40.84665000000035],[40.09449000000012,40.846800000000144],[40.09480000000019,40.846760000000245],[40.095650000000035,40.84716000000009],[40.09572000000014,40.84710000000064],[40.09617000000026,40.847290000000044],[40.09650000000016,40.84765000000016],[40.096550000000036,40.84781000000004],[40.09642000000014,40.8484000000002],[40.09557000000012,40.8489100000001],[40.09583000000015,40.8494400000003],[40.09654000000012,40.8492200000004],[40.09700000000015,40.8489100000001],[40.09814000000017,40.84903000000031],[40.102100000000064,40.8470800000004],[40.10447000000005,40.84678000000031],[40.105480000000114,40.84582000000006],[40.1059800000001,40.846020000000124],[40.10771000000011,40.84643000000062],[40.1081200000001,40.84685000000019],[40.10917000000012,40.847260000000404],[40.110300000000166,40.8478700000004],[40.110080000000096,40.848070000000064],[40.10972000000015,40.84814000000017],[40.10973000000007,40.84832000000017],[40.10991000000024,40.848500000000115],[40.11023000000006,40.849150000000066],[40.10910000000018,40.8497900000001],[40.108810000000176,40.85016000000019],[40.108910000000094,40.850360000000364],[40.108910000000094,40.8510500000001],[40.10867000000013,40.85148000000015],[40.10775000000018,40.8522200000001],[40.10763000000003,40.85260000000028],[40.10763000000003,40.853200000000186],[40.107700000000136,40.853550000000155],[40.10791000000012,40.853950000000395],[40.1079000000002,40.85427000000004],[40.10681000000005,40.85458000000011],[40.10670000000016,40.854760000000624],[40.10689000000008,40.8561200000002],[40.10555000000005,40.85692000000029],[40.10619000000008,40.8578500000005],[40.10629000000017,40.85854000000006],[40.105870000000095,40.858820000000094],[40.1047700000002,40.85905000000031],[40.104300000000194,40.85935000000029],[40.103800000000035,40.8601000000005],[40.10374000000007,40.8603700000001],[40.103550000000155,40.86066000000011],[40.1035100000002,40.8610700000001],[40.10272000000003,40.86162000000036],[40.10288000000014,40.862220000000036],[40.102861357872655,40.86245302659398]]],"type":"Polygon"}},{"type":"Feature","properties":{"area_id":"TR-61-014-157045","name_tr":"Çiftesu","area_level":"neighbourhood","parent_id":"TR-61-014","endeksa_id":157045},"geometry":{"coordinates":[[[40.11580468923239,40.8573391367384],[40.116090537000105,40.85757342200003],[40.11570886200002,40.858286363000275],[40.10999481500005,40.86614567300023],[40.10912372399997,40.87031075100009],[40.109177467999984,40.87040719200013],[40.10428584200008,40.867302479000045],[40.102797687000134,40.86424009700016],[40.103569485000094,40.86249848300008],[40.103453456000125,40.862418313000205],[40.10340876300012,40.862214142000084],[40.10332433600013,40.86232179200016],[40.102861357872655,40.86245302659398],[40.10288000000014,40.862220000000036],[40.10272000000003,40.86162000000036],[40.1035100000002,40.8610700000001],[40.103550000000155,40.86066000000011],[40.10374000000007,40.8603700000001],[40.103800000000035,40.8601000000005],[40.104300000000194,40.85935000000029],[40.1047700000002,40.85905000000031],[40.105870000000095,40.858820000000094],[40.10629000000017,40.85854000000006],[40.10619000000008,40.8578500000005],[40.10555000000005,40.85692000000029],[40.10689000000008,40.8561200000002],[40.10670000000016,40.854760000000624],[40.10681000000005,40.85458000000011],[40.1079000000002,40.85427000000004],[40.10791000000012,40.853950000000395],[40.107700000000136,40.853550000000155],[40.10763000000003,40.853200000000186],[40.10763000000003,40.85260000000028],[40.10775000000018,40.8522200000001],[40.10867000000013,40.85148000000015],[40.108910000000094,40.8510500000001],[40.1110700000001,40.85148000000015],[40.111260000000186,40.85165000000052],[40.11256000000009,40.85292000000044],[40.112630000000195,40.85374000000007],[40.11300000000011,40.85431000000034],[40.11327000000006,40.854350000000125],[40.11363000000017,40.85632000000038],[40.114920000000154,40.856890000000135],[40.114700000000084,40.857240000000104],[40.115440000000206,40.8575500000004],[40.11564000000004,40.8575500000004],[40.11580468923239,40.8573391367384]]],"type":"Polygon"}},{"type":"Feature","properties":{"area_id":"TR-61-014-157043","name_tr":"Aksu","area_level":"neighbourhood","parent_id":"TR-61-014","endeksa_id":157043},"geometry":{"coordinates":[[[40.11809743800012,40.873688310000034],[40.11797472500001,40.87380027900031],[40.117747838000184,40.87378641500004],[40.11585306800009,40.875317735000124],[40.11465763400008,40.87535004500046],[40.11343147800011,40.87595720800016],[40.11346370400008,40.87586361800004],[40.11213474900018,40.871999618000075],[40.109177467999984,40.87040719200013],[40.10912372399997,40.87031075100009],[40.10999481500005,40.86614567300023],[40.11570886200002,40.858286363000275],[40.116090537000105,40.85757342200003],[40.11580468923239,40.8573391367384],[40.116280000000245,40.8571300000001],[40.116440000000125,40.85687000000041],[40.116530000000125,40.856450000000336],[40.11734000000018,40.85578000000032],[40.11738000000014,40.85521000000023],[40.11750000000012,40.85516000000035],[40.11761000000013,40.85495000000071],[40.118420000000185,40.85419000000036],[40.118670000000066,40.85415000000006],[40.11888000000005,40.85393000000016],[40.118950000000154,40.85366000000056],[40.11875000000015,40.85357000000022],[40.11888000000005,40.853390000000275],[40.118450000000166,40.85294000000067],[40.11844000000008,40.85280000000046],[40.118450000000166,40.85263000000009],[40.11880000000019,40.85232000000053],[40.11878000000013,40.85218000000032],[40.11899000000011,40.85173000000003],[40.11993000000007,40.851230000000044],[40.12205000000017,40.85032000000007],[40.12237000000016,40.850080000000105],[40.12308000000013,40.84936000000005],[40.123250000000155,40.84892000000059],[40.12336000000016,40.848870000000716],[40.12330000000003,40.84874000000008],[40.123410000000035,40.84871000000027],[40.1234300000001,40.848590000000286],[40.12425000000013,40.84818000000047],[40.1245600000002,40.847510000000455],[40.125170000000196,40.84724000000017],[40.12580000000008,40.846800000000144],[40.126190000000236,40.8464400000002],[40.12648000000007,40.84586000000036],[40.126840000000186,40.84573000000029],[40.12727000000007,40.84539000000041],[40.1288100000001,40.84455000000014],[40.129040000000145,40.84427000000028],[40.12934000000007,40.84423000000049],[40.12964000000005,40.844070000000045],[40.12971000000016,40.84411000000051],[40.129780000000096,40.8439700000003],[40.130220000000065,40.84368000000046],[40.1305900000001,40.84309000000013],[40.13072000000005,40.84263000000027],[40.13058000000018,40.84220000000022],[40.130660000000205,40.84198000000049],[40.13135000000011,40.841250000000116],[40.131550000000175,40.84065000000004],[40.13272000000012,40.83971000000025],[40.13367000000005,40.839450000000056],[40.13542000000007,40.839450000000056],[40.13742000000019,40.83999000000017],[40.13956000000013,40.84020000000032],[40.14155000000011,40.84024000000005],[40.14420000000018,40.84071000000006],[40.14455000000021,40.83969000000019],[40.144960000000026,40.83912000000032],[40.145620000000065,40.83861000000019],[40.14619000000016,40.83831000000026],[40.14694000000003,40.83810000000062],[40.14737000000008,40.83823000000018],[40.148130000000094,40.837940000000174],[40.14820000000003,40.83783000000034],[40.1485100000001,40.83770000000021],[40.14895000000007,40.837590000000375],[40.14943000000022,40.83730000000037],[40.14976000000013,40.83726000000007],[40.1501600000002,40.83687000000032],[40.15013000000005,40.836760000000595],[40.15028000000018,40.83655000000027],[40.150330000000054,40.836200000000304],[40.15072000000015,40.83594000000028],[40.152900000000045,40.83553000000029],[40.1537100000001,40.83563000000021],[40.1538000000001,40.83549000000016],[40.15425701415501,40.8356225911748],[40.154315110993764,40.83571327135712],[40.15466582053074,40.83570816343024],[40.15476934982843,40.835590775854826],[40.154815272000064,40.83569924100016],[40.15376751300016,40.83576195699999],[40.153776623000056,40.835846529000094],[40.154665242000135,40.835818316000484],[40.15329005600017,40.83866620600003],[40.15404122201812,40.840821409667114],[40.15416483375657,40.840901908385035],[40.1543171646893,40.8408654415569],[40.154371568533406,40.84137004484069],[40.15248015819304,40.84464046751896],[40.15242688645884,40.844487118564075],[40.15222203815108,40.844492187567084],[40.151514765000115,40.84499292000038],[40.15128018250431,40.84533834255603],[40.14744923426315,40.84756780609547],[40.14056233800011,40.851936540000054],[40.13917072600009,40.855760198999974],[40.134475807,40.857949442000006],[40.13635262600013,40.85907265600008],[40.13639546300004,40.859172068000134],[40.13268684600007,40.86057192400011],[40.13289407700006,40.86300395400008],[40.12877182700004,40.86350589600022],[40.12753692300004,40.86202473800006],[40.12733247900013,40.862020348000044],[40.12657047900018,40.862970483000595],[40.12428787900012,40.86910335099998],[40.11954715600018,40.871868726000116],[40.11809743800012,40.873688310000034]]],"type":"Polygon"}},{"type":"Feature","properties":{"area_id":"TR-61-014-157049","name_tr":"Gültepe","area_level":"neighbourhood","parent_id":"TR-61-014","endeksa_id":157049},"geometry":{"coordinates":[[[40.09123690345331,40.86574806465842],[40.09117072300006,40.86576682400005],[40.09070668400011,40.86795264099999],[40.09075169099998,40.867895694000026],[40.092057954000154,40.870127749000005],[40.09006966700008,40.874230714000305],[40.08777478999997,40.876547823000124],[40.085357085000055,40.877501673000495],[40.078795799000034,40.876759064000055],[40.07650959600011,40.87750059100023],[40.07219845700001,40.87713579399997],[40.07007226300016,40.87616409500049],[40.06430877600013,40.87646819100007],[40.06321681967336,40.87637574707378],[40.064067270000066,40.87065019500011],[40.06259076000009,40.866847889999974],[40.064887396000074,40.864041148000126],[40.06448071300008,40.86093452200009],[40.06919819800004,40.8538602830007],[40.0698669840001,40.85041346500026],[40.0703381350001,40.85065675800058],[40.06977910400013,40.852677681000046],[40.07469351300006,40.854251390000286],[40.08632692600008,40.85407514100018],[40.08577165591595,40.85584389663603],[40.085879879105505,40.85597608334365],[40.08607665648509,40.85592540894686],[40.08561000000009,40.8565300000007],[40.08603000000005,40.85766000000041],[40.08643000000012,40.858130000000244],[40.086910000000216,40.85823000000016],[40.0871600000001,40.85871000000009],[40.087940000000174,40.85941000000025],[40.088250000000244,40.85954000000038],[40.08847000000014,40.859930000000645],[40.08892000000026,40.86013000000014],[40.08992000000018,40.86096000000009],[40.08996000000013,40.861110000000224],[40.089670000000126,40.862030000000345],[40.08988000000011,40.862620000000106],[40.089550000000145,40.86325000000039],[40.089520000000164,40.86351000000019],[40.08961000000011,40.86372000000017],[40.089460000000145,40.86412000000007],[40.08960000000019,40.86428000000035],[40.089770000000044,40.86432000000008],[40.08971000000008,40.86436000000003],[40.090420000000165,40.864540000000375],[40.091220000000135,40.86456000000004],[40.09118000000018,40.86465000000038],[40.0912800000001,40.86465000000038],[40.09108000000009,40.86474000000004],[40.09142000000014,40.86483000000038],[40.0912800000001,40.865040000000135],[40.0913700000001,40.86509000000018],[40.09123000000005,40.865200000000414],[40.09131000000008,40.86530000000016],[40.09115000000003,40.865310000000306],[40.09140000000008,40.86545000000035],[40.091160000000116,40.86564000000004],[40.09102000000007,40.86565000000019],[40.09123690345331,40.86574806465842]]],"type":"Polygon"}},{"type":"Feature","properties":{"area_id":"TR-61-014-157047","name_tr":"Dirlik","area_level":"neighbourhood","parent_id":"TR-61-014","endeksa_id":157047},"geometry":{"coordinates":[[[40.14057299400014,40.87889906400005],[40.13672943300014,40.879256397000006],[40.13462262100012,40.87842468300016],[40.134656830000154,40.87809788500044],[40.134580985000184,40.87802448500008],[40.13071334500012,40.8769346710003],[40.13092359600017,40.87591068900031],[40.128888808000056,40.874200263000034],[40.127882503000194,40.8717812090004],[40.126762730000166,40.87202321400008],[40.125584107000066,40.87183652400063],[40.12493934700001,40.87100077500031],[40.12479987000012,40.87095959900046],[40.12423743400012,40.87139378500018],[40.12247166300011,40.871768339000084],[40.1221159800001,40.87204579799999],[40.12197817200007,40.87270978100014],[40.12141800000006,40.873340086000155],[40.12017235600007,40.87350176300015],[40.120178679000105,40.873611690000246],[40.120603758000016,40.87395864900009],[40.12054950800018,40.87408927600018],[40.11818375799999,40.8738365590001],[40.11809743800012,40.873688310000034],[40.11954715600018,40.871868726000116],[40.12428787900012,40.86910335099998],[40.12657047900018,40.862970483000595],[40.12733247900013,40.862020348000044],[40.12753692300004,40.86202473800006],[40.12877182700004,40.86350589600022],[40.13289407700006,40.86300395400008],[40.13268684600007,40.86057192400011],[40.13639546300004,40.859172068000134],[40.13635262600013,40.85907265600008],[40.134475807,40.857949442000006],[40.13917072600009,40.855760198999974],[40.14056233800011,40.851936540000054],[40.14744923426315,40.84756780609547],[40.15128018250431,40.84533834255603],[40.151514765000115,40.84499292000038],[40.15222203815108,40.844492187567084],[40.15242688645884,40.844487118564075],[40.15248015819304,40.84464046751896],[40.15133933500016,40.84661295300003],[40.151772003000076,40.84767493099997],[40.14848526500009,40.853400128000374],[40.14862317400008,40.85395486800007],[40.14838334699999,40.85903848300018],[40.148813901000096,40.8591208510004],[40.14892120400003,40.85931645800014],[40.15118150300009,40.85957379200016],[40.15351306600019,40.860019838000085],[40.15383834500017,40.860508421000134],[40.154799245000106,40.8632952210001],[40.15674131100019,40.865471834000346],[40.154052782000065,40.86621716500014],[40.1530643370001,40.86686409000043],[40.15292196200011,40.866858170000114],[40.152870663000044,40.866760839000506],[40.15277537400004,40.8670560000005],[40.14993529300017,40.868921214000466],[40.14172133300019,40.87305198500002],[40.138339914000085,40.87574013900007],[40.138349696000034,40.87588296000041],[40.14007440100016,40.87735348900031],[40.140575925000064,40.878650917000186],[40.14057299400014,40.87889906400005]]],"type":"Polygon"}},{"type":"Feature","properties":{"area_id":"TR-61-014-80128","name_tr":"Üstündal","area_level":"neighbourhood","parent_id":"TR-61-014","endeksa_id":80128},"geometry":{"coordinates":[[[40.13462262100012,40.87842468300016],[40.13422728600017,40.88170783100003],[40.13330787600012,40.882099287000074],[40.13318648100011,40.88253590300047],[40.13245577400011,40.88325038400035],[40.13151778600013,40.88377764000063],[40.131592578000095,40.883910606000086],[40.13207676400003,40.883933412000374],[40.13208350000008,40.884089152000115],[40.129939350000086,40.88455105500009],[40.12697471700005,40.886216756000294],[40.12638852300006,40.88673675500024],[40.126388438000106,40.88686417300016],[40.12680353800016,40.887101563000044],[40.12652449100011,40.88739195200003],[40.12686684099998,40.88834744800005],[40.12614445800017,40.88785324100007],[40.12506318000004,40.887926467000625],[40.11932584300007,40.886372337000466],[40.11761518800006,40.88614826800017],[40.1174938100001,40.88619757000015],[40.11749767000009,40.886301381000635],[40.11727740400016,40.886103431000095],[40.114888466000025,40.8857390230001],[40.11478485600014,40.885776933000045],[40.114458046000095,40.88313692300011],[40.11436164700007,40.883005263000086],[40.114415024000095,40.882791888999975],[40.114273225000034,40.881654679000064],[40.11340557200009,40.880747415000144],[40.11382730300005,40.87955647000007],[40.11311306300013,40.87885162100014],[40.11296549000008,40.87635872400034],[40.11343147800011,40.87595720800016],[40.11465763400008,40.87535004500046],[40.11585306800009,40.875317735000124],[40.117747838000184,40.87378641500004],[40.11797472500001,40.87380027900031],[40.11809743800012,40.873688310000034],[40.11818375799999,40.8738365590001],[40.12054950800018,40.87408927600018],[40.120603758000016,40.87395864900009],[40.120178679000105,40.873611690000246],[40.12017235600007,40.87350176300015],[40.12141800000006,40.873340086000155],[40.12197817200007,40.87270978100014],[40.1221159800001,40.87204579799999],[40.12247166300011,40.871768339000084],[40.12423743400012,40.87139378500018],[40.12479987000012,40.87095959900046],[40.12493934700001,40.87100077500031],[40.125584107000066,40.87183652400063],[40.126762730000166,40.87202321400008],[40.127882503000194,40.8717812090004],[40.128888808000056,40.874200263000034],[40.13092359600017,40.87591068900031],[40.13071334500012,40.8769346710003],[40.134580985000184,40.87802448500008],[40.134656830000154,40.87809788500044],[40.13462262100012,40.87842468300016]]],"type":"Polygon"}},{"type":"Feature","properties":{"area_id":"TR-61-014-157065","name_tr":"Yokuşbaşı","area_level":"neighbourhood","parent_id":"TR-61-014","endeksa_id":157065},"geometry":{"coordinates":[[[40.11436164700007,40.883005263000086],[40.11370760599999,40.883018788000186],[40.11405640700019,40.8857018540005],[40.11222348100006,40.89068694100041],[40.106707626000116,40.886900790000084],[40.10668177299999,40.88453966100053],[40.10518537200011,40.88260755800013],[40.104997458000184,40.88259849000008],[40.10062899600007,40.87696539900003],[40.09393126200007,40.876725996000175],[40.08748324000004,40.87971102500069],[40.087130302000105,40.881736329000034],[40.08692104600004,40.881726232000176],[40.08643338600018,40.88356792000019],[40.08573039400011,40.88187690100011],[40.08335493000004,40.88079182300004],[40.08237293000013,40.88044340700003],[40.082087201000036,40.88133770000019],[40.079243528000006,40.878561775000094],[40.08084068700009,40.878735665000136],[40.08077734200009,40.87866715600006],[40.08731044700005,40.87911840500033],[40.087447287000145,40.87900028800004],[40.08675009700005,40.877660439000124],[40.085357085000055,40.877501673000495],[40.08777478999997,40.876547823000124],[40.09006966700008,40.874230714000305],[40.092057954000154,40.870127749000005],[40.09075169099998,40.867895694000026],[40.09070668400011,40.86795264099999],[40.09117072300006,40.86576682400005],[40.09123690345331,40.86574806465842],[40.09132000000005,40.86580000000032],[40.09121000000016,40.865930000000276],[40.091410000000224,40.866060000000516],[40.09228000000007,40.865130000000306],[40.093420000000094,40.864760000000274],[40.094690000000185,40.864580000000274],[40.0965300000002,40.86485000000005],[40.09677000000016,40.86558000000059],[40.09711000000004,40.86552000000006],[40.0974300000002,40.86559000000017],[40.098290000000134,40.865570000000105],[40.09854000000024,40.865350000000205],[40.09949000000012,40.86542000000014],[40.0996100000001,40.86516000000012],[40.099960000000124,40.86498000000017],[40.10193000000021,40.86463000000015],[40.101910000000146,40.86440000000033],[40.102090000000146,40.863920000000405],[40.10260000000005,40.86322000000018],[40.1026500000001,40.86298000000005],[40.102840000000185,40.86272000000042],[40.102861357872655,40.86245302659398],[40.10332433600013,40.86232179200016],[40.10340876300012,40.862214142000084],[40.103453456000125,40.862418313000205],[40.103569485000094,40.86249848300008],[40.102797687000134,40.86424009700016],[40.10428584200008,40.867302479000045],[40.109177467999984,40.87040719200013],[40.11213474900018,40.871999618000075],[40.11346370400008,40.87586361800004],[40.11343147800011,40.87595720800016],[40.11296549000008,40.87635872400034],[40.11311306300013,40.87885162100014],[40.11382730300005,40.87955647000007],[40.11340557200009,40.880747415000144],[40.114273225000034,40.881654679000064],[40.114415024000095,40.882791888999975],[40.11436164700007,40.883005263000086]]],"type":"Polygon"}},{"type":"Feature","properties":{"area_id":"TR-61-014-157063","name_tr":"Üzümlü","area_level":"neighbourhood","parent_id":"TR-61-014","endeksa_id":157063},"geometry":{"coordinates":[[[40.082036268000024,40.881385047000094],[40.078558978000046,40.881453248000184],[40.0797004530001,40.88414708500005],[40.074838678000106,40.88636005700016],[40.06908335700001,40.8861511930001],[40.06510539700008,40.89036751600054],[40.06430530900013,40.89048832600008],[40.06399777800016,40.89077005300004],[40.06019269000012,40.891109314999994],[40.05702668582609,40.89158736817217],[40.057004757063794,40.891450797157574],[40.05683205300011,40.891408949000095],[40.05559476000013,40.890296983000155],[40.06224556700005,40.8765770510002],[40.062859925000055,40.876485693999996],[40.06301689996019,40.87630303081232],[40.06321681967336,40.87637574707378],[40.06430877600013,40.87646819100007],[40.07007226300016,40.87616409500049],[40.07219845700001,40.87713579399997],[40.07650959600011,40.87750059100023],[40.078795799000034,40.876759064000055],[40.08675009700005,40.877660439000124],[40.087447287000145,40.87900028800004],[40.08731044700005,40.87911840500033],[40.08077734200009,40.87866715600006],[40.08084068700009,40.878735665000136],[40.079243528000006,40.878561775000094],[40.082087201000036,40.88133770000019],[40.082036268000024,40.881385047000094]]],"type":"Polygon"}},{"type":"Feature","properties":{"area_id":"TR-61-014-157057","name_tr":"Muratlı","area_level":"neighbourhood","parent_id":"TR-61-014","endeksa_id":157057},"geometry":{"coordinates":[[[40.10684485655571,40.90270134779024],[40.106507006001095,40.90277679558136],[40.106312039599516,40.902555871872835],[40.10623753500005,40.903826447000085],[40.10400465500004,40.904745997000134],[40.10146427700016,40.9037488310006],[40.10114507900005,40.90386887900058],[40.097548096000025,40.90276557600015],[40.09560029800019,40.90136951300019],[40.09347546100014,40.90050735800003],[40.08643338600018,40.88356792000019],[40.08692104600004,40.881726232000176],[40.087130302000105,40.881736329000034],[40.08748324000004,40.87971102500069],[40.09393126200007,40.876725996000175],[40.10062899600007,40.87696539900003],[40.104997458000184,40.88259849000008],[40.10518537200011,40.88260755800013],[40.10668177299999,40.88453966100053],[40.106707626000116,40.886900790000084],[40.11222348100006,40.89068694100041],[40.11405640700019,40.8857018540005],[40.11370760599999,40.883018788000186],[40.11436164700007,40.883005263000086],[40.114458046000095,40.88313692300011],[40.11478485600014,40.885776933000045],[40.114888466000025,40.8857390230001],[40.11311345800004,40.89081273300019],[40.10969147100019,40.89209961600068],[40.10741789300016,40.896153176000155],[40.107019958000194,40.90266242000018],[40.10684485655571,40.90270134779024]]],"type":"Polygon"}},{"type":"Feature","properties":{"area_id":"TR-61-014-157067","name_tr":"Yukarıçavuşlu","area_level":"neighbourhood","parent_id":"TR-61-014","endeksa_id":157067},"geometry":{"coordinates":[[[40.08871964200017,40.90680705700015],[40.08580601800014,40.90730945200005],[40.084090944000025,40.90727116600027],[40.08316376600004,40.90604567800011],[40.081679945000076,40.90539871600009],[40.08169888000015,40.905289610000125],[40.082149512000115,40.90500512900013],[40.082128945000136,40.90449470200008],[40.08148033700007,40.90377916300008],[40.08163960400003,40.902542162000145],[40.08149425800008,40.90247849200006],[40.0812389780001,40.90260017800017],[40.081295172000125,40.90236052100016],[40.080919072000086,40.90217022400009],[40.07983620900012,40.899657048000165],[40.079879219000134,40.899356436000346],[40.079390428000124,40.89911155200019],[40.078505201000155,40.89904140600004],[40.07826712600007,40.89876257600008],[40.07834980400014,40.897937678000005],[40.07843945000013,40.89794525400015],[40.078356237000094,40.89789721800008],[40.078429204000145,40.897569523000016],[40.078531605000194,40.897526571000014],[40.07844315300014,40.89750687600008],[40.07849359100004,40.897280362000345],[40.07858153700005,40.8972997190001],[40.07862981900013,40.897080361000405],[40.078542410000125,40.89706112100009],[40.078617861000055,40.89672227100044],[40.07871787100015,40.89668032100019],[40.07863148400003,40.896661085000176],[40.07872617600003,40.8966425910001],[40.07882018900011,40.89621546799998],[40.078734889000145,40.89619669300015],[40.07880533000019,40.89588034400015],[40.07890413700011,40.895834070000035],[40.07881981500003,40.89581529400027],[40.07898059000013,40.895093254000074],[40.079090403000066,40.89498782000055],[40.07900814600009,40.89496950400013],[40.07915647800013,40.89430334500014],[40.079276669000194,40.89414156900011],[40.07919647600005,40.894123713000056],[40.07933299500007,40.89351061000036],[40.079462936000084,40.89329531800013],[40.07938480700011,40.89327792100005],[40.07964920200004,40.89244906800013],[40.07957313700001,40.89243213100002],[40.07983546800017,40.89160281699998],[40.07976146800007,40.89158634000012],[40.07988977400004,40.891010121000136],[40.07996240600016,40.891026108000176],[40.07997092400018,40.89064567700001],[40.080082255000036,40.89014569300002],[40.08015277600015,40.89016121500043],[40.08015864900017,40.88980260799997],[40.08027473600009,40.88928126400003],[40.080343146000075,40.88929632200001],[40.080346373000054,40.88895954000003],[40.080467216000045,40.88841683600043],[40.08053351500007,40.88843142900066],[40.08053409700017,40.88811647300054],[40.08065969600017,40.887552407000044],[40.080723885000054,40.88756653500019],[40.080721821000054,40.887273404000325],[40.08085217700017,40.886687978000054],[40.08091425500015,40.886701642000446],[40.08090713199999,40.88644117600006],[40.081044657999996,40.88582355000062],[40.081104624000034,40.88583674900002],[40.08108849500019,40.88562667900004],[40.08123713900005,40.884959121000065],[40.08129499400013,40.88497185500023],[40.081270289000145,40.88481024200013],[40.081452517000116,40.883991860000094],[40.081511864000106,40.88398656200019],[40.08145644399997,40.883974222000006],[40.081622100000175,40.88323026400013],[40.08167573300011,40.88324206900046],[40.082036268000024,40.881385047000094],[40.082087201000036,40.88133770000019],[40.08237293000013,40.88044340700003],[40.08335493000004,40.88079182300004],[40.08573039400011,40.88187690100011],[40.095100919000174,40.90441733200004],[40.09535610200004,40.90555582400009],[40.09525867700006,40.90567953600021],[40.08871964200017,40.90680705700015]]],"type":"Polygon"}},{"type":"Feature","properties":{"area_id":"TR-61-014-157061","name_tr":"Petekli","area_level":"neighbourhood","parent_id":"TR-61-014","endeksa_id":157061},"geometry":{"coordinates":[[[40.07834980400014,40.897937678000005],[40.07818965000007,40.89799277900005],[40.077791718000185,40.89704841400015],[40.077188693000096,40.89719443700011],[40.07409420400012,40.901071555000044],[40.07104755800009,40.90177375500025],[40.067711776000124,40.90609541400033],[40.06760934100009,40.906127322000486],[40.066699526000036,40.90740683000013],[40.06676220500003,40.908079088000136],[40.06616513400007,40.90945471600014],[40.06708133000001,40.911501818000374],[40.06434627200002,40.911926789999995],[40.06007096000013,40.9060541960003],[40.05671160600019,40.90683809800032],[40.055488872000126,40.901008714000454],[40.05603521900008,40.90116645200004],[40.054453866000074,40.89607432400021],[40.05544414400015,40.895731265000336],[40.05577955300009,40.89485293800004],[40.056371388000116,40.89452106700003],[40.05702668582609,40.89158736817217],[40.06019269000012,40.891109314999994],[40.06399777800016,40.89077005300004],[40.06430530900013,40.89048832600008],[40.06510539700008,40.89036751600054],[40.06908335700001,40.8861511930001],[40.074838678000106,40.88636005700016],[40.0797004530001,40.88414708500005],[40.078558978000046,40.881453248000184],[40.082036268000024,40.881385047000094],[40.08167573300011,40.88324206900046],[40.081622100000175,40.88323026400013],[40.08145644399997,40.883974222000006],[40.081511864000106,40.88398656200019],[40.081452517000116,40.883991860000094],[40.081270289000145,40.88481024200013],[40.08129499400013,40.88497185500023],[40.08123713900005,40.884959121000065],[40.08108849500019,40.88562667900004],[40.081104624000034,40.88583674900002],[40.081044657999996,40.88582355000062],[40.08090713199999,40.88644117600006],[40.08091425500015,40.886701642000446],[40.08085217700017,40.886687978000054],[40.080721821000054,40.887273404000325],[40.080723885000054,40.88756653500019],[40.08065969600017,40.887552407000044],[40.08053409700017,40.88811647300054],[40.08053351500007,40.88843142900066],[40.080467216000045,40.88841683600043],[40.080346373000054,40.88895954000003],[40.080343146000075,40.88929632200001],[40.08027473600009,40.88928126400003],[40.08015864900017,40.88980260799997],[40.08015277600015,40.89016121500043],[40.080082255000036,40.89014569300002],[40.07997092400018,40.89064567700001],[40.07996240600016,40.891026108000176],[40.07988977400004,40.891010121000136],[40.07976146800007,40.89158634000012],[40.07983546800017,40.89160281699998],[40.07957313700001,40.89243213100002],[40.07964920200004,40.89244906800013],[40.07938480700011,40.89327792100005],[40.079462936000084,40.89329531800013],[40.07933299500007,40.89351061000036],[40.07919647600005,40.894123713000056],[40.079276669000194,40.89414156900011],[40.07915647800013,40.89430334500014],[40.07900814600009,40.89496950400013],[40.079090403000066,40.89498782000055],[40.07898059000013,40.895093254000074],[40.07881981500003,40.89581529400027],[40.07890413700011,40.895834070000035],[40.07880533000019,40.89588034400015],[40.078734889000145,40.89619669300015],[40.07882018900011,40.89621546799998],[40.07872617600003,40.8966425910001],[40.07863148400003,40.896661085000176],[40.07871787100015,40.89668032100019],[40.078617861000055,40.89672227100044],[40.078542410000125,40.89706112100009],[40.07862981900013,40.897080361000405],[40.07858153700005,40.8972997190001],[40.07849359100004,40.897280362000345],[40.07844315300014,40.89750687600008],[40.078531605000194,40.897526571000014],[40.078429204000145,40.897569523000016],[40.078356237000094,40.89789721800008],[40.07843945000013,40.89794525400015],[40.07834980400014,40.897937678000005]]],"type":"Polygon"}},{"type":"Feature","properties":{"area_id":"TR-61-014-80126","name_tr":"Orta","area_level":"neighbourhood","parent_id":"TR-61-014","endeksa_id":80126},"geometry":{"coordinates":[[[40.13972536000017,40.89171690800009],[40.13745827900004,40.89424174300001],[40.137196392000135,40.894666273000325],[40.13383977900014,40.89815812100005],[40.1321320830001,40.902927770000076],[40.129660772000136,40.90411100900019],[40.130342909000035,40.90684625900019],[40.129740317000085,40.90819541000036],[40.129665069000055,40.90859192000016],[40.12869623099999,40.91064658700003],[40.12877042500014,40.91141088800049],[40.12951381000005,40.91200415700064],[40.12882319500005,40.91195449000003],[40.12889190100003,40.912776426000164],[40.12408707900005,40.912614546999976],[40.1241166800001,40.912121450000484],[40.12439885599997,40.91209629900027],[40.12441638400003,40.911637567000184],[40.123346796000135,40.91156064600011],[40.122628771000166,40.90857676300038],[40.125096443000075,40.90575211100008],[40.12652959800005,40.89992136400019],[40.12386009600016,40.892341149000174],[40.12564470300015,40.887887085000386],[40.12614445800017,40.88785324100007],[40.12686684099998,40.88834744800005],[40.12652449100011,40.88739195200003],[40.12680353800016,40.887101563000044],[40.126388438000106,40.88686417300016],[40.12638852300006,40.88673675500024],[40.12697471700005,40.886216756000294],[40.129939350000086,40.88455105500009],[40.13208350000008,40.884089152000115],[40.13207676400003,40.883933412000374],[40.131592578000095,40.883910606000086],[40.13151778600013,40.88377764000063],[40.13245577400011,40.88325038400035],[40.13318648100011,40.88253590300047],[40.13330787600012,40.882099287000074],[40.13422728600017,40.88170783100003],[40.13462262100012,40.87842468300016],[40.13672943300014,40.879256397000006],[40.14057299400014,40.87889906400005],[40.14054919400007,40.88091414600012],[40.13935509100014,40.88363669900025],[40.13914741800011,40.88618414800044],[40.13859732800006,40.8890409720002],[40.13860235800013,40.88956428900025],[40.13972536000017,40.89171690800009]]],"type":"Polygon"}},{"type":"Feature","properties":{"area_id":"TR-61-014-80124","name_tr":"Çamlıca","area_level":"neighbourhood","parent_id":"TR-61-014","endeksa_id":80124},"geometry":{"coordinates":[[[40.12408707900005,40.912614546999976],[40.12328923000018,40.912810382000146],[40.120919253000125,40.91286775000009],[40.11908365800019,40.91349888700017],[40.118884682999976,40.91346258400006],[40.11896525700007,40.912881248000645],[40.11889219600016,40.912343264000185],[40.119006984000066,40.91230233800053],[40.11701980800018,40.9058578070003],[40.11954864900002,40.90033454400009],[40.11854586100003,40.89440680900003],[40.12209603500014,40.89182182400043],[40.12361132000018,40.88753318700009],[40.12506318000004,40.887926467000625],[40.12564470300015,40.887887085000386],[40.12386009600016,40.892341149000174],[40.12652959800005,40.89992136400019],[40.125096443000075,40.90575211100008],[40.122628771000166,40.90857676300038],[40.123346796000135,40.91156064600011],[40.12441638400003,40.911637567000184],[40.12439885599997,40.91209629900027],[40.1241166800001,40.912121450000484],[40.12408707900005,40.912614546999976]]],"type":"Polygon"}},{"type":"Feature","properties":{"area_id":"TR-61-014-80127","name_tr":"Soğuksu","area_level":"neighbourhood","parent_id":"TR-61-014","endeksa_id":80127},"geometry":{"coordinates":[[[40.14989634600005,40.91278277200013],[40.14892730600019,40.912712596000006],[40.146866007000085,40.91220555900043],[40.14486166200004,40.91216201600014],[40.140423087000045,40.91291862600036],[40.13680343700008,40.91312616300007],[40.136082732000034,40.913243196000394],[40.13571650400007,40.91352233500015],[40.13526885800019,40.91311731300004],[40.13369907600014,40.91336920700007],[40.13436240311836,40.913739712058884],[40.13439000000011,40.91372000000024],[40.13497000000012,40.91402000000022],[40.13488000000018,40.91412000000014],[40.13513000000006,40.914230000000316],[40.13529000000017,40.91427000000027],[40.135490000000175,40.91427000000027],[40.13574000000028,40.91437000000036],[40.13609000000008,40.91449000000017],[40.136330000000044,40.914450000000045],[40.13647000000009,40.914540000000045],[40.13649000000015,40.91467000000017],[40.13640000000015,40.91480000000024],[40.13634000000019,40.914820000000304],[40.136170000000334,40.91484000000037],[40.13591000000014,40.91477000000009],[40.13543000000021,40.91466000000037],[40.13503000000014,40.91459000000026],[40.13450000000017,40.914330000000064],[40.13405000000006,40.914070000000095],[40.13354000000015,40.91391000000033],[40.1328900000002,40.91359000000017],[40.13281101018248,40.913527936571995],[40.132026437000036,40.91312634400032],[40.13008576800013,40.913037090000216],[40.12889190100003,40.912776426000164],[40.12882319500005,40.91195449000003],[40.12951381000005,40.91200415700064],[40.12877042500014,40.91141088800049],[40.12869623099999,40.91064658700003],[40.129665069000055,40.90859192000016],[40.129740317000085,40.90819541000036],[40.130342909000035,40.90684625900019],[40.129660772000136,40.90411100900019],[40.1321320830001,40.902927770000076],[40.13383977900014,40.89815812100005],[40.137196392000135,40.894666273000325],[40.13745827900004,40.89424174300001],[40.13972536000017,40.89171690800009],[40.139973441000166,40.89265111800012],[40.14012992500011,40.894770034000146],[40.139781176000156,40.89569416900014],[40.13968083500009,40.895866551000154],[40.1395608790001,40.89590076800005],[40.13983960700011,40.895866947],[40.14117520700012,40.89649924700046],[40.14294839600018,40.89867728300055],[40.14329594700007,40.898961952000036],[40.146787276000055,40.90039632700018],[40.14967260700013,40.9007365920005],[40.14982156800011,40.90065360300014],[40.14998814200004,40.89907637900018],[40.14933359400004,40.89728603900005],[40.14675199800013,40.896877740000605],[40.14665437800005,40.89679253000048],[40.14695064100016,40.89595435400008],[40.1481231680001,40.89454691800012],[40.148562599000115,40.894333928000094],[40.1485744900001,40.893422531000624],[40.14868154800007,40.89333577300005],[40.150666444000194,40.893675571000244],[40.150469074,40.89430919300008],[40.15159667100016,40.899040103000004],[40.14976764100015,40.90587338300003],[40.15088330700007,40.91068093600012],[40.14977134600019,40.91179136900007],[40.150034539000046,40.91162261000005],[40.14963485600009,40.91206604100006],[40.149486991,40.91206246400003],[40.14989634600005,40.91278277200013]]],"type":"Polygon"}},{"type":"Feature","properties":{"area_id":"TR-61-014-80123","name_tr":"Balıklı","area_level":"neighbourhood","parent_id":"TR-61-014","endeksa_id":80123},"geometry":{"coordinates":[[[40.175100647000136,40.91400806500053],[40.173879323000165,40.91377978000003],[40.17192017700006,40.913822968000034],[40.16644950400013,40.914713753000115],[40.16366957600013,40.91471469300001],[40.156016777000104,40.91291940600007],[40.155850616161274,40.91292187676805],[40.155810000000145,40.912930000000244],[40.15548000000018,40.91370000000035],[40.15523000000013,40.91372000000024],[40.155160000000194,40.91372000000024],[40.15511000000015,40.913670000000366],[40.15509000000009,40.91360000000026],[40.15511000000015,40.91351000000026],[40.155250000000194,40.913180000000125],[40.15529000000009,40.913140000000055],[40.15534000000014,40.913110000000245],[40.15540000000016,40.912990000000036],[40.1554210413409,40.91292826443214],[40.1530935240001,40.91296287400047],[40.15312133325705,40.91347088883816],[40.153210000000115,40.91353000000032],[40.15337000000005,40.91357000000011],[40.15354000000008,40.91359000000017],[40.15366000000006,40.9136500000003],[40.15382000000017,40.913680000000284],[40.15399000000019,40.9137400000003],[40.15412000000009,40.913800000000265],[40.15427000000011,40.91385000000014],[40.154570000000206,40.913990000000354],[40.15480000000008,40.914070000000095],[40.154980000000194,40.91415000000029],[40.155070000000194,40.91424000000012],[40.15517000000011,40.91427000000027],[40.15524000000005,40.91426000000018],[40.15530000000007,40.91424000000012],[40.15540000000016,40.91434000000038],[40.15552000000014,40.9144400000003],[40.1556700000001,40.914540000000045],[40.15579000000008,40.91461000000032],[40.15605000000011,40.914720000000045],[40.15610000000015,40.91480000000024],[40.15604000000019,40.91487000000035],[40.15592000000021,40.91492000000022],[40.155710000000056,40.91487000000035],[40.15549000000016,40.91475000000037],[40.15526000000011,40.91461000000032],[40.15505000000013,40.914510000000234],[40.154260000000136,40.914200000000335],[40.15344000000016,40.91393000000005],[40.152960000000064,40.91375000000022],[40.15276000000023,40.91370000000035],[40.152560000000165,40.91351000000026],[40.15253000000018,40.91341000000034],[40.152530000000354,40.913316527087375],[40.152377945000126,40.91310855699999],[40.151785545000166,40.9129199920003],[40.14989634600005,40.91278277200013],[40.149486991,40.91206246400003],[40.14963485600009,40.91206604100006],[40.150034539000046,40.91162261000005],[40.14977134600019,40.91179136900007],[40.15088330700007,40.91068093600012],[40.14976764100015,40.90587338300003],[40.15159667100016,40.899040103000004],[40.150469074,40.89430919300008],[40.150666444000194,40.893675571000244],[40.176329597000176,40.89806889900012],[40.17924201500011,40.901693679000005],[40.178962926000054,40.902872441000056],[40.179280161000065,40.903491141000416],[40.178688029000114,40.904060839000124],[40.178465214000084,40.90442663500005],[40.17846859100007,40.90499115200009],[40.17755106100003,40.906287458000236],[40.17701376600007,40.90657063400022],[40.17647986200012,40.90747299200012],[40.17528060300009,40.91332638400053],[40.17536060600003,40.91364819100005],[40.175171146000025,40.91373205000019],[40.175100647000136,40.91400806500053]]],"type":"Polygon"}},{"type":"Feature","properties":{"area_id":"TR-61-014-80125","name_tr":"Çarşı","area_level":"neighbourhood","parent_id":"TR-61-014","endeksa_id":80125},"geometry":{"coordinates":[[[40.118884682999976,40.91346258400006],[40.11884382699998,40.913575993000165],[40.11506962800007,40.914894619000165],[40.11270354800007,40.91548522300036],[40.11231568100004,40.914688001000115],[40.11184775000015,40.914854833000106],[40.11146337600013,40.91246989300009],[40.111067834000096,40.911851843000136],[40.106631235000066,40.909020973],[40.10684485655571,40.90270134779024],[40.107019958000194,40.90266242000018],[40.10741789300016,40.896153176000155],[40.10969147100019,40.89209961600068],[40.11311345800004,40.89081273300019],[40.114888466000025,40.8857390230001],[40.11727740400016,40.886103431000095],[40.11749767000009,40.886301381000635],[40.1174938100001,40.88619757000015],[40.11761518800006,40.88614826800017],[40.11932584300007,40.886372337000466],[40.12361132000018,40.88753318700009],[40.12209603500014,40.89182182400043],[40.11854586100003,40.89440680900003],[40.11954864900002,40.90033454400009],[40.11701980800018,40.9058578070003],[40.119006984000066,40.91230233800053],[40.11889219600016,40.912343264000185],[40.11896525700007,40.912881248000645],[40.118884682999976,40.91346258400006]]],"type":"Polygon"}},{"type":"Feature","properties":{"area_id":"TR-61-014-80129","name_tr":"Yemişli","area_level":"neighbourhood","parent_id":"TR-61-014","endeksa_id":80129},"geometry":{"coordinates":[[[40.11231568100004,40.914688001000115],[40.11243359500003,40.91513333000029],[40.112008156000115,40.915406347000044],[40.10873825400006,40.91653484300019],[40.105629656000076,40.91686200300023],[40.10297314900009,40.91752520400013],[40.100169632000075,40.91710540400021],[40.09556721299998,40.91726236900013],[40.09355055500015,40.917756282000596],[40.0934472510001,40.91749191400004],[40.09404701200009,40.917457168],[40.09398016800003,40.91722466600015],[40.09417113700016,40.91705517300005],[40.09319204800005,40.91673354500011],[40.092544108000084,40.915963554000086],[40.091934135000145,40.91587221600014],[40.09177852300007,40.91505375700018],[40.09117110700009,40.914331923000134],[40.09059813000016,40.909008008000114],[40.08871964200017,40.90680705700015],[40.09525867700006,40.90567953600021],[40.09535610200004,40.90555582400009],[40.095100919000174,40.90441733200004],[40.09347546100014,40.90050735800003],[40.09560029800019,40.90136951300019],[40.097548096000025,40.90276557600015],[40.10114507900005,40.90386887900058],[40.10146427700016,40.9037488310006],[40.10400465500004,40.904745997000134],[40.10623753500005,40.903826447000085],[40.106312039599516,40.902555871872835],[40.106507006001095,40.90277679558136],[40.10684485655571,40.90270134779024],[40.106631235000066,40.909020973],[40.111067834000096,40.911851843000136],[40.11146337600013,40.91246989300009],[40.11184775000015,40.914854833000106],[40.11231568100004,40.914688001000115]]],"type":"Polygon"}},{"type":"Feature","properties":{"area_id":"TR-61-014-80130","name_tr":"Zeytinli","area_level":"neighbourhood","parent_id":"TR-61-014","endeksa_id":80130},"geometry":{"coordinates":[[[40.09355055500015,40.917756282000596],[40.09200091300016,40.918208981000305],[40.09132080800009,40.91831630900015],[40.09128930800017,40.91843576200017],[40.091215930000146,40.91834304600047],[40.09011766500015,40.91877209200027],[40.08770143000015,40.91987087100017],[40.08765662800016,40.92039589400014],[40.08657239800016,40.920509921000075],[40.08601282100011,40.92093033300023],[40.084903525000186,40.92040989100019],[40.08498570400013,40.920366598000214],[40.084526316000165,40.917855234000115],[40.081813431000114,40.91784584200019],[40.0804340360001,40.915415187000065],[40.0816283530001,40.91458043200055],[40.081639561000145,40.91445972800051],[40.082263284000135,40.914005966000445],[40.08066548300019,40.909462108000184],[40.081268045000115,40.90823403000036],[40.08100659500013,40.906775409000375],[40.080378434000124,40.906163028000094],[40.078040033000036,40.90714852600007],[40.07854239200009,40.904893425000125],[40.078654332000156,40.90485534500067],[40.07867136100003,40.90443084100036],[40.07895745200017,40.90403511000039],[40.08001786600016,40.90387993100006],[40.08026806200007,40.902816709000035],[40.08102140900013,40.902707018000285],[40.08149425800008,40.90247849200006],[40.08163960400003,40.902542162000145],[40.08148033700007,40.90377916300008],[40.082128945000136,40.90449470200008],[40.082149512000115,40.90500512900013],[40.08169888000015,40.905289610000125],[40.081679945000076,40.90539871600009],[40.08316376600004,40.90604567800011],[40.084090944000025,40.90727116600027],[40.08580601800014,40.90730945200005],[40.08871964200017,40.90680705700015],[40.09059813000016,40.909008008000114],[40.09117110700009,40.914331923000134],[40.09177852300007,40.91505375700018],[40.091934135000145,40.91587221600014],[40.092544108000084,40.915963554000086],[40.09319204800005,40.91673354500011],[40.09417113700016,40.91705517300005],[40.09398016800003,40.91722466600015],[40.09404701200009,40.917457168],[40.0934472510001,40.91749191400004],[40.09355055500015,40.917756282000596]]],"type":"Polygon"}},{"type":"Feature","properties":{"area_id":"TR-61-014-157039","name_tr":"Yeniay","area_level":"neighbourhood","parent_id":"TR-61-014","endeksa_id":157039},"geometry":{"coordinates":[[[40.1932716550001,40.91969092300053],[40.183948164000014,40.9170236720002],[40.18243898100013,40.91991149000057],[40.18238244528089,40.92056983545626],[40.18263622456419,40.920937047910456],[40.18365587322643,40.92143041523025],[40.18492196100004,40.92149150000006],[40.18736168300012,40.922206012000174],[40.188763937507474,40.92306566243741],[40.190478482000174,40.92359800600042],[40.1904903255338,40.923607563456926],[40.19398000000018,40.92468000000008],[40.198160000000144,40.92595000000034],[40.19831000000033,40.926000000000215],[40.19847000000004,40.92599000000013],[40.19869000000011,40.92598000000015],[40.19883000000016,40.92595000000034],[40.19898000000035,40.926000000000215],[40.199080000000095,40.926090000000045],[40.19913000000014,40.926190000000304],[40.19910000000016,40.92638000000022],[40.198990000000094,40.926530000000355],[40.19885000000005,40.92658000000023],[40.19870000000009,40.92658000000023],[40.198590000000195,40.92655000000025],[40.198400000000106,40.92648000000031],[40.19817000000012,40.92635000000024],[40.1903995167184,40.92402383609465],[40.190361586999984,40.92402345700003],[40.18326909100006,40.921897952999984],[40.18208393400016,40.92136936400004],[40.18178090000032,40.920978098000035],[40.18166329700006,40.920228290000125],[40.18422373600009,40.91537248500009],[40.18414211700019,40.9147827590005],[40.17806272800016,40.91440377000032],[40.175100647000136,40.91400806500053],[40.175171146000025,40.91373205000019],[40.17536060600003,40.91364819100005],[40.17528060300009,40.91332638400053],[40.17647986200012,40.90747299200012],[40.17701376600007,40.90657063400022],[40.17755106100003,40.906287458000236],[40.17846859100007,40.90499115200009],[40.178465214000084,40.90442663500005],[40.178688029000114,40.904060839000124],[40.179280161000065,40.903491141000416],[40.178962926000054,40.902872441000056],[40.17924201500011,40.901693679000005],[40.176329597000176,40.89806889900012],[40.150666444000194,40.893675571000244],[40.14868154800007,40.89333577300005],[40.1485744900001,40.893422531000624],[40.148562599000115,40.894333928000094],[40.1481231680001,40.89454691800012],[40.14695064100016,40.89595435400008],[40.14665437800005,40.89679253000048],[40.14675199800013,40.896877740000605],[40.14933359400004,40.89728603900005],[40.14998814200004,40.89907637900018],[40.14982156800011,40.90065360300014],[40.14967260700013,40.9007365920005],[40.146787276000055,40.90039632700018],[40.14329594700007,40.898961952000036],[40.14294839600018,40.89867728300055],[40.14117520700012,40.89649924700046],[40.13983960700011,40.895866947],[40.1395608790001,40.89590076800005],[40.13968083500009,40.895866551000154],[40.139781176000156,40.89569416900014],[40.14012992500011,40.894770034000146],[40.139973441000166,40.89265111800012],[40.13972536000017,40.89171690800009],[40.13860235800013,40.88956428900025],[40.13859732800006,40.8890409720002],[40.13914741800011,40.88618414800044],[40.13935509100014,40.88363669900025],[40.14054919400007,40.88091414600012],[40.14057299400014,40.87889906400005],[40.140575925000064,40.878650917000186],[40.14007440100016,40.87735348900031],[40.138349696000034,40.87588296000041],[40.138339914000085,40.87574013900007],[40.14172133300019,40.87305198500002],[40.14993529300017,40.868921214000466],[40.15277537400004,40.8670560000005],[40.152870663000044,40.866760839000506],[40.15292196200011,40.866858170000114],[40.1530643370001,40.86686409000043],[40.154052782000065,40.86621716500014],[40.15674131100019,40.865471834000346],[40.16100607900012,40.86428952800003],[40.17191244600019,40.862857421000115],[40.17832324200003,40.86091496800043],[40.1936327090001,40.85485449400045],[40.19621706200019,40.856771972000104],[40.197629327000016,40.85781981100007],[40.19876851100014,40.85792093900005],[40.2063661250001,40.857508588000314],[40.20846672200014,40.85755947200062],[40.211232236000114,40.85842038400011],[40.2119134350001,40.859284762000186],[40.21179808000005,40.863191034000124],[40.217903576000026,40.86490954100009],[40.21685023800012,40.868687396000155],[40.216954469000086,40.868773748000194],[40.21893534400016,40.869028703000026],[40.21870365600017,40.870530048000035],[40.216721209000184,40.873914288000094],[40.21407338098646,40.87620855366532],[40.210739550495816,40.88078884851717],[40.210053847072004,40.88625011281164],[40.210553444000084,40.888205567000114],[40.21041712800019,40.88839777400045],[40.20979431900008,40.889085420000185],[40.1932716550001,40.91969092300053]]],"type":"Polygon"}},{"type":"Feature","properties":{"area_id":"TR-61-014-157035","name_tr":"Çamburnu","area_level":"neighbourhood","parent_id":"TR-61-014","endeksa_id":157035},"geometry":{"coordinates":[[[40.22215072200186,40.92634530698979],[40.221751236000046,40.92641892100016],[40.21961903100015,40.92566451500011],[40.2176991390001,40.925406496000164],[40.21655343200007,40.92487243500011],[40.214322085000106,40.92449420700041],[40.2123289540001,40.92445888200024],[40.20753229700017,40.92232555200047],[40.20588177599814,40.92233850461599],[40.205770000000086,40.92236000000031],[40.20576000000017,40.92381000000023],[40.20560000000006,40.92388000000011],[40.20548000000008,40.92383000000024],[40.20547000000016,40.92375000000021],[40.20558000000017,40.92366000000021],[40.20549297592993,40.922679001390236],[40.204876382000066,40.922413307],[40.20206569300012,40.92187869600008],[40.20157706200007,40.9222933260001],[40.201676214288455,40.9225155519494],[40.20173000000011,40.92254000000008],[40.201810000000194,40.922620000000165],[40.20192000000003,40.92267000000004],[40.20204000000018,40.92274000000032],[40.202240000000074,40.922930000000065],[40.202370000000144,40.923020000000236],[40.20299000000011,40.92335000000031],[40.203080000000114,40.92339000000027],[40.203140000000076,40.92335000000031],[40.20327000000003,40.923360000000116],[40.20334000000014,40.92332000000033],[40.20346000000012,40.92329000000018],[40.20353000000023,40.92335000000031],[40.2035800000001,40.92342000000025],[40.20365000000021,40.923490000000186],[40.203820000000064,40.923590000000274],[40.20390000000009,40.92374000000012],[40.203980000000115,40.92382000000032],[40.20402000000007,40.923890000000256],[40.204030000000216,40.9239400000003],[40.20409000000018,40.92400000000009],[40.20405000000005,40.92409000000026],[40.2039700000002,40.92412000000007],[40.204040000000134,40.92419000000018],[40.204100000000096,40.924300000000244],[40.20431000000008,40.924450000000036],[40.20454000000012,40.924640000000124],[40.20516000000009,40.92499000000032],[40.20535000000018,40.92505000000028],[40.20564000000019,40.925170000000264],[40.20581000000004,40.92511000000013],[40.20591000000013,40.92511000000013],[40.206020000000194,40.92514000000028],[40.20610000000005,40.92521000000022],[40.206140000000175,40.92528000000033],[40.2061300000002,40.92545000000035],[40.20610000000005,40.9255100000002],[40.20597000000032,40.92554000000018],[40.205770000000086,40.925560000000246],[40.205620000000124,40.92550000000023],[40.20551000000006,40.92549000000014],[40.20548000000008,40.92543000000029],[40.205210000000136,40.92527000000024],[40.205060000000344,40.92523000000028],[40.204900000000066,40.92522000000014],[40.20465000000013,40.925130000000195],[40.20443000000006,40.92500000000024],[40.2042800000001,40.92487000000017],[40.20418000000018,40.92477000000025],[40.20372000000032,40.92441000000014],[40.203600000000165,40.924300000000244],[40.20352000000008,40.92421000000007],[40.203140000000076,40.92387000000036],[40.20272000000017,40.92357000000004],[40.20248000000021,40.923430000000224],[40.20207000000022,40.9232100000001],[40.20158000000015,40.92298000000028],[40.20142000000004,40.92289000000028],[40.201305472935076,40.9228136486235],[40.201077999999995,40.92280750100065],[40.2004676664796,40.922936834263],[40.19914000000006,40.92334000000005],[40.19854000000015,40.923550000000205],[40.19836000000021,40.92366000000021],[40.19819000000018,40.92400000000009],[40.19814000000008,40.92415000000011],[40.198090000000036,40.92422000000022],[40.197930000000156,40.92425000000037],[40.19778000000014,40.92423000000031],[40.197660000000155,40.924170000000174],[40.197630000000174,40.92404000000022],[40.19768000000005,40.92396000000019],[40.197840000000156,40.923890000000256],[40.19790000000012,40.92384000000004],[40.19792000000018,40.92373000000015],[40.19804000000016,40.92353000000014],[40.198120000000245,40.923430000000224],[40.198240000000226,40.92335000000031],[40.19845000000015,40.92327000000029],[40.19903970040389,40.92307977406341],[40.19908521100007,40.922807503000115],[40.19828718600019,40.92148765700051],[40.1932716550001,40.91969092300053],[40.20979431900008,40.889085420000185],[40.21041712800019,40.88839777400045],[40.21064610900004,40.888418220000005],[40.21170837865645,40.890894738440636],[40.217082721000054,40.895173997000086],[40.21791350500007,40.89600716800015],[40.22019036300014,40.89959850300039],[40.2217010170001,40.9038578050002],[40.22214970360477,40.907994305020225],[40.22231599900016,40.908141480000154],[40.22221216757583,40.90881478119735],[40.22285204000019,40.918813616000136],[40.22285553120395,40.92160751316567],[40.222959789609774,40.92171122350021],[40.223088450000034,40.92169623000012],[40.222998756000095,40.92181881400029],[40.22314047365779,40.92210573266192],[40.222315648370795,40.9228329395371],[40.221928991385425,40.92372453876743],[40.22185017190719,40.92408825154217],[40.22192327576204,40.925414139334805],[40.22218000000004,40.92562000000021],[40.22215072200186,40.92634530698979]]],"type":"Polygon"}},{"type":"Feature","properties":{"area_id":"TR-61-014-80122","name_tr":"Çavuşlu","area_level":"neighbourhood","parent_id":"TR-61-014","endeksa_id":80122},"geometry":{"coordinates":[[[40.08601282100011,40.92093033300023],[40.08503865900019,40.92117609400003],[40.08287848600003,40.92217446400008],[40.08129243899998,40.923289015000194],[40.07928314700018,40.92386625000023],[40.078842910000105,40.924116066000295],[40.07881751900004,40.92459291100005],[40.07702525800016,40.92519290800004],[40.074488004000045,40.92702987100006],[40.07416883300016,40.92758860800001],[40.07339792200008,40.92786496700006],[40.072742691000144,40.92853097900013],[40.07232571200018,40.928101711000465],[40.07231412800007,40.92800334800023],[40.072471502000155,40.927885061000154],[40.07228999800003,40.92779845000018],[40.072268377000114,40.927614855000684],[40.07199027000013,40.927655425000125],[40.071550110000146,40.926920907000465],[40.06982555100018,40.92536642900063],[40.066326260000096,40.920725784000126],[40.061946089000116,40.9177090500001],[40.06067985600009,40.913433956000006],[40.057426376000194,40.909645865000016],[40.05636332700004,40.90681276500027],[40.05662304100008,40.90641586300029],[40.05671160600019,40.90683809800032],[40.06007096000013,40.9060541960003],[40.06434627200002,40.911926789999995],[40.06708133000001,40.911501818000374],[40.06616513400007,40.90945471600014],[40.06676220500003,40.908079088000136],[40.066699526000036,40.90740683000013],[40.06760934100009,40.906127322000486],[40.067711776000124,40.90609541400033],[40.07104755800009,40.90177375500025],[40.07409420400012,40.901071555000044],[40.077188693000096,40.89719443700011],[40.077791718000185,40.89704841400015],[40.07818965000007,40.89799277900005],[40.07834980400014,40.897937678000005],[40.07826712600007,40.89876257600008],[40.078505201000155,40.89904140600004],[40.079390428000124,40.89911155200019],[40.079879219000134,40.899356436000346],[40.07983620900012,40.899657048000165],[40.080919072000086,40.90217022400009],[40.081295172000125,40.90236052100016],[40.0812389780001,40.90260017800017],[40.08102140900013,40.902707018000285],[40.08026806200007,40.902816709000035],[40.08001786600016,40.90387993100006],[40.07895745200017,40.90403511000039],[40.07867136100003,40.90443084100036],[40.078654332000156,40.90485534500067],[40.07854239200009,40.904893425000125],[40.078040033000036,40.90714852600007],[40.080378434000124,40.906163028000094],[40.08100659500013,40.906775409000375],[40.081268045000115,40.90823403000036],[40.08066548300019,40.909462108000184],[40.082263284000135,40.914005966000445],[40.081639561000145,40.91445972800051],[40.0816283530001,40.91458043200055],[40.0804340360001,40.915415187000065],[40.081813431000114,40.91784584200019],[40.084526316000165,40.917855234000115],[40.08498570400013,40.920366598000214],[40.084903525000186,40.92040989100019],[40.08601282100011,40.92093033300023]]],"type":"Polygon"}}]}