{"type":"FeatureCollection","source_id":"endeksa","retrieved_at":null,"features":[{"type":"Feature","properties":{"area_id":"TR-64-003-200287","name_tr":"Karbasan","area_level":"neighbourhood","parent_id":"TR-64-003","endeksa_id":200287},"geometry":{"coordinates":[[[29.61730251000006,38.306942594000134],[29.617181442000174,38.306990339000095],[29.60062722900011,38.30145144400069],[29.60050976300016,38.30154813700011],[29.600532285999975,38.304641286000106],[29.596126316000152,38.30881904400064],[29.59374310100003,38.308915134000245],[29.593730190000088,38.309031911000034],[29.594523460000005,38.309921898000084],[29.59444587600018,38.31006083200003],[29.572778367000183,38.31129521700012],[29.572745954000084,38.31168546000049],[29.57262381400011,38.31176101100061],[29.565251582000144,38.31041720100012],[29.564491889000067,38.310109936000515],[29.564438920000043,38.310006218000126],[29.56463744600012,38.30929245100015],[29.56468902800009,38.30766185300001],[29.56401721900005,38.30000620600015],[29.559287419000043,38.29107463700018],[29.559017183000037,38.2906941260004],[29.552596059000052,38.28604876200012],[29.551051485000187,38.28524759200042],[29.550617047999992,38.283982312000035],[29.550071712000033,38.28327080600013],[29.554230489000133,38.281509137000626],[29.554622343000062,38.27821429900018],[29.5547516310001,38.277223662000154],[29.556696666000164,38.27485309300022],[29.561533633000067,38.274585021000064],[29.563110489000167,38.27411353600007],[29.566752870000187,38.272028578000004],[29.56822334200018,38.269360548000066],[29.56856372200008,38.26810231600041],[29.57362410200011,38.267949699000155],[29.57545278900011,38.267398885000205],[29.576441513000077,38.26675383000003],[29.57755673600002,38.26629701500019],[29.579040306000024,38.26600998400016],[29.5806030710001,38.26604006100007],[29.581518935000076,38.265477064000265],[29.5815578430001,38.26521901300032],[29.582942611000078,38.26292003600008],[29.58462578200016,38.26245101300009],[29.584878701000036,38.262084715000185],[29.584361076000107,38.260595735000095],[29.58428881400016,38.26017298000016],[29.584392432000016,38.257738565000125],[29.585222562000183,38.257502391000116],[29.585115940000037,38.255021957000054],[29.585471724000172,38.25290875400009],[29.586440791000143,38.251995681000096],[29.58689700400015,38.251699084000336],[29.585909066000113,38.250692533999995],[29.586728700000094,38.247689028000366],[29.58738712100012,38.24680098200025],[29.589370160000158,38.24684402100053],[29.589719061000153,38.24474321900061],[29.577404469000157,38.24412816800026],[29.57105793200003,38.2442369150001],[29.563401284000122,38.24299198800003],[29.556180153000128,38.24234337700011],[29.555802211263597,38.24264543458901],[29.555674171213923,38.24258267208785],[29.555666950190982,38.24246764501629],[29.556130000000167,38.24166000000014],[29.556780000000117,38.240920000000415],[29.557280000000105,38.239900000000034],[29.557880000000182,38.23951000000005],[29.55828000000008,38.2393900000003],[29.558840000000203,38.2389000000004],[29.559540000000027,38.23869000000008],[29.559890000000053,38.23838000000018],[29.561890000000176,38.23825000000011],[29.563130000000058,38.23802000000006],[29.563940000000116,38.23763000000048],[29.56553000000008,38.23750000000041],[29.565740000000233,38.2376900000001],[29.569980000000214,38.23776000000004],[29.57462000000004,38.234410000000366],[29.58112000000017,38.23455000000018],[29.58199000000019,38.23536000000024],[29.58532000000025,38.23338000000018],[29.586650000000134,38.23303000000004],[29.588020000000142,38.2328200000004],[29.595290000000034,38.235290000000134],[29.598540000000185,38.2357100000001],[29.599530000000186,38.23647000000028],[29.60001000000011,38.23728000000011],[29.60007000000013,38.23772000000014],[29.600310000000093,38.23813000000064],[29.60131000000024,38.23772000000014],[29.601110000000176,38.23756000000037],[29.601800000000082,38.23740000000009],[29.602250000000197,38.23775000000046],[29.60284000000013,38.23790000000008],[29.602940000000103,38.23815000000019],[29.603600000000142,38.23799000000042],[29.603460000000098,38.23772000000014],[29.603520000000117,38.237520000000075],[29.603780000000143,38.23729000000009],[29.60422000000011,38.237140000000295],[29.604950000000144,38.235780000000204],[29.60623647347984,38.235978079257166],[29.607422214000053,38.23656923800013],[29.608978748000027,38.23691265400009],[29.610474164000152,38.23691265400009],[29.611971566000022,38.236589158000186],[29.61687162100003,38.237582677000205],[29.618116493000173,38.23762559300002],[29.619403681000108,38.23744060900003],[29.61936451100007,38.2386619560001],[29.6016002880001,38.254436846000374],[29.604175134000116,38.2553466010001],[29.615580991000172,38.257220812000185],[29.61645087300019,38.25817221000017],[29.617070775000172,38.259097894000206],[29.618012235000094,38.261250238000116],[29.618521132000183,38.26204355100015],[29.619046271000173,38.26259569600006],[29.619670272000008,38.2630770790002],[29.62038005900007,38.26347813700016],[29.621248430000037,38.26381773100019],[29.62206221400004,38.26525399200028],[29.62089798200003,38.2667342150001],[29.62047610200011,38.267447355000115],[29.61921313300013,38.27127010400068],[29.621423197000013,38.27516997100014],[29.62948073400014,38.28489865000017],[29.63042699900018,38.28511517400011],[29.631326242000057,38.2851983540001],[29.631105248000097,38.28589147000008],[29.637053333000097,38.285886586000174],[29.63669371576225,38.286889453782976],[29.636083120000023,38.29016672100005],[29.636059002000138,38.29499575500006],[29.631837256000097,38.2984094410001],[29.62850062600006,38.30131871200018],[29.61927277799998,38.306433733000006],[29.61780679500015,38.306110237999974],[29.61730251000006,38.306942594000134]]],"type":"Polygon"}},{"type":"Feature","properties":{"area_id":"TR-64-003-200289","name_tr":"Buğdaylı","area_level":"neighbourhood","parent_id":"TR-64-003","endeksa_id":200289},"geometry":{"coordinates":[[[29.550036492000118,38.296723536000115],[29.548287449999975,38.29659905000011],[29.542819993000137,38.29800259000007],[29.538124525000114,38.294759259000045],[29.537987618999978,38.29474599700001],[29.53556873600013,38.29917117900004],[29.53134807500004,38.30147125700029],[29.526108037000085,38.30751066400006],[29.493132821000017,38.320206860000155],[29.49819714400013,38.31239853000034],[29.497302618000163,38.305829609000114],[29.499458975000152,38.303605449000656],[29.498121988000094,38.29730831300009],[29.50132551000013,38.29437188400004],[29.501181762000158,38.290834367],[29.49795005800007,38.28934507800034],[29.49693552100007,38.28707163300044],[29.498157734000017,38.28522350500015],[29.495751063000114,38.27605683000007],[29.496819653999978,38.2763136910001],[29.496831402000055,38.276506302000314],[29.501225320000174,38.276546512000266],[29.50163004400008,38.276328299000056],[29.502215847000173,38.276319529000034],[29.502545912000016,38.27620203100008],[29.50888277300004,38.27570895499997],[29.511399128000164,38.27628708600014],[29.51376774300013,38.277432202],[29.518735861000152,38.28079673900015],[29.521000442000172,38.28235019300007],[29.524009483000043,38.284917611000026],[29.529176516000064,38.287890728000264],[29.531985247000023,38.28847064000013],[29.538582229000156,38.288894273000096],[29.54290369000006,38.28794854000006],[29.542908111000145,38.28805225400015],[29.543286122999973,38.28785550800001],[29.54500042500007,38.287480329000175],[29.549750488000086,38.28340608900055],[29.550071712000033,38.28327080600013],[29.550617047999992,38.283982312000035],[29.551051485000187,38.28524759200042],[29.550764885999968,38.28537642000009],[29.550897581000072,38.286413837],[29.548632376000114,38.287823836000086],[29.54942094900008,38.29086855200012],[29.547426313000074,38.29235735700007],[29.55058005800015,38.296627194000166],[29.550036492000118,38.296723536000115]]],"type":"Polygon"}},{"type":"Feature","properties":{"area_id":"TR-64-003-2033031","name_tr":"Dumanlı Köyü","area_level":"neighbourhood","parent_id":"TR-64-003","endeksa_id":2033031},"geometry":{"coordinates":[[[29.477251096000032,38.32162176300011],[29.47648758700018,38.32195127400007],[29.475108993000163,38.322795617000395],[29.45847145500005,38.320519352000076],[29.45070530600009,38.31339684500006],[29.45078355200019,38.30939414600044],[29.44716595500006,38.30938349000013],[29.429914064253353,38.30331604283549],[29.433030000000088,38.29251000000022],[29.43324000000007,38.292410000000075],[29.43243000000018,38.29109000000011],[29.432810000000188,38.29093000000023],[29.432670000000144,38.290700000000356],[29.43274000000008,38.29065000000048],[29.43358000000012,38.29043000000007],[29.434050000000127,38.29010000000045],[29.434310000000153,38.290020000000254],[29.435600000000136,38.290640000000394],[29.437650000000076,38.289830000000165],[29.43829000000011,38.28951000000012],[29.438340000000153,38.28892000000019],[29.437960000000146,38.288290000000075],[29.438080000000127,38.28783000000021],[29.438920000000167,38.28758000000016],[29.439920000000143,38.28796000000034],[29.44067000000024,38.28861000000012],[29.440410000000213,38.289190000000474],[29.440930000000037,38.28958000000006],[29.44163000000009,38.289060000000404],[29.44167000000016,38.28861000000012],[29.44185000000016,38.28874000000019],[29.44231000000019,38.28954000000033],[29.443730000000073,38.2903800000002],[29.443730000000073,38.290830000000085],[29.44430000000017,38.29146000000071],[29.449010000000158,38.2898500000004],[29.45136000000008,38.288600000000145],[29.45969000000008,38.28546000000023],[29.461220000000196,38.280790000000366],[29.462460000000135,38.28031000000044],[29.463050000000067,38.27972000000011],[29.465250000000196,38.27876000000009],[29.466310000000192,38.27843000000013],[29.467530000000238,38.27672000000041],[29.469840000000033,38.27473000000009],[29.4705400000002,38.27402000000012],[29.477170000000058,38.27428000000032],[29.47747402859227,38.27331887735431],[29.478265800000145,38.28269268200023],[29.480036998000173,38.28485941500003],[29.477833650000093,38.286150459000055],[29.478280381000047,38.28855507800034],[29.47668991900008,38.289754076000065],[29.47688152900008,38.28996690800045],[29.47656432300016,38.29024944200006],[29.479320027000085,38.29267541700011],[29.476815863000184,38.295875377000016],[29.476852398000062,38.298406302000444],[29.480174575999968,38.30187474400054],[29.48074223800006,38.31024731700006],[29.478002297000103,38.321023564000086],[29.47719120800008,38.321520329000066],[29.477251096000032,38.32162176300011]]],"type":"Polygon"}},{"type":"Feature","properties":{"area_id":"TR-64-003-2033036","name_tr":"Kaykıllı Köyü","area_level":"neighbourhood","parent_id":"TR-64-003","endeksa_id":2033036},"geometry":{"coordinates":[[[29.49323823400016,38.32032770400002],[29.49313166100012,38.32020775600006],[29.488261377000185,38.32607244300027],[29.487908027000117,38.32615777800049],[29.486668123000186,38.327731065000194],[29.484512551000023,38.32811180300007],[29.481526664000114,38.32818913000017],[29.480354742000145,38.32757467300007],[29.47957543700005,38.326221386999975],[29.4793270830001,38.32610676100012],[29.47750138000015,38.32172397100004],[29.477383591999967,38.32177673300015],[29.477251096000032,38.32162176300011],[29.47719120800008,38.321520329000066],[29.478002297000103,38.321023564000086],[29.48074223800006,38.31024731700006],[29.480174575999968,38.30187474400054],[29.476852398000062,38.298406302000444],[29.476815863000184,38.295875377000016],[29.479320027000085,38.29267541700011],[29.47656432300016,38.29024944200006],[29.47688152900008,38.28996690800045],[29.47668991900008,38.289754076000065],[29.478280381000047,38.28855507800034],[29.477833650000093,38.286150459000055],[29.480036998000173,38.28485941500003],[29.478265800000145,38.28269268200023],[29.47747402859227,38.27331887735431],[29.477479478153953,38.27329912590761],[29.481713679000052,38.27267877200035],[29.48166717300012,38.27210160200019],[29.48427262100006,38.27177426100002],[29.484962563000124,38.27220980300018],[29.485264320000113,38.272175403000176],[29.490895512999998,38.27445734499997],[29.490994658000147,38.27431513800002],[29.495751063000114,38.27605683000007],[29.498157734000017,38.28522350500015],[29.49693552100007,38.28707163300044],[29.49795005800007,38.28934507800034],[29.501181762000158,38.290834367],[29.50132551000013,38.29437188400004],[29.498121988000094,38.29730831300009],[29.499458975000152,38.303605449000656],[29.497302618000163,38.305829609000114],[29.49819714400013,38.31239853000034],[29.493132821000017,38.320206860000155],[29.49323823400016,38.32032770400002]]],"type":"Polygon"}},{"type":"Feature","properties":{"area_id":"TR-64-003-80512","name_tr":"Yeni","area_level":"neighbourhood","parent_id":"TR-64-003","endeksa_id":80512},"geometry":{"coordinates":[[[29.564438920000043,38.310006218000126],[29.564473531000147,38.31021726500006],[29.56411859000019,38.31073180600009],[29.561680284000033,38.31704438600019],[29.55768208300009,38.32130258800004],[29.557546099000035,38.3213344040002],[29.553867610000054,38.320341912000174],[29.55298020500004,38.32355484400006],[29.554483775000108,38.32488516900008],[29.55175549500018,38.328138066000065],[29.552027920000057,38.32835442400017],[29.55088463900006,38.32917637800017],[29.550677756000084,38.32942304300002],[29.5505195720001,38.32945810000018],[29.54593475421001,38.3273671757355],[29.54573486861318,38.32740570507224],[29.54575007842209,38.327568924515504],[29.545084606000046,38.32703225600022],[29.5443456430001,38.32682130500024],[29.543743055000164,38.32648543800025],[29.543611058056626,38.32651809172637],[29.54372220519241,38.32641148985664],[29.543645172832896,38.3262894765125],[29.532230280000135,38.320962319000046],[29.531352210000136,38.32053193700017],[29.53130241800011,38.32037060100015],[29.531100245066398,38.32046300593328],[29.530980000000056,38.32039000000003],[29.531270000000063,38.31989000000004],[29.5310300000001,38.31983000000042],[29.53131000000019,38.31943000000018],[29.531350000000145,38.3190900000003],[29.53153000000009,38.31876000000017],[29.531850000000134,38.316630000000146],[29.531990426726566,38.31634374551959],[29.53247615900017,38.31625092600041],[29.532593722000172,38.31632913300007],[29.53327978800013,38.31400664000034],[29.533990950000145,38.31354944399999],[29.53357262000003,38.31306658800037],[29.532038915000044,38.31038260800034],[29.53865887900014,38.31075612600051],[29.557315236000193,38.29724158900012],[29.550036492000118,38.296723536000115],[29.55058005800015,38.296627194000166],[29.547426313000074,38.29235735700007],[29.54942094900008,38.29086855200012],[29.548632376000114,38.287823836000086],[29.550897581000072,38.286413837],[29.550764885999968,38.28537642000009],[29.551051485000187,38.28524759200042],[29.552596059000052,38.28604876200012],[29.559017183000037,38.2906941260004],[29.559287419000043,38.29107463700018],[29.56401721900005,38.30000620600015],[29.56468902800009,38.30766185300001],[29.56463744600012,38.30929245100015],[29.564438920000043,38.310006218000126]]],"type":"Polygon"}},{"type":"Feature","properties":{"area_id":"TR-64-003-80510","name_tr":"Dere","area_level":"neighbourhood","parent_id":"TR-64-003","endeksa_id":80510},"geometry":{"coordinates":[[[29.531100245066398,38.32046300593328],[29.531260000000145,38.32056000000006],[29.531260000000145,38.32086000000038],[29.530689275544205,38.32052122975989],[29.530270000000144,38.32040000000018],[29.530010000000118,38.32043000000033],[29.529800000000137,38.32058000000012],[29.529430000000104,38.32051000000018],[29.52821000000023,38.32022000000018],[29.527890000000184,38.32003000000009],[29.526810000000182,38.31973000000016],[29.52551000000011,38.31970000000035],[29.5227500000002,38.31946000000039],[29.520570000000077,38.31969000000021],[29.51485000000025,38.31478000000038],[29.520330000000115,38.31105000000014],[29.525780000000054,38.31219000000067],[29.527040000000056,38.31271000000038],[29.53211000000016,38.316100000000176],[29.531850000000134,38.316630000000146],[29.53153000000009,38.31876000000017],[29.531350000000145,38.3190900000003],[29.53131000000019,38.31943000000018],[29.5310300000001,38.31983000000042],[29.531270000000063,38.31989000000004],[29.530980000000056,38.32039000000003],[29.531100245066398,38.32046300593328]]],"type":"Polygon"}},{"type":"Feature","properties":{"area_id":"TR-64-003-80513","name_tr":"Konak Osb","area_level":"neighbourhood","parent_id":"TR-64-003","endeksa_id":80513},"geometry":{"coordinates":[[[29.529280247894974,38.343233426820916],[29.529150000000186,38.34406000000007],[29.528030000000058,38.345590000000186],[29.52248000000003,38.35015000000021],[29.516180000000134,38.349860000000376],[29.512090000000114,38.34919000000036],[29.51179000000019,38.34954000000016],[29.511220000000094,38.34915000000058],[29.510820000000194,38.349000000000274],[29.510420000000124,38.34905000000015],[29.510070000000155,38.34883000000042],[29.50957960883335,38.3487498288647],[29.5094206099418,38.348680266849556],[29.509910000000048,38.347700000000145],[29.5104300000001,38.346920000000125],[29.511690000000044,38.34557000000012],[29.5146400000001,38.343460000000164],[29.515240000000176,38.34288000000049],[29.516100000000108,38.342370000000244],[29.51718000000011,38.341260000000034],[29.518340000000137,38.339860000000044],[29.51889000000017,38.339060000000075],[29.51960000000014,38.337600000000066],[29.52151642068395,38.335696538060745],[29.521850000000143,38.33546000000047],[29.52248000000003,38.335590000000195],[29.523330000000044,38.335560000000214],[29.524080000000083,38.33513000000016],[29.525500000000136,38.334620000000086],[29.526180000000124,38.33450000000062],[29.526720000000182,38.33457000000004],[29.527240000000063,38.33477000000022],[29.52744000000007,38.33496000000031],[29.527330000000063,38.3359300000003],[29.527880000000096,38.33657000000011],[29.528940000000034,38.33662000000038],[29.530210000000125,38.33688000000018],[29.5300400000001,38.3379300000002],[29.52870000000007,38.339490000000126],[29.528300000000172,38.33975000000015],[29.529150000000186,38.34088000000003],[29.529180000000167,38.341070000000116],[29.529780000000073,38.341660000000445],[29.5299500000001,38.34217000000018],[29.52941000000004,38.34241000000014],[29.529280247894974,38.343233426820916]]],"type":"Polygon"}},{"type":"Feature","properties":{"area_id":"TR-64-003-80511","name_tr":"Konak","area_level":"neighbourhood","parent_id":"TR-64-003","endeksa_id":80511},"geometry":{"coordinates":[[[29.5413262080001,38.338599829000145],[29.53931486400012,38.34027580900005],[29.530766913000093,38.34317399500003],[29.529280247894974,38.343233426820916],[29.52941000000004,38.34241000000014],[29.5299500000001,38.34217000000018],[29.529780000000073,38.341660000000445],[29.529180000000167,38.341070000000116],[29.529150000000186,38.34088000000003],[29.528300000000172,38.33975000000015],[29.52870000000007,38.339490000000126],[29.5300400000001,38.3379300000002],[29.530210000000125,38.33688000000018],[29.528940000000034,38.33662000000038],[29.527880000000096,38.33657000000011],[29.527330000000063,38.3359300000003],[29.52744000000007,38.33496000000031],[29.527240000000063,38.33477000000022],[29.526720000000182,38.33457000000004],[29.526180000000124,38.33450000000062],[29.525500000000136,38.334620000000086],[29.524080000000083,38.33513000000016],[29.523330000000044,38.335560000000214],[29.52248000000003,38.335590000000195],[29.521850000000143,38.33546000000047],[29.52151642068395,38.335696538060745],[29.523529548,38.333769523000115],[29.523920094000175,38.33325072300005],[29.525878079999984,38.32885504800038],[29.526861750000023,38.327536345000055],[29.527773116000105,38.32702310000013],[29.52722671300012,38.32708780900026],[29.52168058500007,38.3248290410001],[29.52539607400007,38.321944986999995],[29.529947152000034,38.32278360000038],[29.53011133900003,38.322267626000496],[29.52992240100008,38.32180811300003],[29.530466161000106,38.32089261400006],[29.530521910000175,38.320710004000034],[29.53042325700011,38.3206238890001],[29.530604108000034,38.32062827700048],[29.530689275544205,38.32052122975989],[29.531260000000145,38.32086000000038],[29.531260000000145,38.32056000000006],[29.531100245066398,38.32046300593328],[29.53130241800011,38.32037060100015],[29.531352210000136,38.32053193700017],[29.532230280000135,38.320962319000046],[29.543645172832896,38.3262894765125],[29.54372220519241,38.32641148985664],[29.543611058056626,38.32651809172637],[29.541351033000126,38.32941427100019],[29.540150221000033,38.3331984980004],[29.541397095000036,38.338349413000174],[29.541423443000042,38.338499703000025],[29.5413262080001,38.338599829000145]]],"type":"Polygon"}},{"type":"Feature","properties":{"area_id":"TR-64-003-80509","name_tr":"Boğaz","area_level":"neighbourhood","parent_id":"TR-64-003","endeksa_id":80509},"geometry":{"coordinates":[[[29.5094206099418,38.348680266849556],[29.50711422100011,38.34903455699998],[29.49928644500011,38.342414859000144],[29.498317308000082,38.336721612000076],[29.498194776000105,38.336755723000294],[29.49739110400003,38.33261831700008],[29.498794839000084,38.32961696300009],[29.497148658000015,38.33097915100018],[29.49638598399997,38.32387052400043],[29.493132821000017,38.320206860000155],[29.526108037000085,38.30751066400006],[29.53134807500004,38.30147125700029],[29.53556873600013,38.29917117900004],[29.537987618999978,38.29474599700001],[29.538124525000114,38.294759259000045],[29.542819993000137,38.29800259000007],[29.548287449999975,38.29659905000011],[29.557315236000193,38.29724158900012],[29.53865887900014,38.31075612600051],[29.532038915000044,38.31038260800034],[29.53357262000003,38.31306658800037],[29.533990950000145,38.31354944399999],[29.53327978800013,38.31400664000034],[29.532593722000172,38.31632913300007],[29.53247615900017,38.31625092600041],[29.531990426726566,38.31634374551959],[29.53211000000016,38.316100000000176],[29.527040000000056,38.31271000000038],[29.525780000000054,38.31219000000067],[29.520330000000115,38.31105000000014],[29.51485000000025,38.31478000000038],[29.520570000000077,38.31969000000021],[29.5227500000002,38.31946000000039],[29.52551000000011,38.31970000000035],[29.526810000000182,38.31973000000016],[29.527890000000184,38.32003000000009],[29.52821000000023,38.32022000000018],[29.529430000000104,38.32051000000018],[29.529800000000137,38.32058000000012],[29.530010000000118,38.32043000000033],[29.530270000000144,38.32040000000018],[29.530689275544205,38.32052122975989],[29.530604108000034,38.32062827700048],[29.53042325700011,38.3206238890001],[29.530521910000175,38.320710004000034],[29.530466161000106,38.32089261400006],[29.52992240100008,38.32180811300003],[29.53011133900003,38.322267626000496],[29.529947152000034,38.32278360000038],[29.52539607400007,38.321944986999995],[29.52168058500007,38.3248290410001],[29.52722671300012,38.32708780900026],[29.527773116000105,38.32702310000013],[29.526861750000023,38.327536345000055],[29.525878079999984,38.32885504800038],[29.523920094000175,38.33325072300005],[29.523529548,38.333769523000115],[29.52151642068395,38.335696538060745],[29.51960000000014,38.337600000000066],[29.51889000000017,38.339060000000075],[29.518340000000137,38.339860000000044],[29.51718000000011,38.341260000000034],[29.516100000000108,38.342370000000244],[29.515240000000176,38.34288000000049],[29.5146400000001,38.343460000000164],[29.511690000000044,38.34557000000012],[29.5104300000001,38.346920000000125],[29.509910000000048,38.347700000000145],[29.5094206099418,38.348680266849556]]],"type":"Polygon"}},{"type":"Feature","properties":{"area_id":"TR-64-003-2033026","name_tr":"Beki Köyü","area_level":"neighbourhood","parent_id":"TR-64-003","endeksa_id":2033026},"geometry":{"coordinates":[[[29.470111894000127,38.352253924000024],[29.464841356000136,38.354117385999984],[29.459780325000168,38.35345865200003],[29.448891258000117,38.350084187000334],[29.446423288000176,38.346605374000035],[29.445799055000123,38.34618927500014],[29.444523259000107,38.34463635200018],[29.43786671900017,38.344710600999974],[29.42288168700003,38.34203349300003],[29.41806899700009,38.34280873100005],[29.411890771000117,38.34365938200017],[29.410086989000092,38.34330476900004],[29.407426265704885,38.34210658170326],[29.407267068180033,38.34210269264139],[29.406707646519067,38.34220153839789],[29.40591825226511,38.34238993798925],[29.40390119200015,38.34269728500038],[29.403727114000105,38.342896228000086],[29.403722161000132,38.34280044800016],[29.40361461500015,38.34275274600009],[29.402400191000027,38.342974099],[29.39905023600005,38.3376933990001],[29.38901182400008,38.33442336800067],[29.38280469800003,38.329359684000565],[29.38400792300007,38.32866326100009],[29.383942831000184,38.328550814000096],[29.385123045000114,38.328017831000295],[29.39188953100006,38.324133596000024],[29.395696932000078,38.32434869700029],[29.396579967000037,38.32409284700026],[29.397076985000126,38.32408852900011],[29.408461155000055,38.32065038400009],[29.417970192000155,38.32037489000021],[29.421029641025143,38.30844978326064],[29.42840000000018,38.30431000000027],[29.429914064253353,38.30331604283549],[29.44716595500006,38.30938349000013],[29.45078355200019,38.30939414600044],[29.45070530600009,38.31339684500006],[29.45847145500005,38.320519352000076],[29.45778824400014,38.323889137000094],[29.464612356000032,38.33348968100006],[29.46470950900016,38.33777223400011],[29.47046831200015,38.343731294000406],[29.470111894000127,38.352253924000024]]],"type":"Polygon"}},{"type":"Feature","properties":{"area_id":"TR-64-003-2033030","name_tr":"Delihıdırlı Köyü","area_level":"neighbourhood","parent_id":"TR-64-003","endeksa_id":2033030},"geometry":{"coordinates":[[[29.645256640000184,38.353282445000104],[29.645445733000088,38.353694254000516],[29.639052738000032,38.3543259810001],[29.63735160500005,38.354612048000604],[29.619312408999974,38.34926579800003],[29.618975348000106,38.3499679560004],[29.615954694000095,38.348270669000385],[29.613920675000088,38.35325734800006],[29.613641510000036,38.351596543000085],[29.61041388700005,38.350273388999994],[29.608284981999986,38.35140547500009],[29.60203113,38.34834971600009],[29.59586943400018,38.34993694900004],[29.592196097000112,38.34868499500038],[29.59032372900009,38.352579266000134],[29.592606161000106,38.35406793700008],[29.590882272000044,38.35374662900017],[29.587865495500125,38.35623547450018],[29.589561984,38.35680981100046],[29.586707973000046,38.35968811500004],[29.584436226000093,38.35970769900007],[29.58434037100011,38.361917129999995],[29.587355753000168,38.36274656000006],[29.584480994000103,38.36409938100053],[29.58578283800017,38.364982743999974],[29.583212549000052,38.373008526000035],[29.57733502200017,38.38057035100019],[29.567426603000058,38.37758383000005],[29.567289490000178,38.37612077000051],[29.56753751000008,38.37577032600029],[29.57029441300017,38.3739254510005],[29.56496455700011,38.36834035600015],[29.565589891000116,38.36458121900006],[29.562913850000143,38.36400907600006],[29.562134611000033,38.36287151300019],[29.56410688000011,38.36203034300007],[29.56285668100014,38.36164341200009],[29.56132778300008,38.36138346700017],[29.56146594500018,38.36121298500012],[29.56122860100004,38.36111774000011],[29.56122717700009,38.361016796000115],[29.56246088400013,38.3598408790001],[29.56117376800006,38.35754093100002],[29.561861057000158,38.35356384500011],[29.55590269999999,38.35391256800028],[29.555782744000055,38.35378759200006],[29.555656102000057,38.35379223699999],[29.554515406000178,38.3526799410007],[29.555564030000085,38.35194411300006],[29.549181974000135,38.34565339000028],[29.542983574000118,38.343834162000064],[29.544632480000075,38.341128549000075],[29.543808936000175,38.34159407400017],[29.54365691000004,38.34156891700013],[29.54152534800005,38.338616378000324],[29.5413262080001,38.338599829000145],[29.541423443000042,38.338499703000025],[29.541397095000036,38.338349413000174],[29.540150221000033,38.3331984980004],[29.541351033000126,38.32941427100019],[29.543611058056626,38.32651809172637],[29.543743055000164,38.32648543800025],[29.5443456430001,38.32682130500024],[29.545084606000046,38.32703225600022],[29.54575007842209,38.327568924515504],[29.54573486861318,38.32740570507224],[29.54593475421001,38.3273671757355],[29.5505195720001,38.32945810000018],[29.550677756000084,38.32942304300002],[29.55088463900006,38.32917637800017],[29.552027920000057,38.32835442400017],[29.55175549500018,38.328138066000065],[29.554483775000108,38.32488516900008],[29.55298020500004,38.32355484400006],[29.553867610000054,38.320341912000174],[29.557546099000035,38.3213344040002],[29.55768208300009,38.32130258800004],[29.561680284000033,38.31704438600019],[29.56411859000019,38.31073180600009],[29.564473531000147,38.31021726500006],[29.564438920000043,38.310006218000126],[29.564491889000067,38.310109936000515],[29.565251582000144,38.31041720100012],[29.57262381400011,38.31176101100061],[29.572745954000084,38.31168546000049],[29.572778367000183,38.31129521700012],[29.59444587600018,38.31006083200003],[29.594523460000005,38.309921898000084],[29.593730190000088,38.309031911000034],[29.59374310100003,38.308915134000245],[29.596126316000152,38.30881904400064],[29.600532285999975,38.304641286000106],[29.60050976300016,38.30154813700011],[29.60062722900011,38.30145144400069],[29.617181442000174,38.306990339000095],[29.61730251000006,38.306942594000134],[29.617264405000185,38.307012988000054],[29.61775715600004,38.3071780500004],[29.616869308000105,38.30917144300008],[29.617024374000152,38.30974822200011],[29.616946200000086,38.310745982000014],[29.616019525000013,38.31115434600042],[29.618480707999993,38.31588049300058],[29.615573412000174,38.31755616300012],[29.62030998300014,38.324117150000404],[29.6208560660001,38.33174500800004],[29.621670380000126,38.33191756300005],[29.625499674000082,38.332386605000124],[29.625651402000187,38.33393211300012],[29.62837837400008,38.334842170000684],[29.630466072000104,38.338264235000054],[29.632176267000148,38.338482109000495],[29.63087428000017,38.34044336400018],[29.633762261000072,38.342188926000176],[29.63281194600006,38.34384021599999],[29.636150068000063,38.344585963000156],[29.636553436000042,38.34618574699999],[29.63700197300011,38.34644014000003],[29.63729531900003,38.34707862800008],[29.643213952999986,38.34991998900006],[29.645256640000184,38.353282445000104]]],"type":"Polygon"}},{"type":"Feature","properties":{"area_id":"TR-64-003-2033029","name_tr":"Çokaklı Köyü","area_level":"neighbourhood","parent_id":"TR-64-003","endeksa_id":2033029},"geometry":{"coordinates":[[[29.607188136624757,38.391927323222376],[29.604945906000125,38.39229801900012],[29.60263935000006,38.39470207700009],[29.597257380000087,38.39444894700006],[29.597303814000043,38.39010040699998],[29.58634081800011,38.38439144400007],[29.57733502200017,38.38057035100019],[29.583212549000052,38.373008526000035],[29.58578283800017,38.364982743999974],[29.584480994000103,38.36409938100053],[29.587355753000168,38.36274656000006],[29.58434037100011,38.361917129999995],[29.584436226000093,38.35970769900007],[29.586707973000046,38.35968811500004],[29.589561984,38.35680981100046],[29.587865495500125,38.35623547450018],[29.590882272000044,38.35374662900017],[29.592606161000106,38.35406793700008],[29.59032372900009,38.352579266000134],[29.592196097000112,38.34868499500038],[29.59586943400018,38.34993694900004],[29.60203113,38.34834971600009],[29.608284981999986,38.35140547500009],[29.61041388700005,38.350273388999994],[29.613641510000036,38.351596543000085],[29.613920675000088,38.35325734800006],[29.615954694000095,38.348270669000385],[29.618975348000106,38.3499679560004],[29.619312408999974,38.34926579800003],[29.63735160500005,38.354612048000604],[29.639052738000032,38.3543259810001],[29.645445733000088,38.353694254000516],[29.645256640000184,38.353282445000104],[29.646822175000125,38.353019112000254],[29.646739934000152,38.3547408240006],[29.648889634000057,38.35586614200008],[29.650667801000168,38.35665739000001],[29.652625458000045,38.360522896000134],[29.660444397000106,38.363987560000055],[29.66019842200012,38.36505234400005],[29.662992686000052,38.36517830300045],[29.663398499618495,38.36503620857462],[29.6638200000001,38.36584000000022],[29.66357000000022,38.3659600000002],[29.664480000000196,38.36716000000018],[29.664050000000145,38.3673500000001],[29.66447000000005,38.36796000000015],[29.66407000000015,38.36812000000003],[29.664200000000108,38.36831000000012],[29.661770000000104,38.36889000000036],[29.661850000000186,38.3693300000005],[29.661490000000242,38.369570000000465],[29.66162000000014,38.36970000000042],[29.660680000000184,38.370030000000156],[29.659770000000037,38.37049000000019],[29.65896000000015,38.37063000000006],[29.658880000000124,38.369970000000194],[29.657610000000204,38.36995000000013],[29.657580000000166,38.3698600000003],[29.6564800000001,38.36943000000025],[29.65626000000003,38.36971000000017],[29.65559000000019,38.369390000000124],[29.655410000000245,38.369570000000465],[29.655020000000093,38.36931000000027],[29.65478000000013,38.36953000000017],[29.654150000000072,38.36912000000018],[29.653240000000096,38.370180000000346],[29.65354000000025,38.37036000000046],[29.65323000000018,38.37066000000027],[29.653310000000033,38.37070000000017],[29.652520000000038,38.371670000000165],[29.652430000000038,38.37163000000038],[29.65203000000014,38.3722200000002],[29.65047000000004,38.371800000000235],[29.650400000000104,38.37123000000014],[29.649630000000172,38.371550000000184],[29.64787000000024,38.37197000000009],[29.647320000000207,38.372330000000034],[29.64697000000018,38.37185000000011],[29.646270000000186,38.371140000000366],[29.645750000000135,38.37077000000028],[29.645430000000147,38.3714300000002],[29.645430000000147,38.3716900000004],[29.645130000000165,38.3724400000001],[29.643400000000042,38.37258000000014],[29.64369000000005,38.37593000000021],[29.642800000000136,38.37637000000035],[29.641810000000078,38.375390000000266],[29.64121000000017,38.37562000000014],[29.64136000000019,38.37628000000018],[29.640670000000114,38.37640000000016],[29.639060000000143,38.3763800000001],[29.63727000000017,38.37609000000009],[29.63610000000017,38.37617000000017],[29.63408000000021,38.376660000000186],[29.634070000000065,38.37673000000029],[29.633670000000166,38.37686000000042],[29.633860000000084,38.37729000000007],[29.633750000000077,38.37743000000012],[29.632430000000113,38.378400000000624],[29.632160000000113,38.37888000000055],[29.63102000000015,38.380100000000084],[29.63052000000016,38.38022000000058],[29.630040000000065,38.380470000000116],[29.628670000000227,38.38003000000049],[29.628550000000246,38.380100000000084],[29.62777000000017,38.37994000000015],[29.62745000000018,38.37997000000013],[29.62736000000018,38.38029000000017],[29.627100000000155,38.37983000000031],[29.626760000000104,38.37953000000033],[29.625490000000184,38.37859000000071],[29.624040000000093,38.37782000000027],[29.622980000000155,38.37866000000014],[29.623190000000136,38.37896000000006],[29.62272000000013,38.379380000000026],[29.622900000000072,38.37950000000069],[29.621580000000108,38.38052000000039],[29.62092000000007,38.38089000000059],[29.62018000000012,38.380440000000306],[29.618990000000053,38.38036000000011],[29.617520000000127,38.38003000000049],[29.61624000000006,38.3803700000002],[29.615140000000167,38.37924000000049],[29.614050000000077,38.37859000000071],[29.612470000000087,38.37946000000022],[29.610060000000146,38.388370000000066],[29.607770000000187,38.38811000000004],[29.607300000000066,38.388960000000395],[29.607188136624757,38.391927323222376]]],"type":"Polygon"}},{"type":"Feature","properties":{"area_id":"TR-64-003-2033038","name_tr":"Külköy Köyü","area_level":"neighbourhood","parent_id":"TR-64-003","endeksa_id":2033038},"geometry":{"coordinates":[[[29.555476785000053,38.39414234300028],[29.55495892099998,38.393273961000375],[29.554164464000053,38.39347902200001],[29.551609134000046,38.39192362500006],[29.552284301000043,38.387373000000025],[29.54900919300013,38.38814749100004],[29.54095859300014,38.38558763300034],[29.54297296499999,38.3838425940001],[29.54394999800013,38.38056444100039],[29.544907742000134,38.378956170000095],[29.54462115800004,38.37831255300023],[29.54478468100018,38.377763899000115],[29.543035081000028,38.37475051300038],[29.541607547000183,38.37154453000005],[29.541486460000044,38.371479264000186],[29.54012295199999,38.37198962300056],[29.53804629700005,38.37201660000039],[29.532876609000084,38.374701919000074],[29.530716368000128,38.37788422700049],[29.529485979000185,38.37682266600018],[29.523636391000082,38.37860957800001],[29.517541757999993,38.384942490000185],[29.517459691000056,38.3890702760001],[29.515167213000097,38.38877630200011],[29.51689931100003,38.39254468600052],[29.5161572990001,38.393332757999985],[29.51123478700015,38.39634103300011],[29.51093377100011,38.395236117000366],[29.510693270000047,38.395163160000095],[29.510603314000036,38.3948832130003],[29.507315469000048,38.394018923000374],[29.505562518000033,38.3877877350003],[29.50554084600003,38.38707537100015],[29.508829162000154,38.378968358000066],[29.509754367000028,38.376946675],[29.506547407000085,38.369239839000045],[29.505153306000125,38.36389634600016],[29.509058512000138,38.354540284000166],[29.50957960883335,38.3487498288647],[29.510070000000155,38.34883000000042],[29.510420000000124,38.34905000000015],[29.510820000000194,38.349000000000274],[29.511220000000094,38.34915000000058],[29.51179000000019,38.34954000000016],[29.512090000000114,38.34919000000036],[29.516180000000134,38.349860000000376],[29.52248000000003,38.35015000000021],[29.528030000000058,38.345590000000186],[29.529150000000186,38.34406000000007],[29.529280247894974,38.343233426820916],[29.530766913000093,38.34317399500003],[29.53931486400012,38.34027580900005],[29.5413262080001,38.338599829000145],[29.54152534800005,38.338616378000324],[29.54365691000004,38.34156891700013],[29.543808936000175,38.34159407400017],[29.544632480000075,38.341128549000075],[29.542983574000118,38.343834162000064],[29.549181974000135,38.34565339000028],[29.555564030000085,38.35194411300006],[29.554515406000178,38.3526799410007],[29.555656102000057,38.35379223699999],[29.555782744000055,38.35378759200006],[29.55590269999999,38.35391256800028],[29.561861057000158,38.35356384500011],[29.56117376800006,38.35754093100002],[29.56246088400013,38.3598408790001],[29.56122717700009,38.361016796000115],[29.56122860100004,38.36111774000011],[29.56146594500018,38.36121298500012],[29.56132778300008,38.36138346700017],[29.56285668100014,38.36164341200009],[29.56410688000011,38.36203034300007],[29.562134611000033,38.36287151300019],[29.562913850000143,38.36400907600006],[29.565589891000116,38.36458121900006],[29.56496455700011,38.36834035600015],[29.57029441300017,38.3739254510005],[29.56753751000008,38.37577032600029],[29.567289490000178,38.37612077000051],[29.567326393000087,38.376514532000044],[29.567222710000124,38.37642423200003],[29.567088017999993,38.37647788000004],[29.559963611,38.387812945000064],[29.560380947000112,38.38976230200052],[29.556962699000053,38.39069481200005],[29.555370128000163,38.39389830400006],[29.555476785000053,38.39414234300028]]],"type":"Polygon"}},{"type":"Feature","properties":{"area_id":"TR-64-003-2033039","name_tr":"Paşalar Köyü","area_level":"neighbourhood","parent_id":"TR-64-003","endeksa_id":2033039},"geometry":{"coordinates":[[[29.513427596459167,38.4043903040166],[29.510185966000165,38.40540234600036],[29.510207444000173,38.40547749700005],[29.50939116095259,38.40575469622473],[29.50934700823842,38.405631314388586],[29.509184761961535,38.405602979060006],[29.5067684870001,38.40629372900008],[29.506693247999976,38.40638441400023],[29.506766927000115,38.40647457600005],[29.506440870000063,38.40638715700004],[29.50152327300009,38.40779255300015],[29.49992358100002,38.40632471499998],[29.498728993000157,38.405530543],[29.49823785400008,38.4049425900003],[29.499682266000036,38.40393487600005],[29.499709655000117,38.40383247500006],[29.499601780000148,38.40376720900031],[29.50013171100005,38.403840113000115],[29.49574771500005,38.40128585300016],[29.497927363000088,38.39370980600029],[29.490715158000114,38.388466662999974],[29.48538023000009,38.38172325800008],[29.475694232000023,38.36920506100006],[29.47723575399999,38.364047798000115],[29.470111894000127,38.352253924000024],[29.47046831200015,38.343731294000406],[29.46470950900016,38.33777223400011],[29.464612356000032,38.33348968100006],[29.45778824400014,38.323889137000094],[29.45847145500005,38.320519352000076],[29.475108993000163,38.322795617000395],[29.47648758700018,38.32195127400007],[29.477251096000032,38.32162176300011],[29.477383591999967,38.32177673300015],[29.47750138000015,38.32172397100004],[29.4793270830001,38.32610676100012],[29.47957543700005,38.326221386999975],[29.480354742000145,38.32757467300007],[29.481526664000114,38.32818913000017],[29.484512551000023,38.32811180300007],[29.486668123000186,38.327731065000194],[29.487908027000117,38.32615777800049],[29.488261377000185,38.32607244300027],[29.49313166100012,38.32020775600006],[29.49638598399997,38.32387052400043],[29.497148658000015,38.33097915100018],[29.498794839000084,38.32961696300009],[29.49739110400003,38.33261831700008],[29.498194776000105,38.336755723000294],[29.498317308000082,38.336721612000076],[29.49928644500011,38.342414859000144],[29.50711422100011,38.34903455699998],[29.5094206099418,38.348680266849556],[29.50957960883335,38.3487498288647],[29.509058512000138,38.354540284000166],[29.505153306000125,38.36389634600016],[29.506547407000085,38.369239839000045],[29.509754367000028,38.376946675],[29.508829162000154,38.378968358000066],[29.50554084600003,38.38707537100015],[29.505562518000033,38.3877877350003],[29.507315469000048,38.394018923000374],[29.510603314000036,38.3948832130003],[29.510693270000047,38.395163160000095],[29.51093377100011,38.395236117000366],[29.513427596459167,38.4043903040166]]],"type":"Polygon"}},{"type":"Feature","properties":{"area_id":"TR-64-003-2033037","name_tr":"Kırkyaren Köyü","area_level":"neighbourhood","parent_id":"TR-64-003","endeksa_id":2033037},"geometry":{"coordinates":[[[29.478773435000164,38.40739096600038],[29.479694452500098,38.40836787050006],[29.479385042000047,38.40847201800011],[29.465727088000108,38.40461719100011],[29.458675677000087,38.40742840300004],[29.458173273000114,38.407449460000066],[29.454837728000086,38.404818763000094],[29.448443280000163,38.40626909500037],[29.44836806300009,38.40617841800008],[29.44844529100004,38.40392494900021],[29.44824758600015,38.40385016100009],[29.448452325999995,38.40373772600009],[29.44845947100015,38.40353089500047],[29.44229619500004,38.401570785000104],[29.439684831000136,38.39904957400017],[29.431684094000104,38.400418388000105],[29.431479627000158,38.400180176000106],[29.433369481000057,38.39157711400003],[29.43304940500019,38.39075643000035],[29.432685515000117,38.39076025500003],[29.428886483000042,38.39383822400043],[29.4206594960001,38.393778911000084],[29.419790713000054,38.39275504000034],[29.419027659000164,38.390822098000456],[29.420589912000025,38.38738635200008],[29.421873926000046,38.38529372300036],[29.419987034000087,38.38476936700067],[29.419928692000042,38.38462913600017],[29.423433150000108,38.383845935000295],[29.42300461400015,38.38186956100037],[29.430289740000035,38.374780982000175],[29.425813157000107,38.36420933800048],[29.42405996499997,38.35720508000003],[29.411917624000125,38.34996861900004],[29.408911963000037,38.344446557000026],[29.405934485000046,38.34248825600008],[29.40591825226511,38.34238993798925],[29.406707646519067,38.34220153839789],[29.407267068180033,38.34210269264139],[29.407426265704885,38.34210658170326],[29.410086989000092,38.34330476900004],[29.411890771000117,38.34365938200017],[29.41806899700009,38.34280873100005],[29.42288168700003,38.34203349300003],[29.43786671900017,38.344710600999974],[29.444523259000107,38.34463635200018],[29.445799055000123,38.34618927500014],[29.446423288000176,38.346605374000035],[29.448891258000117,38.350084187000334],[29.459780325000168,38.35345865200003],[29.451263896000114,38.35876670400046],[29.454350908500146,38.35988538350006],[29.452980371000137,38.36271700000009],[29.453580208999995,38.363481315],[29.453517047000105,38.36377443100014],[29.45876792700011,38.370105454],[29.4587162950001,38.37021104900066],[29.455181946000096,38.37209610800022],[29.45513434900016,38.37220439700002],[29.45559016600015,38.37242155600018],[29.45533883300004,38.37259778400016],[29.46202279700009,38.37548617200008],[29.468349003000014,38.3785000850001],[29.471165421000023,38.382933630000025],[29.471941075000075,38.384342238000045],[29.469407673000035,38.38681483700009],[29.469199976000027,38.38724229100029],[29.4681867810001,38.38831424100016],[29.46861108300004,38.38845427400065],[29.466542545000152,38.392711474000464],[29.466285378000066,38.397301895000226],[29.467522458000133,38.39906587400043],[29.475231707000034,38.40168954200044],[29.474978649000036,38.40356915100011],[29.47898806200004,38.40729319900004],[29.478773580000052,38.407391060000066],[29.478828809000106,38.40727125400042],[29.478773435000164,38.40739096600038]]],"type":"Polygon"}},{"type":"Feature","properties":{"area_id":"TR-64-003-2033035","name_tr":"Kavaklı Köyü","area_level":"neighbourhood","parent_id":"TR-64-003","endeksa_id":2033035},"geometry":{"coordinates":[[[29.499601780000148,38.40376720900031],[29.49716186500018,38.40345045300006],[29.49715311800003,38.40326305900015],[29.495753858000114,38.40326766200013],[29.493845202999978,38.4030198760002],[29.49383068900005,38.403142512000045],[29.49394369900017,38.40327361700014],[29.493536087000166,38.40327495800017],[29.495413103000033,38.40497822700013],[29.495848802000125,38.40548365300003],[29.494574894000095,38.40809933000037],[29.489074370000083,38.405774203000135],[29.488203365000004,38.408513551000624],[29.487784326000053,38.40868320300012],[29.483428318000108,38.40771183400028],[29.48249199900016,38.40742622200008],[29.479694452500098,38.40836787050006],[29.478773435000164,38.40739096600038],[29.478828809000106,38.40727125400042],[29.478773580000052,38.407391060000066],[29.47898806200004,38.40729319900004],[29.474978649000036,38.40356915100011],[29.475231707000034,38.40168954200044],[29.467522458000133,38.39906587400043],[29.466285378000066,38.397301895000226],[29.466542545000152,38.392711474000464],[29.46861108300004,38.38845427400065],[29.4681867810001,38.38831424100016],[29.469199976000027,38.38724229100029],[29.469407673000035,38.38681483700009],[29.471941075000075,38.384342238000045],[29.471165421000023,38.382933630000025],[29.468349003000014,38.3785000850001],[29.46202279700009,38.37548617200008],[29.45533883300004,38.37259778400016],[29.45559016600015,38.37242155600018],[29.45513434900016,38.37220439700002],[29.455181946000096,38.37209610800022],[29.4587162950001,38.37021104900066],[29.45876792700011,38.370105454],[29.453517047000105,38.36377443100014],[29.453580208999995,38.363481315],[29.452980371000137,38.36271700000009],[29.454350908500146,38.35988538350006],[29.451263896000114,38.35876670400046],[29.459780325000168,38.35345865200003],[29.464841356000136,38.354117385999984],[29.470111894000127,38.352253924000024],[29.47723575399999,38.364047798000115],[29.475694232000023,38.36920506100006],[29.48538023000009,38.38172325800008],[29.490715158000114,38.388466662999974],[29.497927363000088,38.39370980600029],[29.49574771500005,38.40128585300016],[29.50013171100005,38.403840113000115],[29.499601780000148,38.40376720900031]]],"type":"Polygon"}},{"type":"Feature","properties":{"area_id":"TR-64-003-2033032","name_tr":"Duraklı Köyü","area_level":"neighbourhood","parent_id":"TR-64-003","endeksa_id":2033032},"geometry":{"coordinates":[[[29.540331969000192,38.40796479300019],[29.535692995000034,38.408436284000175],[29.527675701000135,38.40732694800005],[29.525299145000133,38.40557473000001],[29.517241657000113,38.408787139000026],[29.513427596459167,38.4043903040166],[29.51123478700015,38.39634103300011],[29.5161572990001,38.393332757999985],[29.51689931100003,38.39254468600052],[29.515167213000097,38.38877630200011],[29.517459691000056,38.3890702760001],[29.517541757999993,38.384942490000185],[29.523636391000082,38.37860957800001],[29.529485979000185,38.37682266600018],[29.530716368000128,38.37788422700049],[29.532876609000084,38.374701919000074],[29.53804629700005,38.37201660000039],[29.54012295199999,38.37198962300056],[29.541486460000044,38.371479264000186],[29.541607547000183,38.37154453000005],[29.543035081000028,38.37475051300038],[29.54478468100018,38.377763899000115],[29.54462115800004,38.37831255300023],[29.544907742000134,38.378956170000095],[29.54394999800013,38.38056444100039],[29.54297296499999,38.3838425940001],[29.54095859300014,38.38558763300034],[29.54900919300013,38.38814749100004],[29.552284301000043,38.387373000000025],[29.551609134000046,38.39192362500006],[29.554164464000053,38.39347902200001],[29.55495892099998,38.393273961000375],[29.55595994300006,38.39495252900019],[29.555394960000115,38.39700457200058],[29.55527507300002,38.397153899000045],[29.54757375500003,38.401735302000134],[29.543450130000167,38.40223510300001],[29.54604409800004,38.40611035800015],[29.546029147000127,38.406220238000174],[29.545897454000112,38.40625165600011],[29.54544229400011,38.40600653200005],[29.537283562000084,38.40399816400014],[29.540211468000052,38.40700867300063],[29.540331969000192,38.40796479300019]]],"type":"Polygon"}},{"type":"Feature","properties":{"area_id":"TR-64-003-2033028","name_tr":"Coğuplu Köyü","area_level":"neighbourhood","parent_id":"TR-64-003","endeksa_id":2033028},"geometry":{"coordinates":[[[29.58677735900011,38.41426171000006],[29.586759921000066,38.41398637400039],[29.585830395000073,38.41214237100013],[29.584619957000143,38.41190753500007],[29.577507258000026,38.411745997000025],[29.57614205500016,38.41256904400018],[29.576502597000115,38.41481986000025],[29.572434637000185,38.41544804400036],[29.572163737000153,38.415472147000116],[29.569931962000112,38.413445550000404],[29.559233548000122,38.41380893300004],[29.550733519000175,38.408996828000056],[29.54719751100015,38.4078334980004],[29.543450130000167,38.40223510300001],[29.54757375500003,38.401735302000134],[29.55527507300002,38.397153899000045],[29.555394960000115,38.39700457200058],[29.55595994300006,38.39495252900019],[29.555476785000053,38.39414234300028],[29.555370128000163,38.39389830400006],[29.556962699000053,38.39069481200005],[29.560380947000112,38.38976230200052],[29.559963611,38.387812945000064],[29.567088017999993,38.37647788000004],[29.567222710000124,38.37642423200003],[29.567326393000087,38.376514532000044],[29.567426603000058,38.37758383000005],[29.57733502200017,38.38057035100019],[29.58634081800011,38.38439144400007],[29.597303814000043,38.39010040699998],[29.597251139000036,38.394503783000346],[29.597147513000152,38.39456636000028],[29.59527431500004,38.39452234800001],[29.592694239000082,38.394631751000134],[29.592172412000025,38.39553623300014],[29.591836701000034,38.39626307500009],[29.59448558800011,38.398124685000084],[29.59452233400009,38.39822093600014],[29.594272014000182,38.398309069000106],[29.594526993000045,38.39852176500011],[29.59046161700013,38.399616627000114],[29.590354270000034,38.399883553000166],[29.589547959000186,38.405576889000145],[29.589104807000126,38.40561146600004],[29.589049365000164,38.407203376000666],[29.589128905000166,38.40741103600044],[29.587389118000033,38.408111970000164],[29.587589975000185,38.40876993000006],[29.58926544200017,38.41236264300005],[29.588807610000117,38.41275860600041],[29.588931041000137,38.413162936000106],[29.587792961000105,38.4136361410001],[29.586992006000173,38.41432885900002],[29.586857594000094,38.41435090400017],[29.58677735900011,38.41426171000006]]],"type":"Polygon"}},{"type":"Feature","properties":{"area_id":"TR-64-003-2033033","name_tr":"Karayakuplu Köyü","area_level":"neighbourhood","parent_id":"TR-64-003","endeksa_id":2033033},"geometry":{"coordinates":[[[29.47776267500018,38.46697747200017],[29.476943186000142,38.46888276900012],[29.476808463999987,38.468923959000335],[29.476260841000055,38.468748468000115],[29.476168136000126,38.4686410700001],[29.476465106000035,38.467938577000155],[29.474130331000026,38.46739177300003],[29.474047123000048,38.4673132370001],[29.475479252000184,38.46554452000004],[29.474799733000168,38.461057701000186],[29.47278002000013,38.46178947900012],[29.471537928000032,38.45901593400009],[29.467856367000138,38.459325702000115],[29.467009049000183,38.45822533100011],[29.468443458000138,38.457689248000065],[29.466050762000066,38.455523506000645],[29.4624454690001,38.456641565000155],[29.45885862300014,38.452258138000104],[29.45570368500006,38.45254276900016],[29.448749071000123,38.448725965000165],[29.449793289000013,38.44779601300013],[29.44636261100004,38.44824902100049],[29.445199279000065,38.44523034200006],[29.44529906000008,38.44510387100013],[29.445425588000035,38.445089778000124],[29.44540448900017,38.44501970500011],[29.453060919000052,38.4442393760001],[29.442474639000068,38.42875705200021],[29.44430476200006,38.428134377000106],[29.44387636700003,38.427774078000084],[29.44386815100006,38.427655339000125],[29.44621547100013,38.42748297200012],[29.445834089000186,38.422981021000226],[29.446638555000163,38.42182616800051],[29.446675064000033,38.42133808000062],[29.44709257000011,38.42117440500067],[29.44746889999999,38.42063416400015],[29.44952825200005,38.42020858899997],[29.44952034400012,38.411862934000055],[29.447314798000036,38.41116348400004],[29.447237969000184,38.411072251000235],[29.44748765000014,38.41094286200013],[29.447143078000067,38.410804151000434],[29.449143355000103,38.41008484800034],[29.449602460000165,38.40984693100046],[29.44325352100003,38.40665100900003],[29.443408175000002,38.40656427300013],[29.442938630000185,38.406315438000206],[29.444864649000067,38.40574743200028],[29.44824758600015,38.40385016100009],[29.44844529100004,38.40392494900021],[29.44836806300009,38.40617841800008],[29.448443280000163,38.40626909500037],[29.454837728000086,38.404818763000094],[29.458173273000114,38.407449460000066],[29.458675677000087,38.40742840300004],[29.465727088000108,38.40461719100011],[29.479385042000047,38.40847201800011],[29.48249199900016,38.40742622200008],[29.483428318000108,38.40771183400028],[29.487784326000053,38.40868320300012],[29.488203365000004,38.408513551000624],[29.489074370000083,38.405774203000135],[29.494574894000095,38.40809933000037],[29.495848802000125,38.40548365300003],[29.495413103000033,38.40497822700013],[29.493536087000166,38.40327495800017],[29.49394369900017,38.40327361700014],[29.49383068900005,38.403142512000045],[29.493845202999978,38.4030198760002],[29.495753858000114,38.40326766200013],[29.49715311800003,38.40326305900015],[29.49716186500018,38.40345045300006],[29.499601780000148,38.40376720900031],[29.499709655000117,38.40383247500006],[29.499682266000036,38.40393487600005],[29.49823785400008,38.4049425900003],[29.49805195000016,38.405080836000195],[29.49745287600018,38.4046829170004],[29.497334601000034,38.40715089000008],[29.500290449000033,38.41007423500008],[29.497398475000182,38.40932081300008],[29.50264316099998,38.41575170099998],[29.49896229100011,38.42548567900019],[29.49948331500019,38.433904633000054],[29.49358761899998,38.445549118000145],[29.492802686000175,38.44631228000003],[29.49243052500003,38.44701858900015],[29.482786744000123,38.456129727000075],[29.47766593299997,38.46674421200055],[29.477792356000066,38.46684430200048],[29.47776267500018,38.46697747200017]]],"type":"Polygon"}},{"type":"Feature","properties":{"area_id":"TR-64-003-2033025","name_tr":"Alfaklar Köyü","area_level":"neighbourhood","parent_id":"TR-64-003","endeksa_id":2033025},"geometry":{"coordinates":[[[29.556780814000035,38.440870934000145],[29.556214397000133,38.44045671500004],[29.556056854000133,38.44046213000007],[29.554079565000052,38.44278193200017],[29.55485956000001,38.44438135400031],[29.554810258000032,38.44449557900026],[29.549523168999997,38.44574582300032],[29.53552810600013,38.454417733000184],[29.530641996000156,38.454870102000086],[29.5312851220001,38.458914418000006],[29.52910944500013,38.46342700800017],[29.523343002000047,38.46411961400014],[29.52330048100015,38.4642361650001],[29.52385221600008,38.46509299600035],[29.51978666600013,38.468652146000125],[29.508770976000108,38.469897182000125],[29.494572376000065,38.474491850000504],[29.494542810688245,38.47461504312662],[29.49451093860813,38.47456718895495],[29.494238519872567,38.47459535430522],[29.49444569800005,38.474475324000025],[29.494090582000126,38.47458882800004],[29.490579593000177,38.47028391000015],[29.48893831800018,38.47179703100005],[29.48739064800003,38.47080659400041],[29.488583963000053,38.469357014000195],[29.483509847000164,38.468038184000136],[29.4813350820001,38.4690761100004],[29.47782043600006,38.46684240700006],[29.47776267500018,38.46697747200017],[29.477792356000066,38.46684430200048],[29.47766593299997,38.46674421200055],[29.482786744000123,38.456129727000075],[29.49243052500003,38.44701858900015],[29.492802686000175,38.44631228000003],[29.49358761899998,38.445549118000145],[29.49948331500019,38.433904633000054],[29.49896229100011,38.42548567900019],[29.50264316099998,38.41575170099998],[29.497398475000182,38.40932081300008],[29.500290449000033,38.41007423500008],[29.497334601000034,38.40715089000008],[29.49745287600018,38.4046829170004],[29.49805195000016,38.405080836000195],[29.49823785400008,38.4049425900003],[29.498728993000157,38.405530543],[29.49992358100002,38.40632471499998],[29.50152327300009,38.40779255300015],[29.506440870000063,38.40638715700004],[29.506766927000115,38.40647457600005],[29.506693247999976,38.40638441400023],[29.5067684870001,38.40629372900008],[29.509184761961535,38.405602979060006],[29.50934700823842,38.405631314388586],[29.50939116095259,38.40575469622473],[29.510207444000173,38.40547749700005],[29.510185966000165,38.40540234600036],[29.513427596459167,38.4043903040166],[29.517241657000113,38.408787139000026],[29.525299145000133,38.40557473000001],[29.527675701000135,38.40732694800005],[29.535692995000034,38.408436284000175],[29.540331969000192,38.40796479300019],[29.54040770400013,38.40794002100006],[29.54033705100005,38.40739158800011],[29.540511953000134,38.4073345770006],[29.54408870000003,38.41100266899997],[29.54351961700013,38.41444006300003],[29.54749114100008,38.42396654800018],[29.54734835300019,38.424260719000415],[29.547459226000058,38.42456754000017],[29.54337795100014,38.43099417300016],[29.556594406000045,38.439639912000075],[29.556754583000043,38.439640392000115],[29.556780814000035,38.440870934000145]]],"type":"Polygon"}}]}