{"type":"FeatureCollection","source_id":"endeksa","retrieved_at":null,"features":[{"type":"Feature","properties":{"area_id":"TR-61-016-157151","name_tr":"Kalınçam","area_level":"neighbourhood","parent_id":"TR-61-016","endeksa_id":157151},"geometry":{"coordinates":[[[39.311595819000104,40.81904885700004],[39.3114565570001,40.81891471100016],[39.309140141000114,40.82328135400002],[39.301575641000056,40.828711026000065],[39.30021246400014,40.83220884800062],[39.29131268700013,40.832606929000065],[39.28746869600013,40.83521594300015],[39.27915041100016,40.83628712000001],[39.26971916800005,40.83501387700045],[39.269583870000076,40.83505269400001],[39.26935349100012,40.835172285000056],[39.26903741800015,40.834921883000106],[39.268577742000105,40.834859780000045],[39.26649123100003,40.833442427000136],[39.266899999000145,40.833090959000174],[39.266756989000044,40.83289942400006],[39.25970884100019,40.828517712000064],[39.25459961800016,40.82653949000013],[39.25120118300009,40.826080449000074],[39.251096920000066,40.82599291300011],[39.25080722300015,40.824156434000315],[39.24734640900016,40.82370931899999],[39.24725403600007,40.823599182000066],[39.24731779300009,40.823525100000154],[39.24715158600014,40.82368526800008],[39.247396978000154,40.82343309100008],[39.24455736700014,40.82335537700038],[39.24592594100005,40.82051321100005],[39.24490541600005,40.81779986600003],[39.2490319100001,40.813426673000265],[39.248978463000185,40.81279591400039],[39.251588495000135,40.81071761300029],[39.25278555200015,40.80937559500012],[39.248703256000056,40.80496421200007],[39.240505493000114,40.8020446440006],[39.235692523000125,40.79582385900005],[39.24131367899997,40.79235576800011],[39.241229006000026,40.78915794500011],[39.23410632700018,40.78545546700019],[39.23138267000013,40.77679256600004],[39.230913129999976,40.76921784300009],[39.226503769000146,40.766513035000116],[39.22369110700009,40.76239676199998],[39.22303312500003,40.76185827300014],[39.22166659800018,40.75944323400006],[39.216939244,40.757256615000074],[39.209193917000164,40.74945125600004],[39.20900102000013,40.74941717700011],[39.20912671638354,40.74928375459598],[39.20947696024291,40.74554099719455],[39.209920000000125,40.74489000000062],[39.20864000000006,40.73962000000017],[39.206431138000085,40.73601149800004],[39.210494111000116,40.73612925300006],[39.210267668000085,40.73827391900005],[39.21457912500006,40.73698239900017],[39.22294130400013,40.738837726999975],[39.226149601000145,40.73707129000047],[39.23085579800005,40.7309925440004],[39.229117986000176,40.7292897750001],[39.22957560400016,40.72674214400007],[39.23326926400006,40.728166513000076],[39.25346631000019,40.72786211400006],[39.25672179100013,40.725922726000135],[39.26692566400004,40.72712288400032],[39.273545485,40.725095266000096],[39.29767110500006,40.73264879400011],[39.30761534200013,40.728918810000096],[39.312649461000035,40.728717947000405],[39.324497205000114,40.73402525900042],[39.33519951464382,40.73545359039849],[39.33513250860966,40.735575163230294],[39.33522022775628,40.73566799508677],[39.335280000000125,40.73629000000034],[39.33548000000013,40.73707000000019],[39.336770000000115,40.7411100000005],[39.33482000000009,40.744570000000294],[39.33886000000024,40.7492900000002],[39.33697000000018,40.749000000000365],[39.33351000000005,40.747890000000154],[39.331680000000176,40.74797000000041],[39.33061000000009,40.7477200000003],[39.329140000000166,40.74697000000009],[39.328310000000045,40.746960000000115],[39.32746000000003,40.74750000000006],[39.326980000000106,40.74757000000068],[39.32449000000014,40.747670000000426],[39.32229000000018,40.747330000000034],[39.32003000000009,40.74747000000025],[39.31815000000012,40.74804000000012],[39.31637000000012,40.74952000000019],[39.31438000000014,40.750830000000406],[39.31209000000018,40.751670000000274],[39.31047000000012,40.75268000000017],[39.30744000000004,40.754950000000235],[39.30613000000017,40.75629000000026],[39.30494000000016,40.75731000000013],[39.304580000000215,40.75789000000049],[39.303130000000124,40.75857000000008],[39.30187000000012,40.759650000000306],[39.30104000000023,40.759570000000224],[39.30013000000025,40.760310000000345],[39.29894000000019,40.76100000000008],[39.298170000000084,40.76222000000064],[39.2977800000001,40.763590000000306],[39.29691000000008,40.76744000000053],[39.295440000000156,40.76863000000026],[39.29453000000018,40.769660000000215],[39.29394000000019,40.77083000000039],[39.29382000000004,40.771930000000054],[39.29392000000013,40.77309000000048],[39.29468000000014,40.77457000000004],[39.29528000000005,40.77640000000008],[39.2955800000002,40.77864000000068],[39.29781000000014,40.781470000000354],[39.2997000000002,40.78363000000019],[39.3008700000002,40.78423000000009],[39.30181000000016,40.7856500000002],[39.302540000000135,40.78725000000003],[39.302690000000155,40.788620000000094],[39.30271000000016,40.790140000000065],[39.30204000000015,40.79180000000031],[39.30112000000008,40.79351000000037],[39.30213000000015,40.796770000000095],[39.303440000000194,40.79842000000019],[39.30510000000021,40.80009000000052],[39.30513000000025,40.80087000000043],[39.30552000000017,40.801350000000355],[39.306660000000136,40.80196000000035],[39.30773000000005,40.80299000000031],[39.30780000000016,40.80373000000043],[39.307650000000194,40.80428000000046],[39.307900000000075,40.80471000000051],[39.30798000000016,40.80519000000044],[39.30869000000007,40.805590000000166],[39.30918000000014,40.80613000000005],[39.308820000000196,40.8070800000005],[39.30899000000005,40.80802000000011],[39.308860000000095,40.8091800000002],[39.30941000000013,40.81091000000049],[39.30986000000007,40.81277000000023],[39.31043000000017,40.81406000000038],[39.31181000000015,40.8151500000003],[39.311860000000195,40.81693000000013],[39.312210000000164,40.81750000000005],[39.310720000000174,40.818200000000274],[39.311595819000104,40.81904885700004]]],"type":"Polygon"}},{"type":"Feature","properties":{"area_id":"TR-61-016-157145","name_tr":"Çayıriçi","area_level":"neighbourhood","parent_id":"TR-61-016","endeksa_id":157145},"geometry":{"coordinates":[[[39.32177444142502,40.84626839731493],[39.32017238400016,40.84696412700032],[39.31259563800012,40.84467242400018],[39.30262187600016,40.84458487500012],[39.30158228500005,40.84529077600018],[39.299293771000066,40.8445618400001],[39.27642643299998,40.84442548100009],[39.27631330800017,40.84447500800019],[39.276313067000046,40.84457374400051],[39.27451324600008,40.8422419350004],[39.27131654700014,40.83689872500008],[39.26963547400004,40.83543992400007],[39.26953499600012,40.8351412720001],[39.269583870000076,40.83505269400001],[39.26971916800005,40.83501387700045],[39.27915041100016,40.83628712000001],[39.28746869600013,40.83521594300015],[39.29131268700013,40.832606929000065],[39.30021246400014,40.83220884800062],[39.301575641000056,40.828711026000065],[39.309140141000114,40.82328135400002],[39.3114565570001,40.81891471100016],[39.31682170869459,40.82408621343495],[39.317590000000166,40.826880000000244],[39.31894000000011,40.82736000000017],[39.32043000000016,40.82899000000003],[39.32051000000018,40.82922000000008],[39.32048000000003,40.830010000000584],[39.321030000000064,40.83164000000045],[39.32138000000003,40.83213000000035],[39.32198000000011,40.8326000000003],[39.32203000000021,40.83279000000039],[39.32278000000008,40.833660000000066],[39.32340000000005,40.83622000000014],[39.323170000000175,40.83777000000032],[39.32331000000005,40.84000000000009],[39.322420000000136,40.842120000000705],[39.32232000000022,40.8426500000005],[39.32332995515901,40.84559997597319],[39.32328000000007,40.84583187791151],[39.323212128719206,40.84573023494619],[39.32305720774946,40.84571341243799],[39.32177444142502,40.84626839731493]]],"type":"Polygon"}},{"type":"Feature","properties":{"area_id":"TR-61-016-157141","name_tr":"Biçinlik","area_level":"neighbourhood","parent_id":"TR-61-016","endeksa_id":157141},"geometry":{"coordinates":[[[39.321972734213205,40.84668533237772],[39.32155000000006,40.84674000000018],[39.32184000000012,40.84722000000011],[39.32157000000012,40.84817000000038],[39.32147000000003,40.84888000000012],[39.321680000000185,40.84954000000005],[39.32189000000017,40.84967000000012],[39.32287000000025,40.85103000000038],[39.322650000000124,40.85217000000023],[39.32269000000008,40.856060000000184],[39.3296400000001,40.860360000000696],[39.33031000000011,40.86133000000012],[39.33149701801591,40.862532236195875],[39.327208741000334,40.861639857000625],[39.312439832000166,40.86185100500069],[39.30710824500022,40.86153570500022],[39.30209733300023,40.860649664000675],[39.301943853000296,40.86076133200032],[39.3018332740001,40.86060296200037],[39.29640282400004,40.85964245500003],[39.291986051000094,40.858422273000144],[39.285022592000075,40.85559863500015],[39.281099789000166,40.85092319299997],[39.276313067000046,40.84457374400051],[39.27631330800017,40.84447500800019],[39.27642643299998,40.84442548100009],[39.299293771000066,40.8445618400001],[39.30158228500005,40.84529077600018],[39.30262187600016,40.84458487500012],[39.31259563800012,40.84467242400018],[39.32017238400016,40.84696412700032],[39.32177444142502,40.84626839731493],[39.32164377443917,40.846386492493366],[39.32164377399579,40.84654048494929],[39.32177412254782,40.846658450101586],[39.321972734213205,40.84668533237772]]],"type":"Polygon"}},{"type":"Feature","properties":{"area_id":"TR-61-016-80152","name_tr":"Kaleönü","area_level":"neighbourhood","parent_id":"TR-61-016","endeksa_id":80152},"geometry":{"coordinates":[[[39.29121282228738,40.886000099165415],[39.291040000000066,40.8860600000001],[39.29096000000021,40.88590000000005],[39.29023000000018,40.8858400000002],[39.290000000000134,40.88569000000041],[39.29001000000011,40.886200000000144],[39.28982504643295,40.88655043833859],[39.28830213900011,40.88612442700003],[39.28775437999997,40.88582206500041],[39.28785666400012,40.88540629100015],[39.28776318900009,40.88531133300006],[39.28685426100003,40.885190046000105],[39.285901865000085,40.88566807000001],[39.28554643400008,40.88526490900017],[39.28431081500008,40.884997671000235],[39.283332092000194,40.88440282500022],[39.28320053900006,40.883883210000306],[39.28092544100008,40.88347525900002],[39.27283681400007,40.880644992999976],[39.26909062200008,40.8803933610003],[39.26901298300015,40.880296247000615],[39.26923601400006,40.87980140400026],[39.26917076800015,40.87969539000005],[39.26641378700003,40.879311108000195],[39.26112275400004,40.877032784000335],[39.25884462000005,40.876266457999975],[39.25729669700013,40.87436804800012],[39.25617471600009,40.87350004300015],[39.25440434700005,40.87161501900033],[39.251550600000144,40.86993473200016],[39.247549700000036,40.8665704280001],[39.24721474500012,40.866397259999985],[39.247046194999996,40.86603263100011],[39.250953866000145,40.86139411200014],[39.251240636000034,40.8600539900001],[39.25136718100015,40.85681768500007],[39.24854373200003,40.85054557100017],[39.24865699200018,40.84995478700017],[39.24828055300003,40.84193356200001],[39.24711586300009,40.839893922000044],[39.247010807000095,40.83930697000011],[39.247782367000184,40.83595110500005],[39.25033054600004,40.830960201000096],[39.251096920000066,40.82599291300011],[39.25120118300009,40.826080449000074],[39.25459961800016,40.82653949000013],[39.25970884100019,40.828517712000064],[39.266756989000044,40.83289942400006],[39.266899999000145,40.833090959000174],[39.26649123100003,40.833442427000136],[39.268577742000105,40.834859780000045],[39.26903741800015,40.834921883000106],[39.26935349100012,40.835172285000056],[39.269583870000076,40.83505269400001],[39.26953499600012,40.8351412720001],[39.26963547400004,40.83543992400007],[39.27131654700014,40.83689872500008],[39.27451324600008,40.8422419350004],[39.276313067000046,40.84457374400051],[39.281099789000166,40.85092319299997],[39.285022592000075,40.85559863500015],[39.291986051000094,40.858422273000144],[39.29640282400004,40.85964245500003],[39.3018332740001,40.86060296200037],[39.301943853000296,40.86076133200032],[39.302011299000355,40.86113628300035],[39.30068940100023,40.86881117800027],[39.30075938500033,40.869605879000176],[39.301113230000226,40.87009426200035],[39.30105321400026,40.870594055000765],[39.30021469400032,40.87144088800039],[39.300090295000246,40.87196100600062],[39.30068298600031,40.87232059600035],[39.30060606900025,40.87293744100032],[39.29651681000024,40.87444374100028],[39.29410784900034,40.87574316200056],[39.29431777500025,40.876431194000645],[39.296164884000234,40.87855001300022],[39.29228359400025,40.88086094700026],[39.29231239600034,40.88221023700021],[39.29248721800025,40.88284328400027],[39.292096986000274,40.88286945300035],[39.2911793360002,40.885007228000575],[39.29121282228738,40.886000099165415]]],"type":"Polygon"}},{"type":"Feature","properties":{"area_id":"TR-61-016-80153","name_tr":"Karşular","area_level":"neighbourhood","parent_id":"TR-61-016","endeksa_id":80153},"geometry":{"coordinates":[[[39.35173771359314,40.87862790732282],[39.3517567008671,40.878785813821935],[39.35155852981404,40.8788332854885],[39.34948740200025,40.877936432000354],[39.34905294500027,40.87808414500023],[39.34907348800027,40.87820789100033],[39.339538431000335,40.88188466300005],[39.33663042600028,40.883426913000335],[39.332302509000215,40.88745048000027],[39.32875914200025,40.88667636100024],[39.32464770000024,40.892243924000354],[39.3245921850002,40.89220471800013],[39.32381741000029,40.8932577960004],[39.31893143900021,40.89486756700063],[39.315496233000204,40.893646289000344],[39.315443281000285,40.89673426200045],[39.31369343000034,40.89563445800076],[39.3130360640003,40.897911391000775],[39.31046197000035,40.89778419000032],[39.31247433600021,40.89668337500024],[39.311033058000305,40.89424101900033],[39.3021486800003,40.895814163000296],[39.299114363000285,40.894676258000345],[39.30085242300021,40.89136586900031],[39.29521635100036,40.891685649000294],[39.29517219904079,40.89219947691896],[39.29506412944022,40.8921039123602],[39.294937984517446,40.892173965436086],[39.29501779200035,40.89190316300068],[39.294989799161726,40.89132992468626],[39.29477000000031,40.891000000000645],[39.29279000000025,40.89030000000048],[39.29258000000027,40.890070000000605],[39.29236000000037,40.88944000000038],[39.29257000000035,40.88919000000027],[39.29255000000029,40.88881000000009],[39.29338000000041,40.8886100000006],[39.29363000000029,40.888790000000256],[39.29375000000027,40.88851000000068],[39.29381000000029,40.88831000000033],[39.29363000000029,40.88804000000033],[39.293030000000215,40.887500000000955],[39.29305000000028,40.887310000000866],[39.29345000000035,40.88677000000041],[39.293460000000266,40.886600000000556],[39.29215000000022,40.88633000000027],[39.291970000000276,40.88627000000025],[39.291980000000365,40.8862100000008],[39.29121282228738,40.886000099165415],[39.2911793360002,40.885007228000575],[39.292096986000274,40.88286945300035],[39.29248721800025,40.88284328400027],[39.29231239600034,40.88221023700021],[39.29228359400025,40.88086094700026],[39.296164884000234,40.87855001300022],[39.29431777500025,40.876431194000645],[39.29410784900034,40.87574316200056],[39.29651681000024,40.87444374100028],[39.30060606900025,40.87293744100032],[39.30068298600031,40.87232059600035],[39.300090295000246,40.87196100600062],[39.30021469400032,40.87144088800039],[39.30105321400026,40.870594055000765],[39.301113230000226,40.87009426200035],[39.30075938500033,40.869605879000176],[39.30068940100023,40.86881117800027],[39.302011299000355,40.86113628300035],[39.301943853000296,40.86076133200032],[39.30209733300023,40.860649664000675],[39.30710824500022,40.86153570500022],[39.312439832000166,40.86185100500069],[39.327208741000334,40.861639857000625],[39.33149701801591,40.862532236195875],[39.331870000000265,40.86291000000011],[39.33268000000032,40.86341000000027],[39.33356000000026,40.863740000000575],[39.334290000000294,40.865910000000895],[39.33418000000023,40.867490000000885],[39.334910000000434,40.86920000000043],[39.33585000000022,40.86883000000091],[39.33847000000026,40.86973000000023],[39.339060000000245,40.870400000000245],[39.340730000000235,40.87211000000036],[39.34263000000021,40.87197000000066],[39.3435700000004,40.873410000000604],[39.34365000000025,40.87335000000047],[39.34369000000038,40.87292000000059],[39.34422000000035,40.87128000000058],[39.344420000000355,40.87097000000051],[39.344850000000235,40.87061000000057],[39.34626000000037,40.870460000000776],[39.34924000000035,40.872720000000356],[39.349266991584614,40.87266969107924],[39.351656991000425,40.87464087600051],[39.34871505600046,40.87626826300044],[39.35173771359314,40.87862790732282]]],"type":"Polygon"}},{"type":"Feature","properties":{"area_id":"TR-61-016-80154","name_tr":"Orta","area_level":"neighbourhood","parent_id":"TR-61-016","endeksa_id":80154},"geometry":{"coordinates":[[[39.294989799161726,40.89132992468626],[39.294910000000186,40.89130000000006],[39.29449000000005,40.89206000000024],[39.294210000000135,40.89237000000031],[39.29401000000013,40.89302000000009],[39.29367000000008,40.89360000000033],[39.29360000000014,40.893970000000536],[39.29360000000014,40.8941700000002],[39.29372000000012,40.89434000000006],[39.29457000000008,40.89473000000021],[39.29477000000014,40.894960000000026],[39.29476000000017,40.895210000000134],[39.294420000000116,40.89551000000006],[39.29248000000018,40.89661000000012],[39.2925800000001,40.897030000000086],[39.292470000000094,40.89761000000044],[39.29196000000013,40.89848000000012],[39.29195000000004,40.89881000000025],[39.29144000000014,40.89929000000018],[39.291215026840916,40.899252576998265],[39.290390000000116,40.898800000000165],[39.29013000000009,40.89844000000022],[39.289960000000065,40.89836000000014],[39.289340000000095,40.89839000000035],[39.28866000000011,40.89872000000008],[39.28794000000005,40.89867000000004],[39.28788000000009,40.897960000000296],[39.288110000000074,40.89745000000016],[39.288200000000074,40.89668000000023],[39.287550000000124,40.89624000000009],[39.286800000000085,40.896080000000325],[39.28682000000015,40.89540000000022],[39.28669000000019,40.895110000000386],[39.286520000000166,40.89498000000026],[39.28583000000009,40.894870000000026],[39.28549000000004,40.89525000000003],[39.28475000000009,40.8956000000004],[39.28453000000019,40.89550000000065],[39.284420000000125,40.89485000000019],[39.28414000000009,40.8949200000003],[39.28404000000012,40.89525000000003],[39.28365000000019,40.895270000000096],[39.28282000000007,40.895120000000475],[39.28221000000008,40.89473000000021],[39.28131000000019,40.89500000000049],[39.28127000000012,40.894840000000045],[39.28084000000007,40.89444000000037],[39.28075000000007,40.894220000000075],[39.2811200000001,40.893350000000396],[39.28103000000016,40.89324000000016],[39.28045000000009,40.893290000000036],[39.27923000000004,40.893130000000156],[39.278680000000236,40.893530000000396],[39.27852000000013,40.893840000000296],[39.27802000000014,40.894220000000075],[39.27777000000003,40.89452000000006],[39.27743000000015,40.89473000000021],[39.276800000000094,40.89478000000008],[39.27614000000017,40.89475000000027],[39.274600000000135,40.89443000000023],[39.27393000000012,40.894500000000335],[39.27334000000013,40.89446000000004],[39.27255000000014,40.89411000000007],[39.271560000000136,40.893910000000176],[39.27138000000019,40.894250000000284],[39.27067000000005,40.894490000000246],[39.27046000000007,40.894530000000145],[39.27024000000017,40.894310000000246],[39.269610000000114,40.89455000000021],[39.26936000000018,40.89525000000003],[39.26947000000007,40.89550000000065],[39.26928000000015,40.89571000000029],[39.26820000000015,40.895680000000084],[39.26733000000007,40.89551000000006],[39.266390000000115,40.89565000000027],[39.26593000000008,40.89587000000017],[39.2658100000001,40.89602000000036],[39.26514000000009,40.895520000000204],[39.26527000000016,40.895550000000526],[39.26522000000011,40.89503000000013],[39.26529000000005,40.89476000000053],[39.26550000000003,40.89463000000006],[39.26573000000025,40.89359000000036],[39.265370000000075,40.892300000000205],[39.26536000000016,40.89119000000005],[39.265560000000164,40.89073000000036],[39.2659000000001,40.8902700000001],[39.26575000000008,40.8900100000003],[39.26535000000024,40.889630000000295],[39.264810000000125,40.88854000000032],[39.26403000000005,40.88767000000013],[39.263670000000104,40.887590000000046],[39.263230000000135,40.887620000000254],[39.26349000000016,40.88698000000056],[39.263010000000065,40.885390000000086],[39.26233000000008,40.884490000000596],[39.26201000000009,40.883650000000046],[39.262020000000234,40.88328000000013],[39.261520000000246,40.88292000000018],[39.261430000000075,40.88259000000028],[39.262050000000045,40.881210000000124],[39.262080000000026,40.88092000000012],[39.26241000000016,40.881110000000206],[39.26313000000005,40.882080000000144],[39.263760000000104,40.882700000000284],[39.26444000000009,40.88296000000048],[39.264680000000226,40.88315000000057],[39.26494000000025,40.88364000000007],[39.26509000000004,40.88369000000034],[39.26549000000006,40.8835500000003],[39.26640000000003,40.88346000000013],[39.26716000000005,40.88361000000026],[39.268150000000105,40.88470000000024],[39.268180000000086,40.88519000000025],[39.26802000000015,40.885850000000175],[39.26851000000022,40.88636000000042],[39.26907000000017,40.886470000000315],[39.26968000000022,40.8863300000001],[39.27083000000016,40.88656000000009],[39.27106000000015,40.88668000000007],[39.271310000000085,40.88717000000065],[39.27152000000018,40.88730000000004],[39.272920000000056,40.88656000000009],[39.273730000000114,40.88676000000015],[39.27419000000015,40.8867400000006],[39.27459000000022,40.8865900000003],[39.275160000000085,40.88657000000006],[39.27603000000016,40.8861500000001],[39.27629000000019,40.88612000000046],[39.27676000000014,40.886720000000366],[39.27712000000008,40.886910000000455],[39.277230000000145,40.887130000000184],[39.277940000000115,40.8872300000001],[39.27969000000013,40.887680000000216],[39.27972000000011,40.88788000000005],[39.28071000000011,40.88822000000016],[39.28138000000013,40.888060000000394],[39.28174000000007,40.8881300000005],[39.28193000000016,40.88804000000016],[39.281970000000115,40.88816000000014],[39.28217000000012,40.888180000000375],[39.28310000000016,40.8881300000005],[39.28410000000014,40.88789000000054],[39.28418000000016,40.8878000000002],[39.28497000000016,40.88785000000007],[39.2854200000001,40.887740000000235],[39.2854200000001,40.887840000000665],[39.28595000000007,40.887620000000254],[39.286620000000084,40.88749000000013],[39.286920000000066,40.887250000000165],[39.28762000000006,40.88695000000024],[39.28784000000013,40.88695000000024],[39.28794000000005,40.887220000000525],[39.28831000000014,40.88699000000014],[39.28858000000008,40.88657000000006],[39.288986762768786,40.88649294979808],[39.289016683404384,40.8863787910783],[39.28891468908188,40.88629577903055],[39.28982504643295,40.88655043833859],[39.29001000000011,40.886200000000144],[39.290000000000134,40.88569000000041],[39.29023000000018,40.8858400000002],[39.29096000000021,40.88590000000005],[39.291040000000066,40.8860600000001],[39.29121282228738,40.886000099165415],[39.291980000000365,40.8862100000008],[39.291970000000276,40.88627000000025],[39.29215000000022,40.88633000000027],[39.293460000000266,40.886600000000556],[39.29345000000035,40.88677000000041],[39.29305000000028,40.887310000000866],[39.293030000000215,40.887500000000955],[39.29363000000029,40.88804000000033],[39.29381000000029,40.88831000000033],[39.29375000000027,40.88851000000068],[39.29363000000029,40.888790000000256],[39.29338000000041,40.8886100000006],[39.29255000000029,40.88881000000009],[39.29257000000035,40.88919000000027],[39.29236000000037,40.88944000000038],[39.29258000000027,40.890070000000605],[39.29279000000025,40.89030000000048],[39.29477000000031,40.891000000000645],[39.294989799161726,40.89132992468626]]],"type":"Polygon"}},{"type":"Feature","properties":{"area_id":"TR-61-016-80151","name_tr":"Büyük","area_level":"neighbourhood","parent_id":"TR-61-016","endeksa_id":80151},"geometry":{"coordinates":[[[39.28760000000017,40.911160000000336],[39.28744407640312,40.91122609038189],[39.28481509400012,40.911071579000065],[39.284827525000026,40.91089965000015],[39.28421195600015,40.910843978000116],[39.28351267600004,40.910994972000026],[39.276388108000106,40.91057568600013],[39.27275452300012,40.908909210000445],[39.26759194500016,40.90889363000008],[39.261225302000184,40.901718591000304],[39.26092665300007,40.90136232000003],[39.25566733300013,40.898118570000065],[39.255513436000115,40.89813001700003],[39.25560261300012,40.8980800600001],[39.25318182400008,40.892514012000504],[39.25372956400008,40.8875036390001],[39.24749786500007,40.88119041200008],[39.247385138000084,40.87803127100011],[39.24452363900019,40.873255255000686],[39.24667653300014,40.867378639000094],[39.24654404700004,40.866531350000116],[39.246977094000044,40.86619912600048],[39.247046194999996,40.86603263100011],[39.24721474500012,40.866397259999985],[39.247549700000036,40.8665704280001],[39.251550600000144,40.86993473200016],[39.25440434700005,40.87161501900033],[39.25617471600009,40.87350004300015],[39.25729669700013,40.87436804800012],[39.25884462000005,40.876266457999975],[39.26112275400004,40.877032784000335],[39.26641378700003,40.879311108000195],[39.26917076800015,40.87969539000005],[39.26923601400006,40.87980140400026],[39.26901298300015,40.880296247000615],[39.26909062200008,40.8803933610003],[39.27283681400007,40.880644992999976],[39.28092544100008,40.88347525900002],[39.28320053900006,40.883883210000306],[39.283332092000194,40.88440282500022],[39.28431081500008,40.884997671000235],[39.28554643400008,40.88526490900017],[39.285901865000085,40.88566807000001],[39.28685426100003,40.885190046000105],[39.28776318900009,40.88531133300006],[39.28785666400012,40.88540629100015],[39.28775437999997,40.88582206500041],[39.28830213900011,40.88612442700003],[39.28891468908188,40.88629577903055],[39.289016683404384,40.8863787910783],[39.288986762768786,40.88649294979808],[39.28858000000008,40.88657000000006],[39.28831000000014,40.88699000000014],[39.28794000000005,40.887220000000525],[39.28784000000013,40.88695000000024],[39.28762000000006,40.88695000000024],[39.286920000000066,40.887250000000165],[39.286620000000084,40.88749000000013],[39.28595000000007,40.887620000000254],[39.2854200000001,40.887840000000665],[39.2854200000001,40.887740000000235],[39.28497000000016,40.88785000000007],[39.28418000000016,40.8878000000002],[39.28410000000014,40.88789000000054],[39.28310000000016,40.8881300000005],[39.28217000000012,40.888180000000375],[39.281970000000115,40.88816000000014],[39.28193000000016,40.88804000000016],[39.28174000000007,40.8881300000005],[39.28138000000013,40.888060000000394],[39.28071000000011,40.88822000000016],[39.27972000000011,40.88788000000005],[39.27969000000013,40.887680000000216],[39.277940000000115,40.8872300000001],[39.277230000000145,40.887130000000184],[39.27712000000008,40.886910000000455],[39.27676000000014,40.886720000000366],[39.27629000000019,40.88612000000046],[39.27603000000016,40.8861500000001],[39.275160000000085,40.88657000000006],[39.27459000000022,40.8865900000003],[39.27419000000015,40.8867400000006],[39.273730000000114,40.88676000000015],[39.272920000000056,40.88656000000009],[39.27152000000018,40.88730000000004],[39.271310000000085,40.88717000000065],[39.27106000000015,40.88668000000007],[39.27083000000016,40.88656000000009],[39.26968000000022,40.8863300000001],[39.26907000000017,40.886470000000315],[39.26851000000022,40.88636000000042],[39.26802000000015,40.885850000000175],[39.268180000000086,40.88519000000025],[39.268150000000105,40.88470000000024],[39.26716000000005,40.88361000000026],[39.26640000000003,40.88346000000013],[39.26549000000006,40.8835500000003],[39.26509000000004,40.88369000000034],[39.26494000000025,40.88364000000007],[39.264680000000226,40.88315000000057],[39.26444000000009,40.88296000000048],[39.263760000000104,40.882700000000284],[39.26313000000005,40.882080000000144],[39.26241000000016,40.881110000000206],[39.262080000000026,40.88092000000012],[39.262050000000045,40.881210000000124],[39.261430000000075,40.88259000000028],[39.261520000000246,40.88292000000018],[39.262020000000234,40.88328000000013],[39.26201000000009,40.883650000000046],[39.26233000000008,40.884490000000596],[39.263010000000065,40.885390000000086],[39.26349000000016,40.88698000000056],[39.263230000000135,40.887620000000254],[39.263670000000104,40.887590000000046],[39.26403000000005,40.88767000000013],[39.264810000000125,40.88854000000032],[39.26535000000024,40.889630000000295],[39.26575000000008,40.8900100000003],[39.2659000000001,40.8902700000001],[39.265560000000164,40.89073000000036],[39.26536000000016,40.89119000000005],[39.265370000000075,40.892300000000205],[39.26573000000025,40.89359000000036],[39.26550000000003,40.89463000000006],[39.26529000000005,40.89476000000053],[39.26522000000011,40.89503000000013],[39.26527000000016,40.895550000000526],[39.26514000000009,40.895520000000204],[39.2658100000001,40.89602000000036],[39.26593000000008,40.89587000000017],[39.266390000000115,40.89565000000027],[39.26733000000007,40.89551000000006],[39.26820000000015,40.895680000000084],[39.26928000000015,40.89571000000029],[39.26947000000007,40.89550000000065],[39.26936000000018,40.89525000000003],[39.269610000000114,40.89455000000021],[39.27024000000017,40.894310000000246],[39.27046000000007,40.894530000000145],[39.27067000000005,40.894490000000246],[39.27138000000019,40.894250000000284],[39.271560000000136,40.893910000000176],[39.27255000000014,40.89411000000007],[39.27334000000013,40.89446000000004],[39.27393000000012,40.894500000000335],[39.274600000000135,40.89443000000023],[39.27614000000017,40.89475000000027],[39.276800000000094,40.89478000000008],[39.27743000000015,40.89473000000021],[39.27777000000003,40.89452000000006],[39.27802000000014,40.894220000000075],[39.27852000000013,40.893840000000296],[39.278680000000236,40.893530000000396],[39.27923000000004,40.893130000000156],[39.28045000000009,40.893290000000036],[39.28103000000016,40.89324000000016],[39.2811200000001,40.893350000000396],[39.28075000000007,40.894220000000075],[39.28084000000007,40.89444000000037],[39.28127000000012,40.894840000000045],[39.28131000000019,40.89500000000049],[39.28221000000008,40.89473000000021],[39.28282000000007,40.895120000000475],[39.28365000000019,40.895270000000096],[39.28404000000012,40.89525000000003],[39.28414000000009,40.8949200000003],[39.284420000000125,40.89485000000019],[39.28453000000019,40.89550000000065],[39.28475000000009,40.8956000000004],[39.28549000000004,40.89525000000003],[39.28583000000009,40.894870000000026],[39.286520000000166,40.89498000000026],[39.28669000000019,40.895110000000386],[39.28682000000015,40.89540000000022],[39.286800000000085,40.896080000000325],[39.287550000000124,40.89624000000009],[39.288200000000074,40.89668000000023],[39.288110000000074,40.89745000000016],[39.28788000000009,40.897960000000296],[39.28794000000005,40.89867000000004],[39.28866000000011,40.89872000000008],[39.289340000000095,40.89839000000035],[39.289960000000065,40.89836000000014],[39.29013000000009,40.89844000000022],[39.290390000000116,40.898800000000165],[39.291215026840916,40.899252576998265],[39.29095336600017,40.899206721000155],[39.29040404,40.90015568300066],[39.291806011999995,40.902182747000154],[39.29231636200012,40.90507167800018],[39.29118395052092,40.906741656623126],[39.29095678841844,40.90678772814607],[39.29056000000014,40.906610000000455],[39.290430000000185,40.907010000000184],[39.28992000000011,40.906830000000184],[39.289590000000146,40.90758000000028],[39.28967000000023,40.908560000000136],[39.289590000000146,40.90928000000042],[39.28760000000017,40.911160000000336]]],"type":"Polygon"}},{"type":"Feature","properties":{"area_id":"TR-61-016-157167","name_tr":"Sayraç","area_level":"neighbourhood","parent_id":"TR-61-016","endeksa_id":157167},"geometry":{"coordinates":[[[39.239585666311484,40.91406090204583],[39.23849000000024,40.91390000000041],[39.23825000000005,40.913920000000076],[39.238050000000044,40.91415000000046],[39.23706000000004,40.91416000000021],[39.236370000000136,40.91402000000039],[39.23610000000019,40.913850000000366],[39.235750000000166,40.91382000000016],[39.23543000000018,40.91409000000033],[39.23515000000009,40.91480000000024],[39.23500000000013,40.91489000000058],[39.23345000000012,40.91362000000015],[39.233310000000074,40.91320000000019],[39.23243000000008,40.91257000000047],[39.23175000000015,40.91194000000024],[39.23094000000009,40.911470000000406],[39.23051000000004,40.911350000000425],[39.230360000000076,40.91119000000015],[39.22948000000008,40.91086000000041],[39.22683000000018,40.9094000000004],[39.22535678332446,40.90873108642734],[39.233026739000024,40.89694157600002],[39.23298660300003,40.89634506200008],[39.233057973000086,40.89623146700069],[39.23245333600005,40.88841956500039],[39.23825327200018,40.88549476300051],[39.2405089400001,40.87883660900013],[39.24038024700019,40.87871398400017],[39.240537972139464,40.878101882712656],[39.237918456491855,40.86986828368998],[39.23809225908235,40.869738104006444],[39.237696333059716,40.86314267253522],[39.23844343200011,40.862682661000406],[39.24555883900007,40.86023063200014],[39.24667653300014,40.867378639000094],[39.24452363900019,40.873255255000686],[39.247385138000084,40.87803127100011],[39.24749786500007,40.88119041200008],[39.25372956400008,40.8875036390001],[39.25318182400008,40.892514012000504],[39.25560261300012,40.8980800600001],[39.254032776000145,40.8989594790001],[39.25376270700008,40.899188079],[39.25045462200001,40.90013241600025],[39.24585413600005,40.903855492000275],[39.244658475000165,40.908416381999984],[39.24077606800017,40.91293547000015],[39.24065216700012,40.9136177820003],[39.24042779200016,40.91390908800042],[39.239585666311484,40.91406090204583]]],"type":"Polygon"}},{"type":"Feature","properties":{"area_id":"TR-61-016-80155","name_tr":"Yeni","area_level":"neighbourhood","parent_id":"TR-61-016","endeksa_id":80155},"geometry":{"coordinates":[[[39.35564585730242,40.898371654850735],[39.35568000000012,40.89788000000004],[39.34710000000007,40.89676000000031],[39.33843000000019,40.89731000000012],[39.334070000000224,40.89606000000009],[39.33267000000018,40.895140000000026],[39.330100000000186,40.894990000000405],[39.32372000000004,40.897000000000276],[39.32336000000009,40.89764000000008],[39.32276000000019,40.89842000000067],[39.32096000000013,40.89983000000012],[39.31586000000004,40.903450000000475],[39.312450000000126,40.90615000000008],[39.31153000000006,40.90678000000031],[39.31017000000014,40.9071100000001],[39.3092400000001,40.90793000000025],[39.30909000000014,40.908220000000085],[39.30906000000016,40.908680000000345],[39.30857000000009,40.90894000000014],[39.30761000000007,40.90927000000028],[39.306010000000185,40.91027000000008],[39.304180000000144,40.91098000000039],[39.30371000000014,40.91075000000052],[39.3006000000002,40.9099700000001],[39.296280000000195,40.908560000000136],[39.29528000000005,40.90814000000057],[39.29392000000013,40.907750000000306],[39.293550000000096,40.90777000000037],[39.29095678841844,40.90678772814607],[39.29118395052092,40.906741656623126],[39.29231636200012,40.90507167800018],[39.291806011999995,40.902182747000154],[39.29040404,40.90015568300066],[39.29095336600017,40.899206721000155],[39.29144000000014,40.89929000000018],[39.29195000000004,40.89881000000025],[39.29196000000013,40.89848000000012],[39.292470000000094,40.89761000000044],[39.2925800000001,40.897030000000086],[39.29248000000018,40.89661000000012],[39.294420000000116,40.89551000000006],[39.29476000000017,40.895210000000134],[39.29477000000014,40.894960000000026],[39.29457000000008,40.89473000000021],[39.29372000000012,40.89434000000006],[39.29360000000014,40.8941700000002],[39.29360000000014,40.893970000000536],[39.29367000000008,40.89360000000033],[39.29401000000013,40.89302000000009],[39.294210000000135,40.89237000000031],[39.29449000000005,40.89206000000024],[39.294910000000186,40.89130000000006],[39.294989799161726,40.89132992468626],[39.29501779200035,40.89190316300068],[39.294937984517446,40.892173965436086],[39.29506412944022,40.8921039123602],[39.29517219904079,40.89219947691896],[39.29521635100036,40.891685649000294],[39.30085242300021,40.89136586900031],[39.299114363000285,40.894676258000345],[39.3021486800003,40.895814163000296],[39.311033058000305,40.89424101900033],[39.31247433600021,40.89668337500024],[39.31046197000035,40.89778419000032],[39.3130360640003,40.897911391000775],[39.31369343000034,40.89563445800076],[39.315443281000285,40.89673426200045],[39.315496233000204,40.893646289000344],[39.31893143900021,40.89486756700063],[39.32381741000029,40.8932577960004],[39.3245921850002,40.89220471800013],[39.32464770000024,40.892243924000354],[39.32875914200025,40.88667636100024],[39.332302509000215,40.88745048000027],[39.33663042600028,40.883426913000335],[39.339538431000335,40.88188466300005],[39.34907348800027,40.87820789100033],[39.34905294500027,40.87808414500023],[39.34948740200025,40.877936432000354],[39.35155852981404,40.8788332854885],[39.3517567008671,40.878785813821935],[39.35173771359314,40.87862790732282],[39.352474248000476,40.87923218000077],[39.352003008000395,40.88130952600051],[39.353749440000456,40.883856782000464],[39.3527717920004,40.88502812900043],[39.3560022410004,40.88590114700037],[39.35988707900049,40.89020536600043],[39.36010146100051,40.89087268100053],[39.359851034000485,40.89376343300057],[39.35564585730242,40.898371654850735]]],"type":"Polygon"}},{"type":"Feature","properties":{"area_id":"TR-61-016-157169","name_tr":"Yakçukur","area_level":"neighbourhood","parent_id":"TR-61-016","endeksa_id":157169},"geometry":{"coordinates":[[[39.25756563900018,40.914691857000264],[39.25703561800009,40.91446779600011],[39.25270407700009,40.91738946600009],[39.25084564500014,40.915054341000086],[39.24663498100011,40.9158108550003],[39.24545966181074,40.917047610760505],[39.24527213286888,40.917084043869124],[39.24517096307238,40.91693661940451],[39.245512246842736,40.916298750929116],[39.245790000000056,40.91613000000018],[39.24591000000004,40.91593000000012],[39.24491000000012,40.915900000000306],[39.24468000000007,40.91579000000007],[39.24442000000005,40.91545000000019],[39.24385000000012,40.9154400000001],[39.24323000000021,40.91519000000039],[39.24261000000024,40.91509000000008],[39.24211000000008,40.91461000000015],[39.24157000000014,40.91446000000053],[39.24088000000006,40.91412000000014],[39.24056000000007,40.91405000000003],[39.239585666311484,40.91406090204583],[39.24042779200016,40.91390908800042],[39.24065216700012,40.9136177820003],[39.24077606800017,40.91293547000015],[39.244658475000165,40.908416381999984],[39.24585413600005,40.903855492000275],[39.25045462200001,40.90013241600025],[39.25376270700008,40.899188079],[39.254032776000145,40.8989594790001],[39.255513436000115,40.89813001700003],[39.25566733300013,40.898118570000065],[39.26092665300007,40.90136232000003],[39.261225302000184,40.901718591000304],[39.26108589200004,40.90167760600019],[39.26098717000019,40.9017630190001],[39.26101650200013,40.90199228900002],[39.26008786800003,40.90882106700019],[39.259526719000064,40.908900518999985],[39.25739967999999,40.91422223100017],[39.25775723200013,40.91458600900006],[39.25770639500007,40.91468519000051],[39.25756563900018,40.914691857000264]]],"type":"Polygon"}},{"type":"Feature","properties":{"area_id":"TR-61-016-197749","name_tr":"Turalı","area_level":"neighbourhood","parent_id":"TR-61-016","endeksa_id":197749},"geometry":{"coordinates":[[[39.245512246842736,40.916298750929116],[39.24527000000006,40.91637000000014],[39.24495000000019,40.91672000000011],[39.2448500000001,40.916730000000086],[39.24450000000013,40.917240000000334],[39.244830000000036,40.91743000000042],[39.24465000000009,40.91790000000026],[39.243590000000154,40.917880000000025],[39.24317000000019,40.91795000000013],[39.24268000000018,40.91782000000018],[39.242040000000145,40.918010000000095],[39.242260000000044,40.918190000000095],[39.24203000000017,40.91847000000013],[39.24214000000006,40.9188300000003],[39.24184000000008,40.91890000000018],[39.24197000000004,40.919240000000286],[39.242470000000196,40.91918000000027],[39.24242000000015,40.91982000000064],[39.24252000000007,40.9199100000003],[39.24194000000023,40.920210000000225],[39.24228000000011,40.92169000000047],[39.241980000000126,40.92208000000005],[39.24206000000021,40.92249000000004],[39.24189000000018,40.92341000000067],[39.24072000000018,40.9241600000002],[39.24061000000012,40.92521000000039],[39.239940000000104,40.92539000000039],[39.238910000000146,40.926130000000114],[39.237960000000044,40.92625000000032],[39.2367000000001,40.92604000000017],[39.23557000000022,40.92493000000013],[39.23460000000006,40.92472000000038],[39.23183000000017,40.925070000000176],[39.230860000000064,40.925880000000404],[39.228570000000104,40.92704000000009],[39.22854000000012,40.92757000000029],[39.2281500000002,40.92751000000027],[39.2276600006968,40.927299999853574],[39.227240004937585,40.92635734441507],[39.22669000000019,40.92466000000036],[39.22617000000014,40.92350000000033],[39.22573000000011,40.91904000000005],[39.22538000000014,40.9180800000002],[39.224790000000155,40.91685000000007],[39.22397000000018,40.916090000000395],[39.222280000000126,40.91510000000022],[39.22102000000018,40.9146200000003],[39.221010000000035,40.91419000000025],[39.22130000000004,40.91386000000011],[39.22135676043462,40.91363926497712],[39.22162000000009,40.91321000000016],[39.22190000000012,40.913120000000504],[39.22291000000024,40.91223000000008],[39.223090539190025,40.91215442543],[39.22357000000011,40.91153000000003],[39.22375000000011,40.911130000000185],[39.2234600000001,40.91056000000043],[39.22385000000003,40.909240000000636],[39.22535678332446,40.90873108642734],[39.22683000000018,40.9094000000004],[39.22948000000008,40.91086000000041],[39.230360000000076,40.91119000000015],[39.23051000000004,40.911350000000425],[39.23094000000009,40.911470000000406],[39.23175000000015,40.91194000000024],[39.23243000000008,40.91257000000047],[39.233310000000074,40.91320000000019],[39.23345000000012,40.91362000000015],[39.23500000000013,40.91489000000058],[39.23515000000009,40.91480000000024],[39.23543000000018,40.91409000000033],[39.235750000000166,40.91382000000016],[39.23610000000019,40.913850000000366],[39.236370000000136,40.91402000000039],[39.23706000000004,40.91416000000021],[39.238050000000044,40.91415000000046],[39.23825000000005,40.913920000000076],[39.23849000000024,40.91390000000041],[39.239585666311484,40.91406090204583],[39.24056000000007,40.91405000000003],[39.24088000000006,40.91412000000014],[39.24157000000014,40.91446000000053],[39.24211000000008,40.91461000000015],[39.24261000000024,40.91509000000008],[39.24323000000021,40.91519000000039],[39.24385000000012,40.9154400000001],[39.24442000000005,40.91545000000019],[39.24468000000007,40.91579000000007],[39.24491000000012,40.915900000000306],[39.24591000000004,40.91593000000012],[39.245790000000056,40.91613000000018],[39.245512246842736,40.916298750929116]]],"type":"Polygon"}},{"type":"Feature","properties":{"area_id":"TR-61-016-157143","name_tr":"Çamlı","area_level":"neighbourhood","parent_id":"TR-61-016","endeksa_id":157143},"geometry":{"coordinates":[[[39.303040000000124,40.910580000000664],[39.30290000000008,40.91121000000021],[39.30224000000004,40.911440000000084],[39.300340000000176,40.911880000000224],[39.29919000000007,40.91170000000028],[39.299040000000105,40.91185000000007],[39.2985700000001,40.91186000000016],[39.29825000000011,40.91214000000042],[39.29800000000023,40.91303000000016],[39.29626000000013,40.914570000000424],[39.29710000000017,40.91453000000013],[39.298390000000154,40.91409000000033],[39.29893000000004,40.91415000000046],[39.29951000000011,40.913450000000125],[39.29989000000012,40.91359000000034],[39.299570000000074,40.91434000000055],[39.299810000000036,40.91458000000051],[39.29950000000014,40.91484000000071],[39.2985700000001,40.91518000000042],[39.29834000000011,40.91554000000036],[39.29890000000006,40.91589000000022],[39.297550000000115,40.916930000000264],[39.297180000000196,40.91682000000043],[39.2958000000001,40.917270000000144],[39.29565000000008,40.91697000000005],[39.29507000000007,40.917350000000226],[39.293590000000165,40.91800000000069],[39.29319000000015,40.91775000000007],[39.291880000000106,40.91786000000047],[39.29146000000014,40.9179900000002],[39.289990000000046,40.91602000000029],[39.2905100000001,40.91520000000014],[39.28975000000008,40.915220000000204],[39.28936000000016,40.915000000000305],[39.28853000000004,40.91477000000009],[39.28800000000007,40.91479000000015],[39.288320000000056,40.91369000000009],[39.287890000000175,40.911870000000135],[39.28760000000017,40.911160000000336],[39.289590000000146,40.90928000000042],[39.28967000000023,40.908560000000136],[39.289590000000146,40.90758000000028],[39.28992000000011,40.906830000000184],[39.290430000000185,40.907010000000184],[39.29056000000014,40.906610000000455],[39.29095678841844,40.90678772814607],[39.293550000000096,40.90777000000037],[39.29392000000013,40.907750000000306],[39.29528000000005,40.90814000000057],[39.296280000000195,40.908560000000136],[39.3006000000002,40.9099700000001],[39.303040000000124,40.910580000000664]]],"type":"Polygon"}},{"type":"Feature","properties":{"area_id":"TR-61-016-157163","name_tr":"Melikşah","area_level":"neighbourhood","parent_id":"TR-61-016","endeksa_id":157163},"geometry":{"coordinates":[[[39.27638222000019,40.931664938000324],[39.276171999999974,40.931948594000346],[39.269217217000175,40.9260953000001],[39.26522483400015,40.92628446300006],[39.264399342000104,40.92749275900053],[39.25949732400005,40.92891462400013],[39.25944311720917,40.92900521918148],[39.25930427061269,40.929054987108145],[39.25922176631474,40.928995086199166],[39.25762112500013,40.9250046520001],[39.25816033000007,40.92427857300015],[39.25818462900003,40.92408232600019],[39.260858149000114,40.919661903000076],[39.261052781000046,40.918717096000194],[39.2598007580001,40.91654894500044],[39.2581309200001,40.91493082400041],[39.25756563900018,40.914691857000264],[39.25770639500007,40.91468519000051],[39.25775723200013,40.91458600900006],[39.25739967999999,40.91422223100017],[39.259526719000064,40.908900518999985],[39.26008786800003,40.90882106700019],[39.26101650200013,40.90199228900002],[39.26098717000019,40.9017630190001],[39.26108589200004,40.90167760600019],[39.261225302000184,40.901718591000304],[39.26759194500016,40.90889363000008],[39.27275452300012,40.908909210000445],[39.276388108000106,40.91057568600013],[39.28351267600004,40.910994972000026],[39.28421195600015,40.910843978000116],[39.284827525000026,40.91089965000015],[39.28481509400012,40.911071579000065],[39.28744407640312,40.91122609038189],[39.28760000000017,40.911160000000336],[39.287890000000175,40.911870000000135],[39.288320000000056,40.91369000000009],[39.28800000000007,40.91479000000015],[39.28762000000006,40.9154400000001],[39.287790000000086,40.91599000000065],[39.28787000000011,40.916740000000175],[39.28893000000011,40.917540000000315],[39.2874700000001,40.91952000000015],[39.28670000000017,40.91963000000055],[39.28685000000013,40.91995000000003],[39.28681000000017,40.92010000000039],[39.287050000000136,40.920170000000326],[39.286490000000185,40.92056000000008],[39.28681000000017,40.920520000000295],[39.28672000000017,40.92097000000058],[39.28679000000011,40.92140000000063],[39.286210000000096,40.924640000000124],[39.286363546101995,40.92519700481256],[39.286535344000185,40.92528084500066],[39.285824603000094,40.92553423600003],[39.28067248800005,40.928277220000155],[39.280800092000106,40.927474990000064],[39.280614245000095,40.92739182000008],[39.27916654900008,40.92790794900009],[39.27638222000019,40.931664938000324]]],"type":"Polygon"}},{"type":"Feature","properties":{"area_id":"TR-61-016-157153","name_tr":"Karaağaçlı","area_level":"neighbourhood","parent_id":"TR-61-016","endeksa_id":157153},"geometry":{"coordinates":[[[39.291824206931096,40.9297475806128],[39.29092854048304,40.92993939813448],[39.29065701403994,40.93003001645923],[39.29084000000023,40.9305700000005],[39.29082000000017,40.93075000000033],[39.290610000000186,40.93107000000066],[39.29065000000014,40.93153000000035],[39.29028000000005,40.932720000000074],[39.290080000000046,40.93305000000038],[39.28971000000013,40.93295000000006],[39.28866000000011,40.93195000000031],[39.28844000000021,40.93199000000004],[39.28769000000017,40.931260000000066],[39.2874700000001,40.930870000000084],[39.28586000000007,40.929780000000505],[39.28503000000018,40.92992000000004],[39.28432000000004,40.92960000000039],[39.28484000000009,40.9276000000001],[39.285220000000095,40.92726000000022],[39.285840000000235,40.92728000000005],[39.28669000000019,40.92695000000015],[39.28707000000003,40.9266700000004],[39.287700000000086,40.9259900000003],[39.28780000000023,40.92547000000059],[39.287460000000124,40.9252400000002],[39.28689000000003,40.92515000000043],[39.286363546101995,40.92519700481256],[39.286210000000096,40.924640000000124],[39.28679000000011,40.92140000000063],[39.28672000000017,40.92097000000058],[39.28681000000017,40.920520000000295],[39.286490000000185,40.92056000000008],[39.287050000000136,40.920170000000326],[39.28681000000017,40.92010000000039],[39.28685000000013,40.91995000000003],[39.28670000000017,40.91963000000055],[39.2874700000001,40.91952000000015],[39.28893000000011,40.917540000000315],[39.28787000000011,40.916740000000175],[39.287790000000086,40.91599000000065],[39.28762000000006,40.9154400000001],[39.28800000000007,40.91479000000015],[39.28853000000004,40.91477000000009],[39.28936000000016,40.915000000000305],[39.28975000000008,40.915220000000204],[39.2905100000001,40.91520000000014],[39.289990000000046,40.91602000000029],[39.29146000000014,40.9179900000002],[39.291880000000106,40.91786000000047],[39.29319000000015,40.91775000000007],[39.293590000000165,40.91800000000069],[39.29507000000007,40.917350000000226],[39.29565000000008,40.91697000000005],[39.2958000000001,40.917270000000144],[39.297180000000196,40.91682000000043],[39.297550000000115,40.916930000000264],[39.29890000000006,40.91589000000022],[39.29834000000011,40.91554000000036],[39.2985700000001,40.91518000000042],[39.29950000000014,40.91484000000071],[39.299810000000036,40.91458000000051],[39.299570000000074,40.91434000000055],[39.29989000000012,40.91359000000034],[39.29951000000011,40.913450000000125],[39.29893000000004,40.91415000000046],[39.298390000000154,40.91409000000033],[39.29710000000017,40.91453000000013],[39.29626000000013,40.914570000000424],[39.29800000000023,40.91303000000016],[39.29825000000011,40.91214000000042],[39.2985700000001,40.91186000000016],[39.299040000000105,40.91185000000007],[39.29919000000007,40.91170000000028],[39.300340000000176,40.911880000000224],[39.30224000000004,40.911440000000084],[39.30290000000008,40.91121000000021],[39.303040000000124,40.910580000000664],[39.30371000000014,40.91075000000052],[39.304180000000144,40.91098000000039],[39.306010000000185,40.91027000000008],[39.30761000000007,40.90927000000028],[39.30857000000009,40.90894000000014],[39.30906000000016,40.908680000000345],[39.30909000000014,40.908220000000085],[39.3092400000001,40.90793000000025],[39.31017000000014,40.9071100000001],[39.31153000000006,40.90678000000031],[39.312450000000126,40.90615000000008],[39.31586000000004,40.903450000000475],[39.32096000000013,40.89983000000012],[39.32276000000019,40.89842000000067],[39.32336000000009,40.89764000000008],[39.32372000000004,40.897000000000276],[39.330100000000186,40.894990000000405],[39.33267000000018,40.895140000000026],[39.334070000000224,40.89606000000009],[39.33843000000019,40.89731000000012],[39.34710000000007,40.89676000000031],[39.35568000000012,40.89788000000004],[39.35563000000025,40.89860000000027],[39.35692000000023,40.89887000000044],[39.35953000000035,40.89875000000097],[39.36142000000024,40.898810000000424],[39.36275000000035,40.89852000000059],[39.36491000000035,40.89847000000054],[39.365390000000104,40.898610000000076],[39.36630000000008,40.89912000000032],[39.36769000000015,40.9000300000003],[39.36896000000007,40.90126000000032],[39.36965000000015,40.902120000000025],[39.36992000000009,40.902620000000184],[39.3711600000002,40.90375000000029],[39.372140000000115,40.90514000000036],[39.372790000000066,40.90656000000058],[39.373470000000225,40.9075000000002],[39.37578000000019,40.90973000000014],[39.376540000000034,40.91062000000005],[39.376790000000085,40.9113600000004],[39.37680000000023,40.91225000000031],[39.37641000000008,40.91291000000018],[39.3755900000001,40.91351000000009],[39.374620000000164,40.91405000000003],[39.37364000000025,40.91484000000071],[39.37155000000013,40.91382000000016],[39.370870000000025,40.91372000000041],[39.36946000000006,40.91304000000031],[39.3690900000002,40.91270000000003],[39.366440000000125,40.91163000000017],[39.365260000000205,40.91130000000055],[39.36388000000005,40.91127000000023],[39.36200000000008,40.91139000000021],[39.35844000000009,40.911870000000135],[39.35689000000008,40.91236000000015],[39.35543000000007,40.913460000000214],[39.35439000000014,40.91461000000015],[39.35365000000024,40.91523000000029],[39.35190000000017,40.916960000000074],[39.35115000000013,40.91715000000016],[39.350120000000175,40.9171300000001],[39.34920000000011,40.91657000000032],[39.34821000000005,40.91557000000017],[39.34775000000019,40.91579000000007],[39.347330000000056,40.91617000000008],[39.34690000000023,40.91703000000018],[39.34649000000019,40.917050000000245],[39.34623000000022,40.91675000000032],[39.34577000000013,40.916520000000446],[39.34512000000018,40.91647000000057],[39.344630000000166,40.916150000000414],[39.34399000000013,40.91602000000029],[39.34364000000011,40.915810000000135],[39.34118000000018,40.91551000000004],[39.3402200000001,40.915250000000526],[39.33925000000016,40.91461000000015],[39.33858000000015,40.91458000000051],[39.33702000000005,40.91428000000042],[39.3360600000002,40.91393000000005],[39.33427000000006,40.91351000000009],[39.33353000000011,40.913420000000315],[39.33258000000018,40.913120000000504],[39.332180000000164,40.91292000000033],[39.33062000000018,40.91245000000049],[39.32922000000019,40.9115800000003],[39.327720000000056,40.91097000000025],[39.32720000000023,40.91099000000048],[39.325990000000104,40.91081000000014],[39.3257900000001,40.91125000000068],[39.3246900000002,40.91260000000011],[39.3247300000001,40.91318000000035],[39.324660000000165,40.91344000000015],[39.32495000000023,40.914170000000695],[39.32470000000012,40.91542000000038],[39.323700000000144,40.91617000000008],[39.323350000000175,40.91678000000013],[39.32262000000014,40.917580000000044],[39.322650000000124,40.917880000000025],[39.32219000000009,40.91836000000012],[39.321900000000085,40.919550000000356],[39.321280000000115,40.91993000000036],[39.32082000000008,40.92045000000019],[39.31997000000007,40.92085000000009],[39.319110000000194,40.92096000000009],[39.31850000000014,40.92118000000022],[39.31875000000025,40.92203000000018],[39.31867000000017,40.922070000000645],[39.31913000000003,40.922750000000065],[39.31869000000006,40.9233000000001],[39.31826000000018,40.92308000000037],[39.31788000000017,40.92274000000066],[39.31655000000012,40.92301000000026],[39.31619000000018,40.92283000000032],[39.315800000000195,40.92307000000028],[39.315330000000245,40.92309000000034],[39.31410000000005,40.923980000000256],[39.31382000000019,40.924420000000396],[39.31385000000017,40.924820000000125],[39.31297000000018,40.92492000000004],[39.311120000000074,40.924730000000466],[39.311400000000106,40.925130000000195],[39.31027000000006,40.92533000000037],[39.31018000000006,40.92564000000044],[39.31027000000006,40.92579000000006],[39.309820000000116,40.9257700000004],[39.30940000000004,40.925910000000044],[39.30880000000013,40.92586000000017],[39.308270000000164,40.92601000000036],[39.30726000000004,40.926000000000386],[39.30656000000005,40.925910000000044],[39.3060000000001,40.925660000000676],[39.305350000000146,40.925660000000676],[39.304860000000076,40.92637000000008],[39.30434000000025,40.926840000000254],[39.30330000000015,40.92735000000039],[39.302380000000085,40.9276000000001],[39.30172000000016,40.9280600000003],[39.30129000000011,40.92809000000011],[39.30112000000008,40.927760000000376],[39.3008200000001,40.92801000000043],[39.30088000000012,40.92822000000007],[39.30041000000011,40.92819000000003],[39.300430000000176,40.92805000000021],[39.2999200000001,40.9283200000005],[39.29958000000022,40.92816000000005],[39.299480000000074,40.92836000000028],[39.29930000000013,40.9283200000005],[39.29881000000006,40.92857000000021],[39.29855000000009,40.928200000000516],[39.297980000000166,40.928290000000175],[39.29759000000024,40.92822000000007],[39.29689000000019,40.927920000000086],[39.29633000000007,40.92721000000034],[39.29534000000024,40.92791000000068],[39.29534000000024,40.92770000000036],[39.295140000000174,40.92729000000054],[39.29499000000004,40.92705000000058],[39.29487000000006,40.92704000000009],[39.294640000000186,40.92723000000018],[39.29437000000007,40.92765000000048],[39.29424000000017,40.92835000000014],[39.29447000000016,40.92856000000046],[39.294330000000116,40.9287700000001],[39.29353000000003,40.929040000000384],[39.292530000000056,40.92913000000004],[39.29209000000009,40.929340000000366],[39.29204000000021,40.9296700000001],[39.2918536636858,40.92958399862448],[39.29190351105348,40.92969172000812],[39.291824206931096,40.9297475806128]]],"type":"Polygon"}},{"type":"Feature","properties":{"area_id":"TR-61-016-157149","name_tr":"Kalemli","area_level":"neighbourhood","parent_id":"TR-61-016","endeksa_id":157149},"geometry":{"coordinates":[[[39.26122851700018,40.94525851100036],[39.26113036200013,40.94525871200011],[39.25904500000007,40.94325911000004],[39.25853533399999,40.944018701999994],[39.257063292000055,40.93949263200051],[39.257571355000096,40.93197151400011],[39.25933413400003,40.929313236999974],[39.25944311720917,40.92900521918148],[39.25949732400005,40.92891462400013],[39.264399342000104,40.92749275900053],[39.26522483400015,40.92628446300006],[39.269217217000175,40.9260953000001],[39.276171999999974,40.931948594000346],[39.27638222000019,40.931664938000324],[39.279294648000075,40.935922696000034],[39.278382849000025,40.937227911000264],[39.280091157000186,40.94046950500007],[39.278680490000056,40.94082001800001],[39.274736273000144,40.942229295000004],[39.261073020000026,40.94519500200016],[39.26122851700018,40.94525851100036]]],"type":"Polygon"}},{"type":"Feature","properties":{"area_id":"TR-61-016-157139","name_tr":"İskenderli","area_level":"neighbourhood","parent_id":"TR-61-016","endeksa_id":157139},"geometry":{"coordinates":[[[39.25853533399999,40.944018701999994],[39.25875158500003,40.94473770399998],[39.25715381300017,40.94607768500009],[39.24815521400001,40.94579679000003],[39.24612589700007,40.94722967300021],[39.23667632700017,40.94538989500006],[39.232687775000045,40.94579166799997],[39.23239209500008,40.947838396000066],[39.232288525,40.94792032099997],[39.22698563400013,40.94692126800004],[39.22357088394335,40.94484066295797],[39.22303422300013,40.942602267000495],[39.22342417900006,40.93979564000017],[39.224331678000055,40.939917564000496],[39.22427189300004,40.93363252600005],[39.227554055000155,40.930732642000635],[39.227087100000176,40.93055177100018],[39.22755910800015,40.93073359100009],[39.227240004937585,40.92635734441507],[39.2276600006968,40.927299999853574],[39.2281500000002,40.92751000000027],[39.22854000000012,40.92757000000029],[39.228570000000104,40.92704000000009],[39.230860000000064,40.925880000000404],[39.23183000000017,40.925070000000176],[39.23460000000006,40.92472000000038],[39.23557000000022,40.92493000000013],[39.2367000000001,40.92604000000017],[39.237960000000044,40.92625000000032],[39.238910000000146,40.926130000000114],[39.239940000000104,40.92539000000039],[39.24061000000012,40.92521000000039],[39.24072000000018,40.9241600000002],[39.24189000000018,40.92341000000067],[39.24206000000021,40.92249000000004],[39.241980000000126,40.92208000000005],[39.24228000000011,40.92169000000047],[39.24194000000023,40.920210000000225],[39.24252000000007,40.9199100000003],[39.24242000000015,40.91982000000064],[39.242470000000196,40.91918000000027],[39.24197000000004,40.919240000000286],[39.24184000000008,40.91890000000018],[39.24214000000006,40.9188300000003],[39.24203000000017,40.91847000000013],[39.242260000000044,40.918190000000095],[39.242040000000145,40.918010000000095],[39.24268000000018,40.91782000000018],[39.24317000000019,40.91795000000013],[39.243590000000154,40.917880000000025],[39.24465000000009,40.91790000000026],[39.244830000000036,40.91743000000042],[39.24450000000013,40.917240000000334],[39.2448500000001,40.916730000000086],[39.24495000000019,40.91672000000011],[39.24527000000006,40.91637000000014],[39.245512246842736,40.916298750929116],[39.24517096307238,40.91693661940451],[39.24527213286888,40.917084043869124],[39.24545966181074,40.917047610760505],[39.24663498100011,40.9158108550003],[39.25084564500014,40.915054341000086],[39.25270407700009,40.91738946600009],[39.25703561800009,40.91446779600011],[39.2581309200001,40.91493082400041],[39.2598007580001,40.91654894500044],[39.261052781000046,40.918717096000194],[39.260858149000114,40.919661903000076],[39.25818462900003,40.92408232600019],[39.25816033000007,40.92427857300015],[39.25762112500013,40.9250046520001],[39.25922176631474,40.928995086199166],[39.25930427061269,40.929054987108145],[39.25944311720917,40.92900521918148],[39.25933413400003,40.929313236999974],[39.257571355000096,40.93197151400011],[39.257063292000055,40.93949263200051],[39.25853533399999,40.944018701999994]]],"type":"Polygon"}},{"type":"Feature","properties":{"area_id":"TR-61-016-157147","name_tr":"Hoşarlı","area_level":"neighbourhood","parent_id":"TR-61-016","endeksa_id":157147},"geometry":{"coordinates":[[[39.33377061899455,40.93932809491628],[39.33365779785419,40.9392086730528],[39.333470335919856,40.93925349405373],[39.33322685400009,40.939915336000126],[39.32841180800011,40.94051750800003],[39.3284022150001,40.94137746400014],[39.32831441000002,40.94146016800005],[39.32541576,40.94089217400017],[39.32584034050018,40.944128106000164],[39.32393688600007,40.94680744100009],[39.31777936000003,40.948640297000395],[39.31077651300012,40.94849836600014],[39.29764388000007,40.94379459700002],[39.296147466000036,40.94453492500003],[39.29677824900011,40.945548364000274],[39.29182582400006,40.94511718500007],[39.29137083700016,40.946582727000134],[39.29123584000007,40.94660427200006],[39.290515507000066,40.94633901200018],[39.29048275300005,40.94612070000005],[39.29582516600004,40.93648744900014],[39.29312781100003,40.934742309000114],[39.29212735900006,40.932972414000176],[39.29207640999999,40.93098496600055],[39.2923128810001,40.93064049200029],[39.29218282300019,40.930693189000124],[39.29207167900006,40.93062245700031],[39.292045706000124,40.92979680200011],[39.29197327000003,40.92971565700009],[39.291824206931096,40.9297475806128],[39.29190351105348,40.92969172000812],[39.2918536636858,40.92958399862448],[39.29204000000021,40.9296700000001],[39.29209000000009,40.929340000000366],[39.292530000000056,40.92913000000004],[39.29353000000003,40.929040000000384],[39.294330000000116,40.9287700000001],[39.29447000000016,40.92856000000046],[39.29424000000017,40.92835000000014],[39.29437000000007,40.92765000000048],[39.294640000000186,40.92723000000018],[39.29487000000006,40.92704000000009],[39.29499000000004,40.92705000000058],[39.295140000000174,40.92729000000054],[39.29534000000024,40.92770000000036],[39.29534000000024,40.92791000000068],[39.29633000000007,40.92721000000034],[39.29689000000019,40.927920000000086],[39.29759000000024,40.92822000000007],[39.297980000000166,40.928290000000175],[39.29855000000009,40.928200000000516],[39.29881000000006,40.92857000000021],[39.29930000000013,40.9283200000005],[39.299480000000074,40.92836000000028],[39.29958000000022,40.92816000000005],[39.2999200000001,40.9283200000005],[39.300430000000176,40.92805000000021],[39.30041000000011,40.92819000000003],[39.30088000000012,40.92822000000007],[39.3008200000001,40.92801000000043],[39.30112000000008,40.927760000000376],[39.30129000000011,40.92809000000011],[39.30172000000016,40.9280600000003],[39.302380000000085,40.9276000000001],[39.30330000000015,40.92735000000039],[39.30434000000025,40.926840000000254],[39.304860000000076,40.92637000000008],[39.305350000000146,40.925660000000676],[39.3060000000001,40.925660000000676],[39.30656000000005,40.925910000000044],[39.30726000000004,40.926000000000386],[39.308270000000164,40.92601000000036],[39.30880000000013,40.92586000000017],[39.30940000000004,40.925910000000044],[39.309820000000116,40.9257700000004],[39.31027000000006,40.92579000000006],[39.31018000000006,40.92564000000044],[39.31027000000006,40.92533000000037],[39.311400000000106,40.925130000000195],[39.311120000000074,40.924730000000466],[39.31297000000018,40.92492000000004],[39.31385000000017,40.924820000000125],[39.31382000000019,40.924420000000396],[39.31410000000005,40.923980000000256],[39.315330000000245,40.92309000000034],[39.315800000000195,40.92307000000028],[39.31619000000018,40.92283000000032],[39.31655000000012,40.92301000000026],[39.31788000000017,40.92274000000066],[39.31826000000018,40.92308000000037],[39.31869000000006,40.9233000000001],[39.31913000000003,40.922750000000065],[39.31867000000017,40.922070000000645],[39.31875000000025,40.92203000000018],[39.31850000000014,40.92118000000022],[39.319110000000194,40.92096000000009],[39.31997000000007,40.92085000000009],[39.32082000000008,40.92045000000019],[39.321280000000115,40.91993000000036],[39.321900000000085,40.919550000000356],[39.32219000000009,40.91836000000012],[39.322650000000124,40.917880000000025],[39.32262000000014,40.917580000000044],[39.323350000000175,40.91678000000013],[39.323700000000144,40.91617000000008],[39.32470000000012,40.91542000000038],[39.32495000000023,40.914170000000695],[39.324660000000165,40.91344000000015],[39.3247300000001,40.91318000000035],[39.3246900000002,40.91260000000011],[39.3257900000001,40.91125000000068],[39.325990000000104,40.91081000000014],[39.32720000000023,40.91099000000048],[39.327720000000056,40.91097000000025],[39.32922000000019,40.9115800000003],[39.33062000000018,40.91245000000049],[39.332180000000164,40.91292000000033],[39.33258000000018,40.913120000000504],[39.33353000000011,40.913420000000315],[39.33427000000006,40.91351000000009],[39.3360600000002,40.91393000000005],[39.33702000000005,40.91428000000042],[39.33858000000015,40.91458000000051],[39.33925000000016,40.91461000000015],[39.3402200000001,40.915250000000526],[39.34118000000018,40.91551000000004],[39.34364000000011,40.915810000000135],[39.34399000000013,40.91602000000029],[39.344630000000166,40.916150000000414],[39.34512000000018,40.91647000000057],[39.34577000000013,40.916520000000446],[39.34623000000022,40.91675000000032],[39.34640372313032,40.91695044976569],[39.346337704000064,40.91700421400003],[39.346441185000174,40.91703417400004],[39.34635829900009,40.91715090800005],[39.34284833800018,40.91984589000015],[39.34161665200003,40.924701028000015],[39.33780466500019,40.92444973200037],[39.33079748700004,40.927273165000656],[39.33039838500008,40.929643146000046],[39.33378137800014,40.93240793800015],[39.33377061899455,40.93932809491628]]],"type":"Polygon"}},{"type":"Feature","properties":{"area_id":"TR-61-016-157157","name_tr":"Kayacan","area_level":"neighbourhood","parent_id":"TR-61-016","endeksa_id":157157},"geometry":{"coordinates":[[[39.27350590900011,40.952663376000146],[39.27331895000003,40.95270347200005],[39.27158762900001,40.951815798000325],[39.264931850000096,40.94670986700004],[39.261073020000026,40.94519500200016],[39.274736273000144,40.942229295000004],[39.278680490000056,40.94082001800001],[39.280091157000186,40.94046950500007],[39.278382849000025,40.937227911000264],[39.279294648000075,40.935922696000034],[39.27638222000019,40.931664938000324],[39.27916654900008,40.92790794900009],[39.280614245000095,40.92739182000008],[39.280800092000106,40.927474990000064],[39.28067248800005,40.928277220000155],[39.285824603000094,40.92553423600003],[39.286535344000185,40.92528084500066],[39.286363546101995,40.92519700481256],[39.28689000000003,40.92515000000043],[39.287460000000124,40.9252400000002],[39.28780000000023,40.92547000000059],[39.287700000000086,40.9259900000003],[39.28707000000003,40.9266700000004],[39.28669000000019,40.92695000000015],[39.285840000000235,40.92728000000005],[39.285220000000095,40.92726000000022],[39.28484000000009,40.9276000000001],[39.28432000000004,40.92960000000039],[39.28503000000018,40.92992000000004],[39.28586000000007,40.929780000000505],[39.2874700000001,40.930870000000084],[39.28769000000017,40.931260000000066],[39.28844000000021,40.93199000000004],[39.28866000000011,40.93195000000031],[39.28971000000013,40.93295000000006],[39.290080000000046,40.93305000000038],[39.29028000000005,40.932720000000074],[39.29065000000014,40.93153000000035],[39.290610000000186,40.93107000000066],[39.29082000000017,40.93075000000033],[39.29084000000023,40.9305700000005],[39.29065701403994,40.93003001645923],[39.29092854048304,40.92993939813448],[39.29197327000003,40.92971565700009],[39.292045706000124,40.92979680200011],[39.29207167900006,40.93062245700031],[39.29218282300019,40.930693189000124],[39.2923128810001,40.93064049200029],[39.29207640999999,40.93098496600055],[39.29212735900006,40.932972414000176],[39.29312781100003,40.934742309000114],[39.29582516600004,40.93648744900014],[39.29011787500008,40.9467786300001],[39.29024039600017,40.946803119000265],[39.29011255700016,40.947167148999995],[39.290060001000086,40.94713800200003],[39.290007434000074,40.94746441800004],[39.289748177000035,40.94744524900028],[39.28928060100003,40.94828835600032],[39.279642100000046,40.94752555500003],[39.27350590900011,40.952663376000146]]],"type":"Polygon"}},{"type":"Feature","properties":{"area_id":"TR-61-016-157161","name_tr":"Kösecik","area_level":"neighbourhood","parent_id":"TR-61-016","endeksa_id":157161},"geometry":{"coordinates":[[[39.28821324500001,40.9605264660002],[39.28811997600002,40.96061029900011],[39.28766303600008,40.96064227800019],[39.28072541900008,40.957875902000126],[39.27382806800006,40.95447479100051],[39.27377729000011,40.95435636600007],[39.27432317400013,40.95326104399999],[39.273512512000025,40.95280132199997],[39.27350590900011,40.952663376000146],[39.279642100000046,40.94752555500003],[39.28928060100003,40.94828835600032],[39.289748177000035,40.94744524900028],[39.290007434000074,40.94746441800004],[39.290060001000086,40.94713800200003],[39.29011255700016,40.947167148999995],[39.29026935200005,40.94672083600011],[39.29036804600008,40.94682856400033],[39.28887733900007,40.956460619000325],[39.2875145270001,40.95805124700013],[39.28759969100008,40.958155106000106],[39.288439603000086,40.95826089800033],[39.28853667800007,40.95833777400014],[39.28821324500001,40.9605264660002]]],"type":"Polygon"}},{"type":"Feature","properties":{"area_id":"TR-61-016-157159","name_tr":"Kozluca","area_level":"neighbourhood","parent_id":"TR-61-016","endeksa_id":157159},"geometry":{"coordinates":[[[39.26113036200013,40.94525871200011],[39.2551606670001,40.953564782000115],[39.252286545000175,40.960379257],[39.252938126000174,40.96338079900056],[39.25100719500017,40.963883517000056],[39.25151628300006,40.964373112000146],[39.250998235025406,40.96473459412812],[39.24916379200016,40.96451894300009],[39.248104759,40.959329697000214],[39.243160788000125,40.95184263400006],[39.23914189100009,40.954015031000154],[39.23902238200003,40.953987400000415],[39.238247677000174,40.951575716000036],[39.23623491700005,40.951362441000015],[39.23575117200011,40.954677276000155],[39.23403107400003,40.95506157000011],[39.2341465990001,40.95594844000016],[39.23333044500009,40.95659499200019],[39.233035148000056,40.95664210399997],[39.22245819600016,40.954393247000155],[39.22238999680627,40.9489500000405],[39.22297000000003,40.94900000000007],[39.22279000000026,40.948180000000264],[39.22289000000018,40.94706000000065],[39.22285000000005,40.946540000000255],[39.22335000000004,40.94617000000022],[39.22399000000007,40.945330000000354],[39.22357807050969,40.94484605288255],[39.22698563400013,40.94692126800004],[39.232288525,40.94792032099997],[39.23239209500008,40.947838396000066],[39.232687775000045,40.94579166799997],[39.23667632700017,40.94538989500006],[39.24612589700007,40.94722967300021],[39.24815521400001,40.94579679000003],[39.25715381300017,40.94607768500009],[39.25875158500003,40.94473770399998],[39.25853533399999,40.944018701999994],[39.25904500000007,40.94325911000004],[39.26113036200013,40.94525871200011]]],"type":"Polygon"}},{"type":"Feature","properties":{"area_id":"TR-61-016-157155","name_tr":"Karasu","area_level":"neighbourhood","parent_id":"TR-61-016","endeksa_id":157155},"geometry":{"coordinates":[[[39.293888661000096,40.96401437600014],[39.29384813700017,40.96390224500021],[39.293693931361645,40.96389714690508],[39.29251535800012,40.96473971900019],[39.289334659000076,40.96315518300037],[39.29026796000011,40.96125294600063],[39.28872747100013,40.96091081600002],[39.28824950000012,40.96063066700003],[39.28821324500001,40.9605264660002],[39.28853667800007,40.95833777400014],[39.288439603000086,40.95826089800033],[39.28759969100008,40.958155106000106],[39.2875145270001,40.95805124700013],[39.28887733900007,40.956460619000325],[39.29036804600008,40.94682856400033],[39.29026935200005,40.94672083600011],[39.29024039600017,40.946803119000265],[39.29011787500008,40.9467786300001],[39.29048275300005,40.94612070000005],[39.290515507000066,40.94633901200018],[39.29123584000007,40.94660427200006],[39.29137083700016,40.946582727000134],[39.29182582400006,40.94511718500007],[39.29677824900011,40.945548364000274],[39.296147466000036,40.94453492500003],[39.29764388000007,40.94379459700002],[39.31077651300012,40.94849836600014],[39.31777936000003,40.948640297000395],[39.32393688600007,40.94680744100009],[39.32584034050018,40.944128106000164],[39.32541576,40.94089217400017],[39.32831441000002,40.94146016800005],[39.3284022150001,40.94137746400014],[39.32841180800011,40.94051750800003],[39.33322685400009,40.939915336000126],[39.333470335919856,40.93925349405373],[39.33365779785419,40.9392086730528],[39.33377061899455,40.93932809491628],[39.33375708400007,40.94803405800042],[39.32981974866851,40.95140734188715],[39.3297103342685,40.951288705416346],[39.32952608901121,40.95132613500647],[39.329240000000084,40.95192000000009],[39.32910000000004,40.95203000000009],[39.32851000000005,40.95210000000003],[39.32815000000011,40.95183000000026],[39.327780000000075,40.951680000000124],[39.32746000000003,40.95132000000069],[39.327170000000194,40.95126000000016],[39.32650142800014,40.95134506200009],[39.32074404140246,40.95336282935722],[39.320827417242924,40.95319729243636],[39.320614692419895,40.95313064180982],[39.30313767300015,40.95844568700011],[39.296674338000116,40.95854174500039],[39.29479515700018,40.96015831300002],[39.2958443870001,40.96226101000019],[39.29573604700005,40.96239003700015],[39.2952595000001,40.962302267000496],[39.29517352200014,40.96239534500006],[39.29527962800017,40.96275866700006],[39.294101241000135,40.96360407800012],[39.293888661000096,40.96401437600014]]],"type":"Polygon"}},{"type":"Feature","properties":{"area_id":"TR-61-016-157165","name_tr":"Sağrı","area_level":"neighbourhood","parent_id":"TR-61-016","endeksa_id":157165},"geometry":{"coordinates":[[[39.32074404140246,40.95336282935722],[39.319193095,40.953906383],[39.31368525166715,40.95820491957062],[39.31320000000022,40.95836000000054],[39.312300000000164,40.959150000000534],[39.310500000000104,40.95943000000028],[39.30952000000019,40.96034000000026],[39.30692000000016,40.96144000000032],[39.306690000000174,40.96166000000005],[39.30612000000008,40.96178000000003],[39.305880000000116,40.96195000000057],[39.305360000000064,40.96197000000012],[39.30490000000003,40.96213000000017],[39.304950000000076,40.962310000000514],[39.30478000000005,40.96297000000027],[39.304120000000125,40.9635600000002],[39.30361000000005,40.96338000000026],[39.303250000000105,40.96340000000032],[39.30266000000012,40.96313000000015],[39.30094000000008,40.962620000000584],[39.30045000000007,40.96272000000033],[39.298760000000186,40.96353000000056],[39.29794000000004,40.96372000000065],[39.29803000000004,40.963420000000156],[39.297800000000166,40.96331000000015],[39.297020000000146,40.9632100000004],[39.29565000000008,40.96284000000031],[39.294872590558214,40.96366424133669],[39.294926160131695,40.96350879843311],[39.29482314062926,40.963361650248316],[39.29462616029713,40.96330825042793],[39.294427794988394,40.963369144514104],[39.29527962800017,40.96275866700006],[39.29517352200014,40.96239534500006],[39.2952595000001,40.962302267000496],[39.29573604700005,40.96239003700015],[39.2958443870001,40.96226101000019],[39.29479515700018,40.96015831300002],[39.296674338000116,40.95854174500039],[39.30313767300015,40.95844568700011],[39.320614692419895,40.95313064180982],[39.320827417242924,40.95319729243636],[39.32074404140246,40.95336282935722]]],"type":"Polygon"}}]}