{"type":"FeatureCollection","source_id":"endeksa","retrieved_at":null,"features":[{"type":"Feature","properties":{"area_id":"TR-73-007-2035998","name_tr":"Ortaköy Köyü","area_level":"neighbourhood","parent_id":"TR-73-007","endeksa_id":2035998},"geometry":{"coordinates":[[[43.34055481573944,37.32685540300787],[43.33033000000012,37.33575000000013],[43.32520000000022,37.33835000000033],[43.32029000000017,37.34310000000028],[43.31777000000005,37.35041000000058],[43.30395000000004,37.34632000000039],[43.30001000000016,37.34437000000037],[43.29607000000016,37.34296000000023],[43.286380000000065,37.34417000000013],[43.2785100000001,37.3400500000003],[43.27451000000008,37.33505000000014],[43.271770000000174,37.33127000000019],[43.26971595087099,37.328956701951995],[43.270278982000264,37.32562252800028],[43.27016169200033,37.324931273000004],[43.26926900800021,37.32336399100001],[43.26921784100034,37.31997536500012],[43.26969789500026,37.31418451800016],[43.27364941400026,37.31315323300021],[43.27492805600036,37.312584987000264],[43.2777071230002,37.31289513000041],[43.28015264000027,37.312895250000054],[43.28215493800025,37.31245366500025],[43.28810477400032,37.31224118500057],[43.29039709700032,37.31180179400019],[43.29281477700016,37.3096980550003],[43.29401045000026,37.307910064000055],[43.29503532200033,37.30703163700048],[43.29697702500033,37.30642695600045],[43.298076226000205,37.30543591200052],[43.29986613200032,37.304359857000236],[43.302052593000155,37.303582423000194],[43.304730168000106,37.30363238100006],[43.308181398000215,37.3031107390006],[43.309652289000326,37.30316313300034],[43.31125381500027,37.303627624000114],[43.31371450300031,37.305192846000125],[43.31681642300032,37.30550149600026],[43.31750527300028,37.30577578200075],[43.31763556900006,37.30632234000018],[43.31693292600028,37.30927192500002],[43.316984558000286,37.313850105000824],[43.31714814700001,37.315218455000036],[43.31779256900023,37.31622552400046],[43.31831414600032,37.31803669100066],[43.319646590000275,37.31904784600039],[43.321967714000095,37.31962384400026],[43.32255875700008,37.32007490600046],[43.32307521700034,37.32111964300066],[43.324228411000206,37.321445671000276],[43.324110028000234,37.32297237300065],[43.324256302000265,37.32404765200022],[43.325333539000155,37.32480886000013],[43.32602460300012,37.3257815660001],[43.32670846200011,37.32616731200005],[43.328033782000205,37.32658623800029],[43.333885905000045,37.327102646000355],[43.3363285650002,37.32689707500049],[43.3386190920001,37.32720586700009],[43.34055481573944,37.32685540300787]]],"type":"Polygon"}},{"type":"Feature","properties":{"area_id":"TR-73-007-2035999","name_tr":"Ortasu Köyü","area_level":"neighbourhood","parent_id":"TR-73-007","endeksa_id":2035999},"geometry":{"coordinates":[[[43.021851351646376,37.35376553626401],[43.0217100000001,37.353770000000054],[43.02184000000017,37.35304000000008],[43.01449000000008,37.35574000000037],[43.00492000000014,37.356740000000116],[43.00215000000014,37.35815000000008],[42.9966100000002,37.361330000000294],[42.99674000000016,37.361420000000635],[42.99600000000021,37.362260000000504],[42.995460000000094,37.36235000000016],[42.994190000000174,37.3630100000002],[42.994490000000155,37.36362000000008],[42.99386000000004,37.3639100000006],[42.99339000000009,37.36385000000007],[42.99193000000025,37.36521000000016],[42.99110000000013,37.36607000000026],[42.98978000000017,37.36821000000003],[42.9897600000001,37.36875000000032],[42.98936000000003,37.36893000000032],[42.9885000000001,37.36883000000017],[42.988210000000095,37.367640000000165],[42.98563000000013,37.36571000000032],[42.98135000000025,37.36663000000004],[42.98011000000014,37.36763000000019],[42.97943000000015,37.369650000000206],[42.97828000000004,37.37160000000023],[42.977640000000235,37.37373000000025],[42.97784000000007,37.3757700000001],[42.97648000000015,37.375760000000525],[42.971750000000156,37.374830000000316],[42.969040000000064,37.37398000000036],[42.96868000000012,37.37460000000033],[42.96591000000012,37.37212000000011],[42.964950000000044,37.372160000000406],[42.96319000000011,37.37122000000005],[42.96336000000014,37.370900000000574],[42.9624300000001,37.37069000000025],[42.958900000000085,37.37091000000015],[42.956090000000074,37.369040000000155],[42.95177000000007,37.36892000000017],[42.95071000000013,37.369160000000136],[42.945740000000114,37.371360000000266],[42.941852935765894,37.37184791601328],[42.930421194000076,37.36348784300003],[42.92980516900013,37.36335636900003],[42.915011367000034,37.33220223600006],[42.91437114000007,37.331176968000136],[42.9142792020001,37.328582841000525],[42.91845117800017,37.32780829300003],[42.91941991600004,37.32741174500012],[42.92186472400016,37.32690186100035],[42.92224270100007,37.326468231000035],[42.925378124000076,37.324357398000075],[42.92639274700008,37.32322753300008],[42.931402816000116,37.32068273500039],[42.933492243000046,37.319210199000054],[42.93597629600015,37.31915197400048],[42.939586492000046,37.31966743700008],[42.94212984400019,37.31871129899997],[42.943526579000036,37.318500208000046],[42.94609223300006,37.3190478030001],[42.94800110400013,37.31883262100007],[42.95298242199999,37.315817920000484],[42.9534143190001,37.31460661600045],[42.95443190000003,37.31323093600031],[42.95496495800006,37.31293936700007],[42.95653947700009,37.31283460700047],[42.95817408600004,37.31233718200008],[42.95962963700015,37.31232055900057],[42.95972831000006,37.31238681400009],[42.960082859000124,37.313473530000124],[42.96262864600004,37.3147298640007],[42.96334211800007,37.31582490500011],[42.96441285300011,37.31670940300012],[42.96529425500006,37.31812410599997],[42.966867858000114,37.31922330800052],[42.96775232300001,37.32074621400022],[42.969342489000155,37.32173234400028],[42.97008175400015,37.32343942100022],[42.97283846500005,37.32567412700001],[42.97356995300015,37.32585484100008],[42.974550832000034,37.3253698690001],[42.97518311500005,37.325313181000354],[42.97756600200012,37.32546770099998],[42.97879342900018,37.32582901000012],[42.98291656400016,37.325623281000105],[42.98543709300009,37.32608720100012],[42.98895421700013,37.32608915200052],[42.98905053000004,37.326162783000484],[42.98932672500007,37.32741230600004],[42.990295884000034,37.32852721300003],[42.9945188690001,37.32847970299997],[42.995886264000035,37.32863295400017],[42.99813901100015,37.3295982810007],[43.002929508000136,37.33019758100005],[43.00664116400009,37.33157755700017],[43.00850798000005,37.33153151800019],[43.01093032900019,37.33235718800012],[43.01163247300019,37.33453796200058],[43.0122950870001,37.335381213999995],[43.0133373700001,37.33591720400011],[43.01420594000001,37.3373448560003],[43.01494557000012,37.33907302800014],[43.01595319100011,37.339981260000116],[43.016487459000075,37.340221450000456],[43.01791255100005,37.34186841300021],[43.020050686000104,37.34296246800005],[43.021097565000105,37.34394266700042],[43.02232778600006,37.348186783000074],[43.02223434300004,37.35025158000008],[43.0224336440001,37.352046925000025],[43.021769187000075,37.353745534000154],[43.021851351646376,37.35376553626401]]],"type":"Polygon"}},{"type":"Feature","properties":{"area_id":"TR-73-007-2036000","name_tr":"Taşdelen Köyü","area_level":"neighbourhood","parent_id":"TR-73-007","endeksa_id":2036000},"geometry":{"coordinates":[[[42.941852935765894,37.37184791601328],[42.93743000000018,37.37236000000007],[42.936170000000175,37.37636000000043],[42.93315000000007,37.377560000000244],[42.92686000000009,37.377560000000244],[42.920560000000194,37.377960000000144],[42.910240000000044,37.381360000000086],[42.906710000000146,37.384160000000634],[42.90117000000009,37.38636000000008],[42.89840000000021,37.38856000000021],[42.89387000000005,37.389360000000295],[42.89059000000009,37.38836000000015],[42.88774000000018,37.38634000000053],[42.8868300000002,37.38661000000013],[42.88336000000015,37.386970000000076],[42.882890000000145,37.387160000000165],[42.88243000000011,37.38752000000011],[42.881190000000174,37.389200000000415],[42.88082000000014,37.38941000000017],[42.88090000000017,37.390280000000416],[42.88071000000008,37.39163000000053],[42.88015000000013,37.39266000000049],[42.8797600000002,37.39275000000015],[42.87947000000014,37.392700000000275],[42.879290000000026,37.39244000000008],[42.878420000000176,37.39219000000014],[42.877680000000225,37.39229000000006],[42.876130000000046,37.39294000000024],[42.87408000000005,37.39341000000019],[42.87309000000005,37.393480000000125],[42.87153000000012,37.39396000000005],[42.87063000000006,37.394130000000075],[42.870030000000156,37.3940400000003],[42.86892000000017,37.393470000000036],[42.867890000000216,37.393140000000415],[42.867370000000165,37.39325000000031],[42.86571000000015,37.39398000000028],[42.86491000000018,37.39466000000027],[42.86378000000013,37.395060000000115],[42.8633200000001,37.395120000000134],[42.86271000000005,37.395050000000026],[42.86202000000014,37.394530000000316],[42.8619700000001,37.394410000000335],[42.86164000000019,37.39429000000035],[42.85963000000015,37.39400000000052],[42.85890000000012,37.393790000000195],[42.857710000000054,37.393970000000195],[42.85688000000016,37.394220000000246],[42.855910000000165,37.394250000000056],[42.855243128973484,37.39438893146462],[42.85512514628465,37.39432062496087],[42.85428777700014,37.38995634000025],[42.84770024900007,37.34811737000007],[42.85005417400009,37.34875425400003],[42.850671534000185,37.348651403000645],[42.85514834000003,37.346809913000186],[42.858607754000104,37.345923133000326],[42.86019966100008,37.34506457300034],[42.860907476000136,37.34493418000011],[42.864124188000176,37.34509976200013],[42.865952910000146,37.342293111000174],[42.86708448999997,37.34171345499999],[42.86784589900003,37.34105416699998],[42.86955981400018,37.33855423300008],[42.870939497000165,37.33704038800033],[42.8710792120001,37.337041367000324],[42.872101617000055,37.337670296000226],[42.87443478800009,37.337894113000175],[42.875320096000166,37.338255474000505],[42.880078975000174,37.3385222230001],[42.883231253000076,37.336425495000526],[42.88392831499999,37.335559414000045],[42.88679482000015,37.33361829100011],[42.889239512000074,37.33284684900019],[42.88970725200005,37.33224108200011],[42.890258614000004,37.331915553000044],[42.89242785099998,37.33146855900037],[42.894303881000155,37.330717005],[42.8954282790001,37.32986222700015],[42.89614685800012,37.32833933700027],[42.8965630780001,37.32817964200029],[42.89823414000017,37.32842982700015],[42.903683977000185,37.3300686880001],[42.90774584900015,37.32964990800008],[42.90909704900008,37.32874109800002],[42.9142792020001,37.328582841000525],[42.91437114000007,37.331176968000136],[42.915011367000034,37.33220223600006],[42.92980516900013,37.36335636900003],[42.930421194000076,37.36348784300003],[42.941852935765894,37.37184791601328]]],"type":"Polygon"}},{"type":"Feature","properties":{"area_id":"TR-73-007-2035996","name_tr":"Işıkveren Köyü","area_level":"neighbourhood","parent_id":"TR-73-007","endeksa_id":2035996},"geometry":{"coordinates":[[[42.85512514628465,37.39432062496087],[42.855013311000164,37.39455247100017],[42.85451452200016,37.39443475500019],[42.85046649800006,37.394949143000076],[42.81784943400015,37.39939235700001],[42.81776018300013,37.39953533700066],[42.81765114400008,37.39940182000004],[42.81275179900018,37.39732463900003],[42.81239596600011,37.393647781000595],[42.809574143000134,37.39125499800059],[42.80184015400016,37.39004906000014],[42.80115510227711,37.3894828518346],[42.8029600000001,37.38396000000006],[42.8034116180728,37.37760219882779],[42.803487643680114,37.377502443784806],[42.805859664000025,37.37636013800011],[42.81004712600014,37.37514166100061],[42.81256813100009,37.37498408700003],[42.81526648200014,37.374367780000114],[42.81766258800013,37.37477755000009],[42.81871242800014,37.374226827000086],[42.819107994000035,37.373700946000156],[42.82077546600016,37.37238967600001],[42.82403077300012,37.37152752500003],[42.825408024000126,37.37074985100014],[42.826120348000075,37.370054690000075],[42.82587651700004,37.367445517000476],[42.82664684700018,37.36445080500016],[42.825674443000025,37.36155083099999],[42.82444378700018,37.36087102500005],[42.82226438900017,37.36052255800013],[42.822171513000114,37.36042449100006],[42.82234245500001,37.360107479000305],[42.82424928700004,37.35848784800032],[42.82688782000014,37.35402092300012],[42.827329521000195,37.351697337000246],[42.82683937400003,37.3502367320001],[42.82668441000004,37.348985864000156],[42.826953945000184,37.34848017100069],[42.829882676000125,37.34732569400029],[42.83191496700016,37.34570391800003],[42.835853792000194,37.34310391300011],[42.83688048900012,37.34283546500029],[42.8392125260001,37.34304108800052],[42.84151369900013,37.343661400000144],[42.84357408700009,37.3453464790004],[42.84770024900007,37.34811737000007],[42.85428777700014,37.38995634000025],[42.85512514628465,37.39432062496087]]],"type":"Polygon"}},{"type":"Feature","properties":{"area_id":"TR-73-007-2035991","name_tr":"Andaç Köyü","area_level":"neighbourhood","parent_id":"TR-73-007","endeksa_id":2035991},"geometry":{"coordinates":[[[43.30808000000013,37.39670000000012],[43.27792000000011,37.3982900000002],[43.27485000000013,37.3992600000002],[43.262600000000134,37.39999000000017],[43.253110000000106,37.39731000000012],[43.242090000000076,37.395370000000185],[43.23566000000011,37.395370000000185],[43.22647000000018,37.39561000000015],[43.210240000000056,37.39561000000015],[43.19768000000016,37.395370000000185],[43.188500000000204,37.39780000000019],[43.15451000000019,37.393880000000536],[43.154270000000224,37.393350000000055],[43.14900000000006,37.39057000000025],[43.148290000000145,37.389540000000295],[43.1482400000001,37.38814000000025],[43.14846000000017,37.38737000000049],[43.14887000000016,37.38715000000008],[43.149660000000154,37.387030000000095],[43.151110000000244,37.38720000000012],[43.15384000000017,37.38719000000037],[43.154270000000224,37.3868300000002],[43.15434000000016,37.38625000000019],[43.15415000000024,37.38554000000005],[43.15417000000008,37.38423000000006],[43.15388000000007,37.3826700000003],[43.15357000000017,37.382230000000106],[43.15336000000025,37.381680000000074],[43.15203000000014,37.38092000000029],[43.15165000000013,37.38054000000028],[43.15161000000023,37.37968000000018],[43.15216000000004,37.37876000000006],[43.15333000000004,37.37770000000046],[43.15512000000018,37.37671000000029],[43.15624000000014,37.375480000000096],[43.15633000000014,37.37451000000016],[43.15565000000015,37.373380000000054],[43.15314000000012,37.3715600000001],[43.15206116466709,37.370678724276104],[43.15187473599724,37.37066539287929],[43.15218767700014,37.3701993690006],[43.1521876890003,37.369580022000605],[43.1515399940003,37.36748039800028],[43.15285219500021,37.36570443700066],[43.154373622000094,37.3651055080004],[43.1557005520001,37.36484601899997],[43.15898568200009,37.36349582800011],[43.160829420000084,37.362516317000484],[43.161077182000156,37.36193804700042],[43.16026423000022,37.36071615100025],[43.16031420100035,37.359241453000266],[43.160819083000206,37.35855268000017],[43.16193844600019,37.35779157200011],[43.162627106000116,37.357674718],[43.16307387800015,37.35783884400013],[43.16497564100001,37.35923590100049],[43.16649026300013,37.35990708700007],[43.168252513000084,37.35975234900059],[43.16958393400006,37.358669268000085],[43.16936291600024,37.35720837400015],[43.16979178900027,37.35705487000024],[43.17358118200019,37.357669672000156],[43.177302600000246,37.357983942000374],[43.17737928500031,37.35787032600024],[43.177868351000086,37.357679317000304],[43.179741892000095,37.35768020800015],[43.183663311000146,37.35874524700057],[43.18537725700003,37.358848933000445],[43.186554564000176,37.35924435000021],[43.18738662600009,37.35929634400043],[43.19187361600024,37.357634461000146],[43.19229012500034,37.357166412000765],[43.194996039000046,37.35726956800005],[43.19609719600032,37.35632756600046],[43.196759060000204,37.35521455600002],[43.19808232400027,37.354249183000206],[43.19863162700028,37.353333997000334],[43.19857912900022,37.35222213800006],[43.19884302700024,37.35170107100038],[43.201277126000264,37.349575571],[43.202609975000314,37.34909992199999],[43.207697555000266,37.348039885000674],[43.20923037000017,37.34733464400017],[43.21148389400031,37.34676627900063],[43.2119323820001,37.34650153600012],[43.21304635300015,37.3466635390003],[43.21417038599998,37.34642381500004],[43.21660926300024,37.34655451000043],[43.21736091400004,37.34642661100008],[43.21824416099997,37.34666349300011],[43.219618050000236,37.34632331900025],[43.22356722800015,37.34702572700007],[43.22446690700025,37.34770751299999],[43.22649016000025,37.34759967700012],[43.228431850000334,37.34713033700001],[43.232129738000026,37.347489540000026],[43.23478793400005,37.34803983700067],[43.2371977760003,37.347179220999976],[43.23897919600029,37.34577793300025],[43.24207406100027,37.345213287000036],[43.24191882200034,37.343402281000294],[43.24279462400011,37.34171309300018],[43.244207196000104,37.34091753200016],[43.244609234000336,37.339730042000326],[43.246911267000314,37.33806675900007],[43.24691157600023,37.33661038700001],[43.247169995000206,37.336122704000786],[43.24763207800015,37.3337976170007],[43.248752895999985,37.332458325000005],[43.2490762380001,37.330941900000084],[43.249679896000316,37.33057263700067],[43.25177532300023,37.33057056300032],[43.252625469000236,37.330259103000344],[43.25309986500025,37.33024498300074],[43.25686199000023,37.328818736000414],[43.26933299100028,37.329009522000035],[43.26971595087099,37.328956701951995],[43.271770000000174,37.33127000000019],[43.27451000000008,37.33505000000014],[43.2785100000001,37.3400500000003],[43.286380000000065,37.34417000000013],[43.29607000000016,37.34296000000023],[43.30001000000016,37.34437000000037],[43.30395000000004,37.34632000000039],[43.31777000000005,37.35041000000058],[43.334150000000136,37.36227000000008],[43.334950000000106,37.372500000000116],[43.33398000000011,37.37740000000014],[43.32140000000004,37.38702000000012],[43.30808000000013,37.39670000000012]]],"type":"Polygon"}},{"type":"Feature","properties":{"area_id":"TR-73-007-2036001","name_tr":"Yemişli Köyü","area_level":"neighbourhood","parent_id":"TR-73-007","endeksa_id":2036001},"geometry":{"coordinates":[[[43.10251077200007,37.36764100100015],[43.04994402702698,37.418743646083726],[43.04912000000013,37.41721000000035],[43.050250000000176,37.41484000000037],[43.05255000000005,37.41248000000047],[43.057750000000055,37.40886000000012],[43.059290000000146,37.40378000000004],[43.05808000000019,37.40260000000012],[43.0569000000001,37.398340000000076],[43.0575800000002,37.397910000000195],[43.058210000000145,37.39564000000013],[43.05904000000004,37.39520000000033],[43.059390000000064,37.394220000000246],[43.057620000000156,37.390040000000056],[43.05429000000015,37.38550000000066],[43.04453000000012,37.37038000000018],[43.043930000000046,37.35942000000017],[43.0456200000001,37.356770000000324],[43.04537000000016,37.3560700000001],[43.04556000000008,37.355530000000044],[43.045377627931884,37.355308113983824],[43.04687672500006,37.35556990600014],[43.0515198760001,37.355468369000334],[43.052380260000064,37.35608624400021],[43.056527980000055,37.35608744400031],[43.058438560000184,37.357050068000376],[43.060892188000025,37.357056069000066],[43.06403065600017,37.358478124000044],[43.066708976000086,37.36012019500015],[43.06774874500002,37.36143965100007],[43.06816297800009,37.36260938500004],[43.06959635700014,37.36393156800011],[43.07034294900012,37.365661349000106],[43.07124357400011,37.36632681400005],[43.07193202000002,37.36648174800007],[43.074686319000136,37.36617235500012],[43.079200948000164,37.36627567500017],[43.08032913800008,37.36709059200018],[43.08063523700008,37.367554613000266],[43.08205221600019,37.36806514400013],[43.08463900400017,37.36788973800037],[43.08516747900012,37.36812544700007],[43.08614701800008,37.36809958800018],[43.090011207000146,37.36713809700012],[43.0944443570001,37.36765210300018],[43.09594569899997,37.36718711600014],[43.09923733300019,37.36671707199997],[43.1000967870001,37.36672300200047],[43.101621295000086,37.36747139400006],[43.10251077200007,37.36764100100015]]],"type":"Polygon"}},{"type":"Feature","properties":{"area_id":"TR-73-007-2035993","name_tr":"Ballı Köyü","area_level":"neighbourhood","parent_id":"TR-73-007","endeksa_id":2035993},"geometry":{"coordinates":[[[42.83499000000012,37.42581000000064],[42.83288000000016,37.427180000000305],[42.829981419042156,37.428250391007964],[42.830072753311356,37.42812767670438],[42.829966847117134,37.42801677852822],[42.82200591200018,37.42612191400019],[42.821947234000106,37.426303695],[42.821333660000164,37.42596191600006],[42.82050876000011,37.42573965000014],[42.82191975800015,37.42412958200015],[42.820859944000006,37.42195560100049],[42.816611924000085,37.419498284000156],[42.82340946200014,37.417235873000095],[42.82197395500009,37.41602733800016],[42.830600952000054,37.40639682100016],[42.822189913000045,37.40108765000008],[42.82203599500008,37.40115482200008],[42.82100028800011,37.404197848000024],[42.82081453300009,37.40424634000027],[42.81776018300013,37.39953533700066],[42.81784943400015,37.39939235700001],[42.85046649800006,37.394949143000076],[42.85451452200016,37.39443475500019],[42.855013311000164,37.39455247100017],[42.85512514628465,37.39432062496087],[42.855243128973484,37.39438893146462],[42.85519000000011,37.394400000000246],[42.85649000000018,37.399060000000134],[42.858790000000056,37.4008000000004],[42.862190000000226,37.40273000000025],[42.86538000000019,37.40479000000016],[42.865910000000156,37.40613000000019],[42.86594000000014,37.40851000000026],[42.86585000000014,37.410820000000285],[42.8651900000001,37.414410000000316],[42.86488000000003,37.41524000000004],[42.86306418854292,37.41702503499204],[42.86287952100014,37.41678965800054],[42.8543095820001,37.42064044600011],[42.84806315000003,37.421981477000145],[42.84755365416726,37.42215884650625],[42.847480000000076,37.42209000000037],[42.84386000000006,37.42431000000016],[42.83948000000004,37.424360000000036],[42.836200000000076,37.425160000000176],[42.835900000000095,37.4253700000001],[42.835560000000044,37.42544000000004],[42.83499000000012,37.42581000000064]]],"type":"Polygon"}},{"type":"Feature","properties":{"area_id":"TR-73-007-2035994","name_tr":"Dağdibi Köyü","area_level":"neighbourhood","parent_id":"TR-73-007","endeksa_id":2035994},"geometry":{"coordinates":[[[43.149380000000065,37.440560000000346],[43.14765000000011,37.440090000000396],[43.13165000000021,37.44553000000019],[43.112050000000124,37.445300000000316],[43.110810000000185,37.443900000000326],[43.10959000000014,37.44300000000044],[43.10653000000008,37.44154000000043],[43.10268000000019,37.440250000000276],[43.09161000000017,37.43803000000008],[43.08871000000005,37.43538000000024],[43.08438000000007,37.43256000000065],[43.07657000000012,37.43448000000035],[43.068000000000154,37.43594000000036],[43.064650000000256,37.437370000000044],[43.058980000000076,37.4323100000002],[43.05652000000009,37.43067000000008],[43.0548100000002,37.427800000000445],[43.04994402702698,37.418743646083726],[43.10251077200007,37.36764100100015],[43.104426752000165,37.36765889800046],[43.106431998000176,37.36898605800013],[43.10822543500012,37.36947919300019],[43.108658629000104,37.36979157200017],[43.10952764400014,37.37149592200018],[43.10996870400004,37.37170821300003],[43.111215375000086,37.37165757600019],[43.11153317500009,37.3721460700001],[43.11196533900011,37.37233355500007],[43.114200241000106,37.372334210000076],[43.11618213200006,37.37274660900033],[43.11674988600015,37.372643361000314],[43.11884578600018,37.37152390500006],[43.120156978000125,37.371164745000044],[43.12152064300005,37.37116324100009],[43.12323456700011,37.37147769200004],[43.12412112800001,37.37240165200012],[43.12476155100018,37.372591690000036],[43.12556233200007,37.3725452060001],[43.12606114700009,37.37277530100022],[43.12668079300016,37.37280113500003],[43.12770169900011,37.37233243700052],[43.1297083180001,37.37182513400006],[43.13151875500006,37.37253999200004],[43.13211961000013,37.37248839800037],[43.13385769000007,37.371708279000075],[43.13506595000001,37.370641528000135],[43.13696600200001,37.37020180799999],[43.13778762400017,37.37031559600018],[43.13874584300015,37.37100827600011],[43.14199885700015,37.37259178700049],[43.14301415900013,37.37285565600001],[43.14649068400013,37.372981835000076],[43.149846875000094,37.37207544300003],[43.15032891300018,37.37182294600001],[43.150788807000026,37.37119878500016],[43.15187473599724,37.37066539287929],[43.15206116466709,37.370678724276104],[43.15314000000012,37.3715600000001],[43.15565000000015,37.373380000000054],[43.15633000000014,37.37451000000016],[43.15624000000014,37.375480000000096],[43.15512000000018,37.37671000000029],[43.15333000000004,37.37770000000046],[43.15216000000004,37.37876000000006],[43.15161000000023,37.37968000000018],[43.15165000000013,37.38054000000028],[43.15203000000014,37.38092000000029],[43.15336000000025,37.381680000000074],[43.15357000000017,37.382230000000106],[43.15388000000007,37.3826700000003],[43.15417000000008,37.38423000000006],[43.15415000000024,37.38554000000005],[43.15434000000016,37.38625000000019],[43.154270000000224,37.3868300000002],[43.15384000000017,37.38719000000037],[43.151110000000244,37.38720000000012],[43.149660000000154,37.387030000000095],[43.14887000000016,37.38715000000008],[43.14846000000017,37.38737000000049],[43.1482400000001,37.38814000000025],[43.148290000000145,37.389540000000295],[43.14900000000006,37.39057000000025],[43.154270000000224,37.393350000000055],[43.15451000000019,37.393880000000536],[43.15465000000023,37.394560000000126],[43.153690000000154,37.395670000000166],[43.15401000000003,37.39784000000009],[43.15484000000009,37.39910000000043],[43.155790000000195,37.40030000000024],[43.15615000000014,37.401160000000345],[43.15651000000008,37.40174000000019],[43.157150000000115,37.402300000000196],[43.157990000000154,37.40254000000016],[43.158830000000194,37.4026300000001],[43.15967000000006,37.40289000000013],[43.1603800000002,37.40281000000044],[43.16079000000019,37.402920000000336],[43.161860000000104,37.4045900000001],[43.162510000000054,37.4052300000003],[43.1625600000001,37.40626000000026],[43.16237000000018,37.40820000000019],[43.161710000000085,37.40896000000055],[43.161770000000104,37.40953000000013],[43.16278000000017,37.411040000000185],[43.16336000000018,37.41227000000015],[43.16455000000008,37.41313000000025],[43.1647200000001,37.41351000000043],[43.164490000000114,37.41396000000003],[43.1637300000001,37.41434000000021],[43.163340000000176,37.41475000000071],[43.163470000000075,37.41520000000031],[43.164120000000196,37.41577000000041],[43.164830000000165,37.41622000000012],[43.164830000000165,37.41645000000017],[43.16455000000008,37.416770000000156],[43.16386000000017,37.41715000000033],[43.162910000000124,37.41783000000032],[43.161980000000085,37.4187400000003],[43.16181000000023,37.41932000000014],[43.161670000000186,37.4209900000003],[43.161920000000066,37.42134000000027],[43.162290000000155,37.4229000000002],[43.162080000000174,37.4232100000001],[43.16153000000014,37.4235400000004],[43.16080000000011,37.42363000000006],[43.15922000000012,37.42335000000031],[43.158170000000155,37.42333000000008],[43.15767000000017,37.42353000000031],[43.15695000000011,37.42450000000025],[43.15674000000013,37.424950000000536],[43.15664000000021,37.42549000000031],[43.15678000000025,37.426000000000045],[43.15797000000009,37.4271100000002],[43.15823000000012,37.42757000000006],[43.15810000000022,37.427890000000104],[43.15716000000003,37.42840000000035],[43.15506000000022,37.428950000000384],[43.15467000000007,37.42930000000024],[43.15459000000004,37.429750000000354],[43.15484000000009,37.43005000000045],[43.15563000000009,37.430370000000096],[43.15673000000015,37.43047000000041],[43.157460000000185,37.430650000000355],[43.15775000000019,37.43097000000017],[43.157710000000066,37.43137000000024],[43.15742000000006,37.43174000000033],[43.15688000000017,37.4321300000006],[43.156440000000146,37.4326200000001],[43.15625000000006,37.433220000000176],[43.15608000000003,37.43568000000016],[43.15592000000015,37.4368300000001],[43.1553100000001,37.43723000000051],[43.15182000000016,37.438400000000684],[43.149380000000065,37.440560000000346]]],"type":"Polygon"}},{"type":"Feature","properties":{"area_id":"TR-73-007-2035983","name_tr":"Bağlıca Köyü","area_level":"neighbourhood","parent_id":"TR-73-007","endeksa_id":2035983},"geometry":{"coordinates":[[[42.750061145000075,37.437885543000164],[42.74984369000015,37.43779827800046],[42.74952998391626,37.43790144153718],[42.748265182766374,37.438997422347654],[42.748207559000036,37.43947609400004],[42.74795000000012,37.43996771246509],[42.747710000000154,37.441180000000486],[42.74710756665519,37.441575716021134],[42.7469171300001,37.44193921400006],[42.746292571812546,37.44211105577074],[42.74567000000013,37.44252000000051],[42.745288961863935,37.44256536168331],[42.744583169348516,37.443439599491114],[42.74453000000011,37.44367000000045],[42.744292757000096,37.44379932200013],[42.74345000000011,37.4437300000003],[42.74304000000012,37.443470000000275],[42.74281000000008,37.44302000000016],[42.742682023515556,37.44227182978227],[42.74178609300003,37.44137608600005],[42.741155652367866,37.44092746618031],[42.740860000000055,37.441060000000505],[42.74051000000003,37.44150000000013],[42.73996000000017,37.44150000000013],[42.7395600000001,37.44113000000061],[42.73913626202881,37.441158891225314],[42.73737882200015,37.44207839400002],[42.736766762000116,37.44191817277175],[42.73577000000006,37.44197000000048],[42.73517000000015,37.44173000000052],[42.73491735739236,37.44143404723138],[42.73381901100004,37.44114652900015],[42.730824939000115,37.44243526900016],[42.727827381000054,37.441440901000135],[42.72762120900006,37.44143598599999],[42.72756455538382,37.44131070082841],[42.72720672413567,37.44119553713438],[42.72691000000009,37.44107000000008],[42.7264100000001,37.43999000000008],[42.72597000000013,37.43940000000032],[42.72545000000008,37.43847000000011],[42.724600000000066,37.437710000000436],[42.72196000000014,37.437500000000114],[42.72077000000007,37.43754000000058],[42.71944000000019,37.43485000000004],[42.719050000000095,37.43268000000012],[42.71910000000014,37.431790000000206],[42.718870000000095,37.429940000000045],[42.71855000000011,37.42859000000044],[42.719090000000165,37.42666000000008],[42.718620000000215,37.42606000000018],[42.71770000000009,37.42601000000013],[42.716760000000136,37.425470000000246],[42.71604000000008,37.42447000000061],[42.71501000000012,37.42351000000008],[42.71490000000006,37.42259000000013],[42.71505000000025,37.42197000000016],[42.715590000000134,37.42094000000003],[42.715060000000165,37.420730000000276],[42.71460000000013,37.420830000000706],[42.71235000000013,37.420420000000206],[42.71194000000014,37.419900000000496],[42.711720000000184,37.419160000000375],[42.710970000000145,37.41796000000056],[42.70808000000011,37.4157400000002],[42.70574000000016,37.414790000000096],[42.70468000000017,37.41309000000035],[42.70384000000013,37.4126600000003],[42.70232000000016,37.41232000000019],[42.70188000000013,37.41189000000014],[42.70230000000009,37.410980000000166],[42.702140000000156,37.409250000000384],[42.70291000000009,37.40495000000004],[42.7040600000002,37.40325000000007],[42.70489000000015,37.40090000000015],[42.70324000000005,37.3977600000004],[42.70324000000005,37.39619000000039],[42.70439000000016,37.39423000000039],[42.70423000000005,37.39253000000042],[42.70225000000005,37.391620000000046],[42.70587000000006,37.38953000000015],[42.70374000000021,37.386260000000334],[42.70504000000011,37.38466000000011],[42.68479000000008,37.33589000000018],[42.68453000000005,37.33504000000005],[42.683120000000145,37.33479000000011],[42.68314000000015,37.332950000000324],[42.68352000000016,37.33113000000037],[42.683280000000195,37.32918000000046],[42.68209000000019,37.325240000000065],[42.681880000000035,37.32430000000028],[42.68112000000019,37.32299000000006],[42.68058000000008,37.32181000000031],[42.6797200000002,37.32084000000037],[42.67955000000012,37.31878000000029],[42.6797200000002,37.317120000000216],[42.67892000000006,37.31578000000019],[42.67847000000012,37.313930000000596],[42.68309000000011,37.310990000000345],[42.685540000000174,37.309590000000355],[42.687668410318,37.30872790680917],[42.68773861689368,37.30862304605711],[42.687663991655256,37.30851587584874],[42.68947382800002,37.30941340600009],[42.6897460900002,37.31003173500022],[42.68972145700036,37.31043008400002],[42.68989962600011,37.31028252900052],[42.69081630000028,37.31043303800027],[42.6924045210003,37.31012398500019],[42.69559916900033,37.310175071000685],[42.69855951700032,37.30926810300025],[42.701004859000136,37.30977880900008],[42.70356349500025,37.30900613200015],[42.704720147000046,37.30814510200014],[42.70696953600009,37.30723507300007],[42.70834687100012,37.30734326500033],[42.71112814100019,37.30809268700034],[42.71329053900024,37.30827603200032],[42.71338585100028,37.3083441980001],[42.71429357900024,37.310394158000065],[42.71617386200012,37.3117850520004],[42.72269484300028,37.31287848000028],[42.724150538,37.313447172999986],[42.72523970499998,37.314245834000076],[42.7262019020003,37.315641991000405],[42.72627889000029,37.3171515920007],[42.72595034400007,37.31782744400016],[42.725446270000305,37.318132618000334],[42.72525055099999,37.31860064200015],[42.725394847000246,37.31902504300018],[42.72789352000012,37.320364651000034],[42.72847486400008,37.32051863400022],[42.72987714499999,37.32023095700049],[42.73026981800007,37.31899679100019],[42.73001401400023,37.3184624400003],[42.730013654000174,37.31774309000008],[42.73130445900034,37.317319320000365],[42.732111647000124,37.31727956100036],[42.73257006100005,37.31803319100004],[42.734266095000066,37.3183376460006],[42.7362010730003,37.319416630000205],[42.73628859100023,37.32019923800044],[42.73622544900036,37.320293437000146],[42.735730832,37.32053846600007],[42.732905782000216,37.32113189700078],[42.73268539899999,37.32221443500015],[42.73304632900022,37.32364059499997],[42.734544461000155,37.32636549100056],[42.734819246000086,37.327654407000125],[42.7348623970002,37.32919061900054],[42.73565386800021,37.3299914320001],[42.73592274700036,37.3305656950003],[42.7332611610002,37.33310467900003],[42.73289186800014,37.334693379000385],[42.7330374980001,37.33566066500066],[42.73362474800035,37.33602338600002],[42.73363150400024,37.33615252200059],[42.736542790000044,37.336514916000056],[42.73880356900014,37.33745738100009],[42.74219814200006,37.34080337400064],[42.74229503800029,37.3413190120005],[42.742610442000114,37.34167591600004],[42.74497817700018,37.34698332300047],[42.74585765400019,37.34742897200016],[42.747793819000265,37.347757780000336],[42.74874354200006,37.34855351000027],[42.749936817000105,37.34885753200001],[42.75274221500007,37.34834119300001],[42.753196663000324,37.34803933400036],[42.753720379000356,37.34798694500023],[42.75476259700008,37.34839160700011],[42.75533258400026,37.3491587430002],[42.756682442,37.34981906700011],[42.75902731000025,37.352942117000566],[42.759896057000105,37.3537673510001],[42.76029796700027,37.35456305900021],[42.761599372000035,37.35532767700005],[42.764755620000074,37.35811713100014],[42.76897016900017,37.360938783000165],[42.7710161510002,37.36306106300026],[42.77305583500004,37.364686793000146],[42.774661798000125,37.367159811000136],[42.77739259800029,37.370435852000185],[42.77872619500005,37.37273913600018],[42.77892907700016,37.37435599900044],[42.779643256000156,37.37550037400018],[42.77995994677758,37.37565329445039],[42.77973270909132,37.37571342652353],[42.77526000000006,37.38436000000013],[42.77526000000006,37.39557000000042],[42.778030000000115,37.419370000000185],[42.78155000000021,37.42837000000003],[42.777994131933326,37.439859409821054],[42.77452000000011,37.439510000000155],[42.770070000000146,37.439660000000345],[42.768400000000156,37.44024000000019],[42.76819000000023,37.44021000000015],[42.76751000000007,37.439390000000174],[42.76677000000012,37.438850000000286],[42.7666900000001,37.43868000000003],[42.76584000000008,37.43816000000004],[42.766600000000096,37.43758000000037],[42.76593000000008,37.43708000000021],[42.76567000000006,37.437150000000315],[42.765460000000076,37.43711000000053],[42.76536000000016,37.43698000000029],[42.76509000000004,37.43609000000015],[42.765460000000076,37.43478000000033],[42.76520000000011,37.43445000000003],[42.76511000000011,37.43374000000023],[42.763690000000224,37.433060000000125],[42.763720000000205,37.43247000000031],[42.76431000000014,37.431670000000224],[42.765084169787826,37.43094448328543],[42.76495754587398,37.430347825350964],[42.76436000000024,37.43019000000015],[42.76359000000008,37.43027000000018],[42.761920000000146,37.43109000000038],[42.76024000000018,37.431480000000136],[42.75934000000018,37.43128000000007],[42.75925000000018,37.43061000000006],[42.759155608683216,37.43053606013552],[42.758869158000095,37.430546453000034],[42.75847186272364,37.43008463300873],[42.75791000000015,37.429910000000234],[42.75610000000012,37.43046000000027],[42.75401829735273,37.43126143788237],[42.75285544899998,37.43280641600006],[42.75260101900011,37.43532581500011],[42.75131156000009,37.437314258000015],[42.75007865400005,37.43772362500005],[42.750061145000075,37.437885543000164]]],"type":"Polygon"}},{"type":"Feature","properties":{"area_id":"TR-73-007-90657","name_tr":"Özelli","area_level":"neighbourhood","parent_id":"TR-73-007","endeksa_id":90657},"geometry":{"coordinates":[[[42.87632005779602,37.43693017855213],[42.876587122000046,37.43845694400005],[42.87517687600007,37.44673742900068],[42.87215978600017,37.44090546500024],[42.86886090400009,37.43900961000014],[42.864914434000184,37.43402770100067],[42.86521841700005,37.43370378000043],[42.86263358100007,37.42993857800013],[42.861718961000065,37.42999382900018],[42.8543095820001,37.42064044600011],[42.86287952100014,37.41678965800054],[42.86306418854292,37.41702503499204],[42.86252000000013,37.41756000000015],[42.87060000000008,37.42576000000008],[42.87450000000018,37.43108000000041],[42.875640000000146,37.433060000000125],[42.87565000000012,37.43349000000018],[42.87611000000015,37.43389000000019],[42.87600000000009,37.434650000000204],[42.87582000000015,37.434800000000166],[42.87597000000011,37.43531000000013],[42.8757700000001,37.43538000000024],[42.87580000000008,37.43554000000012],[42.87562000000014,37.435580000000414],[42.87600000000009,37.43670000000003],[42.87632005779602,37.43693017855213]]],"type":"Polygon"}},{"type":"Feature","properties":{"area_id":"TR-73-007-2035992","name_tr":"Bağlı Köyü","area_level":"neighbourhood","parent_id":"TR-73-007","endeksa_id":2035992},"geometry":{"coordinates":[[[42.829981419042156,37.428250391007964],[42.829767629076855,37.42829826626212],[42.826540000000136,37.427580000000034],[42.823350000000175,37.42747000000014],[42.82538000000011,37.432320000000686],[42.82157000000018,37.43222000000026],[42.8183600000001,37.43251000000009],[42.81693000000013,37.4332600000003],[42.81241000000006,37.432790000000125],[42.80758000000009,37.434520000000134],[42.80029000000019,37.39213000000018],[42.80115510227711,37.3894828518346],[42.80184015400016,37.39004906000014],[42.809574143000134,37.39125499800059],[42.81239596600011,37.393647781000595],[42.81275179900018,37.39732463900003],[42.81765114400008,37.39940182000004],[42.81776018300013,37.39953533700066],[42.82081453300009,37.40424634000027],[42.82100028800011,37.404197848000024],[42.82203599500008,37.40115482200008],[42.822189913000045,37.40108765000008],[42.830600952000054,37.40639682100016],[42.82197395500009,37.41602733800016],[42.82340946200014,37.417235873000095],[42.816611924000085,37.419498284000156],[42.820859944000006,37.42195560100049],[42.82191975800015,37.42412958200015],[42.82050876000011,37.42573965000014],[42.821333660000164,37.42596191600006],[42.821947234000106,37.426303695],[42.82200591200018,37.42612191400019],[42.829966847117134,37.42801677852822],[42.830072753311356,37.42812767670438],[42.829981419042156,37.428250391007964]]],"type":"Polygon"}},{"type":"Feature","properties":{"area_id":"TR-73-007-90656","name_tr":"Ödül","area_level":"neighbourhood","parent_id":"TR-73-007","endeksa_id":90656},"geometry":{"coordinates":[[[42.8873200466781,37.44956869237802],[42.8848000000001,37.449920000000304],[42.88318000000015,37.45005000000026],[42.880310000000236,37.454220000000134],[42.87327000000016,37.45182000000034],[42.86671000000007,37.448310000000674],[42.863810000000115,37.44491000000005],[42.863030000000094,37.4445900000004],[42.8622400000001,37.443780000000345],[42.86189000000007,37.44302000000016],[42.86208000000016,37.4427100000006],[42.86199000000016,37.442480000000046],[42.86203000000012,37.44229000000013],[42.86141000000015,37.441710000000285],[42.86135000000013,37.44142000000045],[42.861760000000174,37.44138000000015],[42.86026000000004,37.43662000000012],[42.85586000000012,37.43178000000006],[42.850920000000144,37.427580000000034],[42.84781000000004,37.422440000000336],[42.84755365416726,37.42215884650625],[42.84806315000003,37.421981477000145],[42.8543095820001,37.42064044600011],[42.861718961000065,37.42999382900018],[42.86263358100007,37.42993857800013],[42.86521841700005,37.43370378000043],[42.864914434000184,37.43402770100067],[42.86886090400009,37.43900961000014],[42.87215978600017,37.44090546500024],[42.87517687600007,37.44673742900068],[42.876587122000046,37.43845694400005],[42.87632005779602,37.43693017855213],[42.87892000000011,37.43880000000041],[42.88033000000007,37.4395200000003],[42.878430000000094,37.44006000000019],[42.87896000000006,37.44082000000054],[42.881532689135554,37.44193140599941],[42.88118186858219,37.44198610700602],[42.881116751828586,37.442129947643366],[42.8811813219707,37.442273277905485],[42.88094000000012,37.44204000000059],[42.88085000000012,37.44206000000014],[42.88126000000011,37.442820000000324],[42.88099000000017,37.44401000000016],[42.881090000000086,37.44407000000018],[42.88203000000004,37.44404000000014],[42.88220000000007,37.44414000000029],[42.88256000000024,37.445300000000316],[42.88309000000021,37.44622000000027],[42.8835000000002,37.446440000000166],[42.88368000000014,37.44791000000026],[42.88393000000008,37.448340000000314],[42.883910000000185,37.4489700000002],[42.884000000000185,37.4490600000002],[42.88417000000004,37.44905000000011],[42.885400000000175,37.44847000000027],[42.88612000000006,37.448460000000296],[42.88647000000009,37.44832000000008],[42.88656000000026,37.448340000000314],[42.886540000000025,37.44848000000053],[42.88637000000017,37.44860000000051],[42.88560000000024,37.44882000000024],[42.885580000000175,37.44893000000013],[42.886730000000114,37.44869000000017],[42.886890000000164,37.44872000000049],[42.886880000000076,37.448860000000195],[42.8857500000002,37.44918000000018],[42.885610000000156,37.4492400000002],[42.88563000000005,37.44937000000027],[42.88714857090423,37.449143949111146],[42.88701284035602,37.449256106344876],[42.88700390859083,37.44941919294865],[42.887128791515124,37.44954125445554],[42.8873200466781,37.44956869237802]]],"type":"Polygon"}},{"type":"Feature","properties":{"area_id":"TR-73-007-2035990","name_tr":"Ortabağ Köyü","area_level":"neighbourhood","parent_id":"TR-73-007","endeksa_id":2035990},"geometry":{"coordinates":[[[42.97025000000019,37.39025000000004],[42.96318000000019,37.395990000000324],[42.960270000000094,37.398490000000265],[42.95269000000013,37.40373000000017],[42.944900000000075,37.40647000000058],[42.93789000000021,37.41012000000006],[42.935640000000035,37.41004000000038],[42.93306000000007,37.41040000000032],[42.93176000000017,37.41100000000023],[42.93062000000015,37.41195000000016],[42.92668000000015,37.41103000000004],[42.92391000000009,37.410950000000355],[42.91973000000007,37.41121000000055],[42.912070000000085,37.4121700000004],[42.908750000000225,37.41153000000003],[42.901590000000226,37.41247000000038],[42.89770000000004,37.4121700000004],[42.89296000000007,37.414330000000064],[42.892060000000185,37.413360000000125],[42.89051000000023,37.41273000000018],[42.886050000000125,37.41543000000013],[42.88274000000018,37.41920000000016],[42.8651900000001,37.414410000000316],[42.86585000000014,37.410820000000285],[42.86594000000014,37.40851000000026],[42.865910000000156,37.40613000000019],[42.86538000000019,37.40479000000016],[42.862190000000226,37.40273000000025],[42.858790000000056,37.4008000000004],[42.85649000000018,37.399060000000134],[42.85519000000011,37.394400000000246],[42.855910000000165,37.394250000000056],[42.85688000000016,37.394220000000246],[42.857710000000054,37.393970000000195],[42.85890000000012,37.393790000000195],[42.85963000000015,37.39400000000052],[42.86164000000019,37.39429000000035],[42.8619700000001,37.394410000000335],[42.86202000000014,37.394530000000316],[42.86271000000005,37.395050000000026],[42.8633200000001,37.395120000000134],[42.86378000000013,37.395060000000115],[42.86491000000018,37.39466000000027],[42.86571000000015,37.39398000000028],[42.867370000000165,37.39325000000031],[42.867890000000216,37.393140000000415],[42.86892000000017,37.393470000000036],[42.870030000000156,37.3940400000003],[42.87063000000006,37.394130000000075],[42.87153000000012,37.39396000000005],[42.87309000000005,37.393480000000125],[42.87408000000005,37.39341000000019],[42.876130000000046,37.39294000000024],[42.877680000000225,37.39229000000006],[42.878420000000176,37.39219000000014],[42.879290000000026,37.39244000000008],[42.87947000000014,37.392700000000275],[42.8797600000002,37.39275000000015],[42.88015000000013,37.39266000000049],[42.88071000000008,37.39163000000053],[42.88090000000017,37.390280000000416],[42.88082000000014,37.38941000000017],[42.881190000000174,37.389200000000415],[42.88243000000011,37.38752000000011],[42.882890000000145,37.387160000000165],[42.88336000000015,37.386970000000076],[42.8868300000002,37.38661000000013],[42.88774000000018,37.38634000000053],[42.89059000000009,37.38836000000015],[42.89387000000005,37.389360000000295],[42.89840000000021,37.38856000000021],[42.90117000000009,37.38636000000008],[42.906710000000146,37.384160000000634],[42.910240000000044,37.381360000000086],[42.920560000000194,37.377960000000144],[42.92686000000009,37.377560000000244],[42.93315000000007,37.377560000000244],[42.936170000000175,37.37636000000043],[42.93743000000018,37.37236000000007],[42.941852935765894,37.37184791601328],[42.945740000000114,37.371360000000266],[42.95071000000013,37.369160000000136],[42.95177000000007,37.36892000000017],[42.956090000000074,37.369040000000155],[42.958900000000085,37.37091000000015],[42.9624300000001,37.37069000000025],[42.96336000000014,37.370900000000574],[42.96319000000011,37.37122000000005],[42.964950000000044,37.372160000000406],[42.96591000000012,37.37212000000011],[42.96868000000012,37.37460000000033],[42.969040000000064,37.37398000000036],[42.971750000000156,37.374830000000316],[42.97648000000015,37.375760000000525],[42.97784000000007,37.3757700000001],[42.979660000000194,37.37526000000037],[42.98045000000019,37.375790000000165],[42.98073000000011,37.3758100000004],[42.98107000000016,37.37605000000036],[42.9812500000001,37.376540000000034],[42.981020000000115,37.37679000000048],[42.98150000000004,37.377160000000174],[42.981550000000084,37.37744000000026],[42.981330000000185,37.37775000000033],[42.981050000000096,37.37794000000042],[42.98101000000014,37.378170000000296],[42.980800000000215,37.378300000000365],[42.980740000000026,37.37843000000032],[42.98091000000005,37.37845000000016],[42.98069000000015,37.37876000000006],[42.98075000000017,37.378820000000076],[42.98091000000005,37.37875000000065],[42.98098000000016,37.378830000000164],[42.98131000000012,37.3787700000002],[42.98163000000011,37.37896000000029],[42.981980000000135,37.378830000000164],[42.98215000000016,37.37894000000006],[42.98191000000003,37.379100000000335],[42.98194000000018,37.3797100000005],[42.98214000000024,37.38036000000028],[42.98200000000003,37.38060000000024],[42.98148000000015,37.380400000000066],[42.980310000000145,37.3802000000004],[42.97931000000017,37.38039000000009],[42.97858000000019,37.380930000000035],[42.97818000000012,37.381650000000434],[42.97747000000021,37.381830000000264],[42.97661000000011,37.38241000000011],[42.97590000000014,37.382480000000214],[42.97485000000012,37.38286000000039],[42.97447000000011,37.38342000000051],[42.97395000000006,37.38376000000022],[42.97287000000006,37.384030000000394],[42.97285000000022,37.384500000000344],[42.97318000000013,37.384530000000154],[42.973650000000134,37.38430000000017],[42.97367000000003,37.384740000000306],[42.97353000000015,37.385140000000035],[42.972840000000076,37.38621000000006],[42.971980000000144,37.38674000000026],[42.97181000000012,37.387250000000506],[42.97191000000004,37.38802000000027],[42.97150000000005,37.388460000000066],[42.970360000000255,37.38889000000012],[42.96981000000022,37.38919000000044],[42.9699700000001,37.3892800000001],[42.97032000000013,37.38994000000014],[42.970210000000066,37.390100000000416],[42.97025000000019,37.39025000000004]]],"type":"Polygon"}},{"type":"Feature","properties":{"area_id":"TR-73-007-2035997","name_tr":"İnceler Köyü","area_level":"neighbourhood","parent_id":"TR-73-007","endeksa_id":2035997},"geometry":{"coordinates":[[[42.792071996724076,37.45299965072621],[42.79214090757068,37.45315488318687],[42.791952251032285,37.45323090343015],[42.783035626000185,37.45108290200005],[42.78229535000003,37.45105412800035],[42.78220587400011,37.45095584100011],[42.78221845400009,37.45046389100008],[42.777994131933326,37.439859409821054],[42.78155000000021,37.42837000000003],[42.778030000000115,37.419370000000185],[42.77526000000006,37.39557000000042],[42.77526000000006,37.38436000000013],[42.77973270909132,37.37571342652353],[42.77995994677758,37.37565329445039],[42.78014237800005,37.37574138500014],[42.781106170000044,37.37574138400004],[42.783755037000105,37.37529799500004],[42.78521133400011,37.37573070800005],[42.786043782000036,37.37663953800029],[42.78630705300009,37.37787988300033],[42.7891094630001,37.380104386000085],[42.791639408000094,37.38052034700013],[42.794290550000085,37.38045696100022],[42.79573404100006,37.379713732000084],[42.79590115100018,37.37974194600048],[42.79592773600018,37.37959003200052],[42.79699018000014,37.378997314000685],[42.799584113000094,37.378187664000166],[42.80299876200013,37.37773787700013],[42.803487643680114,37.377502443784806],[42.8034116180728,37.37760219882779],[42.8029600000001,37.38396000000006],[42.80029000000019,37.39213000000018],[42.80758000000009,37.434520000000134],[42.80575000000022,37.43534000000045],[42.799560000000156,37.43770000000035],[42.78758000000016,37.44082000000054],[42.786210000000096,37.44206000000014],[42.786670000000186,37.445050000000265],[42.78799000000015,37.44689000000028],[42.791100000000256,37.45257000000004],[42.792071996724076,37.45299965072621]]],"type":"Polygon"}},{"type":"Feature","properties":{"area_id":"TR-73-007-2035995","name_tr":"Gülyazı Köyü","area_level":"neighbourhood","parent_id":"TR-73-007","endeksa_id":2035995},"geometry":{"coordinates":[[[43.0548100000002,37.427800000000445],[43.04500000000013,37.43103000000053],[43.03965000000011,37.436440000000516],[43.03072000000003,37.442480000000046],[43.03177000000005,37.448490000000106],[43.02766000000014,37.452150000000074],[43.02530000000013,37.45257000000004],[43.019280000000265,37.45672000000036],[43.003320000000315,37.45201000000003],[43.00384000000014,37.44389000000018],[43.00486000000018,37.43806000000029],[43.00247000000013,37.433590000000095],[43.000010000000145,37.41548000000017],[42.994830000000036,37.409900000000164],[42.99113000000011,37.40697000000006],[42.985270000000185,37.403270000000134],[42.979530000000125,37.400330000000054],[42.974050000000204,37.3960000000003],[42.971660000000156,37.39277000000038],[42.97124000000019,37.39237000000014],[42.97104000000019,37.39204000000035],[42.97112000000004,37.391590000000065],[42.9708500000001,37.39070000000032],[42.97034000000019,37.390410000000486],[42.97025000000019,37.39025000000004],[42.970210000000066,37.390100000000416],[42.97032000000013,37.38994000000014],[42.9699700000001,37.3892800000001],[42.96981000000022,37.38919000000044],[42.970360000000255,37.38889000000012],[42.97150000000005,37.388460000000066],[42.97191000000004,37.38802000000027],[42.97181000000012,37.387250000000506],[42.971980000000144,37.38674000000026],[42.972840000000076,37.38621000000006],[42.97353000000015,37.385140000000035],[42.97367000000003,37.384740000000306],[42.973650000000134,37.38430000000017],[42.97318000000013,37.384530000000154],[42.97285000000022,37.384500000000344],[42.97287000000006,37.384030000000394],[42.97395000000006,37.38376000000022],[42.97447000000011,37.38342000000051],[42.97485000000012,37.38286000000039],[42.97590000000014,37.382480000000214],[42.97661000000011,37.38241000000011],[42.97747000000021,37.381830000000264],[42.97818000000012,37.381650000000434],[42.97858000000019,37.380930000000035],[42.97931000000017,37.38039000000009],[42.980310000000145,37.3802000000004],[42.98148000000015,37.380400000000066],[42.98200000000003,37.38060000000024],[42.98214000000024,37.38036000000028],[42.98194000000018,37.3797100000005],[42.98191000000003,37.379100000000335],[42.98215000000016,37.37894000000006],[42.981980000000135,37.378830000000164],[42.98163000000011,37.37896000000029],[42.98131000000012,37.3787700000002],[42.98098000000016,37.378830000000164],[42.98091000000005,37.37875000000065],[42.98075000000017,37.378820000000076],[42.98069000000015,37.37876000000006],[42.98091000000005,37.37845000000016],[42.980740000000026,37.37843000000032],[42.980800000000215,37.378300000000365],[42.98101000000014,37.378170000000296],[42.981050000000096,37.37794000000042],[42.981330000000185,37.37775000000033],[42.981550000000084,37.37744000000026],[42.98150000000004,37.377160000000174],[42.981020000000115,37.37679000000048],[42.9812500000001,37.376540000000034],[42.98107000000016,37.37605000000036],[42.98073000000011,37.3758100000004],[42.98045000000019,37.375790000000165],[42.979660000000194,37.37526000000037],[42.97784000000007,37.3757700000001],[42.977640000000235,37.37373000000025],[42.97828000000004,37.37160000000023],[42.97943000000015,37.369650000000206],[42.98011000000014,37.36763000000019],[42.98135000000025,37.36663000000004],[42.98563000000013,37.36571000000032],[42.988210000000095,37.367640000000165],[42.9885000000001,37.36883000000017],[42.98936000000003,37.36893000000032],[42.9897600000001,37.36875000000032],[42.98978000000017,37.36821000000003],[42.99110000000013,37.36607000000026],[42.99193000000025,37.36521000000016],[42.99339000000009,37.36385000000007],[42.99386000000004,37.3639100000006],[42.994490000000155,37.36362000000008],[42.994190000000174,37.3630100000002],[42.995460000000094,37.36235000000016],[42.99600000000021,37.362260000000504],[42.99674000000016,37.361420000000635],[42.9966100000002,37.361330000000294],[43.00215000000014,37.35815000000008],[43.00492000000014,37.356740000000116],[43.01449000000008,37.35574000000037],[43.02184000000017,37.35304000000008],[43.0217100000001,37.353770000000054],[43.021851351646376,37.35376553626401],[43.02360715000003,37.35419297000004],[43.02585452100027,37.35367080900011],[43.02796252100006,37.3536432500004],[43.02935602300005,37.353958879000174],[43.03056188800008,37.354537349000395],[43.03130839500011,37.35530435800035],[43.03507137700029,37.35424468499997],[43.03609642400011,37.35359495100005],[43.036959217000174,37.35354216100012],[43.037858679000294,37.35420378400005],[43.038908035000304,37.35429627100052],[43.04085998800002,37.354010477000145],[43.042747991000056,37.35477092400009],[43.04323665500016,37.35529453099997],[43.04420179200031,37.35527539300017],[43.044590105000225,37.35487598000026],[43.044969466000225,37.35485551400052],[43.045377627931884,37.355308113983824],[43.04556000000008,37.355530000000044],[43.04537000000016,37.3560700000001],[43.0456200000001,37.356770000000324],[43.043930000000046,37.35942000000017],[43.04453000000012,37.37038000000018],[43.05429000000015,37.38550000000066],[43.057620000000156,37.390040000000056],[43.059390000000064,37.394220000000246],[43.05904000000004,37.39520000000033],[43.058210000000145,37.39564000000013],[43.0575800000002,37.397910000000195],[43.0569000000001,37.398340000000076],[43.05808000000019,37.40260000000012],[43.059290000000146,37.40378000000004],[43.057750000000055,37.40886000000012],[43.05255000000005,37.41248000000047],[43.050250000000176,37.41484000000037],[43.04912000000013,37.41721000000035],[43.0548100000002,37.427800000000445]]],"type":"Polygon"}},{"type":"Feature","properties":{"area_id":"TR-73-007-90661","name_tr":"Şehan","area_level":"neighbourhood","parent_id":"TR-73-007","endeksa_id":90661},"geometry":{"coordinates":[[[42.78220587400011,37.45095584100011],[42.782158419000154,37.45108032800039],[42.77114681500018,37.458116086000416],[42.77095256700005,37.45807335000006],[42.766641717000084,37.44886652200017],[42.750061145000075,37.437885543000164],[42.75007865400005,37.43772362500005],[42.75131156000009,37.437314258000015],[42.75260101900011,37.43532581500011],[42.75285544899998,37.43280641600006],[42.75401829735273,37.43126143788237],[42.75610000000012,37.43046000000027],[42.75791000000015,37.429910000000234],[42.75847186272364,37.43008463300873],[42.758869158000095,37.430546453000034],[42.759155608683216,37.43053606013552],[42.75925000000018,37.43061000000006],[42.75934000000018,37.43128000000007],[42.76024000000018,37.431480000000136],[42.761920000000146,37.43109000000038],[42.76359000000008,37.43027000000018],[42.76436000000024,37.43019000000015],[42.76495754587398,37.430347825350964],[42.765084169787826,37.43094448328543],[42.76431000000014,37.431670000000224],[42.763720000000205,37.43247000000031],[42.763690000000224,37.433060000000125],[42.76511000000011,37.43374000000023],[42.76520000000011,37.43445000000003],[42.765460000000076,37.43478000000033],[42.76509000000004,37.43609000000015],[42.76536000000016,37.43698000000029],[42.765460000000076,37.43711000000053],[42.76567000000006,37.437150000000315],[42.76593000000008,37.43708000000021],[42.766600000000096,37.43758000000037],[42.76584000000008,37.43816000000004],[42.7666900000001,37.43868000000003],[42.76677000000012,37.438850000000286],[42.76751000000007,37.439390000000174],[42.76819000000023,37.44021000000015],[42.768400000000156,37.44024000000019],[42.770070000000146,37.439660000000345],[42.77452000000011,37.439510000000155],[42.777994131933326,37.439859409821054],[42.78221845400009,37.45046389100008],[42.78220587400011,37.45095584100011]]],"type":"Polygon"}},{"type":"Feature","properties":{"area_id":"TR-73-007-90654","name_tr":"Küçükçay","area_level":"neighbourhood","parent_id":"TR-73-007","endeksa_id":90654},"geometry":{"coordinates":[[[42.88274000000018,37.41920000000016],[42.88734000000011,37.42553000000021],[42.88925000000006,37.42772000000025],[42.891100000000165,37.42897000000062],[42.89477000000011,37.434270000000026],[42.896860000000174,37.43884000000014],[42.90134000000012,37.44362000000058],[42.9055800000001,37.452890000000195],[42.90438000000012,37.456890000000044],[42.904570000000035,37.4590400000003],[42.90213000000011,37.457410000000436],[42.90109000000024,37.4569700000003],[42.89652000000012,37.45414000000005],[42.89544000000012,37.45379000000008],[42.89458000000019,37.4531400000003],[42.89346000000006,37.4525400000004],[42.8901800000001,37.449170000000095],[42.8873200466781,37.44956869237802],[42.887128791515124,37.44954125445554],[42.88700390859083,37.44941919294865],[42.88701284035602,37.449256106344876],[42.88714857090423,37.449143949111146],[42.88563000000005,37.44937000000027],[42.885610000000156,37.4492400000002],[42.8857500000002,37.44918000000018],[42.886880000000076,37.448860000000195],[42.886890000000164,37.44872000000049],[42.886730000000114,37.44869000000017],[42.885580000000175,37.44893000000013],[42.88560000000024,37.44882000000024],[42.88637000000017,37.44860000000051],[42.886540000000025,37.44848000000053],[42.88656000000026,37.448340000000314],[42.88647000000009,37.44832000000008],[42.88612000000006,37.448460000000296],[42.885400000000175,37.44847000000027],[42.88417000000004,37.44905000000011],[42.884000000000185,37.4490600000002],[42.883910000000185,37.4489700000002],[42.88393000000008,37.448340000000314],[42.88368000000014,37.44791000000026],[42.8835000000002,37.446440000000166],[42.88309000000021,37.44622000000027],[42.88256000000024,37.445300000000316],[42.88220000000007,37.44414000000029],[42.88203000000004,37.44404000000014],[42.881090000000086,37.44407000000018],[42.88099000000017,37.44401000000016],[42.88126000000011,37.442820000000324],[42.88085000000012,37.44206000000014],[42.88094000000012,37.44204000000059],[42.8811813219707,37.442273277905485],[42.881116751828586,37.442129947643366],[42.88118186858219,37.44198610700602],[42.881532689135554,37.44193140599941],[42.87896000000006,37.44082000000054],[42.878430000000094,37.44006000000019],[42.88033000000007,37.4395200000003],[42.87892000000011,37.43880000000041],[42.87600000000009,37.43670000000003],[42.87562000000014,37.435580000000414],[42.87580000000008,37.43554000000012],[42.8757700000001,37.43538000000024],[42.87597000000011,37.43531000000013],[42.87582000000015,37.434800000000166],[42.87600000000009,37.434650000000204],[42.87611000000015,37.43389000000019],[42.87565000000012,37.43349000000018],[42.875640000000146,37.433060000000125],[42.87450000000018,37.43108000000041],[42.87060000000008,37.42576000000008],[42.86252000000013,37.41756000000015],[42.86488000000003,37.41524000000004],[42.8651900000001,37.414410000000316],[42.88274000000018,37.41920000000016]]],"type":"Polygon"}},{"type":"Feature","properties":{"area_id":"TR-73-007-90660","name_tr":"Güneşli","area_level":"neighbourhood","parent_id":"TR-73-007","endeksa_id":90660},"geometry":{"coordinates":[[[42.77095256700005,37.45807335000006],[42.77094952300018,37.45825966500013],[42.75903029800014,37.465851708000116],[42.73767986399997,37.46493807600052],[42.736543442000084,37.464668785000356],[42.72762120900006,37.44143598599999],[42.727827381000054,37.441440901000135],[42.730824939000115,37.44243526900016],[42.73381901100004,37.44114652900015],[42.73491735739236,37.44143404723138],[42.73517000000015,37.44173000000052],[42.73577000000006,37.44197000000048],[42.736766762000116,37.44191817277175],[42.73737882200015,37.44207839400002],[42.73913626202881,37.441158891225314],[42.7395600000001,37.44113000000061],[42.73996000000017,37.44150000000013],[42.74051000000003,37.44150000000013],[42.740860000000055,37.441060000000505],[42.741155652367866,37.44092746618031],[42.74178609300003,37.44137608600005],[42.742682023515556,37.44227182978227],[42.74281000000008,37.44302000000016],[42.74304000000012,37.443470000000275],[42.74345000000011,37.4437300000003],[42.744292757000096,37.44379932200013],[42.74453000000011,37.44367000000045],[42.744583169348516,37.443439599491114],[42.745288961863935,37.44256536168331],[42.74567000000013,37.44252000000051],[42.746292571812546,37.44211105577074],[42.7469171300001,37.44193921400006],[42.74710756665519,37.441575716021134],[42.747710000000154,37.441180000000486],[42.74795000000012,37.43996771246509],[42.748207559000036,37.43947609400004],[42.748265182766374,37.438997422347654],[42.74952998391626,37.43790144153718],[42.74984369000015,37.43779827800046],[42.750061145000075,37.437885543000164],[42.766641717000084,37.44886652200017],[42.77095256700005,37.45807335000006]]],"type":"Polygon"}},{"type":"Feature","properties":{"area_id":"TR-73-007-90665","name_tr":"Cumhuriyet.","area_level":"neighbourhood","parent_id":"TR-73-007","endeksa_id":90665},"geometry":{"coordinates":[[[42.660689,37.516492],[42.658675,37.508827],[42.66028,37.507183],[42.657927,37.501525],[42.65926,37.50115],[42.65971,37.50071],[42.66007,37.49952],[42.65993,37.49902],[42.65948,37.49871],[42.65835,37.49816],[42.65784,37.49773],[42.65759,37.49692],[42.6583,37.49564],[42.65873,37.49534],[42.65928,37.49515],[42.65951,37.49495],[42.65957,37.49459],[42.65951,37.49415],[42.65938,37.49389],[42.65862,37.49364],[42.65728,37.49351],[42.65667,37.49321],[42.65596,37.49212],[42.65581,37.49176],[42.6572,37.49077],[42.65873,37.49044],[42.66025,37.49027],[42.6589,37.48702],[42.65727,37.48458],[42.65683,37.48223],[42.65507,37.48009],[42.65311,37.47886],[42.650968,37.476746],[42.651682,37.476476],[42.658429,37.473249],[42.665957,37.470551],[42.667592,37.470107],[42.674923,37.460618],[42.676805,37.458674],[42.677703,37.457394],[42.680524,37.449861],[42.680849,37.447354],[42.68187793800989,37.439406478863475],[42.68187788500012,37.4394063900001],[42.683104931,37.43061712000048],[42.68305110239049,37.43057068179815],[42.682977,37.430507],[42.68297714402607,37.43050687742477],[42.68297689200017,37.43050666000022],[42.68300606677681,37.43048226232476],[42.683024,37.430467],[42.683106,37.430398],[42.68269379252521,37.42689516942142],[42.681970908373415,37.42075626935763],[42.681356,37.415538],[42.6805901233779,37.41274816119128],[42.68043791792104,37.41219412267759],[42.68043802677738,37.412194097546376],[42.680438,37.412194],[42.680688062178206,37.41213637309147],[42.68522,37.41109],[42.694221,37.410111],[42.70214,37.40925],[42.702140000000156,37.409250000000384],[42.702300000000044,37.41098000000017],[42.701880000000045,37.411890000000156],[42.70232,37.41232],[42.70384,37.41266],[42.70468,37.41309],[42.70478127328878,37.41325242316851],[42.70574000000016,37.414790000000096],[42.70665669836776,37.415162172233124],[42.70808,37.41574],[42.71097,37.41796],[42.71172,37.41916],[42.711720000000184,37.419160000000375],[42.71180135037781,37.41943363484048],[42.71194,37.4199],[42.71235,37.42042],[42.7146,37.42083],[42.71506,37.42073],[42.71538464873236,37.420858634823944],[42.715590000000134,37.42094000000003],[42.71505000000025,37.42197000000016],[42.71489999999999,37.42259000000015],[42.71501000000012,37.42351000000002],[42.71604,37.42447],[42.71676,37.42547],[42.717700000000136,37.42601000000005],[42.718620000000215,37.42606000000018],[42.719090000000165,37.42666000000008],[42.71855000000011,37.42859000000044],[42.718870000000095,37.429940000000045],[42.71910000000014,37.431790000000206],[42.719050000000095,37.43268000000012],[42.71944000000005,37.434849999999905],[42.72077,37.43754],[42.72196,37.4375],[42.7246,37.43771],[42.72545000000013,37.438470000000066],[42.72597,37.4394],[42.72641,37.43999],[42.7264100000001,37.43999000000008],[42.7269100000001,37.44107000000009],[42.72720672413567,37.44119553713438],[42.727206553314915,37.441195810498165],[42.727207,37.441196],[42.72180479467459,37.4498391027116],[42.72016232500016,37.452466755000614],[42.719066492502165,37.45526532775048],[42.71947672980104,37.455538330925],[42.71990308400012,37.45582199400013],[42.724579967773394,37.460804839723046],[42.725792,37.462096],[42.716618,37.461609],[42.71603632716121,37.46304955276109],[42.71493947500005,37.465767270000015],[42.71360906000018,37.466187308000144],[42.71357308800003,37.46633733600015],[42.71347216612519,37.46629385979652],[42.713379,37.466254],[42.70440263292666,37.46888297996429],[42.7043653180001,37.46889390900003],[42.704194884631654,37.46909235626252],[42.703618,37.469765],[42.70352139033637,37.469782433339006],[42.703485247000174,37.469789156000445],[42.703485083409305,37.46978898494869],[42.703485,37.469789],[42.703457907278526,37.46976056939407],[42.703404004629185,37.46970420832023],[42.703411,37.470019],[42.696943,37.477867],[42.695309,37.483789],[42.69325,37.48449],[42.69193,37.48396],[42.68907,37.48424],[42.68681,37.4836],[42.68824,37.48691],[42.68979,37.49143],[42.67664,37.49659],[42.6756,37.49822],[42.67161,37.49791],[42.67029,37.49705],[42.66887,37.49729],[42.6648,37.51045],[42.668429,37.515774],[42.665658,37.515882],[42.66084,37.516568],[42.660689,37.516492]]],"type":"Polygon"}},{"type":"Feature","properties":{"area_id":"TR-73-007-90651","name_tr":"Gündoğdu","area_level":"neighbourhood","parent_id":"TR-73-007","endeksa_id":90651},"geometry":{"coordinates":[[[42.917430000000195,37.468530000000385],[42.910800000000165,37.47391000000016],[42.90539000000018,37.46858000000026],[42.8939000000002,37.46334000000013],[42.88870000000003,37.462740000000224],[42.885580000000175,37.46201000000019],[42.88240000000013,37.462530000000584],[42.87915000000015,37.462370000000135],[42.87072000000006,37.46403000000038],[42.86227000000008,37.46781000000033],[42.8618400000002,37.454650000000186],[42.859130000000164,37.44700000000029],[42.858600000000195,37.44405000000063],[42.85918000000004,37.44318000000004],[42.85949000000011,37.44296000000014],[42.860990000000186,37.44221000000044],[42.8616600000002,37.442140000000336],[42.86203000000012,37.44229000000013],[42.86199000000016,37.442480000000046],[42.86208000000016,37.4427100000006],[42.86189000000007,37.44302000000016],[42.8622400000001,37.443780000000345],[42.863030000000094,37.4445900000004],[42.863810000000115,37.44491000000005],[42.86671000000007,37.448310000000674],[42.87327000000016,37.45182000000034],[42.880310000000236,37.454220000000134],[42.88318000000015,37.45005000000026],[42.8848000000001,37.449920000000304],[42.8901800000001,37.449170000000095],[42.89346000000006,37.4525400000004],[42.89458000000019,37.4531400000003],[42.89544000000012,37.45379000000008],[42.89652000000012,37.45414000000005],[42.90109000000024,37.4569700000003],[42.90213000000011,37.457410000000436],[42.904570000000035,37.4590400000003],[42.90864000000016,37.45852000000008],[42.910860000000184,37.459080000000085],[42.912650000000156,37.46003000000013],[42.913800000000265,37.46013000000028],[42.91622000000012,37.45771000000042],[42.91741000000013,37.45672000000019],[42.9192000000001,37.457320000000095],[42.92435000000006,37.46166000000039],[42.91952000000015,37.46600000000012],[42.918170000000146,37.46747000000005],[42.917430000000195,37.468530000000385]]],"type":"Polygon"}},{"type":"Feature","properties":{"area_id":"TR-73-007-90664","name_tr":"Başkaya","area_level":"neighbourhood","parent_id":"TR-73-007","endeksa_id":90664},"geometry":{"coordinates":[[[42.76084144600003,37.47059642900018],[42.73870709300019,37.470714107000504],[42.72206632100017,37.47447588700004],[42.71357308800003,37.46633733600015],[42.71360906000018,37.466187308000144],[42.71493947500005,37.465767270000015],[42.71661788900019,37.46160850800004],[42.72579157500019,37.46209557200052],[42.71990308400012,37.45582199400013],[42.71906647399999,37.45526537500018],[42.72016232500016,37.452466755000614],[42.72720672413567,37.44119553713438],[42.72756455538382,37.44131070082841],[42.72762120900006,37.44143598599999],[42.736543442000084,37.464668785000356],[42.73767986399997,37.46493807600052],[42.75903029800014,37.465851708000116],[42.75914172700004,37.46591963700047],[42.76095909000003,37.47046723800008],[42.76084144600003,37.47059642900018]]],"type":"Polygon"}},{"type":"Feature","properties":{"area_id":"TR-73-007-99518","name_tr":"Kılaban","area_level":"neighbourhood","parent_id":"TR-73-007","endeksa_id":99518},"geometry":{"coordinates":[[[42.91701141222228,37.51042715218654],[42.90785456400039,37.51185420400054],[42.90030868500048,37.512268583000264],[42.892873304000375,37.5134379470004],[42.88941668801226,37.51335211295492],[42.88476000000014,37.507500000000334],[42.88086000000004,37.50179000000037],[42.877370000000155,37.495110000000466],[42.87470000000019,37.48924000000011],[42.87318000000022,37.487120000000175],[42.87151000000006,37.48802000000006],[42.8689100000002,37.487340000000074],[42.86327000000023,37.4863900000002],[42.859590000000196,37.48605000000032],[42.85427000000021,37.48514000000034],[42.84418000000005,37.46556000000032],[42.84366000000017,37.45854000000014],[42.84654000000012,37.457500000000095],[42.84865000000008,37.455740000000105],[42.84710000000007,37.44881000000015],[42.84679000000017,37.44696000000016],[42.84611000000007,37.4464200000001],[42.84564000000006,37.44616000000042],[42.84514000000007,37.44610000000006],[42.84678000000008,37.44392000000039],[42.84641000000016,37.44365000000022],[42.84620000000024,37.4432400000004],[42.844730000000084,37.44228000000055],[42.844600000000185,37.4420300000001],[42.84417000000013,37.441700000000196],[42.84406000000007,37.441490000000044],[42.84408000000013,37.441090000000145],[42.84400000000011,37.44083000000012],[42.84291000000013,37.439910000000054],[42.84263000000004,37.43986000000018],[42.84239000000008,37.439700000000244],[42.84210000000007,37.4393400000003],[42.84146000000004,37.43818000000027],[42.841130000000135,37.43730000000062],[42.84109000000018,37.43639000000064],[42.84124000000014,37.43580000000014],[42.841160000000116,37.43515000000036],[42.83499000000012,37.42581000000064],[42.835560000000044,37.42544000000004],[42.835900000000095,37.4253700000001],[42.836200000000076,37.425160000000176],[42.83948000000004,37.424360000000036],[42.84386000000006,37.42431000000016],[42.847480000000076,37.42209000000037],[42.84755365416726,37.42215884650625],[42.84781000000004,37.422440000000336],[42.850920000000144,37.427580000000034],[42.85586000000012,37.43178000000006],[42.86026000000004,37.43662000000012],[42.861760000000174,37.44138000000015],[42.86135000000013,37.44142000000045],[42.86141000000015,37.441710000000285],[42.86203000000012,37.44229000000013],[42.8616600000002,37.442140000000336],[42.860990000000186,37.44221000000044],[42.85949000000011,37.44296000000014],[42.85918000000004,37.44318000000004],[42.858600000000195,37.44405000000063],[42.859130000000164,37.44700000000029],[42.8618400000002,37.454650000000186],[42.86227000000008,37.46781000000033],[42.87072000000006,37.46403000000038],[42.87915000000015,37.462370000000135],[42.88240000000013,37.462530000000584],[42.885580000000175,37.46201000000019],[42.88870000000003,37.462740000000224],[42.8939000000002,37.46334000000013],[42.90539000000018,37.46858000000026],[42.910800000000165,37.47391000000016],[42.917430000000195,37.468530000000385],[42.91750000000013,37.47046000000017],[42.91741000000013,37.470610000000136],[42.91759000000013,37.47082000000012],[42.91813000000025,37.47106000000008],[42.91959000000003,37.47109000000006],[42.92000000000024,37.47126000000031],[42.92063000000013,37.47122000000053],[42.92178000000007,37.47158000000047],[42.924060000000054,37.47331000000008],[42.924400000000105,37.47325000000012],[42.92453000000006,37.47311000000059],[42.92443000000014,37.472470000000214],[42.92491000000007,37.4719800000002],[42.924680000000194,37.471510000000364],[42.92492000000016,37.47028000000023],[42.92505000000011,37.47010000000023],[42.92549000000008,37.469960000000185],[42.92751000000004,37.46994000000012],[42.928140000000155,37.470180000000084],[42.929320000000075,37.4697300000002],[42.92953000000006,37.46978000000007],[42.93045000000012,37.47034000000019],[42.93106000000017,37.47077000000024],[42.9323100000002,37.4719800000002],[42.933040000000176,37.47232000000008],[42.93326000000013,37.47280000000052],[42.933040000000176,37.473700000000406],[42.93383943529807,37.473149739341295],[42.925477291000334,37.485249263000014],[42.92307000000022,37.49007000000057],[42.92124000000035,37.50190000000043],[42.91701141222228,37.51042715218654]]],"type":"Polygon"}},{"type":"Feature","properties":{"area_id":"TR-73-007-183810","name_tr":"Bulakbaşı","area_level":"neighbourhood","parent_id":"TR-73-007","endeksa_id":183810},"geometry":{"coordinates":[[[42.93383943529807,37.473149739341295],[42.933040000000176,37.473700000000406],[42.93326000000013,37.47280000000052],[42.933040000000176,37.47232000000008],[42.9323100000002,37.4719800000002],[42.93106000000017,37.47077000000024],[42.93045000000012,37.47034000000019],[42.92953000000006,37.46978000000007],[42.929320000000075,37.4697300000002],[42.928140000000155,37.470180000000084],[42.92751000000004,37.46994000000012],[42.92549000000008,37.469960000000185],[42.92505000000011,37.47010000000023],[42.92492000000016,37.47028000000023],[42.924680000000194,37.471510000000364],[42.92491000000007,37.4719800000002],[42.92443000000014,37.472470000000214],[42.92453000000006,37.47311000000059],[42.924400000000105,37.47325000000012],[42.924060000000054,37.47331000000008],[42.92178000000007,37.47158000000047],[42.92063000000013,37.47122000000053],[42.92000000000024,37.47126000000031],[42.91959000000003,37.47109000000006],[42.91813000000025,37.47106000000008],[42.91759000000013,37.47082000000012],[42.91741000000013,37.470610000000136],[42.91750000000013,37.47046000000017],[42.917430000000195,37.468530000000385],[42.918170000000146,37.46747000000005],[42.91952000000015,37.46600000000012],[42.92435000000006,37.46166000000039],[42.9192000000001,37.457320000000095],[42.91741000000013,37.45672000000019],[42.91622000000012,37.45771000000042],[42.913800000000265,37.46013000000028],[42.912650000000156,37.46003000000013],[42.910860000000184,37.459080000000085],[42.90864000000016,37.45852000000008],[42.904570000000035,37.4590400000003],[42.90438000000012,37.456890000000044],[42.9055800000001,37.452890000000195],[42.90134000000012,37.44362000000058],[42.896860000000174,37.43884000000014],[42.89477000000011,37.434270000000026],[42.891100000000165,37.42897000000062],[42.88925000000006,37.42772000000025],[42.88734000000011,37.42553000000021],[42.88274000000018,37.41920000000016],[42.886050000000125,37.41543000000013],[42.89051000000023,37.41273000000018],[42.892060000000185,37.413360000000125],[42.89296000000007,37.414330000000064],[42.89770000000004,37.4121700000004],[42.901590000000226,37.41247000000038],[42.908750000000225,37.41153000000003],[42.912070000000085,37.4121700000004],[42.91973000000007,37.41121000000055],[42.92391000000009,37.410950000000355],[42.92668000000015,37.41103000000004],[42.93062000000015,37.41195000000016],[42.93176000000017,37.41100000000023],[42.93306000000007,37.41040000000032],[42.935640000000035,37.41004000000038],[42.93789000000021,37.41012000000006],[42.944900000000075,37.40647000000058],[42.95269000000013,37.40373000000017],[42.960270000000094,37.398490000000265],[42.96318000000019,37.395990000000324],[42.97025000000019,37.39025000000004],[42.97034000000019,37.390410000000486],[42.9708500000001,37.39070000000032],[42.97112000000004,37.391590000000065],[42.97104000000019,37.39204000000035],[42.97124000000019,37.39237000000014],[42.971660000000156,37.39277000000038],[42.974050000000204,37.3960000000003],[42.979530000000125,37.400330000000054],[42.985270000000185,37.403270000000134],[42.99113000000011,37.40697000000006],[42.994830000000036,37.409900000000164],[43.000010000000145,37.41548000000017],[43.00247000000013,37.433590000000095],[43.00486000000018,37.43806000000029],[43.00384000000014,37.44389000000018],[43.003320000000315,37.45201000000003],[42.963430000000244,37.45091000000053],[42.95252000000028,37.45764000000099],[42.94950000000034,37.45925000000062],[42.93627630187382,37.46190672485051],[42.93704664800026,37.46850909400058],[42.93474547460511,37.47183875454573],[42.93458000000027,37.47264000000024],[42.93383943529807,37.473149739341295]]],"type":"Polygon"}},{"type":"Feature","properties":{"area_id":"TR-73-007-90669","name_tr":"Tanin","area_level":"neighbourhood","parent_id":"TR-73-007","endeksa_id":90669},"geometry":{"coordinates":[[[43.01142289000052,37.48074545600031],[43.01113150600037,37.48065680400043],[43.007410099000424,37.482338405000746],[43.006338381000376,37.48312244300047],[43.002529453000534,37.4863798070005],[42.99845436300052,37.49104675600057],[42.994972263000534,37.49422348500042],[42.98939471200026,37.490975021000224],[42.98939471200026,37.49272106800032],[42.97976381200027,37.494088852000345],[42.9796398270002,37.48935458300076],[42.9754136100002,37.48745277700061],[42.970507646000215,37.48765410700025],[42.96281001000028,37.483314081000344],[42.956943031000264,37.484594449000554],[42.958451655000204,37.482102056000656],[42.95003959400026,37.47674209900032],[42.94444072100032,37.47455431200035],[42.94215941400034,37.47960410900032],[42.925477291000334,37.485249263000014],[42.93383943529807,37.473149739341295],[42.93458000000027,37.47264000000024],[42.93474547460511,37.47183875454573],[42.93704664800026,37.46850909400058],[42.93627630187382,37.46190672485051],[42.94950000000034,37.45925000000062],[42.95252000000028,37.45764000000099],[42.963430000000244,37.45091000000053],[43.003320000000315,37.45201000000003],[43.019280000000265,37.45672000000036],[43.019290380781115,37.456732968540734],[43.01921801900022,37.457191314000454],[43.01899580800023,37.457427703000235],[43.019193022000195,37.45744698500056],[43.019018861000234,37.457525626000404],[43.01913648300024,37.458025259000806],[43.017495793000364,37.47503155800041],[43.0190590210002,37.476500645000726],[43.01479907700036,37.47899901200026],[43.011398395000356,37.48053627100086],[43.01134387800016,37.48062944400084],[43.01142289000052,37.48074545600031]]],"type":"Polygon"}},{"type":"Feature","properties":{"area_id":"TR-73-007-90667","name_tr":"Ayyıldız Uzungeçit","area_level":"neighbourhood","parent_id":"TR-73-007","endeksa_id":90667},"geometry":{"coordinates":[[[42.97809326655408,37.51664098141708],[42.977916600000185,37.51683720000051],[42.97772430000026,37.516853300000776],[42.977719200000195,37.51627520000022],[42.97760280000017,37.51569720000015],[42.97778330000017,37.514974900000254],[42.977469500000154,37.51461760000018],[42.977393600000255,37.514473100000146],[42.97742900000014,37.51431660000031],[42.978071700000214,37.51401550000031],[42.978380500000185,37.51398740000025],[42.9786285000003,37.51352970000022],[42.97871450000031,37.512811100000306],[42.97884100000027,37.51240570000016],[42.9789878000002,37.512229000000275],[42.97984310000027,37.512233000000265],[42.9799950000002,37.51216880000027],[42.980065800000204,37.51133780000026],[42.98051120000031,37.51094830000034],[42.98121470000024,37.509764000000246],[42.98119440000016,37.509450900000274],[42.98085030000027,37.50894100000016],[42.98074910000025,37.50852350000025],[42.98113880000017,37.50825040000058],[42.981746100000294,37.508101900000725],[42.98211050000026,37.50779280000023],[42.98274820000029,37.50653610000012],[42.98322390000021,37.50580940000026],[42.983396000000255,37.505580600000656],[42.98394260000015,37.50526740000032],[42.98423620000028,37.50493410000081],[42.98467650000015,37.505223200000216],[42.98511480000013,37.50526580000019],[42.98595690000019,37.50471010000024],[42.9859043000003,37.50430860000057],[42.986070300000165,37.50373690000015],[42.98583950000028,37.50376580000028],[42.985649200000296,37.50393920000056],[42.98554400000012,37.5039457000002],[42.98551970000028,37.503852500000164],[42.98573020000026,37.50337390000033],[42.985313200000235,37.50348310000015],[42.98493260000021,37.50371440000043],[42.9846411000002,37.50366940000026],[42.98459650000024,37.50356660000028],[42.98478680000022,37.50338350000027],[42.98495280000026,37.50301740000032],[42.984807100000296,37.50258370000017],[42.984843500000295,37.50243600000016],[42.985195700000304,37.502297900000826],[42.985859800000185,37.50244560000061],[42.985944800000254,37.50238780000029],[42.98681130000017,37.501321400000165],[42.98705010000026,37.50105800000023],[42.987285000000156,37.500952000000666],[42.987637200000165,37.50043800000026],[42.988149100000214,37.499936000000446],[42.98832400000015,37.499599300000284],[42.9888617000002,37.499064800000156],[42.98909970000017,37.49857950000029],[42.98931970000024,37.4984565000006],[42.98937470000021,37.498285900000155],[42.98918970000017,37.4980082000003],[42.989274700000294,37.49776220000035],[42.98977980000029,37.497286100000395],[42.9901449000003,37.497135300000195],[42.990209900000195,37.497048000000234],[42.99162010000015,37.496361600000284],[42.99201855353044,37.495833541972615],[42.993483165000384,37.49558186300055],[42.99845436300052,37.49104675600057],[43.002529453000534,37.4863798070005],[43.006338381000376,37.48312244300047],[43.007410099000424,37.482338405000746],[43.01113150600037,37.48065680400043],[43.01142289000052,37.48074545600031],[43.01212528800056,37.48219326300028],[43.01227797700045,37.482217497000704],[43.01390983900046,37.48366869900087],[43.02998309500043,37.49902686600035],[43.02966093517256,37.5010963941794],[43.02237618839149,37.50805175703681],[42.993327600000384,37.51224070000069],[42.99270010000038,37.51267020000034],[42.99159170000047,37.513019500000325],[42.99051370000046,37.513758200000325],[42.99036180000036,37.51370200000048],[42.99035170000036,37.513585600000226],[42.990650300000425,37.51298340000068],[42.99058960000036,37.512810800000466],[42.98769970000035,37.51489030000039],[42.987046800000485,37.515111100000354],[42.98568030000041,37.515087000000506],[42.98389880000042,37.51534790000056],[42.98297260000038,37.515396100000316],[42.98255250000045,37.51551250000068],[42.98195246040626,37.51599857457916],[42.980437000000336,37.51573730000081],[42.980371200000434,37.515665100000376],[42.97975380000048,37.51584970000033],[42.978822500000376,37.51596210000076],[42.97845810000041,37.51620300000047],[42.97809326655408,37.51664098141708]]],"type":"Polygon"}},{"type":"Feature","properties":{"area_id":"TR-73-007-90670","name_tr":"Yenişehir","area_level":"neighbourhood","parent_id":"TR-73-007","endeksa_id":90670},"geometry":{"coordinates":[[[43.01854000000054,37.53075000000075],[43.01910000000049,37.53115000000099],[43.01914000000045,37.531410000000506],[43.01874000000055,37.531760000000475],[43.0176100000005,37.53228000000087],[43.01654000000042,37.53313000000054],[43.01628000000039,37.53356000000059],[43.015650000000505,37.53407000000101],[43.01380000000057,37.53397000000075],[43.01261000000051,37.53369000000083],[43.01164000000051,37.5342600000011],[43.01066000000043,37.53463000000062],[43.00905000000046,37.53418000000033],[43.00887000000051,37.534350000000586],[43.00873000000047,37.5347500000006],[43.008250000000544,37.535040000000436],[43.00729000000052,37.53512000000069],[43.00690000000037,37.535040000000436],[43.00616000000042,37.535880000000304],[43.00623000000053,37.536060000000816],[43.00709000000046,37.53663000000108],[43.0070700000004,37.53697000000079],[43.0067600000005,37.53735000000097],[43.00671000000045,37.53770000000026],[43.00635000000051,37.538050000000624],[43.005640000000426,37.538290000000586],[43.00517000000042,37.53884000000079],[43.004590000000576,37.53889000000066],[43.0041200000004,37.5391800000005],[43.00374000000039,37.53928000000025],[43.003630000000555,37.53948000000099],[43.00366000000054,37.54014000000035],[43.00349000000051,37.54045000000042],[43.003570000000536,37.540770000000634],[43.00349000000051,37.540940000001],[43.00256000000047,37.54146000000054],[43.0021600000004,37.54211000000066],[43.001930000000584,37.5433500000002],[43.00133000000051,37.544550000000754],[43.00092000000046,37.54516000000075],[42.999770000000524,37.54574000000042],[42.97736000000049,37.546600000000524],[42.96810000000045,37.545230000000686],[42.957170000000474,37.53732000000048],[42.95704456857362,37.53738119868268],[42.95715289800046,37.53731430100078],[42.95651661812241,37.53690724854573],[42.95932096979385,37.53209998825474],[42.96095000000042,37.52818000000042],[42.97125558155193,37.52742956165906],[42.97134730000039,37.52700130000056],[42.97153800000035,37.52683160000038],[42.971518600000365,37.52675130000034],[42.970868600000415,37.52694580000059],[42.96991110000039,37.52680990000039],[42.969915000000356,37.52674820000044],[42.97039050000046,37.52658690000038],[42.97107370000032,37.52614110000047],[42.97302280000048,37.52554120000036],[42.97288700000041,37.52540290000047],[42.97316850000044,37.52240730000045],[42.973824200000536,37.522670200000675],[42.97809326655408,37.51664098141708],[42.97845810000041,37.51620300000047],[42.978822500000376,37.51596210000076],[42.97975380000048,37.51584970000033],[42.980371200000434,37.515665100000376],[42.980437000000336,37.51573730000081],[42.98195246040626,37.51599857457916],[42.98255250000045,37.51551250000068],[42.98297260000038,37.515396100000316],[42.98389880000042,37.51534790000056],[42.98568030000041,37.515087000000506],[42.987046800000485,37.515111100000354],[42.98769970000035,37.51489030000039],[42.99058960000036,37.512810800000466],[42.990650300000425,37.51298340000068],[42.99035170000036,37.513585600000226],[42.99036180000036,37.51370200000048],[42.99051370000046,37.513758200000325],[42.99159170000047,37.513019500000325],[42.99270010000038,37.51267020000034],[42.993327600000384,37.51224070000069],[43.02237618839149,37.50805175703681],[43.020210000000304,37.51012000000054],[43.03004000000044,37.514290000000244],[43.0277200000005,37.51792000000074],[43.02489000000048,37.52356000000043],[43.023020000000486,37.52626000000015],[43.01995000000045,37.526120000000674],[43.01997000000051,37.52650000000011],[43.01958000000042,37.52698000000004],[43.01969000000048,37.527420000000745],[43.01887000000045,37.527920000000904],[43.01823000000047,37.528410000000406],[43.01793000000049,37.528750000000116],[43.017790000000446,37.529570000001],[43.01781000000051,37.529930000000945],[43.01854000000054,37.53075000000075]]],"type":"Polygon"}},{"type":"Feature","properties":{"area_id":"TR-73-007-90662","name_tr":"Yıldız","area_level":"neighbourhood","parent_id":"TR-73-007","endeksa_id":90662},"geometry":{"coordinates":[[[42.8051294240002,37.506559610000295],[42.804988031000505,37.50664881500052],[42.797460955000474,37.505797148000795],[42.79225597300041,37.50462656400043],[42.780798135000396,37.504006765000895],[42.77443132900049,37.50314662900047],[42.75984388000046,37.50042651700096],[42.759686939000346,37.50023755600034],[42.766743004000034,37.48470770000006],[42.76103843900012,37.470664568000075],[42.76084144600003,37.47059642900018],[42.76095909000003,37.47046723800008],[42.75914172700004,37.46591963700047],[42.75903029800014,37.465851708000116],[42.77094952300018,37.45825966500013],[42.77095256700005,37.45807335000006],[42.77114681500018,37.458116086000416],[42.782158419000154,37.45108032800039],[42.78220587400011,37.45095584100011],[42.78229535000003,37.45105412800035],[42.783035626000185,37.45108290200005],[42.791952251032285,37.45323090343015],[42.79214090757068,37.45315488318687],[42.792071996724076,37.45299965072621],[42.80379604161237,37.45815448787374],[42.801933153000164,37.462494889000254],[42.80193167700003,37.472262543],[42.803205556000194,37.47956790800009],[42.80533911600014,37.48837794100007],[42.806296450000104,37.49625251400016],[42.8051294240002,37.506559610000295]]],"type":"Polygon"}},{"type":"Feature","properties":{"area_id":"TR-73-007-90663","name_tr":"Ayyıldız Şenoba","area_level":"neighbourhood","parent_id":"TR-73-007","endeksa_id":90663},"geometry":{"coordinates":[[[42.693635,37.489859],[42.695309,37.483789],[42.69671178370416,37.478705040576486],[42.69694279000004,37.47786740900017],[42.69694293605018,37.4778672317873],[42.696943,37.477867],[42.697859891868106,37.476754603554845],[42.70341053800013,37.47001862700051],[42.70340383600012,37.46970403200015],[42.703404004629185,37.46970420832023],[42.703404,37.469704],[42.703457907278526,37.46976056939407],[42.703485083409305,37.46978898494869],[42.70352139033637,37.469782433339006],[42.703617580000014,37.46976454200018],[42.704194884631654,37.46909235626252],[42.704365,37.468894],[42.70440263292666,37.46888297996429],[42.71337867600016,37.46625358500006],[42.71347216612519,37.46629385979652],[42.713573,37.466337],[42.716752170558756,37.46938393706645],[42.72206632100017,37.47447588700004],[42.72606244602075,37.47357277833661],[42.738707,37.470714],[42.760841,37.470596],[42.760904036518866,37.47061807883022],[42.76103843900012,37.470664568000075],[42.766743004000034,37.48470770000006],[42.766742937544805,37.48470784629512],[42.766743,37.484708],[42.759687,37.500238],[42.759569519170384,37.50044985070175],[42.7595649150004,37.500458175000574],[42.75031898669167,37.501654749850395],[42.743615,37.502522],[42.741393957098936,37.50295758884028],[42.73776643500048,37.503669059000856],[42.733074543192075,37.50510433268616],[42.729362,37.50624],[42.722897,37.50747],[42.719386,37.508138],[42.71388182152463,37.50894115306898],[42.71317040400049,37.50904500000058],[42.713170283344496,37.509044958664234],[42.71317,37.509045],[42.712956,37.508972],[42.712828,37.508928],[42.71021624766864,37.50787028234941],[42.70703298500007,37.506581334000145],[42.700841044416165,37.498853959314154],[42.693635,37.489859]]],"type":"Polygon"}},{"type":"Feature","properties":{"area_id":"TR-73-007-90668","name_tr":"Pınarbaşı","area_level":"neighbourhood","parent_id":"TR-73-007","endeksa_id":90668},"geometry":{"coordinates":[[[42.990187357287084,37.49707827659802],[42.989989350937606,37.49718947413254],[42.98976707807742,37.497150212849476],[42.98965237083871,37.4969857832034],[42.98973538035813,37.496808471365284],[42.98715082400042,37.498845674000506],[42.97751891300044,37.50061159200055],[42.97384409900047,37.50983314200096],[42.969413706000466,37.51180258600084],[42.96292353000047,37.511511543001006],[42.9566411510005,37.50706022300045],[42.951642172000504,37.505631089000644],[42.934594999000524,37.50823505400041],[42.93269222400039,37.508659907000606],[42.92344031700037,37.50910202900042],[42.91701141222228,37.51042715218654],[42.92124000000035,37.50190000000043],[42.92307000000022,37.49007000000057],[42.925477291000334,37.485249263000014],[42.94215941400034,37.47960410900032],[42.94444072100032,37.47455431200035],[42.95003959400026,37.47674209900032],[42.958451655000204,37.482102056000656],[42.956943031000264,37.484594449000554],[42.96281001000028,37.483314081000344],[42.970507646000215,37.48765410700025],[42.9754136100002,37.48745277700061],[42.9796398270002,37.48935458300076],[42.97976381200027,37.494088852000345],[42.98939471200026,37.49272106800032],[42.98939471200026,37.490975021000224],[42.994972263000534,37.49422348500042],[42.993483165000384,37.49558186300055],[42.99201855353044,37.495833541972615],[42.99162010000015,37.496361600000284],[42.990209900000195,37.497048000000234],[42.990187357287084,37.49707827659802]]],"type":"Polygon"}},{"type":"Feature","properties":{"area_id":"TR-73-007-90658","name_tr":"Yeşilyova","area_level":"neighbourhood","parent_id":"TR-73-007","endeksa_id":90658},"geometry":{"coordinates":[[[42.885108521386826,37.517220203039244],[42.882920000000354,37.5180900000006],[42.87675000000036,37.518410000000074],[42.872230000000286,37.51662000000101],[42.86936000000031,37.51434000000012],[42.86494000000039,37.50807000000003],[42.86289000000022,37.511000000000706],[42.85584000000023,37.51377000000059],[42.84465000000023,37.5131800000006],[42.83756000000034,37.5131800000006],[42.829360000000236,37.511400000000265],[42.82324000000028,37.51024000000052],[42.80522157600052,37.50668375200098],[42.8051294240002,37.506559610000295],[42.806296450000104,37.49625251400016],[42.80533911600014,37.48837794100007],[42.803205556000194,37.47956790800009],[42.80193167700003,37.472262543],[42.801933153000164,37.462494889000254],[42.80379604161237,37.45815448787374],[42.792071996724076,37.45299965072621],[42.791100000000256,37.45257000000004],[42.78799000000015,37.44689000000028],[42.786670000000186,37.445050000000265],[42.786210000000096,37.44206000000014],[42.78758000000016,37.44082000000054],[42.799560000000156,37.43770000000035],[42.80575000000022,37.43534000000045],[42.80758000000009,37.434520000000134],[42.81241000000006,37.432790000000125],[42.81693000000013,37.4332600000003],[42.8183600000001,37.43251000000009],[42.82157000000018,37.43222000000026],[42.82538000000011,37.432320000000686],[42.823350000000175,37.42747000000014],[42.826540000000136,37.427580000000034],[42.829767629076855,37.42829826626212],[42.829981419042156,37.428250391007964],[42.83288000000016,37.427180000000305],[42.83499000000012,37.42581000000064],[42.841160000000116,37.43515000000036],[42.84124000000014,37.43580000000014],[42.84109000000018,37.43639000000064],[42.841130000000135,37.43730000000062],[42.84146000000004,37.43818000000027],[42.84210000000007,37.4393400000003],[42.84239000000008,37.439700000000244],[42.84263000000004,37.43986000000018],[42.84291000000013,37.439910000000054],[42.84400000000011,37.44083000000012],[42.84408000000013,37.441090000000145],[42.84406000000007,37.441490000000044],[42.84417000000013,37.441700000000196],[42.844600000000185,37.4420300000001],[42.844730000000084,37.44228000000055],[42.84620000000024,37.4432400000004],[42.84641000000016,37.44365000000022],[42.84678000000008,37.44392000000039],[42.84514000000007,37.44610000000006],[42.84564000000006,37.44616000000042],[42.84611000000007,37.4464200000001],[42.84679000000017,37.44696000000016],[42.84710000000007,37.44881000000015],[42.84865000000008,37.455740000000105],[42.84654000000012,37.457500000000095],[42.84366000000017,37.45854000000014],[42.84418000000005,37.46556000000032],[42.85427000000021,37.48514000000034],[42.859590000000196,37.48605000000032],[42.86327000000023,37.4863900000002],[42.8689100000002,37.487340000000074],[42.87151000000006,37.48802000000006],[42.87318000000022,37.487120000000175],[42.87470000000019,37.48924000000011],[42.877370000000155,37.495110000000466],[42.88086000000004,37.50179000000037],[42.88476000000014,37.507500000000334],[42.88941668801226,37.51335211295492],[42.88457950800051,37.51323199700073],[42.88293852100037,37.51326986000004],[42.88322260000052,37.513952800000595],[42.88524540000037,37.516473800000995],[42.885108521386826,37.517220203039244]]],"type":"Polygon"}},{"type":"Feature","properties":{"area_id":"TR-73-007-90666","name_tr":"Gazi","area_level":"neighbourhood","parent_id":"TR-73-007","endeksa_id":90666},"geometry":{"coordinates":[[[42.66480000000007,37.510450000000674],[42.6648,37.51045],[42.66887,37.49729],[42.67029,37.49705],[42.67161,37.49791],[42.675599999999996,37.498220000000046],[42.676640000000084,37.49658999999996],[42.68978999999995,37.49143000000009],[42.68824000000004,37.48690999999998],[42.686810000000094,37.48360000000025],[42.68681,37.4836],[42.68850030663871,37.48407867599805],[42.689070000000186,37.48424000000011],[42.68953617682353,37.48419436515675],[42.69193,37.48396],[42.69325,37.48449],[42.695309,37.483789],[42.69530892453175,37.483789273673686],[42.69530942600005,37.48378910299999],[42.69363522000009,37.489858864000155],[42.700841044416165,37.498853959314154],[42.707033,37.506581],[42.71021624766864,37.50787028234941],[42.71282754800035,37.50892753800082],[42.712827809762295,37.50892792295998],[42.712828,37.508928],[42.712869,37.508988],[42.71288600158821,37.50901350238768],[42.71289501100051,37.509026752000864],[42.71289490051453,37.509026850772],[42.712895,37.509027],[42.712880804717216,37.509039452011386],[42.712813327181934,37.50909977491465],[42.712799,37.509113],[42.70113150790846,37.51112885691537],[42.70026817000053,37.51127800000097],[42.69019818500038,37.51260642600056],[42.685311385212074,37.51307908752892],[42.685054,37.513104],[42.6848653578636,37.51312221790565],[42.68159496200042,37.51343840900074],[42.67573781891398,37.51500222736303],[42.673604,37.515572],[42.67193963769258,37.51563699116182],[42.66842876700059,37.51577414400066],[42.66480000000007,37.510450000000674]]],"type":"Polygon"}}]}