{"type":"FeatureCollection","source_id":"endeksa","retrieved_at":null,"features":[{"type":"Feature","properties":{"area_id":"TR-76-003-2036589","name_tr":"Yazlık Köyü","area_level":"neighbourhood","parent_id":"TR-76-003","endeksa_id":2036589},"geometry":{"coordinates":[[[44.29829000000012,39.92240000000044],[44.296510000000126,39.9269900000001],[44.29514000000006,39.93486000000041],[44.2918600000001,39.933990000000165],[44.28570000000008,39.93329000000051],[44.281340000000114,39.93116000000049],[44.28136000000018,39.93104000000051],[44.28118000000018,39.93109000000038],[44.2807600000001,39.92983000000004],[44.28033000000022,39.92921000000007],[44.27992000000023,39.92885000000035],[44.28100000000023,39.92834000000022],[44.28187000000008,39.927670000000205],[44.280810000000145,39.92684000000031],[44.28079000000008,39.926250000000664],[44.27964000000014,39.925320000000454],[44.27789000000013,39.92497000000009],[44.276320000000055,39.92587000000049],[44.275080000000116,39.92610000000036],[44.274180000000115,39.92594000000008],[44.27327000000014,39.92607000000015],[44.27292000000011,39.9260100000007],[44.272760000000176,39.92561000000029],[44.273530000000164,39.92452000000037],[44.27398000000005,39.92411000000038],[44.273910000000114,39.9240300000003],[44.27425000000022,39.92341000000016],[44.27476000000013,39.9227800000001],[44.27439000000004,39.9226000000001],[44.275920000000156,39.92003000000045],[44.27475000000021,39.918990000000406],[44.27341000000018,39.91719000000012],[44.27175000000011,39.915870000000155],[44.27012000000008,39.9140500000002],[44.26801000000012,39.90836000000036],[44.26708000000008,39.9020400000004],[44.2660400000002,39.89732000000009],[44.26487000000003,39.89260000000036],[44.26278000000008,39.88779000000028],[44.257680000000164,39.882170000000144],[44.252220000000136,39.875940000000355],[44.24885000000023,39.86890000000051],[44.24765000000019,39.86557000000016],[44.28526000000011,39.86735000000016],[44.28879000000012,39.876030000000696],[44.29123000000004,39.88351000000017],[44.29436000000004,39.89491000000038],[44.289890000000185,39.90052000000054],[44.28715000000017,39.90489000000008],[44.28636000000017,39.909110000000055],[44.28969000000018,39.913640000000385],[44.29282000000012,39.917100000000346],[44.29829000000012,39.92240000000044]]],"type":"Polygon"}},{"type":"Feature","properties":{"area_id":"TR-76-003-2036579","name_tr":"Aktaş Köyü","area_level":"neighbourhood","parent_id":"TR-76-003","endeksa_id":2036579},"geometry":{"coordinates":[[[44.24623000000014,39.93502000000012],[44.240080000000034,39.9337500000002],[44.22253000000012,39.933640000000366],[44.21067000000005,39.935260000000085],[44.191850000000045,39.935260000000085],[44.178440000000194,39.93502000000012],[44.16334000000029,39.93288000000052],[44.164220000000284,39.92710000000028],[44.167690000000334,39.91436000000044],[44.17243913300024,39.9073208250004],[44.17260869700027,39.90679198400028],[44.17281058200018,39.90673527700045],[44.17295022234566,39.90652934253808],[44.17302000000012,39.89377000000053],[44.171620000000075,39.888890000000345],[44.170230000000174,39.88448000000017],[44.16222000000016,39.87372000000016],[44.18171000000024,39.86914000000047],[44.19750000000016,39.8677100000001],[44.223970000000065,39.86629000000005],[44.24765000000019,39.86557000000016],[44.24885000000023,39.86890000000051],[44.252220000000136,39.875940000000355],[44.257680000000164,39.882170000000144],[44.26278000000008,39.88779000000028],[44.26487000000003,39.89260000000036],[44.2660400000002,39.89732000000009],[44.26708000000008,39.9020400000004],[44.26801000000012,39.90836000000036],[44.27012000000008,39.9140500000002],[44.27175000000011,39.915870000000155],[44.27341000000018,39.91719000000012],[44.27475000000021,39.918990000000406],[44.275920000000156,39.92003000000045],[44.27439000000004,39.9226000000001],[44.27476000000013,39.9227800000001],[44.27425000000022,39.92341000000016],[44.273910000000114,39.9240300000003],[44.27398000000005,39.92411000000038],[44.273530000000164,39.92452000000037],[44.272760000000176,39.92561000000029],[44.27292000000011,39.9260100000007],[44.27281000000005,39.925970000000234],[44.27203000000003,39.92616000000032],[44.27193000000011,39.925930000000335],[44.27166000000011,39.92599000000047],[44.27200000000022,39.92653000000041],[44.27157000000017,39.926710000000355],[44.270810000000154,39.92559000000006],[44.26924000000008,39.926120000000026],[44.26877000000013,39.926370000000134],[44.2682200000001,39.92576000000008],[44.26772000000011,39.92607000000015],[44.26766000000009,39.92619000000013],[44.2671600000001,39.925660000000164],[44.26701000000014,39.9258600000004],[44.26695000000018,39.92580000000038],[44.26651000000015,39.926060000000575],[44.26568000000009,39.92624000000018],[44.26555000000013,39.9260100000007],[44.26475000000005,39.925810000000126],[44.26465000000013,39.92569000000037],[44.2638300000001,39.92562000000004],[44.26323000000019,39.9256800000004],[44.26208000000008,39.925000000000296],[44.26163000000014,39.925040000000195],[44.26130000000023,39.92493000000019],[44.26038000000011,39.925130000000365],[44.25985000000014,39.925310000000366],[44.25930000000011,39.92562000000004],[44.258850000000166,39.926280000000304],[44.257860000000164,39.92727000000036],[44.25604000000004,39.92806000000013],[44.25506000000013,39.928200000000174],[44.25348000000014,39.92827000000011],[44.25319000000013,39.92833000000013],[44.25295000000017,39.92853000000031],[44.25289000000015,39.928630000000055],[44.25298000000015,39.92885000000035],[44.253250000000094,39.92901000000023],[44.25403000000017,39.92907000000025],[44.25423000000018,39.92898000000059],[44.25465000000014,39.92899000000017],[44.254920000000084,39.92918000000009],[44.255100000000084,39.929740000000265],[44.25446000000005,39.92995000000042],[44.254110000000026,39.930370000000494],[44.25431000000009,39.93094000000008],[44.25496000000004,39.931700000000035],[44.25468000000012,39.93205000000023],[44.253830000000164,39.93243000000041],[44.25329000000005,39.932910000000334],[44.25285000000025,39.933530000000474],[44.249930000000234,39.93351000000024],[44.249340000000075,39.93420000000049],[44.24898000000013,39.93420000000049],[44.246180000000095,39.93362000000013],[44.24589000000009,39.93422000000004],[44.24623000000014,39.93502000000012]]],"type":"Polygon"}},{"type":"Feature","properties":{"area_id":"TR-76-003-2036582","name_tr":"Bulakbaşı Köyü","area_level":"neighbourhood","parent_id":"TR-76-003","endeksa_id":2036582},"geometry":{"coordinates":[[[44.3031900000002,39.94088000000039],[44.3031900000002,39.94132000000019],[44.29990000000009,39.95705000000038],[44.299670000000106,39.959110000000294],[44.29372000000018,39.95909000000006],[44.28244000000018,39.95723000000032],[44.27884000000017,39.95676000000037],[44.274650000000065,39.956070000000295],[44.265660000000196,39.9556300000001],[44.26150000000007,39.95521000000019],[44.258850000000166,39.9534500000002],[44.257240000000195,39.95359000000042],[44.258630000000096,39.95047000000022],[44.258570000000134,39.94967000000008],[44.258390000000134,39.94896000000034],[44.25794000000019,39.948820000000126],[44.257850000000246,39.948610000000485],[44.25739000000016,39.94811000000033],[44.25703000000004,39.947960000000194],[44.25651000000022,39.94727000000046],[44.25700000000006,39.946940000000154],[44.2555900000001,39.946590000000356],[44.25520000000017,39.945450000000505],[44.2546700000002,39.94469000000015],[44.2548000000001,39.94410000000039],[44.25388000000021,39.94370000000015],[44.253550000000075,39.943440000000464],[44.25353000000018,39.94361000000032],[44.25254000000018,39.94332000000048],[44.25189000000023,39.94330000000025],[44.25192000000004,39.94292000000007],[44.2512500000002,39.94259000000034],[44.25087000000019,39.94276000000036],[44.250790000000165,39.94241000000051],[44.25024000000013,39.94225000000006],[44.248470000000225,39.94143000000042],[44.247510000000204,39.94014000000027],[44.24725000000018,39.93963000000019],[44.248350000000244,39.93937000000051],[44.24815000000018,39.93905000000035],[44.24856000000017,39.93912000000006],[44.248630000000105,39.93902000000014],[44.248500000000035,39.93884000000071],[44.24868000000015,39.93875000000037],[44.247790000000066,39.93694000000039],[44.24778000000015,39.936250000000314],[44.247420000000034,39.93617000000006],[44.24623000000014,39.93502000000012],[44.24589000000009,39.93422000000004],[44.246180000000095,39.93362000000013],[44.24898000000013,39.93420000000049],[44.249340000000075,39.93420000000049],[44.249930000000234,39.93351000000024],[44.25285000000025,39.933530000000474],[44.25329000000005,39.932910000000334],[44.253830000000164,39.93243000000041],[44.25468000000012,39.93205000000023],[44.25496000000004,39.931700000000035],[44.25431000000009,39.93094000000008],[44.254110000000026,39.930370000000494],[44.25446000000005,39.92995000000042],[44.255100000000084,39.929740000000265],[44.254920000000084,39.92918000000009],[44.25465000000014,39.92899000000017],[44.25423000000018,39.92898000000059],[44.25403000000017,39.92907000000025],[44.253250000000094,39.92901000000023],[44.25298000000015,39.92885000000035],[44.25289000000015,39.928630000000055],[44.25295000000017,39.92853000000031],[44.25319000000013,39.92833000000013],[44.25348000000014,39.92827000000011],[44.25506000000013,39.928200000000174],[44.25604000000004,39.92806000000013],[44.257860000000164,39.92727000000036],[44.258850000000166,39.926280000000304],[44.25930000000011,39.92562000000004],[44.25985000000014,39.925310000000366],[44.26038000000011,39.925130000000365],[44.26130000000023,39.92493000000019],[44.26163000000014,39.925040000000195],[44.26208000000008,39.925000000000296],[44.26323000000019,39.9256800000004],[44.2638300000001,39.92562000000004],[44.26465000000013,39.92569000000037],[44.26475000000005,39.925810000000126],[44.26555000000013,39.9260100000007],[44.26568000000009,39.92624000000018],[44.26651000000015,39.926060000000575],[44.26695000000018,39.92580000000038],[44.26701000000014,39.9258600000004],[44.2671600000001,39.925660000000164],[44.26766000000009,39.92619000000013],[44.26772000000011,39.92607000000015],[44.2682200000001,39.92576000000008],[44.26877000000013,39.926370000000134],[44.26924000000008,39.926120000000026],[44.270810000000154,39.92559000000006],[44.27157000000017,39.926710000000355],[44.27200000000022,39.92653000000041],[44.27166000000011,39.92599000000047],[44.27193000000011,39.925930000000335],[44.27203000000003,39.92616000000032],[44.27281000000005,39.925970000000234],[44.27292000000011,39.9260100000007],[44.27327000000014,39.92607000000015],[44.274180000000115,39.92594000000008],[44.275080000000116,39.92610000000036],[44.276320000000055,39.92587000000049],[44.27789000000013,39.92497000000009],[44.27964000000014,39.925320000000454],[44.28079000000008,39.926250000000664],[44.280810000000145,39.92684000000031],[44.28187000000008,39.927670000000205],[44.28100000000023,39.92834000000022],[44.27992000000023,39.92885000000035],[44.28033000000022,39.92921000000007],[44.2807600000001,39.92983000000004],[44.28118000000018,39.93109000000038],[44.28136000000018,39.93104000000051],[44.281340000000114,39.93116000000049],[44.28570000000008,39.93329000000051],[44.2918600000001,39.933990000000165],[44.29514000000006,39.93486000000041],[44.29533000000015,39.93963000000019],[44.297070000000076,39.94023000000061],[44.297510000000045,39.94029000000006],[44.30013000000014,39.939970000000415],[44.30170000000015,39.9406900000003],[44.3031900000002,39.94088000000039]]],"type":"Polygon"}},{"type":"Feature","properties":{"area_id":"TR-76-003-2049453","name_tr":"İslamköy Köyü","area_level":"neighbourhood","parent_id":"TR-76-003","endeksa_id":2049453},"geometry":{"coordinates":[[[44.31301000000019,39.910350000000335],[44.311610000000144,39.91134000000051],[44.30772000000019,39.91253000000023],[44.30684000000019,39.91637000000031],[44.3061400000002,39.918680000000336],[44.29829000000012,39.92240000000044],[44.29282000000012,39.917100000000346],[44.28969000000018,39.913640000000385],[44.28636000000017,39.909110000000055],[44.28715000000017,39.90489000000008],[44.289890000000185,39.90052000000054],[44.29436000000004,39.89491000000038],[44.29691000000014,39.89892000000032],[44.29877000000005,39.900880000000484],[44.3002800000001,39.903100000000165],[44.30090000000007,39.90430000000015],[44.30514000000005,39.905830000000094],[44.31301000000019,39.910350000000335]]],"type":"Polygon"}},{"type":"Feature","properties":{"area_id":"TR-76-003-90787","name_tr":"Fatih","area_level":"neighbourhood","parent_id":"TR-76-003","endeksa_id":90787},"geometry":{"coordinates":[[[44.1753119865777,39.980003423306925],[44.17582647900025,39.979547685000455],[44.175663427000245,39.97961445400057],[44.165665013000364,39.97895456600014],[44.160372825000366,39.98265477000041],[44.158236984000325,39.98222537700036],[44.1455272740003,39.97724454500036],[44.1448862550003,39.97712501400082],[44.144827003000216,39.97699347200006],[44.15167480400004,39.965964982000116],[44.15651007800005,39.95439807000031],[44.15641907900027,39.95434888800031],[44.15636823300031,39.9542666720003],[44.15656730700027,39.95421267700033],[44.15688755300033,39.9539150300003],[44.15705520100016,39.954026031000524],[44.170260462000044,39.95760078300003],[44.17157587000014,39.958189281000045],[44.17676937400017,39.961284506000084],[44.176526244000115,39.965213728000094],[44.17610685200009,39.966795221000154],[44.17465788600009,39.96954071599998],[44.17456677200016,39.970514824000304],[44.17470242400003,39.970596428000306],[44.17738622000007,39.97040697900053],[44.17853033900013,39.97059657700004],[44.178816192000056,39.97163111600014],[44.17876446200006,39.97367927400012],[44.17849005500017,39.97516835000005],[44.17790796000003,39.976116431000094],[44.177802313000086,39.97677390000001],[44.17806514540854,39.978333578106685],[44.17613000000023,39.97942000000029],[44.176020000000165,39.97963000000061],[44.175740000000076,39.97984000000025],[44.1753119865777,39.980003423306925]]],"type":"Polygon"}},{"type":"Feature","properties":{"area_id":"TR-76-003-90786","name_tr":"Ergenekon","area_level":"neighbourhood","parent_id":"TR-76-003","endeksa_id":90786},"geometry":{"coordinates":[[[44.20956430475411,39.98123997334494],[44.2087250080001,39.98148552500004],[44.20862726600018,39.98138168100019],[44.20885443800012,39.97968942000006],[44.20868162300013,39.97958633800005],[44.20068501346702,39.98198014577673],[44.198880000000145,39.98137000000037],[44.197390000000155,39.980980000000045],[44.1974400000002,39.98087000000021],[44.19468000000006,39.980020000000195],[44.191100000000176,39.9787000000004],[44.190240000000074,39.978290000000584],[44.18954000000008,39.97817000000009],[44.189180000000135,39.977880000000084],[44.1883600000001,39.97749000000033],[44.18759000000017,39.977230000000304],[44.186520000000144,39.97668000000027],[44.18441000000013,39.97580000000062],[44.18272000000013,39.9761900000002],[44.1806000000002,39.97771000000023],[44.17942000000011,39.9780600000002],[44.17806514540854,39.978333578106685],[44.177802313000086,39.97677390000001],[44.17790796000003,39.976116431000094],[44.17849005500017,39.97516835000005],[44.17876446200006,39.97367927400012],[44.178816192000056,39.97163111600014],[44.17853033900013,39.97059657700004],[44.17738622000007,39.97040697900053],[44.17470242400003,39.970596428000306],[44.17456677200016,39.970514824000304],[44.17465788600009,39.96954071599998],[44.17610685200009,39.966795221000154],[44.176526244000115,39.965213728000094],[44.17676937400017,39.961284506000084],[44.17157587000014,39.958189281000045],[44.170260462000044,39.95760078300003],[44.15705520100016,39.954026031000524],[44.15688755300033,39.9539150300003],[44.15681748100036,39.95388352200035],[44.16202303800026,39.94114590800035],[44.16332734800034,39.93293943700036],[44.16341341646381,39.932890404717625],[44.178440000000194,39.93502000000012],[44.191850000000045,39.935260000000085],[44.21067000000005,39.935260000000085],[44.22253000000012,39.933640000000366],[44.240080000000034,39.9337500000002],[44.24623000000014,39.93502000000012],[44.247420000000034,39.93617000000006],[44.24778000000015,39.936250000000314],[44.247790000000066,39.93694000000039],[44.24868000000015,39.93875000000037],[44.248500000000035,39.93884000000071],[44.248630000000105,39.93902000000014],[44.24856000000017,39.93912000000006],[44.24815000000018,39.93905000000035],[44.248350000000244,39.93937000000051],[44.24725000000018,39.93963000000019],[44.247510000000204,39.94014000000027],[44.248470000000225,39.94143000000042],[44.25024000000013,39.94225000000006],[44.250790000000165,39.94241000000051],[44.25087000000019,39.94276000000036],[44.2512500000002,39.94259000000034],[44.25192000000004,39.94292000000007],[44.25189000000023,39.94330000000025],[44.25254000000018,39.94332000000048],[44.25353000000018,39.94361000000032],[44.253550000000075,39.943440000000464],[44.25388000000021,39.94370000000015],[44.2548000000001,39.94410000000039],[44.2546700000002,39.94469000000015],[44.25520000000017,39.945450000000505],[44.2555900000001,39.946590000000356],[44.25700000000006,39.946940000000154],[44.25651000000022,39.94727000000046],[44.25703000000004,39.947960000000194],[44.25739000000016,39.94811000000033],[44.257850000000246,39.948610000000485],[44.25794000000019,39.948820000000126],[44.258390000000134,39.94896000000034],[44.258570000000134,39.94967000000008],[44.258630000000096,39.95047000000022],[44.257240000000195,39.95359000000042],[44.25351000000012,39.953910000000064],[44.247880000000066,39.960160000000315],[44.24230000000006,39.961900000000185],[44.23691000000014,39.96762000000024],[44.234720000000095,39.97086000000007],[44.23573000000016,39.974530000000186],[44.2368800000001,39.9764100000001],[44.236180000000104,39.97773000000029],[44.23484000000008,39.978310000000135],[44.232370000000174,39.978810000000294],[44.2309800000001,39.979430000000036],[44.22780000000006,39.97880000000015],[44.220590000000186,39.97707000000054],[44.21430000000004,39.97786000000053],[44.211860000000115,39.97838000000024],[44.210150000000056,39.980420000000095],[44.20956430475411,39.98123997334494]]],"type":"Polygon"}},{"type":"Feature","properties":{"area_id":"TR-76-003-2036578","name_tr":"Taşburun Köyü","area_level":"neighbourhood","parent_id":"TR-76-003","endeksa_id":2036578},"geometry":{"coordinates":[[[44.29089000000016,39.981630000000166],[44.28630000000015,39.979800000000466],[44.28203000000019,39.98149000000035],[44.2824500000001,39.98424000000034],[44.28420000000011,39.988200000000575],[44.275700000000086,39.98867000000041],[44.274340000000166,39.990890000000036],[44.270280000000184,39.99448000000007],[44.26151000000016,39.99958000000015],[44.25835000000018,40.00265000000036],[44.251630000000205,40.003810000000385],[44.25012000000015,40.00510000000054],[44.2493800000002,40.00371000000064],[44.24914000000024,40.00366000000008],[44.24979000000019,40.00168000000036],[44.24997000000013,40.00081000000017],[44.24954000000008,40.0008000000002],[44.248750000000086,40.00011000000012],[44.24908000000005,39.99967000000032],[44.24675000000019,39.99700000000041],[44.244040000000155,39.99844000000019],[44.24023000000017,39.998730000000705],[44.23707000000019,39.99951000000004],[44.23297000000008,39.99774000000036],[44.23011000000025,39.99341000000038],[44.226600000000076,39.990400000000704],[44.22674000000012,39.990210000000616],[44.226700000000164,39.98984000000041],[44.22663000000006,39.98969000000022],[44.22643000000005,39.98957000000024],[44.226420000000076,39.98840000000007],[44.22615000000013,39.98741000000007],[44.22395000000017,39.98546000000016],[44.22020000000009,39.983830000000125],[44.21621000000016,39.98291000000006],[44.21162000000015,39.983860000000334],[44.2081500000001,39.98322000000064],[44.210150000000056,39.980420000000095],[44.211860000000115,39.97838000000024],[44.21430000000004,39.97786000000053],[44.220590000000186,39.97707000000054],[44.22780000000006,39.97880000000015],[44.2309800000001,39.979430000000036],[44.232370000000174,39.978810000000294],[44.23484000000008,39.978310000000135],[44.236180000000104,39.97773000000029],[44.2368800000001,39.9764100000001],[44.23573000000016,39.974530000000186],[44.234720000000095,39.97086000000007],[44.23691000000014,39.96762000000024],[44.24230000000006,39.961900000000185],[44.247880000000066,39.960160000000315],[44.25351000000012,39.953910000000064],[44.258850000000166,39.9534500000002],[44.26150000000007,39.95521000000019],[44.265660000000196,39.9556300000001],[44.274650000000065,39.956070000000295],[44.27884000000017,39.95676000000037],[44.28244000000018,39.95723000000032],[44.29372000000018,39.95909000000006],[44.299670000000106,39.959110000000294],[44.298500000000104,39.96957000000032],[44.29518000000019,39.97678000000019],[44.29089000000016,39.981630000000166]]],"type":"Polygon"}},{"type":"Feature","properties":{"area_id":"TR-76-003-2036584","name_tr":"Gökçeli Köyü","area_level":"neighbourhood","parent_id":"TR-76-003","endeksa_id":2036584},"geometry":{"coordinates":[[[44.184170000000165,39.995850000000075],[44.183730000000025,39.99583000000024],[44.18341000000021,39.997580000000085],[44.18238000000025,39.99837000000008],[44.18210000000016,39.99943000000036],[44.18211000000008,39.99935000000016],[44.1810000000001,39.99909000000014],[44.180200000000184,39.99878000000058],[44.17851000000013,39.99861000000004],[44.178440000000194,39.99865000000034],[44.17849000000007,39.99875000000026],[44.1780500000001,39.99857000000026],[44.1778700000001,39.99821000000031],[44.178250000000105,39.99744000000055],[44.178310000000124,39.99697000000003],[44.17815000000019,39.9956200000006],[44.17762000000005,39.99556000000007],[44.175840000000164,39.995630000000176],[44.17494000000016,39.99552000000017],[44.17396000000008,39.99603000000042],[44.17334000000011,39.996250000000146],[44.17259000000024,39.99601000000018],[44.1723600000002,39.99606000000006],[44.171680000000094,39.996470000000215],[44.17093000000017,39.995470000000296],[44.17090000000019,39.994890000000055],[44.16975000000008,39.994730000000175],[44.16816000000017,39.99502000000018],[44.167600000000164,39.995260000000144],[44.16713000000021,39.995690000000195],[44.16618000000011,39.99606000000006],[44.165710000000104,39.99599000000012],[44.16491000000019,39.996120000000076],[44.16489000000013,39.9956200000006],[44.164590420759794,39.99482702773162],[44.16451000000012,39.99466000000007],[44.1645400000001,39.99443000000019],[44.164770000000146,39.9938200000002],[44.16532000000035,39.993250000000614],[44.16574000000031,39.99314000000021],[44.166010000000256,39.992940000000544],[44.16753000000023,39.99264000000005],[44.16771000000023,39.99246000000062],[44.16762000000023,39.99206000000038],[44.1678000000004,39.991200000000276],[44.16853000000037,39.990490000001046],[44.17090000000036,39.990650000000244],[44.17133000000024,39.9904700000003],[44.17152000000033,39.99030000000096],[44.1711700000003,39.989190000000235],[44.17111000000034,39.98862000000037],[44.17042000000026,39.98735000000005],[44.17051000000026,39.986090000000786],[44.17087000000038,39.98594000000031],[44.17105000000032,39.98577000000006],[44.17101000000042,39.9853700000009],[44.170720000000415,39.985030000000336],[44.170660000000225,39.984290000000556],[44.17112000000026,39.983830000000125],[44.17149000000035,39.983830000000125],[44.17173000000031,39.983670000000416],[44.17174000000023,39.98354000000029],[44.17209000000025,39.983120000000895],[44.17216000000036,39.98285000000004],[44.17254000000037,39.98242000000056],[44.173700000000224,39.98142000000041],[44.17420000000021,39.981130000000576],[44.17443000000043,39.980860000000234],[44.174310000000276,39.980670000000146],[44.1753119865777,39.980003423306925],[44.175740000000076,39.97984000000025],[44.176020000000165,39.97963000000061],[44.17613000000023,39.97942000000029],[44.17806514540854,39.978333578106685],[44.17942000000011,39.9780600000002],[44.1806000000002,39.97771000000023],[44.18272000000013,39.9761900000002],[44.18441000000013,39.97580000000062],[44.186520000000144,39.97668000000027],[44.18759000000017,39.977230000000304],[44.1883600000001,39.97749000000033],[44.189180000000135,39.977880000000084],[44.18954000000008,39.97817000000009],[44.190240000000074,39.978290000000584],[44.191100000000176,39.9787000000004],[44.19468000000006,39.980020000000195],[44.1974400000002,39.98087000000021],[44.197390000000155,39.980980000000045],[44.198880000000145,39.98137000000037],[44.20068501346702,39.98198014577673],[44.20134000000013,39.982220000000325],[44.201540000000136,39.9824900000001],[44.201950000000124,39.98269000000016],[44.203930000000184,39.98316000000011],[44.203310000000045,39.98362000000037],[44.20242000000013,39.98347000000018],[44.202040000000125,39.983550000000264],[44.20091000000008,39.984010000000126],[44.19964000000016,39.984750000000076],[44.198540000000094,39.98520000000036],[44.197860000000105,39.985590000000116],[44.19546000000014,39.98597000000012],[44.19255000000004,39.98626000000013],[44.19128000000012,39.98655000000048],[44.189740000000086,39.987170000000106],[44.188340000000096,39.98790000000008],[44.18697000000003,39.98844000000054],[44.18418000000014,39.98887000000059],[44.183550000000025,39.98912000000013],[44.18257000000017,39.98967000000016],[44.18281000000013,39.98986000000008],[44.181850000000054,39.99081000000052],[44.18081000000018,39.990680000000054],[44.1806000000002,39.991040000000396],[44.180450000000064,39.99195000000037],[44.18055000000015,39.99206000000021],[44.18084000000016,39.9930700000001],[44.181620000000066,39.993500000000154],[44.18165000000005,39.993710000000306],[44.18211000000008,39.99396000000041],[44.18315000000018,39.99484000000018],[44.183360000000164,39.9947600000005],[44.18346000000008,39.99499000000037],[44.18371000000013,39.99515000000008],[44.18389000000013,39.99543000000051],[44.183920000000114,39.99568000000005],[44.1840200000002,39.99568000000005],[44.184170000000165,39.995850000000075]]],"type":"Polygon"}},{"type":"Feature","properties":{"area_id":"TR-76-003-2036591","name_tr":"Zülfikarköy Köyü","area_level":"neighbourhood","parent_id":"TR-76-003","endeksa_id":2036591},"geometry":{"coordinates":[[[44.145577869000306,40.01114129900026],[44.145367230000204,40.01110073000001],[44.143290093000246,40.01293703200042],[44.14314787700033,40.01296289300052],[44.13296393200034,40.00705729000066],[44.131387506000294,40.006665471000474],[44.12830142900032,40.00916748600082],[44.12816218200027,40.009193149000225],[44.12477826709625,40.008162692089456],[44.12436239100015,40.003068203000225],[44.123220249000326,39.996643659000654],[44.12163439800031,39.99376930300036],[44.12330065100025,39.99374548600025],[44.12549732800022,39.99437634700081],[44.13154106600024,39.98997194300023],[44.144827003000216,39.97699347200006],[44.1448862550003,39.97712501400082],[44.1455272740003,39.97724454500036],[44.158236984000325,39.98222537700036],[44.160372825000366,39.98265477000041],[44.165665013000364,39.97895456600014],[44.175663427000245,39.97961445400057],[44.17582647900025,39.979547685000455],[44.1753119865777,39.980003423306925],[44.174310000000276,39.980670000000146],[44.17443000000043,39.980860000000234],[44.17420000000021,39.981130000000576],[44.173700000000224,39.98142000000041],[44.17254000000037,39.98242000000056],[44.17216000000036,39.98285000000004],[44.17209000000025,39.983120000000895],[44.17174000000023,39.98354000000029],[44.17173000000031,39.983670000000416],[44.17149000000035,39.983830000000125],[44.17112000000026,39.983830000000125],[44.170660000000225,39.984290000000556],[44.170720000000415,39.985030000000336],[44.17101000000042,39.9853700000009],[44.17105000000032,39.98577000000006],[44.17087000000038,39.98594000000031],[44.17051000000026,39.986090000000786],[44.17042000000026,39.98735000000005],[44.17111000000034,39.98862000000037],[44.1711700000003,39.989190000000235],[44.17152000000033,39.99030000000096],[44.17133000000024,39.9904700000003],[44.17090000000036,39.990650000000244],[44.16853000000037,39.990490000001046],[44.1678000000004,39.991200000000276],[44.16762000000023,39.99206000000038],[44.16771000000023,39.99246000000062],[44.16753000000023,39.99264000000005],[44.166010000000256,39.992940000000544],[44.16574000000031,39.99314000000021],[44.16532000000035,39.993250000000614],[44.164770000000146,39.9938200000002],[44.1645400000001,39.99443000000019],[44.16451000000012,39.99466000000007],[44.164590420759794,39.99482702773162],[44.16442597017101,39.99474502722228],[44.164278603556625,39.99483750064604],[44.162714405000315,40.00025615200036],[44.154208763000156,40.00447349900065],[44.14978478600034,40.00719474000084],[44.14555319400034,40.01093552200024],[44.145577869000306,40.01114129900026]]],"type":"Polygon"}},{"type":"Feature","properties":{"area_id":"TR-76-003-2036588","name_tr":"Şıracı Köyü","area_level":"neighbourhood","parent_id":"TR-76-003","endeksa_id":2036588},"geometry":{"coordinates":[[[44.17068432400009,40.0272718500006],[44.16974743697119,40.0278035543281],[44.16952349069061,40.02778168129191],[44.16609000000011,40.02429000000029],[44.16721000000007,40.02179000000018],[44.168740000000184,40.02096000000029],[44.16766000000018,40.01941000000011],[44.17102000000017,40.01808000000017],[44.17114000000015,40.01556000000005],[44.17133000000007,40.014240000000086],[44.171800000000246,40.012700000000166],[44.170940000000144,40.012330000000475],[44.16788000000008,40.01257000000044],[44.16588000000013,40.01288000000051],[44.16545000000008,40.01321000000013],[44.16441000000003,40.01274000000029],[44.16430000000014,40.012730000000204],[44.16426000000024,40.013040000000274],[44.16414000000009,40.01309000000015],[44.16388000000006,40.01288000000051],[44.163040000000194,40.01294000000013],[44.163290000000075,40.01264000000003],[44.16296000000011,40.01256000000035],[44.162860000000194,40.012330000000475],[44.1623800000001,40.012170000000026],[44.16209000000009,40.0116900000001],[44.160970000000134,40.011430000000075],[44.160780000000045,40.01100000000042],[44.15844000000004,40.01092000000034],[44.15794000000011,40.01110000000034],[44.156440000000146,40.01114000000007],[44.15569000000011,40.01135000000039],[44.15503000000018,40.01125000000013],[44.155110000000036,40.01154000000048],[44.15478000000013,40.01153000000039],[44.15441000000004,40.01168000000018],[44.15336000000019,40.01188000000019],[44.15311000000014,40.012020000000405],[44.15273000000013,40.01203000000015],[44.152570000000026,40.01230000000015],[44.15176000000014,40.01272000000006],[44.151490000000194,40.01275000000004],[44.1511000000001,40.01313000000005],[44.150780000000054,40.01323000000036],[44.14874000000003,40.01448000000005],[44.151020000000244,40.016540000000646],[44.15069000000011,40.01702000000057],[44.14986000000016,40.017100000000084],[44.14974000000018,40.01702000000057],[44.149410000000046,40.01705000000021],[44.14909000000006,40.01715000000013],[44.14891000000006,40.0174200000003],[44.1492300000001,40.01884000000052],[44.14928000000015,40.018960000000504],[44.14957680677077,40.01909073631617],[44.14924422657731,40.019112840881064],[44.149153087227205,40.01935655271916],[44.145577869000306,40.01114129900026],[44.14555319400034,40.01093552200024],[44.14978478600034,40.00719474000084],[44.154208763000156,40.00447349900065],[44.162714405000315,40.00025615200036],[44.164278603556625,39.99483750064604],[44.16442597017101,39.99474502722228],[44.164590420759794,39.99482702773162],[44.16489000000013,39.9956200000006],[44.16491000000019,39.996120000000076],[44.165710000000104,39.99599000000012],[44.16618000000011,39.99606000000006],[44.16713000000021,39.995690000000195],[44.167600000000164,39.995260000000144],[44.16816000000017,39.99502000000018],[44.16975000000008,39.994730000000175],[44.17090000000019,39.994890000000055],[44.17093000000017,39.995470000000296],[44.171680000000094,39.996470000000215],[44.1723600000002,39.99606000000006],[44.17259000000024,39.99601000000018],[44.17334000000011,39.996250000000146],[44.17396000000008,39.99603000000042],[44.17494000000016,39.99552000000017],[44.175840000000164,39.995630000000176],[44.17762000000005,39.99556000000007],[44.17815000000019,39.9956200000006],[44.178310000000124,39.99697000000003],[44.178250000000105,39.99744000000055],[44.1778700000001,39.99821000000031],[44.1780500000001,39.99857000000026],[44.17849000000007,39.99875000000026],[44.178440000000194,39.99865000000034],[44.17851000000013,39.99861000000004],[44.180200000000184,39.99878000000058],[44.1810000000001,39.99909000000014],[44.18211000000008,39.99935000000016],[44.18210000000016,39.99943000000036],[44.181970000000035,39.99970000000013],[44.181690000000174,40.00196000000011],[44.181190000000186,40.004430000000525],[44.18084000000016,40.00976000000031],[44.18050000000011,40.0113400000003],[44.18122000000017,40.011400000000265],[44.18134000000015,40.01156000000071],[44.18180000000018,40.01155000000006],[44.18213000000014,40.011890000000335],[44.18236000000019,40.01182000000023],[44.18272000000013,40.0119100000004],[44.18297000000018,40.01186000000013],[44.186020000000156,40.01258000000041],[44.18670000000009,40.01308000000017],[44.1880956871766,40.01307930848844],[44.18986581600018,40.01870028800033],[44.18985803099997,40.01890537300034],[44.189695934000156,40.019034956000155],[44.18963519400012,40.018978839000056],[44.18956149900015,40.01906784800019],[44.186575356000105,40.01659646700011],[44.18152635100006,40.01477964900039],[44.178478522000034,40.01446847600016],[44.176938377000056,40.01467517399999],[44.17576059300012,40.01518990600016],[44.17561721200008,40.015600211000105],[44.17488641500006,40.0163669910001],[44.17353996300005,40.01900912400015],[44.17265512700004,40.023175615000696],[44.17068432400009,40.0272718500006]]],"type":"Polygon"}},{"type":"Feature","properties":{"area_id":"TR-76-003-2036581","name_tr":"Bayatdoğanşalı Köyü","area_level":"neighbourhood","parent_id":"TR-76-003","endeksa_id":2036581},"geometry":{"coordinates":[[[44.226600000000076,39.990400000000704],[44.22627000000011,39.990730000000326],[44.22570000000019,39.99102000000016],[44.225340000000074,39.990490000000364],[44.22282000000013,39.990730000000326],[44.22287000000017,39.990330000000085],[44.22033000000016,39.990920000000415],[44.218550000000164,39.99112000000059],[44.218580000000145,39.99195000000037],[44.218020000000195,39.992040000000145],[44.21804000000003,39.992840000000115],[44.21575000000013,39.99378000000041],[44.21465000000006,39.99462000000028],[44.212480000000085,39.995040000000245],[44.209620000000086,39.996430000000146],[44.20842000000005,39.99669000000034],[44.20738000000017,39.99704000000014],[44.205940000000055,39.99797000000035],[44.205600000000175,39.998320000000206],[44.20477000000005,39.99877000000009],[44.2049100000001,39.99884000000003],[44.202350000000195,40.00060000000053],[44.201980000000106,40.00066000000038],[44.200900000000104,40.00051000000019],[44.199840000000165,40.000530000000424],[44.198910000000126,40.000430000000165],[44.197550000000035,40.000060000000076],[44.192780000000084,39.99973000000034],[44.19177000000019,39.999130000000264],[44.1914000000001,39.998200000000224],[44.19043000000016,39.99778000000026],[44.189000000000135,39.99700000000041],[44.18877000000015,39.99669000000034],[44.18752000000006,39.99573000000032],[44.18697000000003,39.99714000000006],[44.18594000000007,39.997090000000185],[44.184170000000165,39.995850000000075],[44.1840200000002,39.99568000000005],[44.183920000000114,39.99568000000005],[44.18389000000013,39.99543000000051],[44.18371000000013,39.99515000000008],[44.18346000000008,39.99499000000037],[44.183360000000164,39.9947600000005],[44.18315000000018,39.99484000000018],[44.18211000000008,39.99396000000041],[44.18165000000005,39.993710000000306],[44.181620000000066,39.993500000000154],[44.18084000000016,39.9930700000001],[44.18055000000015,39.99206000000021],[44.180450000000064,39.99195000000037],[44.1806000000002,39.991040000000396],[44.18081000000018,39.990680000000054],[44.181850000000054,39.99081000000052],[44.18281000000013,39.98986000000008],[44.18257000000017,39.98967000000016],[44.183550000000025,39.98912000000013],[44.18418000000014,39.98887000000059],[44.18697000000003,39.98844000000054],[44.188340000000096,39.98790000000008],[44.189740000000086,39.987170000000106],[44.19128000000012,39.98655000000048],[44.19255000000004,39.98626000000013],[44.19546000000014,39.98597000000012],[44.197860000000105,39.985590000000116],[44.198540000000094,39.98520000000036],[44.19964000000016,39.984750000000076],[44.20091000000008,39.984010000000126],[44.202040000000125,39.983550000000264],[44.20242000000013,39.98347000000018],[44.203310000000045,39.98362000000037],[44.203930000000184,39.98316000000011],[44.201950000000124,39.98269000000016],[44.201540000000136,39.9824900000001],[44.20134000000013,39.982220000000325],[44.20068501346702,39.98198014577673],[44.20868162300013,39.97958633800005],[44.20885443800012,39.97968942000006],[44.20862726600018,39.98138168100019],[44.2087250080001,39.98148552500004],[44.20956430475411,39.98123997334494],[44.2081500000001,39.98322000000064],[44.21162000000015,39.983860000000334],[44.21621000000016,39.98291000000006],[44.22020000000009,39.983830000000125],[44.22395000000017,39.98546000000016],[44.22615000000013,39.98741000000007],[44.226420000000076,39.98840000000007],[44.22643000000005,39.98957000000024],[44.22663000000006,39.98969000000022],[44.226700000000164,39.98984000000041],[44.22674000000012,39.990210000000616],[44.226600000000076,39.990400000000704]]],"type":"Polygon"}},{"type":"Feature","properties":{"area_id":"TR-76-003-2049265","name_tr":"Cennetabat Köyü","area_level":"neighbourhood","parent_id":"TR-76-003","endeksa_id":2049265},"geometry":{"coordinates":[[[44.292920000000095,40.01156000000071],[44.289760000000115,40.01230000000015],[44.28879000000012,40.01934000000017],[44.28098000000017,40.01774000000046],[44.27630000000016,40.01702000000057],[44.27134000000012,40.02043000000009],[44.26329000000004,40.02124000000015],[44.25593000000015,40.019640000000095],[44.24927000000014,40.01565000000022],[44.243050000000096,40.01166000000046],[44.2424400000001,40.00667000000004],[44.24802000000011,40.006880000000194],[44.251630000000205,40.003810000000385],[44.25835000000018,40.00265000000036],[44.26151000000016,39.99958000000015],[44.270280000000184,39.99448000000007],[44.274340000000166,39.990890000000036],[44.275700000000086,39.98867000000041],[44.28420000000011,39.988200000000575],[44.2824500000001,39.98424000000034],[44.28203000000019,39.98149000000035],[44.28630000000015,39.979800000000466],[44.29089000000016,39.981630000000166],[44.2998800000002,39.983830000000125],[44.31234000000018,39.98837000000043],[44.31902000000008,39.99116000000038],[44.324370000000044,39.991880000000265],[44.32658000000015,39.996350000000064],[44.328330000000165,39.99878000000058],[44.32166000000018,40.00061000000011],[44.31849000000011,39.999940000000095],[44.30849000000012,39.99977000000007],[44.30027000000018,40.001800000000344],[44.29192000000012,40.004370000000165],[44.292920000000095,40.009700000000294],[44.292920000000095,40.01156000000071]]],"type":"Polygon"}},{"type":"Feature","properties":{"area_id":"TR-76-003-2036585","name_tr":"Kacardoğanşalı Köyü","area_level":"neighbourhood","parent_id":"TR-76-003","endeksa_id":2036585},"geometry":{"coordinates":[[[44.24324281565566,40.02486870241603],[44.24303000000003,40.02492000000052],[44.23960000000011,40.02464000000009],[44.236260000000186,40.02569000000028],[44.233020000000124,40.02520000000027],[44.229140000000086,40.02400000000006],[44.22613000000007,40.02343000000019],[44.226300000000094,40.023200000000315],[44.225610000000245,40.023070000000246],[44.22541000000018,40.02284000000037],[44.223630000000185,40.022640000000195],[44.222570000000246,40.022950000000264],[44.22089000000011,40.023850000000095],[44.21897000000007,40.02362000000028],[44.21667000000019,40.023700000000474],[44.213320000000124,40.023880000000304],[44.21264000000019,40.02428000000015],[44.211110000000076,40.02417000000031],[44.20908000000014,40.02359000000007],[44.208110000000204,40.023080000000334],[44.206720000000075,40.02281000000005],[44.206380000000195,40.02310000000057],[44.206070000000125,40.02299000000016],[44.20544000000007,40.023170000000164],[44.20411000000013,40.023110000000145],[44.203870000000165,40.02340000000038],[44.20112000000023,40.02203000000014],[44.20096000000012,40.02161000000024],[44.19767000000019,40.01989000000003],[44.19607000000019,40.01947000000007],[44.193800000000124,40.01943000000034],[44.19316000000009,40.01774000000046],[44.191200000000094,40.01659000000052],[44.19260000000014,40.01534000000015],[44.190640000000144,40.014310000000194],[44.189180000000135,40.013380000000666],[44.1880956871766,40.01307930848844],[44.18670000000009,40.01308000000017],[44.186020000000156,40.01258000000041],[44.18297000000018,40.01186000000013],[44.18272000000013,40.0119100000004],[44.18236000000019,40.01182000000023],[44.18213000000014,40.011890000000335],[44.18180000000018,40.01155000000006],[44.18134000000015,40.01156000000071],[44.18122000000017,40.011400000000265],[44.18050000000011,40.0113400000003],[44.18084000000016,40.00976000000031],[44.181190000000186,40.004430000000525],[44.181690000000174,40.00196000000011],[44.181970000000035,39.99970000000013],[44.18210000000016,39.99943000000036],[44.18238000000025,39.99837000000008],[44.18341000000021,39.997580000000085],[44.183730000000025,39.99583000000024],[44.184170000000165,39.995850000000075],[44.18594000000007,39.997090000000185],[44.18697000000003,39.99714000000006],[44.18752000000006,39.99573000000032],[44.18877000000015,39.99669000000034],[44.189000000000135,39.99700000000041],[44.19043000000016,39.99778000000026],[44.1914000000001,39.998200000000224],[44.19177000000019,39.999130000000264],[44.192780000000084,39.99973000000034],[44.197550000000035,40.000060000000076],[44.198910000000126,40.000430000000165],[44.199840000000165,40.000530000000424],[44.200900000000104,40.00051000000019],[44.201980000000106,40.00066000000038],[44.202350000000195,40.00060000000053],[44.2049100000001,39.99884000000003],[44.20477000000005,39.99877000000009],[44.205600000000175,39.998320000000206],[44.205940000000055,39.99797000000035],[44.20738000000017,39.99704000000014],[44.20842000000005,39.99669000000034],[44.209620000000086,39.996430000000146],[44.212480000000085,39.995040000000245],[44.21465000000006,39.99462000000028],[44.21575000000013,39.99378000000041],[44.21804000000003,39.992840000000115],[44.218020000000195,39.992040000000145],[44.218580000000145,39.99195000000037],[44.218550000000164,39.99112000000059],[44.22033000000016,39.990920000000415],[44.22287000000017,39.990330000000085],[44.22282000000013,39.990730000000326],[44.225340000000074,39.990490000000364],[44.22570000000019,39.99102000000016],[44.22627000000011,39.990730000000326],[44.226600000000076,39.990400000000704],[44.23011000000025,39.99341000000038],[44.23297000000008,39.99774000000036],[44.23707000000019,39.99951000000004],[44.24023000000017,39.998730000000705],[44.244040000000155,39.99844000000019],[44.24675000000019,39.99700000000041],[44.24908000000005,39.99967000000032],[44.248750000000086,40.00011000000012],[44.24954000000008,40.0008000000002],[44.24997000000013,40.00081000000017],[44.24979000000019,40.00168000000036],[44.24914000000024,40.00366000000008],[44.2493800000002,40.00371000000064],[44.25012000000015,40.00510000000054],[44.24802000000011,40.006880000000194],[44.2424400000001,40.00667000000004],[44.243050000000096,40.01166000000046],[44.24927000000014,40.01565000000022],[44.25593000000015,40.019640000000095],[44.25536000000005,40.02051000000017],[44.2525500000001,40.021590000000174],[44.2494200000001,40.02239000000009],[44.24817000000007,40.022950000000264],[44.24610000000024,40.0241800000004],[44.24324281565566,40.02486870241603]]],"type":"Polygon"}},{"type":"Feature","properties":{"area_id":"TR-76-003-2241273","name_tr":"Gölköy Köyü","area_level":"neighbourhood","parent_id":"TR-76-003","endeksa_id":2241273},"geometry":{"coordinates":[[[44.12477826709625,40.008162692089456],[44.12493346100035,40.01006381900032],[44.125076229000285,40.01734496900036],[44.12407685500034,40.0231984430003],[44.121100749000334,40.023845423000864],[44.12099259300027,40.02362176600025],[44.11432307000024,40.01931675000071],[44.11434307200028,40.019421046000275],[44.11423229500025,40.01948007000021],[44.107563277000224,40.019764067000324],[44.1074291180002,40.01968164600021],[44.104968305000455,40.01414403300055],[44.10483875672736,40.01408728040508],[44.10459740417144,40.01318127843666],[44.104370000000415,40.01226000000054],[44.102570000000355,40.00921000000096],[44.10417000000035,40.00796000000042],[44.1057000000003,40.008580000000165],[44.105730000000335,40.008090000000664],[44.10624000000024,40.007810000000404],[44.10668000000021,40.00736000000012],[44.10805000000022,40.00680000000068],[44.1070900000002,40.00595000000038],[44.10658000000029,40.00563000000051],[44.10667000000029,40.00549000000029],[44.10931000000022,40.00502000000051],[44.111930000000314,40.0043500000005],[44.11287000000027,40.00388000000066],[44.113480000000266,40.003810000000556],[44.113670000000354,40.003500000000486],[44.11514000000034,40.0025200000004],[44.11573000000027,40.00176000000005],[44.116300000000365,40.00077000000056],[44.116820000000246,40.00036000000057],[44.11755000000022,40.000220000000525],[44.11702000000025,39.99909000000065],[44.11739000000034,39.99902000000054],[44.11727000000036,39.99871000000064],[44.11687000000029,39.99875000000043],[44.116640000000245,39.99844000000087],[44.116640000000245,39.998050000000035],[44.11681000000027,39.99774000000053],[44.116300000000365,39.997890000000325],[44.11589000000038,39.99812000000014],[44.11514000000034,39.998300000000654],[44.115120000000275,39.99822000000046],[44.11380000000031,39.998320000000376],[44.11272000000031,39.99806000000069],[44.11296000000027,39.996810000001005],[44.11283933097258,39.99678004669556],[44.11237060400032,39.99653064100022],[44.11230930600021,39.99644626900033],[44.11237371000021,39.996360473000664],[44.115597627000284,39.995070858000304],[44.11964615000028,39.99379772200081],[44.12163439800031,39.99376930300036],[44.123220249000326,39.996643659000654],[44.12436239100015,40.003068203000225],[44.12477826709625,40.008162692089456]]],"type":"Polygon"}},{"type":"Feature","properties":{"area_id":"TR-76-003-2036592","name_tr":"Kerimbeyli Köyü","area_level":"neighbourhood","parent_id":"TR-76-003","endeksa_id":2036592},"geometry":{"coordinates":[[[44.440320096270966,39.9847981551178],[44.43420453400017,39.987015137000185],[44.428181037000115,39.990026945000125],[44.426011295000194,39.991519377000145],[44.423798803000295,39.9931996130008],[44.422392702000025,39.994736632000695],[44.42037354200011,39.998790931000144],[44.420024044000115,39.99935201900007],[44.4191709986236,39.999949193076645],[44.41880784300031,40.00051806500005],[44.408594065000045,40.00341568200008],[44.405325885000025,40.00341601000014],[44.402983710000285,40.0028177060002],[44.39952450200025,40.00281769999998],[44.39575842300013,40.004325121000136],[44.3927506780002,40.00520653500001],[44.38894185300012,40.00520699599997],[44.38609612900018,40.00489878600041],[44.38267464400019,40.003778641],[44.38041165800013,40.00363169500014],[44.37980596500023,40.003687527000466],[44.37987171200007,40.00377796700013],[44.37977352500019,40.00388374900018],[44.37895707800021,40.00426627800033],[44.375997080000104,40.00681630500003],[44.37553324902933,40.00702416316875],[44.3620200000002,40.004120000000455],[44.34082000000012,40.00108000000046],[44.328330000000165,39.99878000000058],[44.32658000000015,39.996350000000064],[44.324370000000044,39.991880000000265],[44.33162000000004,39.97351000000015],[44.33262000000019,39.97096000000022],[44.340660000000184,39.97101000000009],[44.359000000000094,39.968190000000504],[44.36916000000019,39.96693000000016],[44.37890000000016,39.96572000000009],[44.37914000000012,39.964010000000144],[44.383830000000216,39.96403000000021],[44.38965000000019,39.962510000000236],[44.39811000000009,39.96514000000042],[44.40322000000015,39.96708000000035],[44.40153000000009,39.968870000000095],[44.40141000000011,39.96932000000021],[44.40479000000016,39.969890000000476],[44.40821000000017,39.97120000000018],[44.413890000000094,39.97430000000014],[44.41842000000014,39.9771600000002],[44.42105000000009,39.97898000000015],[44.42151000000018,39.97948000000031],[44.424570000000244,39.98059000000046],[44.428600000000074,39.981170000000134],[44.43160000000012,39.981470000000115],[44.43234000000007,39.98186000000038],[44.43481000000014,39.982560000000205],[44.43666000000013,39.982620000000054],[44.440320096270966,39.9847981551178]]],"type":"Polygon"}},{"type":"Feature","properties":{"area_id":"TR-76-003-2036590","name_tr":"Yukarıalican Köyü","area_level":"neighbourhood","parent_id":"TR-76-003","endeksa_id":2036590},"geometry":{"coordinates":[[[44.16974743697119,40.0278035543281],[44.167437777000146,40.03093042500018],[44.166952928000285,40.031333897000195],[44.165898320000224,40.0316945430007],[44.16313719800024,40.03175156600071],[44.160899723000284,40.03133370200027],[44.157131827000285,40.031436386000564],[44.15419501400004,40.03102942900006],[44.15349000000015,40.03012000000018],[44.15300000000008,40.02967000000007],[44.15283000000005,40.029240000000414],[44.15349000000015,40.02891000000028],[44.153560000000084,40.02876000000009],[44.153870000000154,40.028690000000154],[44.153680000000236,40.02833000000004],[44.15407000000016,40.0280800000005],[44.15420000000006,40.02761000000015],[44.15286000000003,40.02637000000027],[44.15291000000008,40.02560000000011],[44.15278000000018,40.02535000000057],[44.15095000000014,40.02375000000035],[44.15072000000009,40.023390000000404],[44.15050000000019,40.02256000000011],[44.15007000000014,40.02176000000054],[44.14989000000014,40.021220000000085],[44.149928314978354,40.02113789647558],[44.149152284761556,40.01935455623885],[44.14924422657731,40.019112840881064],[44.14957680677077,40.01909073631617],[44.14928000000015,40.018960000000504],[44.1492300000001,40.01884000000052],[44.14891000000006,40.0174200000003],[44.14909000000006,40.01715000000013],[44.149410000000046,40.01705000000021],[44.14974000000018,40.01702000000057],[44.14986000000016,40.017100000000084],[44.15069000000011,40.01702000000057],[44.151020000000244,40.016540000000646],[44.14874000000003,40.01448000000005],[44.150780000000054,40.01323000000036],[44.1511000000001,40.01313000000005],[44.151490000000194,40.01275000000004],[44.15176000000014,40.01272000000006],[44.152570000000026,40.01230000000015],[44.15273000000013,40.01203000000015],[44.15311000000014,40.012020000000405],[44.15336000000019,40.01188000000019],[44.15441000000004,40.01168000000018],[44.15478000000013,40.01153000000039],[44.155110000000036,40.01154000000048],[44.15503000000018,40.01125000000013],[44.15569000000011,40.01135000000039],[44.156440000000146,40.01114000000007],[44.15794000000011,40.01110000000034],[44.15844000000004,40.01092000000034],[44.160780000000045,40.01100000000042],[44.160970000000134,40.011430000000075],[44.16209000000009,40.0116900000001],[44.1623800000001,40.012170000000026],[44.162860000000194,40.012330000000475],[44.16296000000011,40.01256000000035],[44.163290000000075,40.01264000000003],[44.163040000000194,40.01294000000013],[44.16388000000006,40.01288000000051],[44.16414000000009,40.01309000000015],[44.16426000000024,40.013040000000274],[44.16430000000014,40.012730000000204],[44.16441000000003,40.01274000000029],[44.16545000000008,40.01321000000013],[44.16588000000013,40.01288000000051],[44.16788000000008,40.01257000000044],[44.170940000000144,40.012330000000475],[44.171800000000246,40.012700000000166],[44.17133000000007,40.014240000000086],[44.17114000000015,40.01556000000005],[44.17102000000017,40.01808000000017],[44.16766000000018,40.01941000000011],[44.168740000000184,40.02096000000029],[44.16721000000007,40.02179000000018],[44.16609000000011,40.02429000000029],[44.16952349069061,40.02778168129191],[44.16974743697119,40.0278035543281]]],"type":"Polygon"}},{"type":"Feature","properties":{"area_id":"TR-76-003-2049457","name_tr":"Orta Alican Köyü","area_level":"neighbourhood","parent_id":"TR-76-003","endeksa_id":2049457},"geometry":{"coordinates":[[[44.193203089611416,40.01785378350502],[44.190529195000124,40.01932013600009],[44.19194107800013,40.03230139100009],[44.18998537700003,40.033659516000114],[44.18954673600007,40.03380394700008],[44.18964251900013,40.03255565800009],[44.18908933400007,40.03155537800046],[44.187990296000066,40.03070263600006],[44.18374912400003,40.029866645000084],[44.18067146400011,40.029846837000036],[44.179790753000134,40.03014584300013],[44.17704199999997,40.029749599000354],[44.17599131300017,40.02947448000009],[44.17471496100012,40.02803044700022],[44.173775723000176,40.02746228000001],[44.17264704800016,40.02726749300018],[44.17068432400009,40.0272718500006],[44.17265512700004,40.023175615000696],[44.17353996300005,40.01900912400015],[44.17488641500006,40.0163669910001],[44.17561721200008,40.015600211000105],[44.17576059300012,40.01518990600016],[44.176938377000056,40.01467517399999],[44.178478522000034,40.01446847600016],[44.18152635100006,40.01477964900039],[44.186575356000105,40.01659646700011],[44.18956149900015,40.01906784800019],[44.18963519400012,40.018978839000056],[44.189695934000156,40.019034956000155],[44.18985803099997,40.01890537300034],[44.18986581600018,40.01870028800033],[44.1880956871766,40.01307930848844],[44.189180000000135,40.013380000000666],[44.190640000000144,40.014310000000194],[44.19260000000014,40.01534000000015],[44.191200000000094,40.01659000000052],[44.19316000000009,40.01774000000046],[44.193203089611416,40.01785378350502]]],"type":"Polygon"}},{"type":"Feature","properties":{"area_id":"TR-76-003-2036587","name_tr":"Mürşitali Köyü","area_level":"neighbourhood","parent_id":"TR-76-003","endeksa_id":2036587},"geometry":{"coordinates":[[[44.15419501400004,40.03102942900006],[44.15279359800007,40.03135950899997],[44.15146898000006,40.03203791699997],[44.15039874100006,40.032296075000374],[44.142868664000105,40.03198786100063],[44.13850397500016,40.03128311800032],[44.135702646000084,40.02954086200003],[44.134979930000156,40.029308526000364],[44.13360322300002,40.02930850600018],[44.129472419000194,40.030708410000045],[44.124859787000105,40.03357113100003],[44.12244400800017,40.03463362499997],[44.12209428600016,40.03470139700062],[44.12193347100009,40.02868080500002],[44.12128140400006,40.02421900200011],[44.121100749000334,40.023845423000864],[44.12407685500034,40.0231984430003],[44.125076229000285,40.01734496900036],[44.12493346100035,40.01006381900032],[44.12477826709625,40.008162692089456],[44.12816218200027,40.009193149000225],[44.12830142900032,40.00916748600082],[44.131387506000294,40.006665471000474],[44.13296393200034,40.00705729000066],[44.14314787700033,40.01296289300052],[44.143290093000246,40.01293703200042],[44.145367230000204,40.01110073000001],[44.145577869000306,40.01114129900026],[44.149928314978354,40.02113789647558],[44.14989000000014,40.021220000000085],[44.15007000000014,40.02176000000054],[44.15050000000019,40.02256000000011],[44.15072000000009,40.023390000000404],[44.15095000000014,40.02375000000035],[44.15278000000018,40.02535000000057],[44.15291000000008,40.02560000000011],[44.15286000000003,40.02637000000027],[44.15420000000006,40.02761000000015],[44.15407000000016,40.0280800000005],[44.153680000000236,40.02833000000004],[44.153870000000154,40.028690000000154],[44.153560000000084,40.02876000000009],[44.15349000000015,40.02891000000028],[44.15283000000005,40.029240000000414],[44.15300000000008,40.02967000000007],[44.15349000000015,40.03012000000018],[44.15419501400004,40.03102942900006]]],"type":"Polygon"}},{"type":"Feature","properties":{"area_id":"TR-76-003-2036593","name_tr":"Bekirhanlı Köyü","area_level":"neighbourhood","parent_id":"TR-76-003","endeksa_id":2036593},"geometry":{"coordinates":[[[44.37553324902933,40.00702416316875],[44.37209851800014,40.00856338100016],[44.36905213600011,40.01047382900009],[44.366880651000315,40.012407160000464],[44.3646418940001,40.01498918600004],[44.36325841500013,40.01604275],[44.36052361900016,40.01706584300018],[44.35923388100019,40.01777615600025],[44.355638924000345,40.02236662900037],[44.35506676900019,40.02420846100017],[44.35371611500017,40.026149833000034],[44.351832123000236,40.02720592900039],[44.35062857700029,40.027304486000105],[44.34784738200017,40.02699719000026],[44.346864804000234,40.026715357000114],[44.3440209270002,40.0267612100003],[44.34302047500017,40.02698284800067],[44.34176415400009,40.027729069000145],[44.339220860000296,40.02847614600006],[44.3382642800002,40.02930854100009],[44.33699864100004,40.03187819100026],[44.33625485100032,40.03254981100076],[44.33357849700036,40.032524283999976],[44.33107590100008,40.031127281000124],[44.330526919000306,40.03102425700013],[44.327503987000114,40.03095637500019],[44.32404668700008,40.032686069000135],[44.32301669700007,40.03291331300011],[44.32129960800006,40.03388112800019],[44.320516696000084,40.03499968000034],[44.31932158200016,40.037499942000125],[44.31837101700029,40.037899795000044],[44.31785752800016,40.037839524000105],[44.315333476000205,40.03897561100024],[44.313004590000276,40.039180982999994],[44.310180120000325,40.038819651000836],[44.306116609964135,40.03757463792317],[44.30628432346464,40.0375519336111],[44.306335207460904,40.037426352376656],[44.30321000000026,40.028780000000154],[44.30167000000017,40.02327000000042],[44.298470000000066,40.01662000000016],[44.29414000000014,40.01593000000008],[44.292920000000095,40.01313000000005],[44.292920000000095,40.009700000000294],[44.29192000000012,40.004370000000165],[44.30027000000018,40.001800000000344],[44.30849000000012,39.99977000000007],[44.31849000000011,39.999940000000095],[44.32166000000018,40.00061000000011],[44.328330000000165,39.99878000000058],[44.34082000000012,40.00108000000046],[44.3620200000002,40.004120000000455],[44.37553324902933,40.00702416316875]]],"type":"Polygon"}},{"type":"Feature","properties":{"area_id":"TR-76-003-2036580","name_tr":"Aşağıalican Köyü","area_level":"neighbourhood","parent_id":"TR-76-003","endeksa_id":2036580},"geometry":{"coordinates":[[[44.25255834500018,40.04882909200012],[44.24933764000008,40.04892186700039],[44.245965714000135,40.04889109700014],[44.24526936100017,40.048645323000244],[44.24358357,40.04734035400054],[44.24252824600012,40.04687828200014],[44.23640026500016,40.046365487000116],[44.23250406500017,40.04528657100019],[44.23043653100018,40.044201407000116],[44.22899223000013,40.04282407200043],[44.227145686000085,40.04228000100011],[44.225751470000034,40.0426931720001],[44.223698506000176,40.044113006000316],[44.22323656700007,40.044270585000106],[44.2217614760001,40.044171553000126],[44.220695926000076,40.043717671000024],[44.21955372300016,40.042479430000185],[44.21849258300011,40.03953759600029],[44.21838512700009,40.03708223000052],[44.21811831600013,40.03600649400033],[44.217317853000054,40.03541262300013],[44.213703051000095,40.03382916500021],[44.21243014600003,40.033571218000134],[44.21188802000012,40.03371744600065],[44.21090268200015,40.035183892000305],[44.20958153600009,40.036533228000394],[44.205749092000076,40.0385618630001],[44.20116825000014,40.03952122600003],[44.19725196400009,40.04004211900019],[44.19400503000003,40.04014545300004],[44.19198764400005,40.03988787900005],[44.19096875300005,40.03957415400015],[44.1898141210001,40.038870610000345],[44.18890416400001,40.03795969200047],[44.18859349400009,40.03728247300012],[44.18859349400009,40.036124561000065],[44.189524436,40.03408860200045],[44.18954673600007,40.03380394700008],[44.18998537700003,40.033659516000114],[44.19194107800013,40.03230139100009],[44.190529195000124,40.01932013600009],[44.193203089611416,40.01785378350502],[44.193800000000124,40.01943000000034],[44.19607000000019,40.01947000000007],[44.19767000000019,40.01989000000003],[44.20096000000012,40.02161000000024],[44.20112000000023,40.02203000000014],[44.203870000000165,40.02340000000038],[44.20411000000013,40.023110000000145],[44.20544000000007,40.023170000000164],[44.206070000000125,40.02299000000016],[44.206380000000195,40.02310000000057],[44.206720000000075,40.02281000000005],[44.208110000000204,40.023080000000334],[44.20908000000014,40.02359000000007],[44.211110000000076,40.02417000000031],[44.21264000000019,40.02428000000015],[44.213320000000124,40.023880000000304],[44.21667000000019,40.023700000000474],[44.21897000000007,40.02362000000028],[44.22089000000011,40.023850000000095],[44.222570000000246,40.022950000000264],[44.223630000000185,40.022640000000195],[44.22541000000018,40.02284000000037],[44.225610000000245,40.023070000000246],[44.226300000000094,40.023200000000315],[44.22613000000007,40.02343000000019],[44.229140000000086,40.02400000000006],[44.233020000000124,40.02520000000027],[44.236260000000186,40.02569000000028],[44.23960000000011,40.02464000000009],[44.24303000000003,40.02492000000052],[44.24324281565566,40.02486870241603],[44.25255042400016,40.04303031699999],[44.25255834500018,40.04882909200012]]],"type":"Polygon"}},{"type":"Feature","properties":{"area_id":"TR-76-003-2036586","name_tr":"Koçkıran Köyü","area_level":"neighbourhood","parent_id":"TR-76-003","endeksa_id":2036586},"geometry":{"coordinates":[[[44.306116609964135,40.03757463792317],[44.30262803700015,40.03650577899998],[44.301438137000105,40.03591193000068],[44.29742784199999,40.036170045999995],[44.29614997800013,40.036742301000004],[44.295844423000176,40.037288875000115],[44.29548321600004,40.039280115000565],[44.29493229100001,40.040180199000076],[44.29467410700016,40.04333205800003],[44.29406165200004,40.044004954000116],[44.29221990000008,40.04430412100004],[44.28749709500016,40.043656917000135],[44.285397253000156,40.04386343000027],[44.28435599200009,40.044336810000175],[44.2798158600001,40.048258262000104],[44.27873765700019,40.04859593000015],[44.275831336000124,40.04916326200038],[44.27368991500015,40.04916326200038],[44.270731554000065,40.04859556700006],[44.26574200600004,40.04687825900004],[44.26199595200006,40.0467156950001],[44.25979118400005,40.04693279800006],[44.25255834500018,40.04882909200012],[44.25255042400016,40.04303031699999],[44.24324281565566,40.02486870241603],[44.24610000000024,40.0241800000004],[44.24817000000007,40.022950000000264],[44.2494200000001,40.02239000000009],[44.2525500000001,40.021590000000174],[44.25536000000005,40.02051000000017],[44.25593000000015,40.019640000000095],[44.26329000000004,40.02124000000015],[44.27134000000012,40.02043000000009],[44.27630000000016,40.01702000000057],[44.28098000000017,40.01774000000046],[44.28879000000012,40.01934000000017],[44.289760000000115,40.01230000000015],[44.292920000000095,40.01156000000071],[44.292920000000095,40.01313000000005],[44.29414000000014,40.01593000000008],[44.298470000000066,40.01662000000016],[44.30167000000017,40.02327000000042],[44.30321000000026,40.028780000000154],[44.306335207460904,40.037426352376656],[44.30628432346464,40.0375519336111],[44.306116609964135,40.03757463792317]]],"type":"Polygon"}}]}