{"type":"FeatureCollection","source_id":"endeksa","retrieved_at":null,"features":[{"type":"Feature","properties":{"area_id":"TR-70-005-90292","name_tr":"Subaşı","area_level":"neighbourhood","parent_id":"TR-70-005","endeksa_id":90292},"geometry":{"coordinates":[[[32.98359000000016,37.205140000000426],[32.97947000000016,37.208610000000476],[32.972810000000095,37.215270000000146],[32.969520000000045,37.217340000000206],[32.96873000000005,37.217750000000706],[32.967720000000156,37.21852000000047],[32.96538000000015,37.22087000000022],[32.96325000000013,37.222520000000316],[32.96205000000015,37.224100000000305],[32.96064000000018,37.22554000000008],[32.95929000000024,37.22478000000007],[32.95793000000015,37.22597000000013],[32.95749000000012,37.22563000000042],[32.955620000000124,37.22473000000019],[32.95544000000018,37.22453000000036],[32.953230000000076,37.22123000000016],[32.95129000000014,37.21879000000007],[32.94966000000011,37.216290000000186],[32.94796000000014,37.21296000000018],[32.94736000000006,37.21204000000006],[32.94466000000011,37.212670000000344],[32.92465000000004,37.173390000000325],[32.92506000000026,37.17099000000013],[32.92895000000004,37.16860000000031],[32.931760000000224,37.16813000000013],[32.93316000000004,37.16748000000018],[32.93723000000017,37.16586000000041],[32.939720000000136,37.16423000000054],[32.946677876558795,37.158151854960465],[32.9474700210194,37.15772760570644],[32.94741343175258,37.15788324749178],[32.947588335826595,37.15795616004277],[32.95433000000014,37.15652000000068],[32.96304000000015,37.15814000000006],[32.965830000000096,37.159420000000466],[32.97137000000015,37.1668300000004],[32.97344000000004,37.1746500000001],[32.974170000000186,37.17818000000017],[32.975630000000194,37.17894000000035],[32.97629000000012,37.1795900000003],[32.97656000000006,37.179740000000606],[32.977820000000065,37.180270000000405],[32.98056000000008,37.18121000000019],[32.98369000000008,37.183030000000144],[32.98397000000017,37.18313000000006],[32.98545000000024,37.182930000000226],[32.98609000000005,37.18313000000006],[32.986590000000035,37.18422000000038],[32.98841000000016,37.18622000000033],[32.98917000000017,37.187240000000145],[32.98959000000008,37.187550000000215],[32.99184000000008,37.18852000000021],[32.995230000000106,37.19069000000013],[32.99577000000022,37.19090000000028],[32.99835000000013,37.1915300000004],[32.99509000000006,37.1943500000001],[32.99389000000008,37.19568000000004],[32.992510000000095,37.19679000000019],[32.99168000000003,37.19727000000012],[32.991080000000125,37.19748000000044],[32.990400000000136,37.19792000000007],[32.989850000000104,37.198640000000125],[32.988760000000184,37.19931000000014],[32.98611000000011,37.20118000000036],[32.98548000000005,37.20202000000023],[32.98359000000016,37.205140000000426]]],"type":"Polygon"}},{"type":"Feature","properties":{"area_id":"TR-70-005-90287","name_tr":"Boyacı","area_level":"neighbourhood","parent_id":"TR-70-005","endeksa_id":90287},"geometry":{"coordinates":[[[32.95814000000013,37.22632000000067],[32.95703000000009,37.226550000000145],[32.956760000000145,37.22688000000011],[32.95568000000014,37.22702000000032],[32.95489000000015,37.2269800000002],[32.95441000000005,37.228100000000154],[32.9534500000002,37.22831000000048],[32.95278000000019,37.22720000000032],[32.95099000000005,37.2279300000003],[32.95015000000018,37.22673000000049],[32.94873000000007,37.227290000000096],[32.94742000000008,37.22548000000012],[32.94542000000013,37.22557000000029],[32.942980000000034,37.22636000000006],[32.94102000000004,37.226510000000076],[32.93861000000015,37.22609000000011],[32.93772000000024,37.2262800000002],[32.934730000000116,37.22204000000039],[32.92579000000006,37.21259000000009],[32.91945000000004,37.20740000000018],[32.91628000000014,37.2039800000004],[32.9140500000002,37.19894000000045],[32.89894000000015,37.179400000000214],[32.915470000000084,37.17677000000003],[32.92167000000006,37.17294000000004],[32.92506000000026,37.17099000000013],[32.92465000000004,37.173390000000325],[32.94466000000011,37.212670000000344],[32.94736000000006,37.21204000000006],[32.94796000000014,37.21296000000018],[32.94966000000011,37.216290000000186],[32.95129000000014,37.21879000000007],[32.953230000000076,37.22123000000016],[32.95544000000018,37.22453000000036],[32.955620000000124,37.22473000000019],[32.95749000000012,37.22563000000042],[32.95793000000015,37.22597000000013],[32.95814000000013,37.22632000000067]]],"type":"Polygon"}},{"type":"Feature","properties":{"area_id":"TR-70-005-90291","name_tr":"Pazar","area_level":"neighbourhood","parent_id":"TR-70-005","endeksa_id":90291},"geometry":{"coordinates":[[[32.96195000000006,37.228530000000205],[32.960570000000075,37.22963000000027],[32.959056566174525,37.227321973612334],[32.95854000000014,37.226860000000045],[32.95814000000013,37.22632000000067],[32.95793000000015,37.22597000000013],[32.95929000000024,37.22478000000007],[32.96064000000018,37.22554000000008],[32.96205000000015,37.224100000000305],[32.96325000000013,37.222520000000316],[32.96538000000015,37.22087000000022],[32.967720000000156,37.21852000000047],[32.96873000000005,37.217750000000706],[32.969520000000045,37.217340000000206],[32.972810000000095,37.215270000000146],[32.97947000000016,37.208610000000476],[32.98359000000016,37.205140000000426],[32.98502000000019,37.208550000000116],[32.98654000000016,37.21126000000021],[32.98725000000013,37.21105000000057],[32.98736000000014,37.21124000000066],[32.98757000000012,37.21173000000016],[32.986340000000155,37.21185000000014],[32.98806009449686,37.21506999135369],[32.98806267867343,37.21518564086716],[32.98794863934222,37.21525409134995],[32.980890000000045,37.21599000000003],[32.979280000000074,37.21627000000046],[32.97765000000021,37.21677000000011],[32.975620000000106,37.21774000000005],[32.96195000000006,37.228530000000205]]],"type":"Polygon"}},{"type":"Feature","properties":{"area_id":"TR-70-005-99362","name_tr":"Selçuklu","area_level":"neighbourhood","parent_id":"TR-70-005","endeksa_id":99362},"geometry":{"coordinates":[[[32.901108841572295,37.24824032860647],[32.898340000000076,37.24913000000009],[32.89730000000003,37.24676000000011],[32.89838000000003,37.24641000000025],[32.89792000000017,37.24565000000007],[32.89616000000018,37.24548000000004],[32.89460000000008,37.24612000000042],[32.89430000000016,37.24479000000014],[32.89353000000017,37.242810000000134],[32.89310000000012,37.24317000000008],[32.89263000000017,37.24238000000008],[32.8921000000002,37.242530000000386],[32.892170000000135,37.24279000000058],[32.89126000000016,37.243060000000185],[32.89066000000025,37.24128000000019],[32.890440000000126,37.241320000000314],[32.88955000000004,37.24000000000012],[32.88955000000004,37.2396300000006],[32.88972000000007,37.238930000000266],[32.8904500000001,37.239060000000336],[32.89066000000025,37.238720000000626],[32.88993000000005,37.23826000000025],[32.889970000000176,37.238100000000486],[32.89066000000025,37.2373000000004],[32.890010000000075,37.23702000000014],[32.88956000000019,37.236520000000496],[32.890320000000145,37.23606000000012],[32.88969000000009,37.235190000000046],[32.88898000000012,37.23542000000043],[32.88885000000005,37.23498000000029],[32.88771000000003,37.23366000000033],[32.88825000000014,37.233360000000516],[32.88785000000007,37.233020000000124],[32.88762000000003,37.23266000000018],[32.88636000000008,37.23128000000037],[32.886540000000025,37.23090000000019],[32.885330000000124,37.22993000000025],[32.88563000000005,37.22973000000019],[32.88509000000016,37.22924000000069],[32.88530000000014,37.22898000000049],[32.8848500000002,37.22857000000067],[32.88386000000014,37.227350000000115],[32.88442000000015,37.22702000000032],[32.884400000000085,37.22638000000012],[32.88490000000007,37.225990000000365],[32.88456000000019,37.225580000000036],[32.88411000000008,37.22606000000047],[32.883840000000134,37.22589000000062],[32.883650000000216,37.226050000000384],[32.88290000000012,37.22550000000035],[32.88277000000005,37.22553000000016],[32.8830200000001,37.2243600000005],[32.88061000000022,37.222890000000405],[32.87804000000017,37.2183500000001],[32.87845000000016,37.21789000000024],[32.878520000000094,37.21705000000037],[32.87846000000013,37.21538000000004],[32.87788000000012,37.2140500000001],[32.87778000000014,37.21302000000014],[32.87832000000009,37.21162000000015],[32.87719000000004,37.20878000000033],[32.87692000000004,37.20715000000047],[32.87885000000006,37.20401000000004],[32.87942000000015,37.20200000000068],[32.87981000000008,37.20159000000018],[32.881120000000124,37.197340000000224],[32.88147000000015,37.195570000000146],[32.881360000000086,37.19345000000027],[32.88214000000016,37.19110000000035],[32.889270000000124,37.1892400000001],[32.89002000000005,37.18644000000006],[32.8913100000002,37.18387000000041],[32.89416000000011,37.179830000000265],[32.89894000000015,37.179400000000214],[32.9140500000002,37.19894000000045],[32.91628000000014,37.2039800000004],[32.91945000000004,37.20740000000018],[32.92579000000006,37.21259000000009],[32.934730000000116,37.22204000000039],[32.93772000000024,37.2262800000002],[32.93861000000015,37.22609000000011],[32.94102000000004,37.226510000000076],[32.942980000000034,37.22636000000006],[32.94542000000013,37.22557000000029],[32.94742000000008,37.22548000000012],[32.94873000000007,37.227290000000096],[32.95015000000018,37.22673000000049],[32.95099000000005,37.2279300000003],[32.9503400000001,37.22820000000007],[32.94826000000012,37.229340000000434],[32.94584000000009,37.230940000000146],[32.94546000000008,37.231380000000115],[32.94574000000017,37.23185000000012],[32.944680000000176,37.23220000000009],[32.94281000000018,37.233360000000516],[32.94071000000014,37.234450000000095],[32.936880000000144,37.236310000000174],[32.93521000000021,37.236920000000225],[32.933530000000076,37.237670000000435],[32.928750000000036,37.2401600000004],[32.92233000000016,37.24286000000018],[32.913330000000144,37.2462400000004],[32.91096000000016,37.246620000000576],[32.907790000000034,37.246830000000216],[32.9060300000001,37.24708000000027],[32.90420000000017,37.24686000000054],[32.901108841572295,37.24824032860647]]],"type":"Polygon"}},{"type":"Feature","properties":{"area_id":"TR-70-005-90290","name_tr":"Oba","area_level":"neighbourhood","parent_id":"TR-70-005","endeksa_id":90290},"geometry":{"coordinates":[[[32.960570000000075,37.22963000000027],[32.95219587827654,37.23630919577522],[32.95223954615602,37.236194973957424],[32.95210896200007,37.235986052000044],[32.95379272600013,37.23274554500006],[32.955636464000065,37.23067535299998],[32.95586560600003,37.22902630200008],[32.95608121700019,37.22877203000019],[32.959056566174525,37.227321973612334],[32.960570000000075,37.22963000000027]]],"type":"Polygon"}},{"type":"Feature","properties":{"area_id":"TR-70-005-2035250","name_tr":"Mecidiye Köyü","area_level":"neighbourhood","parent_id":"TR-70-005","endeksa_id":2035250},"geometry":{"coordinates":[[[33.03053500000004,37.264396300000215],[33.02849650000013,37.26488300000034],[33.02362560000017,37.266479700000104],[33.02246690000004,37.2664712000003],[33.01918390000003,37.26746159999999],[33.0163836000001,37.26875940000008],[33.015643300000136,37.26919490000006],[33.01301480000012,37.26777750000019],[33.012533542000085,37.268303765000155],[33.01236451000011,37.26818362500018],[33.012302236000096,37.268556703000456],[33.01218901900006,37.26868050800016],[33.011926522000124,37.2685633370001],[33.012265361000175,37.26813936800011],[33.01213288600013,37.26808023500047],[33.0124524040001,37.26736442200013],[33.012177900000154,37.267162800000165],[33.01328300000006,37.264746400000035],[33.01409034200009,37.26364494900031],[33.00760678300003,37.261550449000026],[33.005779247000135,37.25995830400018],[33.0062895370001,37.25909881700039],[33.00625560000003,37.25899980000014],[33.0069230150001,37.25796525700002],[33.0045497000001,37.25695890000003],[33.003584100000126,37.256318500000475],[33.00370717700014,37.25585105700026],[33.00188170700005,37.25467170100001],[33.00296826300007,37.25200252900015],[33.00286530000017,37.2519461],[33.00306450100004,37.25176611700016],[33.003360150000105,37.25103984200052],[33.002436200000034,37.25073340000006],[33.00307990000016,37.249512200000424],[33.00522924500012,37.24626150200004],[33.00381132900003,37.24551413900065],[33.00562353200013,37.23918144700019],[33.00567630000006,37.239109499999984],[33.00615004200017,37.239056904999984],[33.006169800000066,37.23875070000014],[33.00787502600008,37.238847269000075],[33.00795080000012,37.23711079999998],[33.00895840000004,37.233609400000546],[33.00933480000009,37.233753800000045],[33.00989270000008,37.23294230000005],[33.01185610000016,37.23094340000023],[33.01282170000013,37.22983290000036],[33.01347610000005,37.22893600000003],[33.0136290260001,37.228994910000154],[33.016877200000124,37.22785960000016],[33.018947800000035,37.22793650000011],[33.02024600000016,37.227663100000086],[33.02248830000019,37.22758620000013],[33.02594300000004,37.22764600000011],[33.02603960000005,37.22774000000021],[33.02595478000012,37.228185679000035],[33.02966053100005,37.22830337100004],[33.03019160000002,37.22821840000017],[33.03350690000008,37.22705659999997],[33.04073810000011,37.22501480000017],[33.04092050000014,37.22502340000017],[33.04111360000013,37.22536510000003],[33.041194661000134,37.22537527700007],[33.044096200000126,37.22445950000002],[33.058011820000104,37.21841107200015],[33.058505000000025,37.21810320000009],[33.060704500000156,37.21949580000006],[33.061938300000065,37.220427100000165],[33.06423420000016,37.222503100000154],[33.06406498400003,37.222676371000375],[33.06656350400016,37.22470924100003],[33.0695343000001,37.22305850000009],[33.07044620000005,37.22397260000042],[33.07137970000019,37.2251942000006],[33.06550020000009,37.22940580000005],[33.06085470000011,37.231883100000175],[33.05917020000004,37.232891100000074],[33.05750730000011,37.234155300000054],[33.053773600000056,37.23798200000067],[33.05168149999997,37.239955100000145],[33.048151700000176,37.24425980000069],[33.047958600000186,37.24461850000017],[33.04718610000003,37.24999900000006],[33.048291200000165,37.25020400000011],[33.04835560000015,37.25034060000007],[33.04704670000001,37.25136540000028],[33.046950100000004,37.25235600000053],[33.046456600000056,37.25247560000048],[33.04613470000004,37.25244140000012],[33.04600600000009,37.255131500000175],[33.04569480000009,37.258624100000134],[33.04304480000019,37.260468500000115],[33.04145690000007,37.26019530000008],[33.03835630000003,37.26046000000031],[33.03483720000003,37.26205670000007],[33.03303480000011,37.26396090000043],[33.031715100000156,37.26405480000005],[33.03053500000004,37.264396300000215]]],"type":"Polygon"}},{"type":"Feature","properties":{"area_id":"TR-70-005-90288","name_tr":"Eminettin","area_level":"neighbourhood","parent_id":"TR-70-005","endeksa_id":90288},"geometry":{"coordinates":[[[32.95219587827654,37.23630919577522],[32.9052065782476,37.27345450579526],[32.90577418600003,37.272789107000165],[32.90562178300013,37.272433283000396],[32.90600539999997,37.27185870000005],[32.90426730000007,37.270151100000305],[32.90546890000019,37.269391200000314],[32.90626290000017,37.268674000000146],[32.90545106900004,37.267960921],[32.90496470000005,37.267359200000044],[32.90550110000004,37.26706890000037],[32.90619850000019,37.267325000000596],[32.9078722000001,37.2658479000001],[32.90757724600019,37.26480930800028],[32.908251255000096,37.2641632480001],[32.909234800000036,37.263952300000426],[32.9093206,37.26324360000041],[32.90713190000014,37.2631497000001],[32.907110400000136,37.26198840000029],[32.90656330000013,37.26219340000006],[32.90605446600017,37.261151856000026],[32.90640230000014,37.26105770000038],[32.90638090000016,37.260109900000145],[32.90593030000019,37.259682900000314],[32.9054582,37.25828250000012],[32.90474152400003,37.25844637200032],[32.90424580000007,37.25741150000067],[32.90178000800017,37.25781802300014],[32.90236399300005,37.25605607699998],[32.9032802000001,37.255865900000686],[32.902883300000155,37.254482400000256],[32.902809228000024,37.25449247000006],[32.90226357200004,37.25344479200038],[32.90221810000014,37.25316729999997],[32.8998792000001,37.25321860000014],[32.899525200000085,37.25221090000025],[32.89892430000015,37.25129710000067],[32.89910670000012,37.25105800000006],[32.89855960000017,37.25051990000031],[32.89950370000008,37.24965739999999],[32.899954300000104,37.24947800000007],[32.90054440000006,37.24872650000043],[32.901198900000054,37.24846170000001],[32.901108841572295,37.24824032860647],[32.90420000000017,37.24686000000054],[32.9060300000001,37.24708000000027],[32.907790000000034,37.246830000000216],[32.91096000000016,37.246620000000576],[32.913330000000144,37.2462400000004],[32.92233000000016,37.24286000000018],[32.928750000000036,37.2401600000004],[32.933530000000076,37.237670000000435],[32.93521000000021,37.236920000000225],[32.936880000000144,37.236310000000174],[32.94071000000014,37.234450000000095],[32.94281000000018,37.233360000000516],[32.944680000000176,37.23220000000009],[32.94574000000017,37.23185000000012],[32.94546000000008,37.231380000000115],[32.94584000000009,37.230940000000146],[32.94826000000012,37.229340000000434],[32.9503400000001,37.22820000000007],[32.95278000000019,37.22720000000032],[32.9534500000002,37.22831000000048],[32.95441000000005,37.228100000000154],[32.95489000000015,37.2269800000002],[32.95568000000014,37.22702000000032],[32.956760000000145,37.22688000000011],[32.95703000000009,37.226550000000145],[32.95814000000013,37.22632000000067],[32.95854000000014,37.226860000000045],[32.959056566174525,37.227321973612334],[32.95608121700019,37.22877203000019],[32.95586560600003,37.22902630200008],[32.955636464000065,37.23067535299998],[32.95379272600013,37.23274554500006],[32.95210896200007,37.235986052000044],[32.95223954615602,37.236194973957424],[32.95219587827654,37.23630919577522]]],"type":"Polygon"}},{"type":"Feature","properties":{"area_id":"TR-70-005-2035251","name_tr":"Özyurt Köyü","area_level":"neighbourhood","parent_id":"TR-70-005","endeksa_id":2035251},"geometry":{"coordinates":[[[32.927050000000065,37.305380000000184],[32.90982000000014,37.3083000000002],[32.902390000000196,37.31177000000025],[32.893869624532044,37.31334568587448],[32.89042295000013,37.309555085],[32.89049792900005,37.309453034],[32.89310472000017,37.30861506600013],[32.893172881000055,37.30850166000016],[32.893051313000115,37.30842610900004],[32.88904525900011,37.308538134000514],[32.888845554,37.30513496600031],[32.888952630000176,37.30507006100004],[32.89057396100014,37.305045993000135],[32.890683642000056,37.30494540100017],[32.88756279500001,37.30345823800013],[32.8886734730001,37.29792737800045],[32.88856873900011,37.297856671000375],[32.88567842599997,37.29760629000003],[32.883613267999976,37.29348601500004],[32.883676874000116,37.29338834400005],[32.88890061500007,37.29113700900007],[32.88674253800008,37.28955539900062],[32.88670878100004,37.28945573800013],[32.886571490000165,37.28941866500014],[32.88617850000014,37.28961500000031],[32.885835199999974,37.289265000000114],[32.883507000000066,37.28826630000009],[32.882992000000115,37.28706280000017],[32.88254140000015,37.28706280000017],[32.881726000000185,37.285406800000146],[32.88121100000018,37.28563720000017],[32.878925800000104,37.28025080000003],[32.878625400000146,37.2803617000003],[32.878754100000094,37.28086540000004],[32.87812110000016,37.281036100000165],[32.878228400000125,37.281215400000235],[32.87592170000005,37.28206910000017],[32.875363800000116,37.280797100000086],[32.875857300000064,37.28057510000019],[32.875331600000095,37.279584900000145],[32.874398200000144,37.27623840000001],[32.87279960000001,37.276375000000485],[32.87254210000003,37.274027200000205],[32.87232760000006,37.27403570000001],[32.872370500000045,37.272669700000506],[32.87190910000004,37.27272100000016],[32.87183400000009,37.27214890000005],[32.87257430000005,37.27201230000014],[32.87254210000003,37.2715342000007],[32.870793300000116,37.271679400000096],[32.87014960000016,37.26904120000012],[32.87001010000017,37.26805080000025],[32.86959170000017,37.26805080000025],[32.8688621,37.26566000000014],[32.868497400000024,37.26507090000007],[32.867896500000086,37.26589910000007],[32.867317200000116,37.264814700000045],[32.86586880000016,37.261288300000274],[32.86533240000017,37.26138220000007],[32.86517140000018,37.26101500000004],[32.86571860000015,37.26088690000046],[32.865235800000164,37.2597598000001],[32.86503190000019,37.25882899999999],[32.86478520000003,37.25888020000019],[32.864710100000025,37.25864110000009],[32.86440970000007,37.258700900000065],[32.86398050000008,37.25776160000015],[32.863583600000084,37.25583170000016],[32.863304600000106,37.25390170000003],[32.862854000000084,37.25390170000003],[32.862532100000124,37.25033210000004],[32.86206010000012,37.25034910000039],[32.86196350000017,37.24974280000032],[32.86046150000004,37.24965739999999],[32.86024690000005,37.248581300000126],[32.86154510000017,37.24843610000005],[32.86114809999998,37.24659140000034],[32.86156650000015,37.246565799999985],[32.861437799999976,37.24582270000019],[32.860890600000175,37.24587400000013],[32.86078330000004,37.24508820000017],[32.86137340000016,37.24501990000016],[32.86099790000003,37.24344839999998],[32.85964610000008,37.242218500000035],[32.859463700000106,37.241936600000315],[32.8585303000001,37.241176500000165],[32.85787580000016,37.240510300000096],[32.857038999999986,37.23986970000004],[32.85677070000003,37.23949380000016],[32.85707120000018,37.23934010000005],[32.8566098,37.23863970000019],[32.858508800000095,37.23799910000031],[32.85803670000013,37.23740970000006],[32.85934570000006,37.23658970000008],[32.859946500000035,37.236487200000624],[32.85910960000007,37.233967400000324],[32.85771490000013,37.23380510000004],[32.85715700000003,37.23350610000017],[32.85726430000017,37.233173000000136],[32.857189200000164,37.23246400000028],[32.856491800000015,37.23149020000017],[32.85581590000004,37.23130220000007],[32.85535450000009,37.23105450000003],[32.85475370000012,37.23096910000004],[32.85477520000012,37.230576100000064],[32.853981200000135,37.230593200000385],[32.85389540000017,37.230456500000116],[32.85330530000016,37.230456500000116],[32.85211440000006,37.230200300000206],[32.84916399999997,37.226381700000445],[32.84663190000009,37.22240070000004],[32.82397910000003,37.19497710000047],[32.80732150000006,37.20165470000018],[32.80717577581623,37.20181737693787],[32.80701281562597,37.2018059723772],[32.806951339399916,37.201679776341564],[32.807700000000125,37.198760000000334],[32.80781000000013,37.19613000000032],[32.8097800000001,37.193520000000376],[32.810370000000034,37.192440000000374],[32.81221000000005,37.191950000000475],[32.81262000000004,37.192070000000456],[32.812470000000076,37.191240000000164],[32.81262000000004,37.191200000000265],[32.81261000000012,37.19097000000039],[32.8136100000001,37.19030000000038],[32.81474000000014,37.189160000000186],[32.81500000000017,37.18951000000038],[32.815940000000126,37.189160000000186],[32.81525000000005,37.188630000000046],[32.817400000000134,37.186120000000415],[32.8186300000001,37.18381000000056],[32.82074000000006,37.18170000000009],[32.82264000000009,37.17944000000011],[32.825820000000135,37.17827000000034],[32.82922000000008,37.18057000000039],[32.83259000000021,37.181570000000136],[32.832080000000076,37.1818100000001],[32.83241000000004,37.18205000000006],[32.83334000000008,37.181660000000306],[32.83343000000025,37.18195000000014],[32.83582000000007,37.18175000000065],[32.83568000000025,37.181410000000255],[32.83588000000009,37.18148000000036],[32.8366400000001,37.18190000000027],[32.83711000000005,37.182590000000516],[32.83749000000006,37.183460000000025],[32.83761000000004,37.18336000000028],[32.83786000000015,37.18335000000019],[32.83830000000012,37.18295000000046],[32.838180000000136,37.18130000000036],[32.8386000000001,37.18094000000042],[32.84099000000009,37.18059000000005],[32.84127000000018,37.18086000000022],[32.8425000000002,37.180670000000134],[32.84226000000024,37.180300000000045],[32.84293000000025,37.18050000000028],[32.84340000000003,37.18043000000017],[32.84722996590267,37.176539899502416],[32.84748703305513,37.176536821705554],[32.84768340000005,37.17703060000025],[32.84784440000004,37.17635530000018],[32.84872410000003,37.178244500000176],[32.84908890000003,37.1784325000001],[32.84898160000017,37.1788001000001],[32.84982920000016,37.179672000000664],[32.84983990000012,37.180013900000176],[32.85009740000015,37.18044140000001],[32.850515800000096,37.18059520000031],[32.85071970000013,37.18127050000004],[32.8502476000001,37.18135600000005],[32.84936780000015,37.180432800000005],[32.84898160000017,37.18074910000007],[32.849936500000126,37.181817600000045],[32.85171750000006,37.182586900000615],[32.85272600000019,37.18337330000031],[32.85299420000018,37.183963100000085],[32.86609410000017,37.18362970000021],[32.882470500000125,37.19073320000018],[32.88241543403484,37.19102814764335],[32.88214000000016,37.19110000000035],[32.881360000000086,37.19345000000027],[32.88147000000015,37.195570000000146],[32.881120000000124,37.197340000000224],[32.87981000000008,37.20159000000018],[32.87942000000015,37.20200000000068],[32.87885000000006,37.20401000000004],[32.87692000000004,37.20715000000047],[32.87719000000004,37.20878000000033],[32.87832000000009,37.21162000000015],[32.87778000000014,37.21302000000014],[32.87788000000012,37.2140500000001],[32.87846000000013,37.21538000000004],[32.878520000000094,37.21705000000037],[32.87845000000016,37.21789000000024],[32.87804000000017,37.2183500000001],[32.88061000000022,37.222890000000405],[32.8830200000001,37.2243600000005],[32.88277000000005,37.22553000000016],[32.88290000000012,37.22550000000035],[32.883650000000216,37.226050000000384],[32.883840000000134,37.22589000000062],[32.88411000000008,37.22606000000047],[32.88456000000019,37.225580000000036],[32.88490000000007,37.225990000000365],[32.884400000000085,37.22638000000012],[32.88442000000015,37.22702000000032],[32.88386000000014,37.227350000000115],[32.8848500000002,37.22857000000067],[32.88530000000014,37.22898000000049],[32.88509000000016,37.22924000000069],[32.88563000000005,37.22973000000019],[32.885330000000124,37.22993000000025],[32.886540000000025,37.23090000000019],[32.88636000000008,37.23128000000037],[32.88762000000003,37.23266000000018],[32.88785000000007,37.233020000000124],[32.88825000000014,37.233360000000516],[32.88771000000003,37.23366000000033],[32.88885000000005,37.23498000000029],[32.88898000000012,37.23542000000043],[32.88969000000009,37.235190000000046],[32.890320000000145,37.23606000000012],[32.88956000000019,37.236520000000496],[32.890010000000075,37.23702000000014],[32.89066000000025,37.2373000000004],[32.889970000000176,37.238100000000486],[32.88993000000005,37.23826000000025],[32.89066000000025,37.238720000000626],[32.8904500000001,37.239060000000336],[32.88972000000007,37.238930000000266],[32.88955000000004,37.2396300000006],[32.88955000000004,37.24000000000012],[32.890440000000126,37.241320000000314],[32.89066000000025,37.24128000000019],[32.89126000000016,37.243060000000185],[32.892170000000135,37.24279000000058],[32.8921000000002,37.242530000000386],[32.89263000000017,37.24238000000008],[32.89310000000012,37.24317000000008],[32.89353000000017,37.242810000000134],[32.89430000000016,37.24479000000014],[32.89460000000008,37.24612000000042],[32.89616000000018,37.24548000000004],[32.89792000000017,37.24565000000007],[32.89838000000003,37.24641000000025],[32.89730000000003,37.24676000000011],[32.898340000000076,37.24913000000009],[32.901108841572295,37.24824032860647],[32.901198900000054,37.24846170000001],[32.90054440000006,37.24872650000043],[32.899954300000104,37.24947800000007],[32.89950370000008,37.24965739999999],[32.89855960000017,37.25051990000031],[32.89910670000012,37.25105800000006],[32.89892430000015,37.25129710000067],[32.899525200000085,37.25221090000025],[32.8998792000001,37.25321860000014],[32.90221810000014,37.25316729999997],[32.90226357200004,37.25344479200038],[32.902809228000024,37.25449247000006],[32.902883300000155,37.254482400000256],[32.9032802000001,37.255865900000686],[32.90236399300005,37.25605607699998],[32.90178000800017,37.25781802300014],[32.90424580000007,37.25741150000067],[32.90474152400003,37.25844637200032],[32.9054582,37.25828250000012],[32.90593030000019,37.259682900000314],[32.90638090000016,37.260109900000145],[32.90640230000014,37.26105770000038],[32.90605446600017,37.261151856000026],[32.90656330000013,37.26219340000006],[32.907110400000136,37.26198840000029],[32.90713190000014,37.2631497000001],[32.9093206,37.26324360000041],[32.909234800000036,37.263952300000426],[32.908251255000096,37.2641632480001],[32.90757724600019,37.26480930800028],[32.9078722000001,37.2658479000001],[32.90619850000019,37.267325000000596],[32.90550110000004,37.26706890000037],[32.90496470000005,37.267359200000044],[32.90545106900004,37.267960921],[32.90626290000017,37.268674000000146],[32.90546890000019,37.269391200000314],[32.90426730000007,37.270151100000305],[32.90600539999997,37.27185870000005],[32.90562178300013,37.272433283000396],[32.90577418600003,37.272789107000165],[32.9052065782476,37.27345450579526],[32.905150000000106,37.273500000000126],[32.91469000000018,37.2914600000002],[32.927050000000065,37.305380000000184]]],"type":"Polygon"}},{"type":"Feature","properties":{"area_id":"TR-70-005-2035247","name_tr":"Akarköy Köyü","area_level":"neighbourhood","parent_id":"TR-70-005","endeksa_id":2035247},"geometry":{"coordinates":[[[32.88121100000018,37.28563720000017],[32.87502050000012,37.28842850000001],[32.87410850000015,37.288940700000296],[32.87196280000006,37.28993080000015],[32.87157650000006,37.28818950000016],[32.869291299999986,37.28855650000048],[32.869108900000185,37.28801880000003],[32.86748890000007,37.28834310000059],[32.86713480000009,37.286943300000075],[32.86575080000017,37.28704570000053],[32.86605120000013,37.28884680000016],[32.864710100000025,37.28892360000066],[32.86440970000007,37.28780539999997],[32.864345300000025,37.28644820000011],[32.864205800000036,37.28554330000003],[32.86104080000018,37.28552630000058],[32.86104080000018,37.285193400000026],[32.856856600000185,37.285415300000636],[32.856663500000025,37.28370810000007],[32.85546180000006,37.28383610000003],[32.8554726000001,37.28405800000024],[32.8547966000001,37.28417760000019],[32.85458210000013,37.28369950000007],[32.85288689999999,37.285022600000104],[32.852683100000036,37.28531290000069],[32.85198570000006,37.28446780000007],[32.849743400000136,37.283895900000175],[32.84982920000016,37.28356290000016],[32.84929270000015,37.28355440000013],[32.84929270000015,37.282922700000086],[32.84985060000014,37.28293120000012],[32.849979400000166,37.281941000000074],[32.850891300000114,37.28190690000025],[32.850827000000095,37.28076300000009],[32.850494400000116,37.280797100000086],[32.850301300000126,37.279508100000044],[32.85029050000014,37.27800560000003],[32.85007590000015,37.277945800000055],[32.85003300000011,37.2775104000001],[32.84929270000015,37.275871300000006],[32.84855250000004,37.27603350000015],[32.84823060000002,37.274778500000195],[32.84857390000019,37.274744300000066],[32.84826280000004,37.2739418000001],[32.84780140000004,37.27405280000005],[32.8474581000001,37.274274800000114],[32.84738300000009,37.27396740000023],[32.84661050000011,37.27405280000005],[32.846664200000134,37.27441140000019],[32.84399270000006,37.27446260000016],[32.84340260000005,37.274633400000084],[32.84166450000015,37.27482120000053],[32.84079550000018,37.27507730000008],[32.84135340000017,37.27599080000016],[32.8421795000001,37.27879949999999],[32.84162160000017,37.27889340000013],[32.841396300000156,37.27943120000003],[32.840623800000174,37.27961900000031],[32.84060240000019,37.28012270000005],[32.838499500000125,37.28024220000003],[32.83564570000004,37.28011420000007],[32.83515210000007,37.28275200000019],[32.8344762000001,37.28275200000019],[32.83451910000008,37.28247030000068],[32.83308150000016,37.282410500000026],[32.83309220000018,37.28174470000033],[32.831547200000045,37.2816593],[32.83159020000005,37.281215400000235],[32.830034500000124,37.28114710000011],[32.82997010000014,37.281710499999974],[32.82519580000019,37.28175320000014],[32.825131400000146,37.282273900000064],[32.82328600000005,37.28233370000004],[32.82327530000009,37.28264950000005],[32.82048580000003,37.28269220000021],[32.82046439999999,37.28327270000028],[32.81543250000004,37.28323000000012],[32.81586170000003,37.277578700000106],[32.81581769236817,37.27609622572356],[32.81583631589331,37.27609337620845],[32.8162092872289,37.269373317224904],[32.81816429015004,37.268530343101304],[32.818778280693266,37.267887348522834],[32.82040825423769,37.26657636540699],[32.818373311479206,37.263949384556895],[32.81930627536434,37.26364736523374],[32.81891230845639,37.26241233166411],[32.81856429510617,37.26245532825084],[32.81823625659814,37.26161739122978],[32.81850627354578,37.26156039669513],[32.81763326206544,37.25991933361041],[32.81720229435058,37.26000636010559],[32.81653726368381,37.25936139241446],[32.81618933576942,37.25948936953915],[32.81602430477784,37.25909238630459],[32.816709268018485,37.25891635570542],[32.815779325855374,37.255441342044605],[32.81515032113043,37.255524356663784],[32.81490527745672,37.25458037248637],[32.81418728841271,37.254663333146766],[32.813077569973984,37.255332830746],[32.81287640692079,37.25481664147492],[32.81267845534654,37.25446962007703],[32.81274967535728,37.25443602590195],[32.81265480317677,37.25425751946898],[32.812610481888214,37.25428106192163],[32.812428156934004,37.254008237290805],[32.81212115446789,37.253577857731955],[32.812205835530904,37.253515625545845],[32.81195219703636,37.253128409848614],[32.81207826849737,37.25309895884999],[32.812066102468634,37.25305540917981],[32.81192617964956,37.252933880194576],[32.81184948186825,37.252814883699955],[32.81181499286765,37.25269892871262],[32.811812217559805,37.252581222745334],[32.81173259878051,37.25217941195075],[32.81135125205867,37.2514377113817],[32.81130407002689,37.25137851530627],[32.811218066060974,37.25092856739997],[32.811170864244104,37.250505087439876],[32.811041940133464,37.250524258287896],[32.81092307583941,37.250461883109494],[32.8108151904687,37.250471083174034],[32.810592439189804,37.25015835562368],[32.81048972582022,37.24984834402596],[32.81036931469225,37.24955065044219],[32.809915701148725,37.24908596264709],[32.809256806556505,37.248540821501706],[32.80890657098155,37.24838271888751],[32.8080551468276,37.247828968532076],[32.80779363027199,37.24785008371475],[32.807698303933705,37.24782180992895],[32.80747883518012,37.24761569880576],[32.80738151774301,37.24756579182787],[32.807174015368616,37.24755382814675],[32.806929409664576,37.24747051405336],[32.806645097093735,37.24746175915294],[32.80623265631215,37.24727200310065],[32.80599824082634,37.247095335781296],[32.80575253345279,37.24682663274314],[32.805586819875884,37.24669090346288],[32.80544601302313,37.246632631890634],[32.805163839939325,37.246588457191706],[32.805052027229465,37.2465004018722],[32.80487268802426,37.24631291750745],[32.80398831091196,37.24529232907804],[32.80384732059741,37.245270375727614],[32.803609300628864,37.245340368163454],[32.80304782959371,37.24483167384284],[32.80285245727521,37.244841982771334],[32.802575059591504,37.245002032418085],[32.802300751978294,37.24486855054329],[32.80202762517479,37.244604389980736],[32.80157586783213,37.244384630746254],[32.8013157443263,37.2440209026426],[32.800153197012605,37.24414998593352],[32.79848992966669,37.24261802410251],[32.79481359287314,37.23073175926328],[32.79286186888021,37.22452625008674],[32.78712933744896,37.206563297658136],[32.787685137715584,37.20393898539817],[32.79094605211333,37.206244631254265],[32.79098984235907,37.206358933030515],[32.79088979052341,37.20645271075989],[32.791010942000185,37.20659584800012],[32.791361423000126,37.20659880799997],[32.79251198500015,37.20735769099997],[32.79710000000006,37.21361000000013],[32.79744144513694,37.21337841655276],[32.79793082018796,37.2140294779137],[32.79811075801757,37.21406787984898],[32.803026390916216,37.21023021523871],[32.80354356321851,37.20879545569767],[32.80343094555769,37.208660647152726],[32.80324354313774,37.20872900343443],[32.80410000000012,37.20724000000013],[32.804790000000196,37.20513000000034],[32.806900000000155,37.20188000000019],[32.806951339399916,37.201679776341564],[32.80701281562597,37.2018059723772],[32.80717577581623,37.20181737693787],[32.80732150000006,37.20165470000018],[32.82397910000003,37.19497710000047],[32.84663190000009,37.22240070000004],[32.84916399999997,37.226381700000445],[32.85211440000006,37.230200300000206],[32.85330530000016,37.230456500000116],[32.85389540000017,37.230456500000116],[32.853981200000135,37.230593200000385],[32.85477520000012,37.230576100000064],[32.85475370000012,37.23096910000004],[32.85535450000009,37.23105450000003],[32.85581590000004,37.23130220000007],[32.856491800000015,37.23149020000017],[32.857189200000164,37.23246400000028],[32.85726430000017,37.233173000000136],[32.85715700000003,37.23350610000017],[32.85771490000013,37.23380510000004],[32.85910960000007,37.233967400000324],[32.859946500000035,37.236487200000624],[32.85934570000006,37.23658970000008],[32.85803670000013,37.23740970000006],[32.858508800000095,37.23799910000031],[32.8566098,37.23863970000019],[32.85707120000018,37.23934010000005],[32.85677070000003,37.23949380000016],[32.857038999999986,37.23986970000004],[32.85787580000016,37.240510300000096],[32.8585303000001,37.241176500000165],[32.859463700000106,37.241936600000315],[32.85964610000008,37.242218500000035],[32.86099790000003,37.24344839999998],[32.86137340000016,37.24501990000016],[32.86078330000004,37.24508820000017],[32.860890600000175,37.24587400000013],[32.861437799999976,37.24582270000019],[32.86156650000015,37.246565799999985],[32.86114809999998,37.24659140000034],[32.86154510000017,37.24843610000005],[32.86024690000005,37.248581300000126],[32.86046150000004,37.24965739999999],[32.86196350000017,37.24974280000032],[32.86206010000012,37.25034910000039],[32.862532100000124,37.25033210000004],[32.862854000000084,37.25390170000003],[32.863304600000106,37.25390170000003],[32.863583600000084,37.25583170000016],[32.86398050000008,37.25776160000015],[32.86440970000007,37.258700900000065],[32.864710100000025,37.25864110000009],[32.86478520000003,37.25888020000019],[32.86503190000019,37.25882899999999],[32.865235800000164,37.2597598000001],[32.86571860000015,37.26088690000046],[32.86517140000018,37.26101500000004],[32.86533240000017,37.26138220000007],[32.86586880000016,37.261288300000274],[32.867317200000116,37.264814700000045],[32.867896500000086,37.26589910000007],[32.868497400000024,37.26507090000007],[32.8688621,37.26566000000014],[32.86959170000017,37.26805080000025],[32.87001010000017,37.26805080000025],[32.87014960000016,37.26904120000012],[32.870793300000116,37.271679400000096],[32.87254210000003,37.2715342000007],[32.87257430000005,37.27201230000014],[32.87183400000009,37.27214890000005],[32.87190910000004,37.27272100000016],[32.872370500000045,37.272669700000506],[32.87232760000006,37.27403570000001],[32.87254210000003,37.274027200000205],[32.87279960000001,37.276375000000485],[32.874398200000144,37.27623840000001],[32.875331600000095,37.279584900000145],[32.875857300000064,37.28057510000019],[32.875363800000116,37.280797100000086],[32.87592170000005,37.28206910000017],[32.878228400000125,37.281215400000235],[32.87812110000016,37.281036100000165],[32.878754100000094,37.28086540000004],[32.878625400000146,37.2803617000003],[32.878925800000104,37.28025080000003],[32.88121100000018,37.28563720000017]]],"type":"Polygon"}},{"type":"Feature","properties":{"area_id":"TR-70-005-2035248","name_tr":"Karalgazi Köyü","area_level":"neighbourhood","parent_id":"TR-70-005","endeksa_id":2035248},"geometry":{"coordinates":[[[33.017348642805416,37.34001239906672],[33.01684335600015,37.340146528000105],[33.01689481000017,37.34019873400035],[33.01596867500018,37.340537321000056],[33.01584941000016,37.340175670000576],[33.01566466500003,37.34017086000017],[33.01522959000005,37.34103356400033],[33.003572539000174,37.33766920900007],[33.000894795000136,37.33880079900024],[32.997593614000095,37.3365510050001],[32.9955605240001,37.33983579900007],[32.98673322085352,37.34529906229517],[32.96402000000006,37.30342000000019],[32.98266000000012,37.29514000000006],[32.99189000000018,37.28381000000036],[32.995420000000195,37.27612000000016],[32.997120000000166,37.26551000000035],[33.00120000000004,37.242280000000335],[33.008524418142656,37.23348670127541],[33.008879039000135,37.23362087400011],[33.00892054400009,37.23374094900015],[33.00795080000012,37.23711079999998],[33.00787502600008,37.238847269000075],[33.006169800000066,37.23875070000014],[33.00615004200017,37.239056904999984],[33.00567630000006,37.239109499999984],[33.00562353200013,37.23918144700019],[33.00381132900003,37.24551413900065],[33.00522924500012,37.24626150200004],[33.00307990000016,37.249512200000424],[33.002436200000034,37.25073340000006],[33.003360150000105,37.25103984200052],[33.00306450100004,37.25176611700016],[33.00286530000017,37.2519461],[33.00296826300007,37.25200252900015],[33.00188170700005,37.25467170100001],[33.00370717700014,37.25585105700026],[33.003584100000126,37.256318500000475],[33.0045497000001,37.25695890000003],[33.0069230150001,37.25796525700002],[33.00625560000003,37.25899980000014],[33.0062895370001,37.25909881700039],[33.005779247000135,37.25995830400018],[33.00760678300003,37.261550449000026],[33.01409034200009,37.26364494900031],[33.01328300000006,37.264746400000035],[33.012177900000154,37.267162800000165],[33.0124524040001,37.26736442200013],[33.01213288600013,37.26808023500047],[33.012265361000175,37.26813936800011],[33.011926522000124,37.2685633370001],[33.01218901900006,37.26868050800016],[33.012302236000096,37.268556703000456],[33.01236451000011,37.26818362500018],[33.012533542000085,37.268303765000155],[33.01301480000012,37.26777750000019],[33.015643300000136,37.26919490000006],[33.0163836000001,37.26875940000008],[33.01918390000003,37.26746159999999],[33.02246690000004,37.2664712000003],[33.02362560000017,37.266479700000104],[33.02849650000013,37.26488300000034],[33.03053500000004,37.264396300000215],[33.03142550000018,37.265181900000016],[33.034558300000015,37.26657360000024],[33.04011580000014,37.268358100000455],[33.04414990000015,37.26857160000003],[33.04917090000009,37.2693229000007],[33.05187460000019,37.27004010000036],[33.05659530000014,37.27217460000003],[33.059223900000006,37.27326740000058],[33.06228160000006,37.27407840000018],[33.068718900000135,37.275529800000186],[33.074748500000055,37.278031200000385],[33.07696940000011,37.279422700000055],[33.07790280000012,37.280455600000096],[33.07434074500014,37.28406055100004],[33.074299292000035,37.28401803000031],[33.070735900000045,37.2875408000001],[33.072313100000144,37.28836020000023],[33.07036130200015,37.291814095999996],[33.069641600000125,37.29355840000045],[33.066165400000045,37.30005340000014],[33.064713337000114,37.30190863600035],[33.06559483137556,37.302663313294545],[33.06509260000013,37.30426930000027],[33.06204560000009,37.304226600000106],[33.061853917396434,37.30414259073268],[33.06183000000016,37.30390000000011],[33.058390000000145,37.304080000000056],[33.05860000000007,37.30545000000029],[33.056540000000155,37.30561000000017],[33.05473000000018,37.305630000000235],[33.05467000000016,37.304920000000095],[33.05301000000014,37.3046600000003],[33.04054000000008,37.31685000000061],[33.03845000000018,37.3188100000001],[33.03712000000007,37.31988000000035],[33.03294000000005,37.32402000000019],[33.0329500000002,37.3241400000004],[33.03323000000012,37.32435000000015],[33.017348642805416,37.34001239906672]]],"type":"Polygon"}},{"type":"Feature","properties":{"area_id":"TR-70-005-99363","name_tr":"Timsal","area_level":"neighbourhood","parent_id":"TR-70-005","endeksa_id":99363},"geometry":{"coordinates":[[[33.008524418142656,37.23348670127541],[33.00120000000004,37.242280000000335],[32.997120000000166,37.26551000000035],[32.995420000000195,37.27612000000016],[32.99189000000018,37.28381000000036],[32.987730000000056,37.27715000000012],[32.986070000000154,37.2742700000004],[32.98252000000008,37.26850000000047],[32.978570000000104,37.262200000000064],[32.97716000000014,37.259470000000135],[32.975000000000136,37.255850000000066],[32.97462000000013,37.2544900000002],[32.974570000000085,37.25308000000007],[32.97464000000019,37.25129000000044],[32.97495000000009,37.24998000000005],[32.97446000000019,37.24797000000018],[32.973960000000034,37.24670000000009],[32.97133000000025,37.24342000000013],[32.969520000000045,37.24073000000067],[32.969430000000045,37.240270000000294],[32.96670000000012,37.234940000000506],[32.9639600000001,37.23174000000006],[32.962370000000135,37.22960000000012],[32.96195000000006,37.228530000000205],[32.975620000000106,37.21774000000005],[32.97765000000021,37.21677000000011],[32.979280000000074,37.21627000000046],[32.980890000000045,37.21599000000003],[32.98794863934222,37.21525409134995],[32.98806267867343,37.21518564086716],[32.98806009449686,37.21506999135369],[32.989589974927696,37.21493005306519],[32.98970000000014,37.21541000000036],[32.98987000000017,37.21569000000011],[32.988910000000146,37.21602000000041],[32.99002000000013,37.218710000000556],[32.99017000000015,37.219390000000146],[32.99021000000005,37.22089000000045],[32.9906000000002,37.222610000000145],[32.99457000000024,37.22248000000019],[32.99448000000007,37.22217000000035],[32.99646000000007,37.22184000000021],[32.99640720349498,37.22398209014477],[32.997460000000046,37.22411000000005],[32.99738000000019,37.2248900000003],[32.99832000000015,37.224930000000086],[32.99813000000006,37.226180000000454],[32.99987000000016,37.226610000000505],[32.99964000000011,37.2270700000002],[32.99922000000004,37.22878000000031],[33.00042000000019,37.22899000000007],[33.00085000000007,37.2278500000001],[33.00193000000007,37.22820000000007],[33.00358000000017,37.228900000000294],[33.002360000000124,37.23028000000005],[33.00492000000003,37.23131000000018],[33.00461000000013,37.23199000000017],[33.00563000000017,37.23226000000045],[33.006040000000155,37.23257000000052],[33.008524418142656,37.23348670127541]]],"type":"Polygon"}},{"type":"Feature","properties":{"area_id":"TR-70-005-90289","name_tr":"Emsalhayat","area_level":"neighbourhood","parent_id":"TR-70-005","endeksa_id":90289},"geometry":{"coordinates":[[[32.96402000000006,37.30342000000019],[32.96052000000003,37.304980000000455],[32.927050000000065,37.305380000000184],[32.91469000000018,37.2914600000002],[32.905150000000106,37.273500000000126],[32.9052065782476,37.27345450579526],[32.95219587827654,37.23630919577522],[32.960570000000075,37.22963000000027],[32.96195000000006,37.228530000000205],[32.962370000000135,37.22960000000012],[32.9639600000001,37.23174000000006],[32.96670000000012,37.234940000000506],[32.969430000000045,37.240270000000294],[32.969520000000045,37.24073000000067],[32.97133000000025,37.24342000000013],[32.973960000000034,37.24670000000009],[32.97446000000019,37.24797000000018],[32.97495000000009,37.24998000000005],[32.97464000000019,37.25129000000044],[32.974570000000085,37.25308000000007],[32.97462000000013,37.2544900000002],[32.975000000000136,37.255850000000066],[32.97716000000014,37.259470000000135],[32.978570000000104,37.262200000000064],[32.98252000000008,37.26850000000047],[32.986070000000154,37.2742700000004],[32.987730000000056,37.27715000000012],[32.99189000000018,37.28381000000036],[32.98266000000012,37.29514000000006],[32.96402000000006,37.30342000000019]]],"type":"Polygon"}},{"type":"Feature","properties":{"area_id":"TR-70-005-2035249","name_tr":"Kızılkuyu Köyü","area_level":"neighbourhood","parent_id":"TR-70-005","endeksa_id":2035249},"geometry":{"coordinates":[[[32.88448000000011,37.34551000000016],[32.8780000000001,37.33923000000016],[32.87348000000003,37.3325100000003],[32.870710000000145,37.32996000000037],[32.868080000000134,37.32619000000034],[32.864730000000066,37.32172000000014],[32.863981538213125,37.32236013179181],[32.863805519809034,37.32174145420481],[32.863154344997156,37.322533247011734],[32.86261686427696,37.323035241383366],[32.8616222537122,37.3237757820292],[32.861278770199135,37.32403152383614],[32.8611554993405,37.32411131364182],[32.86013506668337,37.32477181138313],[32.85970604929486,37.32504950243265],[32.858150238342944,37.3259618565545],[32.85809163583451,37.325993989960125],[32.857447333627704,37.32634727900421],[32.85714439996042,37.32647936472256],[32.85633179927322,37.32683367643301],[32.85588293504958,37.327000398150346],[32.855807473031405,37.32702986404638],[32.854998489588695,37.32734575040615],[32.85414140637897,37.32775560691147],[32.854127953042735,37.32776204028602],[32.8529397236141,37.32833850156459],[32.85282015532607,37.328396509291565],[32.8517378321323,37.32915954677435],[32.851210510956435,37.32953130802349],[32.850908791621066,37.32972588720577],[32.850613838657864,37.329916102746154],[32.84988625474705,37.330223042259775],[32.848791149392184,37.33077392108004],[32.84860539084178,37.33087170011663],[32.84811734943628,37.331128593909625],[32.847924063694734,37.331229430133476],[32.84742649743504,37.331489008011374],[32.847045303330844,37.33170400094775],[32.84626794131253,37.33214243202815],[32.84559018314934,37.33248983244164],[32.8441490360492,37.33322852527641],[32.84410219840237,37.333293412304954],[32.844082594540396,37.33332057072198],[32.844065391005074,37.33334440382117],[32.84388853153632,37.33363679921405],[32.84385802892507,37.333687228083136],[32.842904952711024,37.334402700758005],[32.84279228373697,37.33448728116309],[32.84278048402251,37.334499623097315],[32.842320878905525,37.334980347964745],[32.84156098415218,37.335784040601084],[32.8412711768828,37.33603439639103],[32.84096649138979,37.33629760503101],[32.84088475872471,37.33636821142392],[32.840241801917784,37.33679930414473],[32.83946405831972,37.33726634996236],[32.83830669469825,37.33781127886755],[32.83767433460292,37.33802112037847],[32.83694695483814,37.338431530490766],[32.83574035963005,37.33899592342317],[32.83404745422666,37.339757441452775],[32.831983473258845,37.340544093734934],[32.831620475404804,37.34063622388271],[32.831263467035456,37.340671944055316],[32.83107172797793,37.34069654411064],[32.83082030181555,37.34076864365812],[32.83049508987659,37.34086415885406],[32.829833682578396,37.340847436859804],[32.82975714127923,37.34085462693963],[32.82953260304731,37.3408917950203],[32.82949551950276,37.340905980926436],[32.82946290828659,37.34091828005455],[32.82930443425238,37.341011238477904],[32.82873698362488,37.34135261483141],[32.8282800407913,37.34160934339661],[32.827717631763335,37.341858887278136],[32.826315570707095,37.34259485197106],[32.82444941990485,37.34307623657918],[32.822826363945694,37.3431851165999],[32.822488579484514,37.34323426814706],[32.822367328389646,37.34324994782702],[32.821433426511476,37.34341941337527],[32.82099381811025,37.34353491690308],[32.81918887067002,37.34428749117478],[32.81755457588309,37.34494846499979],[32.816382642345104,37.345437459671075],[32.81509561087387,37.34596808036281],[32.81409419149389,37.34631303242065],[32.81359375654671,37.34639209362035],[32.813232948541724,37.346143685582774],[32.81316761099657,37.34609789030549],[32.81505225006134,37.34455443424014],[32.8196359632293,37.34096984628144],[32.8195455462901,37.340939877273684],[32.81899201177197,37.34074049038162],[32.818425578277925,37.340525309595535],[32.81727700552955,37.34031778833531],[32.8169057447044,37.34020212742632],[32.816697984224675,37.34003760095459],[32.81638802928421,37.33971132511766],[32.815845765969414,37.339211471132614],[32.81579689141347,37.339135601627106],[32.815648669650386,37.338990092219206],[32.8154685885047,37.33885363538724],[32.81506873733241,37.33859444717643],[32.814049468208566,37.33832815701885],[32.8139188893453,37.33876856311872],[32.81214981586129,37.33836742231921],[32.81125350924219,37.33814879802861],[32.80955815768294,37.33772502399074],[32.809274861345955,37.33762155698935],[32.80952738827847,37.33708140618211],[32.808724728963114,37.33687237675878],[32.80855508984564,37.33684650776047],[32.80789092522616,37.3366854616649],[32.807720009970524,37.336649495078575],[32.80749979118258,37.33660010970743],[32.80707665386467,37.33647063431255],[32.80680212411892,37.336364291279324],[32.80668509983764,37.336295426592926],[32.80606865504444,37.335970784823985],[32.80552163791333,37.33569077550891],[32.80492374433544,37.335431317501445],[32.80427729546096,37.33523143778103],[32.803921823133805,37.33607728433935],[32.803820505511965,37.336305758004414],[32.80372359726624,37.33659209854659],[32.80370333104395,37.33672481599751],[32.80234051100581,37.336679106155884],[32.80296949864362,37.334943665517756],[32.8026894475459,37.33488086467821],[32.80180862586758,37.33468334236255],[32.801592913582226,37.33511809442467],[32.79967988381969,37.3346498336233],[32.799342584626686,37.33495727535262],[32.79901361568585,37.33525712421692],[32.7987627383481,37.33509019067901],[32.79856618947815,37.334959407251006],[32.7981271756463,37.334581740517024],[32.79790951026882,37.33439449135494],[32.797708683209294,37.334221727550755],[32.797514644589626,37.33402136140148],[32.796861453788836,37.333346870281844],[32.796851684158014,37.333336782066965],[32.79932279631009,37.331817831627745],[32.79931100291486,37.33180837505512],[32.79880570142211,37.33140319739982],[32.79853933381128,37.3310206080277],[32.79847419872533,37.33092705314101],[32.79809813641998,37.330094575904184],[32.79788728047373,37.329617553906985],[32.797339956673795,37.328718179700275],[32.79687174893223,37.32789320011142],[32.79669702324907,37.32755376629348],[32.796600310156236,37.327555132363614],[32.79634223401621,37.32702727588486],[32.796341489768,37.327025753636065],[32.79628289706699,37.32703994332388],[32.79543952371523,37.32724418726957],[32.79472749447842,37.32726962998947],[32.79438201361921,37.32719089254607],[32.79375143508082,37.327009638684046],[32.792956325649754,37.326921854404645],[32.792876389334026,37.32691302901321],[32.79280677373487,37.326908849890174],[32.792322756789986,37.32687979366767],[32.79149075979086,37.32680145462348],[32.79143010321684,37.326689414385385],[32.791851776438364,37.3255996671914],[32.79323473499511,37.323384972438646],[32.793453992407876,37.32274818408149],[32.793537007027396,37.322274912257626],[32.79368936207453,37.32111988777268],[32.793780974212666,37.32032606159845],[32.79411375214801,37.31853390881281],[32.79425784242568,37.31828758270575],[32.79534886575766,37.31829154871639],[32.796399662414615,37.316889781738155],[32.79660230321832,37.31669544963842],[32.79662695976657,37.31667180406083],[32.79699346429675,37.31618393130458],[32.797695634046306,37.315249237562455],[32.79784043784656,37.315115491491554],[32.79803476029605,37.31493600819027],[32.798284347269885,37.31465871512847],[32.79840063404174,37.314529519623875],[32.79842725861113,37.314499939520886],[32.798653863485015,37.31404817678202],[32.79865631463065,37.314037097749576],[32.79866315322789,37.314006187694474],[32.798755315105836,37.31358962146385],[32.79879382227716,37.31307391063251],[32.79882624092056,37.312774594430266],[32.79884028664992,37.31264491243286],[32.79889928217625,37.31219286370981],[32.79895664813091,37.31179353414427],[32.799064074847365,37.31132570591677],[32.799184739584234,37.3109188238447],[32.79887121194247,37.31089862682842],[32.79825356804787,37.310858839064224],[32.797153215148796,37.31083397460827],[32.79602425060864,37.31078341618718],[32.796008453727325,37.3107827087552],[32.79611553086272,37.3104272848924],[32.79640245660812,37.309474884958206],[32.79653915805579,37.30878432433707],[32.79673174697268,37.30803807319904],[32.796871672489885,37.3077379316602],[32.797003512202366,37.307329898456544],[32.79700389531371,37.307187504299975],[32.79717229005098,37.306304322908716],[32.797291954460206,37.30567671790658],[32.7973345481019,37.305671270664845],[32.797599319353196,37.30563740943899],[32.79812706940879,37.30554872909062],[32.798754383408095,37.30546021511719],[32.79911580025407,37.305424329469304],[32.799539604868926,37.305371965543884],[32.79992595361995,37.305302954268086],[32.80017942034402,37.30527021714698],[32.800524232107705,37.30521438273803],[32.8007153272506,37.30519154265585],[32.80081506836075,37.30516016710817],[32.80098540894966,37.30513891522884],[32.801251307901566,37.305084566499545],[32.801872529893444,37.30497448678318],[32.802499969797736,37.304834582849765],[32.80262463022268,37.30480991714421],[32.80273266488069,37.304773597124154],[32.80285939374613,37.3047406432662],[32.80289338945943,37.30471760738544],[32.8029460664784,37.30468191283984],[32.803007326826844,37.304640402132975],[32.807200220713696,37.297313414982284],[32.80627219320729,37.29728738500495],[32.80580740738611,37.297303385742794],[32.805286137845144,37.29735840536614],[32.80441421364509,37.29747638023082],[32.8041723220951,37.29750535998454],[32.803880297837566,37.29752740776382],[32.80386521260954,37.29749638025379],[32.803722288752795,37.2963554481459],[32.803180724649735,37.29506738281435],[32.803121806925844,37.294927251891295],[32.80381414820437,37.29451869977828],[32.80449052741608,37.29409218280813],[32.80512925111418,37.293760950807325],[32.80561316665097,37.29351861245243],[32.80562037897732,37.29351500061716],[32.80564759428381,37.29349868687035],[32.80605762330646,37.29325290203667],[32.8060649444418,37.29324851350816],[32.80605067259302,37.29323214382481],[32.805819677736,37.292967194780374],[32.80559655143969,37.29250701798469],[32.80533430823192,37.291558754832806],[32.8052763487247,37.29101746638315],[32.80566001540319,37.2910539767887],[32.80582855764186,37.29107001556878],[32.806458736319826,37.29106331855411],[32.80696760746929,37.29105791069435],[32.806958083648624,37.289943244185565],[32.807671601263394,37.28996098960812],[32.807696020555056,37.290272136150236],[32.80907089870311,37.290260033973425],[32.80918752548405,37.28913331475076],[32.810528742907195,37.289513629950534],[32.81127299712443,37.28983125024894],[32.81140101514478,37.289885883626766],[32.811403613495486,37.289871806930364],[32.811626692817754,37.288663263399314],[32.81177722763704,37.28865935764327],[32.811765035528026,37.28832561023876],[32.81164906795027,37.28801026206418],[32.8115411484053,37.28760173962877],[32.81155655077163,37.287516320823556],[32.811560205039484,37.28749605489918],[32.81142086779994,37.287371592320596],[32.811358964644626,37.28731629750956],[32.811909836270104,37.287187305949544],[32.81221615974795,37.28712146208585],[32.812556227588004,37.28706603417044],[32.81288590106351,37.28700013544841],[32.813109050742185,37.28697354069658],[32.81338418303369,37.28695531953247],[32.81356503209139,37.28694296373624],[32.81359176634709,37.28694113722378],[32.813713768375806,37.28692474618026],[32.81379756245042,37.286906630867634],[32.814142117264964,37.28683214208979],[32.814148488961564,37.28632214195363],[32.81413919087112,37.28484607928317],[32.81341000976431,37.28486151344856],[32.81348308057983,37.285332886803474],[32.81291715880002,37.28538525612498],[32.812995441186786,37.285779851659186],[32.812784623011964,37.285786727875404],[32.8122205727214,37.2858333289451],[32.812173358199516,37.28584003581125],[32.81187987715475,37.2858817250617],[32.81169962513769,37.285904510285036],[32.810927478144606,37.28606610275631],[32.810798269724444,37.2860931430842],[32.81053689526158,37.28615319711258],[32.81033030929632,37.28621550214376],[32.8100397770142,37.2858105608089],[32.81024314340635,37.28577060123263],[32.810452724113986,37.2857378623126],[32.810760865122006,37.28565030431815],[32.8105254441939,37.284413969429465],[32.809859924296234,37.284566202168946],[32.80970543335923,37.2842975647809],[32.80951295146161,37.28382239268933],[32.80936593029355,37.283506902422005],[32.80929273447225,37.28324335249914],[32.80922658753701,37.283061827041706],[32.80917503120287,37.282775240085414],[32.81297209802102,37.28212965310371],[32.81305632888666,37.28211533195713],[32.81270930748855,37.279882323410675],[32.81234728899625,37.279950334640205],[32.81218599622099,37.2791336716038],[32.8121772487811,37.279089381269955],[32.81288339547933,37.27895471185758],[32.812969312284054,37.27893832664245],[32.812828275204765,37.277970353049795],[32.812332301794356,37.27804536100484],[32.812219269603645,37.277527329922634],[32.812038275646046,37.277557324111456],[32.81206858544692,37.27635939316269],[32.812070255538,37.27629338633125],[32.81310924229774,37.27633234316312],[32.8146532676343,37.27627438995148],[32.81578475416171,37.27610126547427],[32.81581769236817,37.27609622572356],[32.81586170000003,37.277578700000106],[32.81543250000004,37.28323000000012],[32.82046439999999,37.28327270000028],[32.82048580000003,37.28269220000021],[32.82327530000009,37.28264950000005],[32.82328600000005,37.28233370000004],[32.825131400000146,37.282273900000064],[32.82519580000019,37.28175320000014],[32.82997010000014,37.281710499999974],[32.830034500000124,37.28114710000011],[32.83159020000005,37.281215400000235],[32.831547200000045,37.2816593],[32.83309220000018,37.28174470000033],[32.83308150000016,37.282410500000026],[32.83451910000008,37.28247030000068],[32.8344762000001,37.28275200000019],[32.83515210000007,37.28275200000019],[32.83564570000004,37.28011420000007],[32.838499500000125,37.28024220000003],[32.84060240000019,37.28012270000005],[32.840623800000174,37.27961900000031],[32.841396300000156,37.27943120000003],[32.84162160000017,37.27889340000013],[32.8421795000001,37.27879949999999],[32.84135340000017,37.27599080000016],[32.84079550000018,37.27507730000008],[32.84166450000015,37.27482120000053],[32.84340260000005,37.274633400000084],[32.84399270000006,37.27446260000016],[32.846664200000134,37.27441140000019],[32.84661050000011,37.27405280000005],[32.84738300000009,37.27396740000023],[32.8474581000001,37.274274800000114],[32.84780140000004,37.27405280000005],[32.84826280000004,37.2739418000001],[32.84857390000019,37.274744300000066],[32.84823060000002,37.274778500000195],[32.84855250000004,37.27603350000015],[32.84929270000015,37.275871300000006],[32.85003300000011,37.2775104000001],[32.85007590000015,37.277945800000055],[32.85029050000014,37.27800560000003],[32.850301300000126,37.279508100000044],[32.850494400000116,37.280797100000086],[32.850827000000095,37.28076300000009],[32.850891300000114,37.28190690000025],[32.849979400000166,37.281941000000074],[32.84985060000014,37.28293120000012],[32.84929270000015,37.282922700000086],[32.84929270000015,37.28355440000013],[32.84982920000016,37.28356290000016],[32.849743400000136,37.283895900000175],[32.85198570000006,37.28446780000007],[32.852683100000036,37.28531290000069],[32.85288689999999,37.285022600000104],[32.85458210000013,37.28369950000007],[32.8547966000001,37.28417760000019],[32.8554726000001,37.28405800000024],[32.85546180000006,37.28383610000003],[32.856663500000025,37.28370810000007],[32.856856600000185,37.285415300000636],[32.86104080000018,37.285193400000026],[32.86104080000018,37.28552630000058],[32.864205800000036,37.28554330000003],[32.864345300000025,37.28644820000011],[32.86440970000007,37.28780539999997],[32.864710100000025,37.28892360000066],[32.86605120000013,37.28884680000016],[32.86575080000017,37.28704570000053],[32.86713480000009,37.286943300000075],[32.86748890000007,37.28834310000059],[32.869108900000185,37.28801880000003],[32.869291299999986,37.28855650000048],[32.87157650000006,37.28818950000016],[32.87196280000006,37.28993080000015],[32.87410850000015,37.288940700000296],[32.87502050000012,37.28842850000001],[32.88121100000018,37.28563720000017],[32.881726000000185,37.285406800000146],[32.88254140000015,37.28706280000017],[32.882992000000115,37.28706280000017],[32.883507000000066,37.28826630000009],[32.885835199999974,37.289265000000114],[32.88617850000014,37.28961500000031],[32.886571490000165,37.28941866500014],[32.88670878100004,37.28945573800013],[32.88674253800008,37.28955539900062],[32.88890061500007,37.29113700900007],[32.883676874000116,37.29338834400005],[32.883613267999976,37.29348601500004],[32.88567842599997,37.29760629000003],[32.88856873900011,37.297856671000375],[32.8886734730001,37.29792737800045],[32.88756279500001,37.30345823800013],[32.890683642000056,37.30494540100017],[32.89057396100014,37.305045993000135],[32.888952630000176,37.30507006100004],[32.888845554,37.30513496600031],[32.88904525900011,37.308538134000514],[32.893051313000115,37.30842610900004],[32.893172881000055,37.30850166000016],[32.89310472000017,37.30861506600013],[32.89049792900005,37.309453034],[32.89042295000013,37.309555085],[32.893869624532044,37.31334568587448],[32.893630000000144,37.31339000000014],[32.893940000000214,37.31342000000035],[32.89352000000008,37.31435000000016],[32.89133000000004,37.31680000000006],[32.890530000000126,37.3178400000001],[32.88978000000009,37.31848000000048],[32.890010000000075,37.318760000000225],[32.89123000000012,37.319510000000435],[32.89161000000013,37.31998000000027],[32.89197000000007,37.31962000000033],[32.89224000000024,37.32027000000011],[32.89303000000024,37.32103000000029],[32.89320000000009,37.32164000000046],[32.893290000000036,37.3216700000001],[32.89339000000018,37.3215800000001],[32.893660000000125,37.32098000000042],[32.89414000000005,37.32137000000017],[32.89474000000013,37.32230000000038],[32.895990000000154,37.32374000000016],[32.896140000000116,37.324030000000675],[32.896200000000135,37.32426000000015],[32.896080000000154,37.32580000000007],[32.89612000000011,37.32624000000021],[32.8963100000002,37.32622000000015],[32.89643000000018,37.326940000000036],[32.89641000000012,37.32829000000004],[32.89596000000017,37.33017000000012],[32.895760000000166,37.33023000000014],[32.895360000000096,37.331400000000144],[32.894900000000234,37.33229000000006],[32.89479000000017,37.33278000000007],[32.894930000000045,37.333080000000564],[32.895120000000134,37.333230000000185],[32.89511000000016,37.333320000000526],[32.89538000000016,37.33364000000017],[32.89618000000007,37.33431000000019],[32.89542000000006,37.3347200000004],[32.89632000000012,37.335430000000315],[32.896940000000086,37.33560000000017],[32.897380000000055,37.33588000000009],[32.89550000000014,37.337570000000085],[32.89443000000006,37.33660000000049],[32.89374000000015,37.3371200000002],[32.89365000000015,37.337220000000116],[32.893970000000195,37.337510000000464],[32.892640000000085,37.338550000000396],[32.892910000000256,37.338810000000194],[32.89293000000009,37.33909000000045],[32.892420000000186,37.34022000000016],[32.890780000000234,37.339330000000416],[32.889270000000124,37.337630000000445],[32.888740000000155,37.337930000000426],[32.89046000000019,37.339730000000145],[32.890290000000164,37.33987000000036],[32.891120000000114,37.34133000000037],[32.89092000000005,37.34157000000033],[32.89092000000005,37.3417000000004],[32.89127000000008,37.342710000000125],[32.890850000000114,37.343020000000195],[32.89148000000006,37.34365000000008],[32.889360000000124,37.34419000000037],[32.889170000000036,37.34419000000037],[32.889040000000136,37.34408000000013],[32.88891000000018,37.343670000000145],[32.88850000000019,37.34377000000029],[32.88842000000017,37.344040000000064],[32.88720000000012,37.344320000000096],[32.88665000000009,37.34455000000031],[32.88677000000007,37.34493000000049],[32.88565000000011,37.34514000000013],[32.88448000000011,37.34551000000016]]],"type":"Polygon"}},{"type":"Feature","properties":{"area_id":"TR-70-005-2035252","name_tr":"Sinci Köyü","area_level":"neighbourhood","parent_id":"TR-70-005","endeksa_id":2035252},"geometry":{"coordinates":[[[32.93915406104651,37.4024950159893],[32.93874128378326,37.40237508434285],[32.938549100460705,37.40233821393741],[32.93854555326135,37.402344013744994],[32.9384423680209,37.40251272558203],[32.93832747693153,37.40263829522115],[32.9382268329021,37.40277369624914],[32.93822511115667,37.402772745456105],[32.93797379875184,37.40263396408642],[32.9377809148574,37.40254283938077],[32.93773357184699,37.4025573238614],[32.9377283343249,37.40256366710361],[32.937632191272655,37.40268010740118],[32.93762827472517,37.40268443134153],[32.93761390715622,37.40270722465914],[32.93757845767976,37.40276055805373],[32.93753872473252,37.40281064489545],[32.93747064155701,37.402890997521695],[32.93727310816752,37.4031232276551],[32.93721612532403,37.403187905097866],[32.93718673777187,37.403217446583426],[32.93704426308244,37.40336066756106],[32.93673348256431,37.40363906888797],[32.93631347128985,37.40395093578718],[32.93626346718531,37.404025890682476],[32.93623808292119,37.404182959976026],[32.93616538532427,37.40431846442567],[32.93547906410771,37.40486035632057],[32.9354489836569,37.404887492165585],[32.9351924213932,37.40511893928766],[32.93483749585391,37.40546445252295],[32.9342149932196,37.40544557419207],[32.93418838671323,37.40544476730969],[32.93406555558096,37.405441042270354],[32.93361191151928,37.40530519963136],[32.93315938069736,37.40516969034917],[32.9331100142158,37.40515490767291],[32.93282426317165,37.40500213158623],[32.932707224059186,37.40493955691511],[32.93130269886046,37.40463909162082],[32.931046067422244,37.40466940327036],[32.93056719433298,37.404930767075484],[32.93056541666073,37.40493173730988],[32.93008083855989,37.40500408956717],[32.930020256557555,37.40500042732299],[32.92990162944676,37.40499325619123],[32.92973154457525,37.40498297438489],[32.929307971086075,37.40488340684385],[32.928993331577146,37.404772186787],[32.928956464769215,37.40483813407286],[32.92895127102901,37.404837775699264],[32.92865077801116,37.40481704137335],[32.92864257134153,37.404812942774925],[32.928563514994266,37.404773460227204],[32.92845493277139,37.40463468613348],[32.92845444701527,37.40463406530989],[32.92845421158705,37.404634001008276],[32.927933923012176,37.404491895984336],[32.92793412317258,37.40449111008536],[32.92796497390452,37.40436997939145],[32.92794515249244,37.40436772920509],[32.92754992778703,37.40432286211052],[32.92729961967751,37.40426900065677],[32.926796358383,37.404160708580264],[32.92600505259128,37.40399043491061],[32.92540570375138,37.403809138589395],[32.925335985767276,37.40378804967884],[32.92435137095805,37.40334750575306],[32.924292539269345,37.40332118282646],[32.9240226534705,37.40308922772692],[32.923959362034964,37.40303483149239],[32.92372860589063,37.40300295951903],[32.923025653511274,37.40296852717586],[32.92292057312602,37.40295052364792],[32.92287310870711,37.40289858240408],[32.92221768999457,37.40285029780307],[32.92175899078495,37.40286089901167],[32.92159122855236,37.402821043756205],[32.92131612953591,37.40269468990812],[32.921168367326345,37.402597349988184],[32.9210434541921,37.40247992730718],[32.92076622198374,37.40208095117504],[32.92050716957027,37.4017627359616],[32.92036496696977,37.40160862094109],[32.92035143577033,37.40162952028646],[32.920328833109295,37.401681234901275],[32.920327823816706,37.40168365936154],[32.92028483737545,37.40178691873149],[32.92024631941223,37.401911170864025],[32.9201931640834,37.40204334422549],[32.9201373377681,37.40214676715971],[32.92011027896632,37.402183698718886],[32.92003874533469,37.40225277534029],[32.92002783271846,37.40226132819805],[32.91964908144007,37.40218113295293],[32.919499203125895,37.40214930774488],[32.919281119328275,37.402120229065304],[32.91901617095965,37.40209048758635],[32.91861753207348,37.40205236262648],[32.91794257558951,37.40198745765508],[32.91723598545252,37.40196785872979],[32.917207739023695,37.401971838128986],[32.91720607220253,37.4019720729529],[32.91767009899604,37.40296193874292],[32.91763673504727,37.402969395920934],[32.917629867129335,37.402969704732016],[32.916405304161515,37.403024766280225],[32.916405494347146,37.403029250273846],[32.91642355320448,37.403455022631306],[32.916419677791396,37.403455381674576],[32.9156908566477,37.40352290435874],[32.91569200073661,37.40352980814936],[32.91599108452101,37.40533457333197],[32.91597940298726,37.405336273815635],[32.91537993943274,37.4054235378664],[32.91501134869486,37.40549546024732],[32.915016484656064,37.40550838132242],[32.915033170744266,37.40555036026092],[32.91474786904416,37.40554756331284],[32.9147355823813,37.40554744286038],[32.91466305745422,37.40533100662083],[32.914582102282225,37.404991008028844],[32.91448339179516,37.40477905940628],[32.913507459201924,37.404957150352175],[32.91326728985371,37.40500717244322],[32.913186421369005,37.40489806969697],[32.91306029829417,37.40472791226358],[32.91296715235467,37.404534709616314],[32.91291538693571,37.40442733815149],[32.91290182489763,37.40439421942631],[32.912876735872715,37.404332951604545],[32.91283774576539,37.40412942693189],[32.91276358651885,37.40362008450484],[32.91275982130884,37.40359422419448],[32.91258852539056,37.40360913178483],[32.911790532906934,37.40367857970318],[32.91123180625516,37.403681383099126],[32.91107178843231,37.40368218598417],[32.91035385225126,37.4036378302967],[32.910327479829505,37.403636200950416],[32.91030339974367,37.40363415494846],[32.909564374496426,37.40357136252851],[32.90979780612389,37.40276864295856],[32.90980014477441,37.40269946916192],[32.90980416337783,37.40258060486519],[32.909804953935634,37.40255722133878],[32.90962660398469,37.402495351579375],[32.90972134936084,37.40203868483741],[32.90977304916686,37.401771483186565],[32.90977920530611,37.40173966622882],[32.9097794770413,37.40173826181143],[32.91006093246614,37.401749832488974],[32.909902780389075,37.400307576233786],[32.909810920037955,37.3993717677929],[32.90973956333016,37.39835540527787],[32.90941963760622,37.39834731947332],[32.909220274096526,37.398335810849176],[32.908971547698854,37.39831236822124],[32.90858089029604,37.39824312312163],[32.90836223273095,37.39869716923914],[32.90858213495767,37.39875132281571],[32.908481636001284,37.39900017199841],[32.90832514828713,37.39938765701493],[32.90832152548728,37.399386320884446],[32.90816916177755,37.399330127383564],[32.907960249266125,37.39927859533094],[32.907399020148716,37.399115396258594],[32.90728928936937,37.39909836669631],[32.90728016389585,37.39912004254995],[32.90719295039435,37.39932720188938],[32.907064716063815,37.3995814258422],[32.90692734462124,37.39976534709359],[32.90671944114939,37.399951375455714],[32.90671844104577,37.39995079158729],[32.90632850945332,37.39972314640619],[32.905568285547986,37.39940098496754],[32.90521070431066,37.39925488110805],[32.903750529063814,37.39870855015971],[32.9037412919418,37.39872049250869],[32.90363648963239,37.39885598771377],[32.903627315417395,37.39885146534749],[32.9035260627777,37.39880155354905],[32.90333176908797,37.398711989532046],[32.903226800776395,37.39866360204371],[32.90339466168484,37.39834779897575],[32.90344926247366,37.398245076449086],[32.9034513191703,37.398221607303526],[32.90345538754633,37.3981751827078],[32.90345644895598,37.3981630708692],[32.90297761572441,37.39798495743992],[32.902560113932,37.39787850261189],[32.90254714263665,37.3978751951841],[32.90257003965252,37.39774805028611],[32.90257482646717,37.39772146957017],[32.90260690168719,37.39734145024789],[32.90261133946194,37.397205252789036],[32.90261825382953,37.396993047491435],[32.902647042926844,37.39684815411914],[32.90270912716187,37.39669888036718],[32.90271928456741,37.396674458159794],[32.90280383792697,37.396417409436026],[32.902828655885855,37.3963044355782],[32.902829890017586,37.396298817685874],[32.902847603434225,37.39621818442208],[32.90282451603878,37.39598835457929],[32.90279324733473,37.39590490884734],[32.90278208692382,37.39587512543676],[32.90280914932288,37.39562361653702],[32.9028401840273,37.39547088557299],[32.90282883188513,37.39546024119727],[32.90281718587278,37.395455935368545],[32.90270619493492,37.395414899178604],[32.9024607978277,37.395347194617386],[32.90211936635097,37.39527010299594],[32.90206860258411,37.39525864107384],[32.90164150465182,37.39514545240081],[32.90144248324657,37.395089846082556],[32.90124421744673,37.39503445087928],[32.90086186495449,37.39490671036543],[32.90085804226493,37.39490543323933],[32.90044499264235,37.39473908024445],[32.90011239797019,37.39458001962839],[32.8998984773329,37.394477713875915],[32.89989198594395,37.39448394259125],[32.8997202613707,37.39464871835315],[32.89941219951345,37.39494431452863],[32.89925362025849,37.39523446280026],[32.8990444883126,37.39549798214631],[32.89879481924919,37.39583231011875],[32.898505681991765,37.39621948933808],[32.89817454082254,37.39665837018782],[32.89780370088016,37.39710172156725],[32.89741323683148,37.397517206554255],[32.89694201546183,37.397984981721834],[32.89689601334044,37.3980367619871],[32.89668673300639,37.39832803351203],[32.896594145103904,37.39844916769505],[32.89632520554386,37.39876255714631],[32.89619087830653,37.39888320209849],[32.89599211914111,37.399041101466025],[32.89579975415546,37.39922369981406],[32.89578234687792,37.39921296011016],[32.88909191859295,37.39327609832753],[32.88127164896747,37.38633665321407],[32.8812520194291,37.38633064814047],[32.873708321802724,37.38402287816962],[32.87183031403225,37.383448357536565],[32.87181615539123,37.38344402612097],[32.87179370111852,37.38345225042116],[32.874240277966635,37.370665998936886],[32.87424417113169,37.37062121179952],[32.87445788602264,37.369463454275035],[32.87467012962276,37.36829028237065],[32.87520395549819,37.367500021109436],[32.87573656549023,37.366706061835316],[32.876320797466974,37.36583068244022],[32.87669059190631,37.36527712766838],[32.87691490939568,37.36494134107039],[32.87749827532531,37.36406577461588],[32.878079206790005,37.36319029269799],[32.878650975062556,37.362329668479845],[32.87923094605145,37.36145571181174],[32.87983211406089,37.36053680163218],[32.88043456810095,37.359619422098774],[32.88107350403908,37.35864665152212],[32.881721755154956,37.357661088088946],[32.881760893689375,37.357601532478725],[32.88486000000012,37.35291000000012],[32.88772000000017,37.34948000000037],[32.887990000000116,37.349000000000444],[32.88448000000011,37.34551000000016],[32.88565000000011,37.34514000000013],[32.88677000000007,37.34493000000049],[32.88665000000009,37.34455000000031],[32.88720000000012,37.344320000000096],[32.88842000000017,37.344040000000064],[32.88850000000019,37.34377000000029],[32.88891000000018,37.343670000000145],[32.889040000000136,37.34408000000013],[32.889170000000036,37.34419000000037],[32.889360000000124,37.34419000000037],[32.89148000000006,37.34365000000008],[32.890850000000114,37.343020000000195],[32.89127000000008,37.342710000000125],[32.89092000000005,37.3417000000004],[32.89092000000005,37.34157000000033],[32.891120000000114,37.34133000000037],[32.890290000000164,37.33987000000036],[32.89046000000019,37.339730000000145],[32.888740000000155,37.337930000000426],[32.889270000000124,37.337630000000445],[32.890780000000234,37.339330000000416],[32.892420000000186,37.34022000000016],[32.89293000000009,37.33909000000045],[32.892910000000256,37.338810000000194],[32.892640000000085,37.338550000000396],[32.893970000000195,37.337510000000464],[32.89365000000015,37.337220000000116],[32.89374000000015,37.3371200000002],[32.89443000000006,37.33660000000049],[32.89550000000014,37.337570000000085],[32.897380000000055,37.33588000000009],[32.896940000000086,37.33560000000017],[32.89632000000012,37.335430000000315],[32.89542000000006,37.3347200000004],[32.89618000000007,37.33431000000019],[32.89538000000016,37.33364000000017],[32.89511000000016,37.333320000000526],[32.895120000000134,37.333230000000185],[32.894930000000045,37.333080000000564],[32.89479000000017,37.33278000000007],[32.894900000000234,37.33229000000006],[32.895360000000096,37.331400000000144],[32.895760000000166,37.33023000000014],[32.89596000000017,37.33017000000012],[32.89641000000012,37.32829000000004],[32.89643000000018,37.326940000000036],[32.8963100000002,37.32622000000015],[32.89612000000011,37.32624000000021],[32.896080000000154,37.32580000000007],[32.896200000000135,37.32426000000015],[32.896140000000116,37.324030000000675],[32.895990000000154,37.32374000000016],[32.89474000000013,37.32230000000038],[32.89414000000005,37.32137000000017],[32.893660000000125,37.32098000000042],[32.89339000000018,37.3215800000001],[32.893290000000036,37.3216700000001],[32.89320000000009,37.32164000000046],[32.89303000000024,37.32103000000029],[32.89224000000024,37.32027000000011],[32.89197000000007,37.31962000000033],[32.89161000000013,37.31998000000027],[32.89123000000012,37.319510000000435],[32.890010000000075,37.318760000000225],[32.88978000000009,37.31848000000048],[32.890530000000126,37.3178400000001],[32.89133000000004,37.31680000000006],[32.89352000000008,37.31435000000016],[32.893940000000214,37.31342000000035],[32.893630000000144,37.31339000000014],[32.893869624532044,37.31334568587448],[32.902390000000196,37.31177000000025],[32.90982000000014,37.3083000000002],[32.927050000000065,37.305380000000184],[32.96052000000003,37.304980000000455],[32.96402000000006,37.30342000000019],[32.98673322085352,37.34529906229517],[32.98526000000015,37.34569000000016],[32.980980000000045,37.34369000000021],[32.977550000000065,37.34334000000041],[32.97431000000006,37.34422000000018],[32.97234195009179,37.34569050213787],[32.9724920000001,37.34565650000002],[32.970890000000054,37.346480000000156],[32.96935000000019,37.34718000000049],[32.96634000000017,37.34818000000013],[32.96427000000017,37.34907000000055],[32.96130000000011,37.34976000000012],[32.95912000000021,37.3498800000001],[32.958550000000116,37.35019000000017],[32.95866000000012,37.35136000000034],[32.95813000000015,37.353740000000414],[32.95764000000014,37.35368000000028],[32.95765000000006,37.353520000000685],[32.95717000000013,37.35337000000038],[32.95682000000011,37.3533300000006],[32.9564000000002,37.35350000000045],[32.9553200000002,37.35338000000047],[32.955060000000174,37.35369000000054],[32.95534000000009,37.35536000000019],[32.9555400000001,37.35605000000004],[32.95560000000006,37.35698000000008],[32.95483000000013,37.35730000000012],[32.954430000000116,37.35771000000011],[32.953880000000254,37.35808000000014],[32.95344000000006,37.358790000000454],[32.95386000000019,37.35899000000012],[32.954030000000046,37.35964000000007],[32.952890000000195,37.36019000000033],[32.95243000000016,37.360610000000406],[32.95223000000016,37.361050000000034],[32.95209000000011,37.36108000000024],[32.951620000000105,37.36205000000018],[32.95279000000011,37.36568000000068],[32.95235000000014,37.367490000000146],[32.953200000000095,37.36936000000037],[32.954560000000185,37.371890000000064],[32.95470000000006,37.37422000000032],[32.95488000000017,37.37423000000041],[32.95494000000019,37.375320000000386],[32.95517000000024,37.37631000000056],[32.95586000000009,37.37620000000015],[32.956010000000106,37.37679000000048],[32.95652000000018,37.37800000000027],[32.955700000000206,37.37863000000016],[32.95492000000013,37.37905000000006],[32.95535000000018,37.3798900000001],[32.953820000000064,37.38005000000021],[32.95380000000017,37.38120000000015],[32.95334000000014,37.38324000000017],[32.953040000000215,37.38317000000029],[32.95266000000021,37.38415000000015],[32.95187000000021,37.38392000000067],[32.95114000000018,37.385450000000105],[32.95302000000015,37.38618000000008],[32.952150000000074,37.387560000000576],[32.95126000000016,37.387250000000506],[32.949790000000064,37.38934000000006],[32.94767000000013,37.391860000000406],[32.945210000000145,37.394590000000335],[32.942850000000135,37.39701000000019],[32.94217000000015,37.39820000000003],[32.94066000000009,37.4001200000003],[32.941060000000164,37.40032000000048],[32.940220000000124,37.4009800000004],[32.93959000000024,37.40196000000009],[32.93915406104651,37.4024950159893]]],"type":"Polygon"}}]}