{"type":"FeatureCollection","source_id":"endeksa","retrieved_at":null,"features":[{"type":"Feature","properties":{"area_id":"TR-77-002-2036709","name_tr":"Kapaklı Köyü","area_level":"neighbourhood","parent_id":"TR-77-002","endeksa_id":2036709},"geometry":{"coordinates":[[[28.988143852000064,40.489698747000034],[28.986548764000077,40.49075005499998],[28.984832016000155,40.49103131000044],[28.981651745000192,40.491145861000234],[28.977238966000186,40.49061674700033],[28.97513193600014,40.48978236700003],[28.974706297000182,40.489271773999974],[28.972559493000176,40.48773795800008],[28.969124246000092,40.48698964300007],[28.962425903000167,40.486773009000444],[28.960854431000143,40.48630492600017],[28.960289151000097,40.486354824000216],[28.95742299599999,40.48781789900039],[28.95537672400019,40.488231726000436],[28.951767562000157,40.490483473000495],[28.947596759000135,40.49008186000003],[28.94554716099998,40.48953605000003],[28.944422505000034,40.489404559000036],[28.943207234000113,40.48908701700009],[28.943086001000097,40.48860333900018],[28.941714380000064,40.48708536600009],[28.94032907000019,40.48611930400011],[28.939234141999975,40.485920238000176],[28.93723972900011,40.485138363000374],[28.936751390000097,40.48486802000048],[28.93605535200004,40.484040212000195],[28.93514865400016,40.480761935000146],[28.934156899000072,40.478926155000124],[28.93511346800011,40.47825286100016],[28.934350806000054,40.47727265100042],[28.9303482790001,40.47510597300038],[28.924677036000105,40.47261369200049],[28.924025483000094,40.47214192800004],[28.92318678300012,40.46858640100061],[28.922520856000006,40.4674006140001],[28.921553790000132,40.466540322000185],[28.92148093100002,40.46634409300003],[28.924821824000162,40.465690493000125],[28.9299154360001,40.46548349500006],[28.931091596000044,40.46486964800016],[28.93143246400018,40.46430655000006],[28.932156745000157,40.46385101800007],[28.936719968000148,40.46325332300006],[28.940224811000178,40.46337800599997],[28.94260307000019,40.46292884500002],[28.94426965200006,40.463251754000055],[28.945678830000134,40.463099200000045],[28.946644821000064,40.46379678400035],[28.94850344800011,40.46384845300008],[28.95084436500008,40.46348695000012],[28.951976564000063,40.46293882500015],[28.953873463000036,40.46298789000002],[28.955536051000138,40.46252466800007],[28.958486098000037,40.46267806100025],[28.962206132000176,40.46181772600005],[28.965708603000166,40.46157145900003],[28.966173835999996,40.46118908600005],[28.966629718000092,40.46140537600019],[28.966919224000037,40.46086561400011],[28.969638868000175,40.46054391000018],[28.970086244000072,40.460337365000555],[28.971664249000185,40.45891980800042],[28.972729027000184,40.457313301000454],[28.973910305000004,40.45651914300015],[28.975488810000172,40.45626250700019],[28.976557756000147,40.45656813100044],[28.97725978800014,40.45652902400013],[28.977286502000027,40.4571190420001],[28.977874454000187,40.458214624000334],[28.979466977000072,40.45946231200003],[28.97976265200009,40.459920004000026],[28.980275314000096,40.46259173500039],[28.98063146800007,40.46315409800013],[28.982319508000103,40.46414627000013],[28.985051038000165,40.46415845800061],[28.986584543000106,40.464480349000155],[28.988541021000174,40.46448103500006],[28.98923532100008,40.46584394500036],[28.990464542000097,40.46660225400012],[28.991325035000102,40.466808758000184],[28.99344185000001,40.46680877199998],[28.99446090800018,40.46650638800037],[28.995933217000186,40.468166972999995],[28.99855305000017,40.4683692090004],[29.00045010000008,40.46814643700009],[29.00092404300017,40.46847068100027],[29.001660261000154,40.46958835400011],[29.002684342000066,40.47016494900015],[29.004474231000074,40.47037143299997],[29.006387465000103,40.469727185000124],[29.006975081000064,40.469798039000125],[29.00735741300008,40.47038645099997],[29.008587709000096,40.470790263000026],[29.01047747500013,40.47006167200004],[29.010549738000122,40.46996867300004],[29.010875521000173,40.469958436000354],[29.010912770000175,40.470063656000036],[29.010017901000083,40.47408087200006],[29.009472798000047,40.47506345700009],[29.005490777000148,40.47761031400006],[29.003052655000033,40.47813037300051],[28.999119411000038,40.47938577400038],[28.995947750000084,40.480621758000325],[28.994288104000077,40.4817250020003],[28.99365892000003,40.482251486000166],[28.990914962000033,40.486512439000194],[28.98902249300005,40.48857584700022],[28.98844623300016,40.48896819700053],[28.988143852000064,40.489698747000034]]],"type":"Polygon"}},{"type":"Feature","properties":{"area_id":"TR-77-002-2036707","name_tr":"Fıstıklı Köyü","area_level":"neighbourhood","parent_id":"TR-77-002","endeksa_id":2036707},"geometry":{"coordinates":[[[28.943830267000067,40.5094127910005],[28.94299783700012,40.50987671700034],[28.942563050000103,40.510507672000585],[28.941601044000095,40.51111509500015],[28.93532391800011,40.51367905300003],[28.934511357000133,40.51492682900039],[28.934110711000187,40.515228586000035],[28.93298174900019,40.51560095300039],[28.932451654000147,40.51545629300017],[28.93199162100018,40.5149923430003],[28.93113904700016,40.51477338900048],[28.930195080000146,40.51511203700011],[28.92953869100006,40.515485583999975],[28.927778169000078,40.516988314000514],[28.925084996000066,40.51841256200004],[28.922767294000153,40.51932275700017],[28.921995978000098,40.51937705099999],[28.91981850400009,40.51836622800016],[28.912928658000055,40.51841127200015],[28.911953541000116,40.51774240200001],[28.90984390600005,40.5175383670001],[28.90756485200012,40.51766356899998],[28.90607649300017,40.51703868600009],[28.90354954100019,40.51637251700009],[28.9022821210001,40.516367158000094],[28.90198191400009,40.51591050999997],[28.901145814000188,40.51545977799998],[28.899050483000053,40.51496824500026],[28.89823403700001,40.51410386500015],[28.898097667000116,40.51322274600017],[28.898382309000056,40.51257835900009],[28.898414102000118,40.51172429200017],[28.896936030000177,40.51152896799999],[28.89443001800015,40.51051749400051],[28.893113860000142,40.510188681000216],[28.892641854000146,40.50949842700015],[28.890368154000157,40.50945568200041],[28.885411214000158,40.51046277000006],[28.882791040000086,40.51048672200045],[28.880112640000164,40.510990916000424],[28.876774095000087,40.50967393800016],[28.875341391000177,40.508504012000174],[28.874939338000047,40.50839167000015],[28.874912907000066,40.508275937000406],[28.875209138000173,40.50781317800022],[28.87532374100016,40.50630651500035],[28.87586271200007,40.505205754000485],[28.87591092300005,40.50387112700014],[28.87554013600004,40.50317920900005],[28.873658232000082,40.501571934000026],[28.87182985700008,40.50084678700051],[28.869867921000093,40.50095125700045],[28.868913291000183,40.500791777000074],[28.868296837000116,40.50047962400009],[28.867859652000107,40.49993946300003],[28.86736949400006,40.498045404000095],[28.867458807000105,40.49719248000008],[28.8685966110001,40.49642037400014],[28.86892657100003,40.495359454000436],[28.868918733999976,40.49523091100019],[28.868299590000106,40.495105133000266],[28.868221365000124,40.494922623000264],[28.86959496800017,40.49335472400014],[28.87136729499997,40.49285432100055],[28.87358183900011,40.49130609500003],[28.87498400999999,40.489813158000004],[28.87569673900009,40.488743113000055],[28.87679345800018,40.48778998300003],[28.87722277100005,40.48759474500008],[28.878014822000125,40.48768584600003],[28.87808965900001,40.48665819300004],[28.87862106800003,40.48553976100004],[28.878953511000077,40.4850349620001],[28.879796624000107,40.484587892000036],[28.881689259000154,40.48208354400015],[28.88215986100016,40.480451324000114],[28.882308607000027,40.48045381200046],[28.882692544000122,40.4807451850005],[28.883267148000073,40.480879682000705],[28.884311455000045,40.48015528900004],[28.885407435000104,40.47984546400022],[28.885458810000046,40.47932700300004],[28.885816246000104,40.47886048900017],[28.888768780000134,40.478134619000684],[28.892851499000187,40.47674336900013],[28.89494030100019,40.47705248200009],[28.897396909000065,40.475373570000045],[28.898429576000126,40.47501249000004],[28.900171251000074,40.472732450000194],[28.90251530300003,40.47260891900004],[28.904866946000027,40.47206417000018],[28.906420075000028,40.472064547000116],[28.907020495000154,40.47230986100067],[28.909090040000024,40.47240237800008],[28.910520001000123,40.4716975770001],[28.91195397700011,40.47139494300046],[28.912665466000135,40.47078645100021],[28.915019271000062,40.470603784000104],[28.917204692000155,40.46879962400004],[28.91886589500001,40.46863314200016],[28.91948897599997,40.46838532500067],[28.920907673000045,40.46730068500045],[28.92135278400019,40.46650344000011],[28.921553790000132,40.466540322000185],[28.922520856000006,40.4674006140001],[28.92318678300012,40.46858640100061],[28.924025483000094,40.47214192800004],[28.924677036000105,40.47261369200049],[28.9303482790001,40.47510597300038],[28.934350806000054,40.47727265100042],[28.93511346800011,40.47825286100016],[28.934156899000072,40.478926155000124],[28.93514865400016,40.480761935000146],[28.93605535200004,40.484040212000195],[28.936751390000097,40.48486802000048],[28.93723972900011,40.485138363000374],[28.939234141999975,40.485920238000176],[28.94032907000019,40.48611930400011],[28.941714380000064,40.48708536600009],[28.943086001000097,40.48860333900018],[28.943207234000113,40.48908701700009],[28.94316518500011,40.48923576200019],[28.94089200800005,40.49036384600009],[28.93896473600006,40.49099517900038],[28.938114337000172,40.49400323900022],[28.938056526000082,40.49691344800004],[28.938521069000046,40.49981305000051],[28.938631812000096,40.50481611700013],[28.93900238100008,40.50553913100009],[28.93958495300018,40.506234205000226],[28.943842372000063,40.509260163000306],[28.943830267000067,40.5094127910005]]],"type":"Polygon"}},{"type":"Feature","properties":{"area_id":"TR-77-002-2036708","name_tr":"Hayriye Köyü","area_level":"neighbourhood","parent_id":"TR-77-002","endeksa_id":2036708},"geometry":{"coordinates":[[[28.993127419000018,40.49405036200011],[28.99265032800008,40.49559138100017],[28.992240248000087,40.49623215500026],[28.990000693000127,40.49824112700003],[28.988012237000135,40.49905697100007],[28.98786507200009,40.50323015400045],[28.98722435800005,40.50471550500015],[28.986332667000056,40.505369146000135],[28.985113693000073,40.505887395000116],[28.98012337700004,40.50695752500002],[28.978596520000053,40.508901513000296],[28.977721388000134,40.50954898100008],[28.97691905300013,40.510627379000084],[28.971923523000157,40.5144882940001],[28.970243622000112,40.516480343000126],[28.96985300200015,40.5175509360007],[28.966787314000157,40.5202588340004],[28.96586093400009,40.521533702],[28.965865320999967,40.521632126000156],[28.96524019500015,40.52145472100017],[28.964333615999976,40.520865335000224],[28.963652386000092,40.51996761200064],[28.96015566000017,40.518156229000056],[28.959900711000103,40.512562421000155],[28.95878425900014,40.5122076520002],[28.954049985000097,40.51189175100012],[28.9516661240001,40.51100698199997],[28.94879795200012,40.51025442700018],[28.944014133000167,40.50935275500018],[28.943830267000067,40.5094127910005],[28.943842372000063,40.509260163000306],[28.93958495300018,40.506234205000226],[28.93900238100008,40.50553913100009],[28.938631812000096,40.50481611700013],[28.938521069000046,40.49981305000051],[28.938056526000082,40.49691344800004],[28.938114337000172,40.49400323900022],[28.93896473600006,40.49099517900038],[28.94089200800005,40.49036384600009],[28.94316518500011,40.48923576200019],[28.943207234000113,40.48908701700009],[28.944422505000034,40.489404559000036],[28.94554716099998,40.48953605000003],[28.947596759000135,40.49008186000003],[28.951767562000157,40.490483473000495],[28.95537672400019,40.488231726000436],[28.95742299599999,40.48781789900039],[28.960289151000097,40.486354824000216],[28.960854431000143,40.48630492600017],[28.962425903000167,40.486773009000444],[28.969124246000092,40.48698964300007],[28.972559493000176,40.48773795800008],[28.974706297000182,40.489271773999974],[28.97513193600014,40.48978236700003],[28.977238966000186,40.49061674700033],[28.981651745000192,40.491145861000234],[28.984832016000155,40.49103131000044],[28.986548764000077,40.49075005499998],[28.988143852000064,40.489698747000034],[28.988174625000056,40.489797045000046],[28.992886891000012,40.49350749800033],[28.99319493100012,40.49383242600021],[28.993127419000018,40.49405036200011]]],"type":"Polygon"}},{"type":"Feature","properties":{"area_id":"TR-77-002-90819","name_tr":"Bayır","area_level":"neighbourhood","parent_id":"TR-77-002","endeksa_id":90819},"geometry":{"coordinates":[[[28.870779284000264,40.54936534800032],[28.8706246710002,40.549419420000504],[28.86724331100021,40.548856036000075],[28.853327176000278,40.548280112000384],[28.84313860600014,40.5481647710007],[28.84169370000035,40.546418523000455],[28.84080613800029,40.54618669200022],[28.840338252000265,40.5463175250008],[28.840492332000224,40.54744360600063],[28.840258587000335,40.5480363970002],[28.83968050900029,40.5481359230003],[28.83628186700031,40.5456297800003],[28.835929649000263,40.54491924000013],[28.835810753000203,40.53990747900036],[28.83381649100022,40.5346628650002],[28.831494814000052,40.531669243000124],[28.83072106700007,40.528046937000056],[28.83090512900003,40.5271934430005],[28.83137258300019,40.526453301000004],[28.831163913000125,40.52380215800048],[28.83088635700011,40.523299339000175],[28.829221091000136,40.522321166000154],[28.829032233000135,40.52176585300015],[28.829031122000174,40.52034771800015],[28.828813770000124,40.51981296500037],[28.827868204000026,40.519358449000094],[28.82793894700012,40.51656816500048],[28.827817503000176,40.51524997800021],[28.826795997000033,40.51407855400009],[28.82624931600003,40.5127900600001],[28.825054721000015,40.51104853800007],[28.824773615000026,40.51041464399998],[28.82486416100005,40.50974856100004],[28.82562597600014,40.508117502000175],[28.825744166000163,40.508054184000116],[28.82696486500015,40.50807741900013],[28.827079026000092,40.508169291000286],[28.827014444999975,40.50826155700014],[28.826002768000023,40.508628351000254],[28.82585429200003,40.50926274699998],[28.827345318000084,40.50934533200018],[28.82808981800008,40.509121735000576],[28.828618937000044,40.509640581000156],[28.834599109000123,40.50858201900019],[28.839875262000135,40.5093453350006],[28.840455147000114,40.50925191100015],[28.84079223100008,40.508880852999994],[28.842680229000166,40.508777401000145],[28.84477739300013,40.50806162600003],[28.845966298000178,40.50793130500017],[28.848405952000064,40.506283872000154],[28.849448600000187,40.50584723700018],[28.849900452999975,40.50613545400017],[28.851440739000054,40.50617851900006],[28.851858247000166,40.50598078500008],[28.853325886000164,40.50641455500005],[28.85474985900015,40.5060063520001],[28.856487502000107,40.504870438000125],[28.858469918000026,40.50293546100016],[28.860351972000103,40.500275214000055],[28.8607479690001,40.499209825000094],[28.861285913000017,40.499099445000354],[28.861992902000168,40.49859106700006],[28.863398904000178,40.49829764000003],[28.864565848999973,40.49778743200005],[28.867696132000106,40.495320961000175],[28.868342203000168,40.49516569700012],[28.86852447800004,40.49525384600008],[28.868757543000072,40.49519729700006],[28.868918733999976,40.49523091100019],[28.86892657100003,40.495359454000436],[28.8685966110001,40.49642037400014],[28.867458807000105,40.49719248000008],[28.86736949400006,40.498045404000095],[28.867859652000107,40.49993946300003],[28.868296837000116,40.50047962400009],[28.868913291000183,40.500791777000074],[28.869867921000093,40.50095125700045],[28.87182985700008,40.50084678700051],[28.873658232000082,40.501571934000026],[28.87554013600004,40.50317920900005],[28.87591092300005,40.50387112700014],[28.87586271200007,40.505205754000485],[28.87532374100016,40.50630651500035],[28.875209138000173,40.50781317800022],[28.874912907000066,40.508275937000406],[28.87479559600007,40.5083908630005],[28.872204782000097,40.5089225370001],[28.869623998000066,40.512816685000075],[28.869504131000042,40.51331032100006],[28.869968460000166,40.514396009000166],[28.86996821600013,40.5164256220005],[28.86945679300004,40.51844081200011],[28.868488378999984,40.51994232400068],[28.86858220100015,40.52036997600004],[28.870791274000055,40.52207234200017],[28.871619180000152,40.52359396500003],[28.872068887000125,40.523960412000065],[28.87650712499999,40.52666220300006],[28.878090766000014,40.527065808000145],[28.879611017000116,40.52661614699997],[28.881282099000032,40.528065866000475],[28.881404189000193,40.52881556300042],[28.88074822100009,40.53116531100051],[28.880186634000097,40.53220239299998],[28.874554321000062,40.53870619500009],[28.874110217000123,40.54087784100068],[28.872965598000178,40.542669719000116],[28.872839885000133,40.54630823100007],[28.872000065000123,40.5485117290001],[28.870779284000264,40.54936534800032]]],"type":"Polygon"}},{"type":"Feature","properties":{"area_id":"TR-77-002-90820","name_tr":"Karşıyaka","area_level":"neighbourhood","parent_id":"TR-77-002","endeksa_id":90820},"geometry":{"coordinates":[[[28.832452843000226,40.532911607000244],[28.832395397000255,40.53305183900045],[28.83039950100033,40.533652259000235],[28.823834850000253,40.53354455000027],[28.819941559000256,40.53393303500053],[28.816278345000228,40.536590662000265],[28.814877944000273,40.536952526000164],[28.811515982000287,40.53726217000025],[28.810402952000345,40.53765298300033],[28.808763717000204,40.53890465100034],[28.803429968000216,40.54157775700014],[28.802462006000212,40.542241159000355],[28.801523223000288,40.543639440000106],[28.800677395000264,40.544492541000295],[28.797599602000275,40.54692397900021],[28.79624669300034,40.54880435500036],[28.79482275300029,40.550267846000224],[28.793990012000222,40.55165099200025],[28.79015980300011,40.54737841800039],[28.789773415000127,40.54633384500005],[28.78989780400019,40.54295807600005],[28.788410656000053,40.54072732300011],[28.785138904000064,40.538347880000515],[28.782015986000147,40.53807194600006],[28.78018959000019,40.535892059000446],[28.77892244500009,40.52955224100009],[28.779946636000147,40.52632973900012],[28.77973195600015,40.525718515000676],[28.780198619000146,40.52485352200006],[28.780463886000177,40.52376479000009],[28.78020973499997,40.52328258900002],[28.780272640000135,40.52280385900002],[28.781240909000076,40.52039712400011],[28.780972900000165,40.51898009700005],[28.781071773000065,40.51837026200013],[28.783739434000097,40.51798119400024],[28.78459444500004,40.517430974000035],[28.785613176000084,40.517359129000056],[28.786090098999978,40.517666953000116],[28.788083141000072,40.51758496900004],[28.789618763000078,40.51777387400017],[28.79189628900008,40.517435218],[28.795785882000132,40.51516337000015],[28.796982769000124,40.51415026100011],[28.7976267410001,40.51408098700006],[28.79893525099999,40.514345099000025],[28.80441479700005,40.513706801000694],[28.80641631200001,40.51385466600004],[28.80817921300013,40.51367715900005],[28.810750587000086,40.51284481199997],[28.812728770999968,40.512675689000105],[28.815339403000166,40.51175303300033],[28.81681635100017,40.51172125000028],[28.820163916000126,40.51212492000013],[28.821774693000066,40.51150526800035],[28.82409623600006,40.509874107000655],[28.82486416100005,40.50974856100004],[28.824773615000026,40.51041464399998],[28.825054721000015,40.51104853800007],[28.82624931600003,40.5127900600001],[28.826795997000033,40.51407855400009],[28.827817503000176,40.51524997800021],[28.82793894700012,40.51656816500048],[28.827868204000026,40.519358449000094],[28.828813770000124,40.51981296500037],[28.829031122000174,40.52034771800015],[28.829032233000135,40.52176585300015],[28.829221091000136,40.522321166000154],[28.83088635700011,40.523299339000175],[28.831163913000125,40.52380215800048],[28.83137258300019,40.526453301000004],[28.83090512900003,40.5271934430005],[28.83072106700007,40.528046937000056],[28.831494814000052,40.531669243000124],[28.832452843000226,40.532911607000244]]],"type":"Polygon"}},{"type":"Feature","properties":{"area_id":"TR-77-002-2036711","name_tr":"Selimiye Köyü","area_level":"neighbourhood","parent_id":"TR-77-002","endeksa_id":2036711},"geometry":{"coordinates":[[[29.011731621000138,40.552074805000075],[29.011666283000068,40.55222370600001],[28.98884543100013,40.558134845000154],[28.988095291000036,40.55817545600041],[28.98797312500028,40.5580778260005],[28.98768418800023,40.55623731700018],[28.98873773600036,40.55503464000077],[28.98886731400023,40.55455107300031],[28.985899766000216,40.55345859000022],[28.9827233810002,40.55278793400015],[28.978245187000255,40.552894595000225],[28.976910696000232,40.55365551000017],[28.97634076200029,40.55435074800067],[28.97578270300022,40.55467639000079],[28.97205333000028,40.55458749100063],[28.970748969000283,40.555096069000285],[28.969638029000237,40.557333116000166],[28.968037497000296,40.55808445100007],[28.964692010000363,40.5578687270002],[28.9636665660002,40.5568080820006],[28.962414842000214,40.55621550500035],[28.961555394000357,40.555431189000274],[28.96063835400031,40.554954350000344],[28.960603442000092,40.554817595000316],[28.962417533000178,40.552830934000156],[28.9705182620001,40.540069710000694],[28.970702931000062,40.539404839000156],[28.970137185000112,40.53679491200012],[28.967300283000043,40.528348731000165],[28.967360644000166,40.5278230400001],[28.968208876000176,40.5268021710001],[28.968258736000053,40.523825011000326],[28.96668803900019,40.522644061000165],[28.965865320999967,40.521632126000156],[28.96586093400009,40.521533702],[28.966787314000157,40.5202588340004],[28.96985300200015,40.5175509360007],[28.970243622000112,40.516480343000126],[28.971923523000157,40.5144882940001],[28.97691905300013,40.510627379000084],[28.977721388000134,40.50954898100008],[28.978596520000053,40.508901513000296],[28.98012337700004,40.50695752500002],[28.985113693000073,40.505887395000116],[28.986332667000056,40.505369146000135],[28.98722435800005,40.50471550500015],[28.98786507200009,40.50323015400045],[28.988012237000135,40.49905697100007],[28.990000693000127,40.49824112700003],[28.992240248000087,40.49623215500026],[28.99265032800008,40.49559138100017],[28.993127419000018,40.49405036200011],[28.993253702999993,40.49397406200006],[28.993483248000075,40.49405001900004],[28.999662458000103,40.499001790000534],[29.009345785000107,40.51198368300004],[29.009519942000054,40.512716079000256],[29.00863144900012,40.513370647000045],[29.00717689100003,40.51518932300007],[29.006730083000036,40.51701815400014],[29.004545015000076,40.52024577000003],[29.004480114000103,40.52273766400015],[29.00476651400004,40.527927457000146],[29.00936057100006,40.54906069100008],[29.009809754000003,40.54989481700068],[29.011731621000138,40.552074805000075]]],"type":"Polygon"}},{"type":"Feature","properties":{"area_id":"TR-77-002-2036710","name_tr":"Mecidiye Köyü","area_level":"neighbourhood","parent_id":"TR-77-002","endeksa_id":2036710},"geometry":{"coordinates":[[[28.96063835400031,40.554954350000344],[28.960485358000255,40.5549145340006],[28.95985092100028,40.55511314900025],[28.95896400500027,40.5548624660002],[28.957887317000313,40.554834322000204],[28.957527679000236,40.5552581740003],[28.956487153000296,40.55575159900036],[28.955821182000363,40.556464149000476],[28.95278119100027,40.55712205800029],[28.95164563500026,40.557715055000415],[28.94950841900021,40.55785208700024],[28.94939314900023,40.559027850000234],[28.94896999100024,40.55937197400033],[28.948445956000285,40.5620525250003],[28.951594569000292,40.56423507300025],[28.951928953000277,40.564803116000064],[28.95192177600029,40.565427531000125],[28.951599444000294,40.5658339430002],[28.951272936000237,40.568046032000154],[28.950207528000192,40.568580512000324],[28.95009015500034,40.5699196540001],[28.949619536000228,40.57141423800084],[28.94920263200021,40.57189972700024],[28.947984576000295,40.57313783700022],[28.947137080000346,40.573072654000214],[28.94661036100024,40.57353445800027],[28.946465607000334,40.573552721000055],[28.94600111500023,40.57424211000034],[28.944887650000226,40.57485684500034],[28.944602949000227,40.57539089700009],[28.94282581100026,40.5756593830003],[28.941279472000303,40.57565847200033],[28.94072926800027,40.5749887260003],[28.939438323000275,40.574458093000715],[28.938953597000307,40.574009991000764],[28.93739148600031,40.573708745000204],[28.9367920750002,40.573378707000245],[28.93606738500023,40.57349872900056],[28.934603859000333,40.57430725200027],[28.934253022000348,40.57599974600032],[28.93260006000031,40.576985008000804],[28.931825571000275,40.57729660600012],[28.92819549900031,40.577647334000005],[28.927834523000286,40.57795980900022],[28.926352935000295,40.57856517100021],[28.923955607000323,40.57830825100007],[28.91981096300026,40.57691005200064],[28.918201129000295,40.57749166300022],[28.917663356000276,40.57800848300013],[28.916087381000352,40.578365151000355],[28.916106927000214,40.57897375600015],[28.917234533000226,40.57953722000059],[28.917636239000274,40.579955206000534],[28.917658819000337,40.58076291400022],[28.91741464100022,40.581201333000365],[28.915725178000343,40.58242605200036],[28.915380602000255,40.58300963000033],[28.913855323000234,40.582996655000386],[28.91280670000026,40.58339467100063],[28.912671065000325,40.58403368800066],[28.913203034000333,40.58443514700025],[28.91299905100027,40.58488853900025],[28.91114968100021,40.58547994300051],[28.910412369000312,40.58636858500034],[28.909427473000335,40.58713310700051],[28.909260399000345,40.587133087000154],[28.904132654000193,40.58383553900052],[28.90337470300028,40.58234368000029],[28.903391167000223,40.581670704000544],[28.903723723000212,40.581312702000275],[28.904172921000225,40.58020567200032],[28.90425363700035,40.57944201800035],[28.903494724000154,40.577611959000365],[28.90223573300017,40.577304675000164],[28.901947889000155,40.57674637000042],[28.900784672000327,40.57589777000055],[28.900331687000232,40.57470345500059],[28.899964583000212,40.5742990410007],[28.898680078000268,40.573944755000696],[28.89752651900028,40.571629092000364],[28.89700279600021,40.571533848000286],[28.89642073900029,40.57181131200048],[28.895330126000204,40.57183807600023],[28.89487975300034,40.5715917130002],[28.893633654000325,40.56899562000024],[28.89268828700034,40.568227563000164],[28.89220322700021,40.56807534800009],[28.890604199000222,40.56837931000024],[28.888405261000344,40.56848131900023],[28.88637113100026,40.56796663000051],[28.883596242000294,40.5679744760003],[28.881395902000293,40.567114710000226],[28.880069096000284,40.56700659100039],[28.878121048000253,40.56742190900047],[28.877536336000333,40.56792903800027],[28.87659764200032,40.568068229000346],[28.875471663000326,40.56789958100023],[28.875119812000264,40.56694874400034],[28.874468032000323,40.56344264000012],[28.873201602000336,40.56181123800036],[28.873102381000194,40.55936603900028],[28.872545279000292,40.558028687000785],[28.87214213700031,40.5545278280004],[28.87203703600028,40.551220224000645],[28.87162290000026,40.55027621500028],[28.870761863000325,40.549497356000245],[28.870779284000264,40.54936534800032],[28.872000065000123,40.5485117290001],[28.872839885000133,40.54630823100007],[28.872965598000178,40.542669719000116],[28.874110217000123,40.54087784100068],[28.874554321000062,40.53870619500009],[28.880186634000097,40.53220239299998],[28.88074822100009,40.53116531100051],[28.881404189000193,40.52881556300042],[28.881282099000032,40.528065866000475],[28.879611017000116,40.52661614699997],[28.878090766000014,40.527065808000145],[28.87650712499999,40.52666220300006],[28.872068887000125,40.523960412000065],[28.871619180000152,40.52359396500003],[28.870791274000055,40.52207234200017],[28.86858220100015,40.52036997600004],[28.868488378999984,40.51994232400068],[28.86945679300004,40.51844081200011],[28.86996821600013,40.5164256220005],[28.869968460000166,40.514396009000166],[28.869504131000042,40.51331032100006],[28.869623998000066,40.512816685000075],[28.872204782000097,40.5089225370001],[28.87479559600007,40.5083908630005],[28.874912907000066,40.508275937000406],[28.874939338000047,40.50839167000015],[28.875341391000177,40.508504012000174],[28.876774095000087,40.50967393800016],[28.880112640000164,40.510990916000424],[28.882791040000086,40.51048672200045],[28.885411214000158,40.51046277000006],[28.890368154000157,40.50945568200041],[28.892641854000146,40.50949842700015],[28.893113860000142,40.510188681000216],[28.89443001800015,40.51051749400051],[28.896936030000177,40.51152896799999],[28.898414102000118,40.51172429200017],[28.898382309000056,40.51257835900009],[28.898097667000116,40.51322274600017],[28.89823403700001,40.51410386500015],[28.899050483000053,40.51496824500026],[28.901145814000188,40.51545977799998],[28.90198191400009,40.51591050999997],[28.9022821210001,40.516367158000094],[28.90354954100019,40.51637251700009],[28.90607649300017,40.51703868600009],[28.90756485200012,40.51766356899998],[28.90984390600005,40.5175383670001],[28.911953541000116,40.51774240200001],[28.912928658000055,40.51841127200015],[28.91981850400009,40.51836622800016],[28.921995978000098,40.51937705099999],[28.922767294000153,40.51932275700017],[28.925084996000066,40.51841256200004],[28.927778169000078,40.516988314000514],[28.92953869100006,40.515485583999975],[28.930195080000146,40.51511203700011],[28.93113904700016,40.51477338900048],[28.93199162100018,40.5149923430003],[28.932451654000147,40.51545629300017],[28.93298174900019,40.51560095300039],[28.934110711000187,40.515228586000035],[28.934511357000133,40.51492682900039],[28.93532391800011,40.51367905300003],[28.941601044000095,40.51111509500015],[28.942563050000103,40.510507672000585],[28.94299783700012,40.50987671700034],[28.943830267000067,40.5094127910005],[28.944014133000167,40.50935275500018],[28.94879795200012,40.51025442700018],[28.9516661240001,40.51100698199997],[28.954049985000097,40.51189175100012],[28.95878425900014,40.5122076520002],[28.959900711000103,40.512562421000155],[28.96015566000017,40.518156229000056],[28.963652386000092,40.51996761200064],[28.964333615999976,40.520865335000224],[28.96524019500015,40.52145472100017],[28.965865320999967,40.521632126000156],[28.96668803900019,40.522644061000165],[28.968258736000053,40.523825011000326],[28.968208876000176,40.5268021710001],[28.967360644000166,40.5278230400001],[28.967300283000043,40.528348731000165],[28.970137185000112,40.53679491200012],[28.970702931000062,40.539404839000156],[28.9705182620001,40.540069710000694],[28.962417533000178,40.552830934000156],[28.960603442000092,40.554817595000316],[28.96063835400031,40.554954350000344]]],"type":"Polygon"}},{"type":"Feature","properties":{"area_id":"TR-77-002-90821","name_tr":"50. Yıl","area_level":"neighbourhood","parent_id":"TR-77-002","endeksa_id":90821},"geometry":{"coordinates":[[[28.898680078000268,40.573944755000696],[28.899964583000212,40.5742990410007],[28.900331687000232,40.57470345500059],[28.900784672000327,40.57589777000055],[28.901947889000155,40.57674637000042],[28.90223573300017,40.577304675000164],[28.903494724000154,40.577611959000365],[28.90425363700035,40.57944201800035],[28.904172921000225,40.58020567200032],[28.903723723000212,40.581312702000275],[28.903391167000223,40.581670704000544],[28.90337470300028,40.58234368000029],[28.904132654000193,40.58383553900052],[28.909260399000345,40.587133087000154],[28.909322810000276,40.587250282000525],[28.908808326000155,40.58827647000021],[28.90791553400021,40.58891682800021],[28.907776853095072,40.589092329931646],[28.906159504843117,40.59236479353626],[28.904136962988048,40.590758657357014],[28.901995448082744,40.58909303465305],[28.899972906227674,40.58808176372543],[28.89777190479731,40.587427411948966],[28.89580884946764,40.58617819492099],[28.8940242537131,40.58486949136761],[28.891585306182208,40.58362027433952],[28.888373033824394,40.582668489937305],[28.88486332884071,40.58153824595939],[28.88374236382515,40.58124679505545],[28.88373050700028,40.580563650000784],[28.880847798000218,40.57994463800037],[28.87735690500034,40.57887852500022],[28.8744786970002,40.57854672300061],[28.87331203500031,40.57784009500023],[28.872709816000338,40.57783356000067],[28.872313888000235,40.577441392000196],[28.869401500000322,40.57679876200035],[28.868839888000196,40.57638706800037],[28.867443285000206,40.575866602000474],[28.863956295000207,40.57560628700014],[28.85945190100034,40.57469641100022],[28.856797557000277,40.573620078000204],[28.852714849000336,40.5727456580002],[28.850408948000222,40.57255992500069],[28.848731672000213,40.57205769000029],[28.84826470300021,40.57162136500034],[28.847207046000335,40.57113353000017],[28.845782952000263,40.570810802000324],[28.84509647100026,40.57012460400023],[28.842628747000333,40.569446776000234],[28.83990003200023,40.56911032300019],[28.839224877000277,40.568870297000274],[28.83873461400026,40.568012946000295],[28.838153471000226,40.567573464000304],[28.83519286300026,40.56629986200045],[28.832852721000222,40.56583247700041],[28.823863644000312,40.565694687000246],[28.822870386000204,40.56514117300077],[28.82063456900022,40.56497197500045],[28.818585961000224,40.565402569000184],[28.816571006000345,40.564455532000295],[28.815711148000275,40.564325693000455],[28.815258535000225,40.56337180200029],[28.812821507000194,40.56213462600044],[28.810899845000336,40.559868698000344],[28.80943017400034,40.558997751000675],[28.806081753000342,40.558359876000566],[28.805658990000268,40.55793245800055],[28.80361495400024,40.557429054000465],[28.803075943000295,40.55716843800042],[28.802856196000334,40.55639842600027],[28.80194153100024,40.5556950480007],[28.801080836000324,40.55533361700037],[28.79949397600035,40.555055739000295],[28.79626726300023,40.55347903800049],[28.796164309000233,40.552700302000176],[28.794312476000243,40.55197882100026],[28.793961116000276,40.55178399600021],[28.793990012000222,40.55165099200025],[28.79482275300029,40.550267846000224],[28.79624669300034,40.54880435500036],[28.797599602000275,40.54692397900021],[28.800677395000264,40.544492541000295],[28.801523223000288,40.543639440000106],[28.802462006000212,40.542241159000355],[28.803429968000216,40.54157775700014],[28.808763717000204,40.53890465100034],[28.810402952000345,40.53765298300033],[28.811515982000287,40.53726217000025],[28.814877944000273,40.536952526000164],[28.816278345000228,40.536590662000265],[28.819941559000256,40.53393303500053],[28.823834850000253,40.53354455000027],[28.83039950100033,40.533652259000235],[28.832395397000255,40.53305183900045],[28.832452843000226,40.532911607000244],[28.83381649100022,40.5346628650002],[28.835810753000203,40.53990747900036],[28.835929649000263,40.54491924000013],[28.83628186700031,40.5456297800003],[28.83968050900029,40.5481359230003],[28.840258587000335,40.5480363970002],[28.840492332000224,40.54744360600063],[28.840338252000265,40.5463175250008],[28.84080613800029,40.54618669200022],[28.84169370000035,40.546418523000455],[28.84313860600014,40.5481647710007],[28.853327176000278,40.548280112000384],[28.86724331100021,40.548856036000075],[28.8706246710002,40.549419420000504],[28.870779284000264,40.54936534800032],[28.870761863000325,40.549497356000245],[28.87162290000026,40.55027621500028],[28.87203703600028,40.551220224000645],[28.87214213700031,40.5545278280004],[28.872545279000292,40.558028687000785],[28.873102381000194,40.55936603900028],[28.873201602000336,40.56181123800036],[28.874468032000323,40.56344264000012],[28.875119812000264,40.56694874400034],[28.875471663000326,40.56789958100023],[28.87659764200032,40.568068229000346],[28.877536336000333,40.56792903800027],[28.878121048000253,40.56742190900047],[28.880069096000284,40.56700659100039],[28.881395902000293,40.567114710000226],[28.883596242000294,40.5679744760003],[28.88637113100026,40.56796663000051],[28.888405261000344,40.56848131900023],[28.890604199000222,40.56837931000024],[28.89220322700021,40.56807534800009],[28.89268828700034,40.568227563000164],[28.893633654000325,40.56899562000024],[28.89487975300034,40.5715917130002],[28.895330126000204,40.57183807600023],[28.89642073900029,40.57181131200048],[28.89700279600021,40.571533848000286],[28.89752651900028,40.571629092000364],[28.898680078000268,40.573944755000696]]],"type":"Polygon"}}]}